{"type":"FeatureCollection","features":[{"type":"Feature","geometry":{"type":"Point","coordinates":[6.1095,48.61036]},"properties":{"latitude":"48.61036","longitude":"6.1095","bright_ti4":"299.43","scan":"0.57","track":"0.69","acq_date":"2026-05-31","acq_time":"37","satellite":"N","instrument":"VIIRS","confidence":"n","version":"2.0NRT","bright_ti5":"286.63","frp":"0.95","daynight":"N","commune":"Neuves-Maisons","code_insee":"54397","departement":"Meurthe-et-Moselle","region":"Grand Est"}},{"type":"Feature","geometry":{"type":"Point","coordinates":[4.89244,43.44064]},"properties":{"latitude":"43.44064","longitude":"4.89244","bright_ti4":"298.03","scan":"0.62","track":"0.71","acq_date":"2026-05-31","acq_time":"39","satellite":"N","instrument":"VIIRS","confidence":"n","version":"2.0NRT","bright_ti5":"268.62","frp":"1.61","daynight":"N","commune":"Fos-sur-Mer","code_insee":"13039","departement":"Bouches-du-Rhône","region":"Provence-Alpes-Côte d'Azur"}},{"type":"Feature","geometry":{"type":"Point","coordinates":[4.88799,43.44213]},"properties":{"latitude":"43.44213","longitude":"4.88799","bright_ti4":"296.5","scan":"0.62","track":"0.71","acq_date":"2026-05-31","acq_time":"39","satellite":"N","instrument":"VIIRS","confidence":"n","version":"2.0NRT","bright_ti5":"267.61","frp":"1.75","daynight":"N","commune":"Fos-sur-Mer","code_insee":"13039","departement":"Bouches-du-Rhône","region":"Provence-Alpes-Côte d'Azur"}},{"type":"Feature","geometry":{"type":"Point","coordinates":[1.89339,50.9707]},"properties":{"latitude":"50.9707","longitude":"1.89339","bright_ti4":"300.27","scan":"0.4","track":"0.37","acq_date":"2026-05-31","acq_time":"217","satellite":"N","instrument":"VIIRS","confidence":"n","version":"2.0NRT","bright_ti5":"284.69","frp":"0.69","daynight":"N","commune":"Calais","code_insee":"62193","departement":"Pas-de-Calais","region":"Hauts-de-France"}},{"type":"Feature","geometry":{"type":"Point","coordinates":[2.29619,51.04402]},"properties":{"latitude":"51.04402","longitude":"2.29619","bright_ti4":"325.59","scan":"0.4","track":"0.37","acq_date":"2026-05-31","acq_time":"217","satellite":"N","instrument":"VIIRS","confidence":"n","version":"2.0NRT","bright_ti5":"274.23","frp":"4.12","daynight":"N","commune":"Grande-Synthe","code_insee":"59271","departement":"Nord","region":"Hauts-de-France"}},{"type":"Feature","geometry":{"type":"Point","coordinates":[4.89858,43.43327]},"properties":{"latitude":"43.43327","longitude":"4.89858","bright_ti4":"305.37","scan":"0.44","track":"0.46","acq_date":"2026-05-31","acq_time":"219","satellite":"N","instrument":"VIIRS","confidence":"n","version":"2.0NRT","bright_ti5":"291.05","frp":"1.35","daynight":"N","commune":"Fos-sur-Mer","code_insee":"13039","departement":"Bouches-du-Rhône","region":"Provence-Alpes-Côte d'Azur"}},{"type":"Feature","geometry":{"type":"Point","coordinates":[4.89325,43.43454]},"properties":{"latitude":"43.43454","longitude":"4.89325","bright_ti4":"304.9","scan":"0.44","track":"0.46","acq_date":"2026-05-31","acq_time":"219","satellite":"N","instrument":"VIIRS","confidence":"n","version":"2.0NRT","bright_ti5":"291","frp":"1.35","daynight":"N","commune":"Fos-sur-Mer","code_insee":"13039","departement":"Bouches-du-Rhône","region":"Provence-Alpes-Côte d'Azur"}},{"type":"Feature","geometry":{"type":"Point","coordinates":[4.88977,43.43992]},"properties":{"latitude":"43.43992","longitude":"4.88977","bright_ti4":"331.03","scan":"0.44","track":"0.46","acq_date":"2026-05-31","acq_time":"219","satellite":"N","instrument":"VIIRS","confidence":"n","version":"2.0NRT","bright_ti5":"291.86","frp":"4.05","daynight":"N","commune":"Fos-sur-Mer","code_insee":"13039","departement":"Bouches-du-Rhône","region":"Provence-Alpes-Côte d'Azur"}},{"type":"Feature","geometry":{"type":"Point","coordinates":[4.89878,43.44691]},"properties":{"latitude":"43.44691","longitude":"4.89878","bright_ti4":"326.24","scan":"0.44","track":"0.46","acq_date":"2026-05-31","acq_time":"219","satellite":"N","instrument":"VIIRS","confidence":"n","version":"2.0NRT","bright_ti5":"291.62","frp":"2.37","daynight":"N","commune":"Fos-sur-Mer","code_insee":"13039","departement":"Bouches-du-Rhône","region":"Provence-Alpes-Côte d'Azur"}},{"type":"Feature","geometry":{"type":"Point","coordinates":[4.89345,43.44817]},"properties":{"latitude":"43.44817","longitude":"4.89345","bright_ti4":"308.93","scan":"0.44","track":"0.46","acq_date":"2026-05-31","acq_time":"219","satellite":"N","instrument":"VIIRS","confidence":"n","version":"2.0NRT","bright_ti5":"290.3","frp":"2.54","daynight":"N","commune":"Fos-sur-Mer","code_insee":"13039","departement":"Bouches-du-Rhône","region":"Provence-Alpes-Côte d'Azur"}},{"type":"Feature","geometry":{"type":"Point","coordinates":[4.62133,43.80271]},"properties":{"latitude":"43.80271","longitude":"4.62133","bright_ti4":"301.32","scan":"0.42","track":"0.45","acq_date":"2026-05-31","acq_time":"219","satellite":"N","instrument":"VIIRS","confidence":"n","version":"2.0NRT","bright_ti5":"289.37","frp":"0.37","daynight":"N","commune":"Beaucaire","code_insee":"30032","departement":"Gard","region":"Occitanie"}},{"type":"Feature","geometry":{"type":"Point","coordinates":[5.873,45.07426]},"properties":{"latitude":"45.07426","longitude":"5.873","bright_ti4":"298.37","scan":"0.45","track":"0.47","acq_date":"2026-05-31","acq_time":"219","satellite":"N","instrument":"VIIRS","confidence":"n","version":"2.0NRT","bright_ti5":"286.46","frp":"0.56","daynight":"N","commune":"Livet-et-Gavet","code_insee":"38212","departement":"Isère","region":"Auvergne-Rhône-Alpes"}},{"type":"Feature","geometry":{"type":"Point","coordinates":[2.98062,48.38606]},"properties":{"latitude":"48.38606","longitude":"2.98062","bright_ti4":"316.54","scan":"0.45","track":"0.39","acq_date":"2026-05-31","acq_time":"219","satellite":"N","instrument":"VIIRS","confidence":"n","version":"2.0NRT","bright_ti5":"291.17","frp":"1.75","daynight":"N","commune":"Montereau-Fault-Yonne","code_insee":"77305","departement":"Seine-et-Marne","region":"Île-de-France"}},{"type":"Feature","geometry":{"type":"Point","coordinates":[6.10939,48.60939]},"properties":{"latitude":"48.60939","longitude":"6.10939","bright_ti4":"303.07","scan":"0.57","track":"0.43","acq_date":"2026-05-31","acq_time":"219","satellite":"N","instrument":"VIIRS","confidence":"n","version":"2.0NRT","bright_ti5":"289.45","frp":"1.92","daynight":"N","commune":"Neuves-Maisons","code_insee":"54397","departement":"Meurthe-et-Moselle","region":"Grand Est"}},{"type":"Feature","geometry":{"type":"Point","coordinates":[6.11226,48.61158]},"properties":{"latitude":"48.61158","longitude":"6.11226","bright_ti4":"304.93","scan":"0.57","track":"0.43","acq_date":"2026-05-31","acq_time":"219","satellite":"N","instrument":"VIIRS","confidence":"n","version":"2.0NRT","bright_ti5":"289.39","frp":"1.97","daynight":"N","commune":"Neuves-Maisons","code_insee":"54397","departement":"Meurthe-et-Moselle","region":"Grand Est"}},{"type":"Feature","geometry":{"type":"Point","coordinates":[5.68336,48.71561]},"properties":{"latitude":"48.71561","longitude":"5.68336","bright_ti4":"297.32","scan":"0.55","track":"0.42","acq_date":"2026-05-31","acq_time":"219","satellite":"N","instrument":"VIIRS","confidence":"n","version":"2.0NRT","bright_ti5":"286.23","frp":"1.13","daynight":"N","commune":"Sorcy-Saint-Martin","code_insee":"55496","departement":"Meuse","region":"Grand Est"}},{"type":"Feature","geometry":{"type":"Point","coordinates":[5.68482,48.71589]},"properties":{"latitude":"48.71589","longitude":"5.68482","bright_ti4":"298.25","scan":"0.55","track":"0.42","acq_date":"2026-05-31","acq_time":"219","satellite":"N","instrument":"VIIRS","confidence":"n","version":"2.0NRT","bright_ti5":"286.39","frp":"0.61","daynight":"N","commune":"Sorcy-Saint-Martin","code_insee":"55496","departement":"Meuse","region":"Grand Est"}},{"type":"Feature","geometry":{"type":"Point","coordinates":[1.7586,48.98449]},"properties":{"latitude":"48.98449","longitude":"1.7586","bright_ti4":"312.85","scan":"0.41","track":"0.37","acq_date":"2026-05-31","acq_time":"219","satellite":"N","instrument":"VIIRS","confidence":"n","version":"2.0NRT","bright_ti5":"269.19","frp":"1.5","daynight":"N","commune":"Limay","code_insee":"78335","departement":"Yvelines","region":"Île-de-France"}},{"type":"Feature","geometry":{"type":"Point","coordinates":[2.77293,42.70232]},"properties":{"latitude":"42.70232","longitude":"2.77293","bright_ti4":"367","scan":"0.32","track":"0.55","acq_date":"2026-05-31","acq_time":"1204","satellite":"N","instrument":"VIIRS","confidence":"h","version":"2.0NRT","bright_ti5":"291.59","frp":"12.19","daynight":"D","commune":"Pézilla-la-Rivière","code_insee":"66140","departement":"Pyrénées-Orientales","region":"Occitanie"}},{"type":"Feature","geometry":{"type":"Point","coordinates":[4.89774,43.44457]},"properties":{"latitude":"43.44457","longitude":"4.89774","bright_ti4":"336.3","scan":"0.49","track":"0.48","acq_date":"2026-05-31","acq_time":"1204","satellite":"N","instrument":"VIIRS","confidence":"n","version":"2.0NRT","bright_ti5":"304.29","frp":"6.04","daynight":"D","commune":"Fos-sur-Mer","code_insee":"13039","departement":"Bouches-du-Rhône","region":"Provence-Alpes-Côte d'Azur"}},{"type":"Feature","geometry":{"type":"Point","coordinates":[4.90026,43.44772]},"properties":{"latitude":"43.44772","longitude":"4.90026","bright_ti4":"337.54","scan":"0.49","track":"0.48","acq_date":"2026-05-31","acq_time":"1204","satellite":"N","instrument":"VIIRS","confidence":"n","version":"2.0NRT","bright_ti5":"303.93","frp":"4.57","daynight":"D","commune":"Fos-sur-Mer","code_insee":"13039","departement":"Bouches-du-Rhône","region":"Provence-Alpes-Côte d'Azur"}},{"type":"Feature","geometry":{"type":"Point","coordinates":[4.89579,43.44885]},"properties":{"latitude":"43.44885","longitude":"4.89579","bright_ti4":"340.07","scan":"0.49","track":"0.48","acq_date":"2026-05-31","acq_time":"1204","satellite":"N","instrument":"VIIRS","confidence":"n","version":"2.0NRT","bright_ti5":"302.23","frp":"4.75","daynight":"D","commune":"Fos-sur-Mer","code_insee":"13039","departement":"Bouches-du-Rhône","region":"Provence-Alpes-Côte d'Azur"}},{"type":"Feature","geometry":{"type":"Point","coordinates":[4.89242,43.44247]},"properties":{"latitude":"43.44247","longitude":"4.89242","bright_ti4":"301.51","scan":"0.62","track":"0.54","acq_date":"2026-05-31","acq_time":"58","satellite":"N20","instrument":"VIIRS","confidence":"n","version":"2.0NRT","bright_ti5":"269.92","frp":"2.7","daynight":"N","commune":"Fos-sur-Mer","code_insee":"13039","departement":"Bouches-du-Rhône","region":"Provence-Alpes-Côte d'Azur"}},{"type":"Feature","geometry":{"type":"Point","coordinates":[4.9007,43.44697]},"properties":{"latitude":"43.44697","longitude":"4.9007","bright_ti4":"297.34","scan":"0.61","track":"0.54","acq_date":"2026-05-31","acq_time":"58","satellite":"N20","instrument":"VIIRS","confidence":"n","version":"2.0NRT","bright_ti5":"268.22","frp":"0.56","daynight":"N","commune":"Fos-sur-Mer","code_insee":"13039","departement":"Bouches-du-Rhône","region":"Provence-Alpes-Côte d'Azur"}},{"type":"Feature","geometry":{"type":"Point","coordinates":[4.89301,43.44743]},"properties":{"latitude":"43.44743","longitude":"4.89301","bright_ti4":"295.17","scan":"0.62","track":"0.54","acq_date":"2026-05-31","acq_time":"58","satellite":"N20","instrument":"VIIRS","confidence":"n","version":"2.0NRT","bright_ti5":"269.2","frp":"1.27","daynight":"N","commune":"Fos-sur-Mer","code_insee":"13039","departement":"Bouches-du-Rhône","region":"Provence-Alpes-Côte d'Azur"}},{"type":"Feature","geometry":{"type":"Point","coordinates":[6.1162,48.60946]},"properties":{"latitude":"48.60946","longitude":"6.1162","bright_ti4":"300.33","scan":"0.6","track":"0.53","acq_date":"2026-05-31","acq_time":"58","satellite":"N20","instrument":"VIIRS","confidence":"n","version":"2.0NRT","bright_ti5":"286.21","frp":"1.19","daynight":"N","commune":"Neuves-Maisons","code_insee":"54397","departement":"Meurthe-et-Moselle","region":"Grand Est"}},{"type":"Feature","geometry":{"type":"Point","coordinates":[6.11419,48.61127]},"properties":{"latitude":"48.61127","longitude":"6.11419","bright_ti4":"304.5","scan":"0.6","track":"0.53","acq_date":"2026-05-31","acq_time":"58","satellite":"N20","instrument":"VIIRS","confidence":"n","version":"2.0NRT","bright_ti5":"287.53","frp":"1.47","daynight":"N","commune":"Neuves-Maisons","code_insee":"54397","departement":"Meurthe-et-Moselle","region":"Grand Est"}},{"type":"Feature","geometry":{"type":"Point","coordinates":[6.96595,48.69093]},"properties":{"latitude":"48.69093","longitude":"6.96595","bright_ti4":"297.5","scan":"0.37","track":"0.58","acq_date":"2026-05-31","acq_time":"238","satellite":"N20","instrument":"VIIRS","confidence":"n","version":"2.0NRT","bright_ti5":"282.57","frp":"0.59","daynight":"N","commune":"Héming","code_insee":"57314","departement":"Moselle","region":"Grand Est"}},{"type":"Feature","geometry":{"type":"Point","coordinates":[5.68132,48.71825]},"properties":{"latitude":"48.71825","longitude":"5.68132","bright_ti4":"295.61","scan":"0.33","track":"0.55","acq_date":"2026-05-31","acq_time":"238","satellite":"N20","instrument":"VIIRS","confidence":"n","version":"2.0NRT","bright_ti5":"285.26","frp":"0.58","daynight":"N","commune":"Sorcy-Saint-Martin","code_insee":"55496","departement":"Meuse","region":"Grand Est"}},{"type":"Feature","geometry":{"type":"Point","coordinates":[6.10081,49.32334]},"properties":{"latitude":"49.32334","longitude":"6.10081","bright_ti4":"298.48","scan":"0.33","track":"0.55","acq_date":"2026-05-31","acq_time":"238","satellite":"N20","instrument":"VIIRS","confidence":"n","version":"2.0NRT","bright_ti5":"286.84","frp":"0.84","daynight":"N","commune":"Serémange-Erzange","code_insee":"57647","departement":"Moselle","region":"Grand Est"}},{"type":"Feature","geometry":{"type":"Point","coordinates":[4.89782,43.43407]},"properties":{"latitude":"43.43407","longitude":"4.89782","bright_ti4":"308.9","scan":"0.44","track":"0.62","acq_date":"2026-05-31","acq_time":"241","satellite":"N20","instrument":"VIIRS","confidence":"n","version":"2.0NRT","bright_ti5":"289.75","frp":"1.58","daynight":"N","commune":"Fos-sur-Mer","code_insee":"13039","departement":"Bouches-du-Rhône","region":"Provence-Alpes-Côte d'Azur"}},{"type":"Feature","geometry":{"type":"Point","coordinates":[4.89577,43.4409]},"properties":{"latitude":"43.4409","longitude":"4.89577","bright_ti4":"300.69","scan":"0.44","track":"0.62","acq_date":"2026-05-31","acq_time":"241","satellite":"N20","instrument":"VIIRS","confidence":"n","version":"2.0NRT","bright_ti5":"289.57","frp":"2.26","daynight":"N","commune":"Fos-sur-Mer","code_insee":"13039","departement":"Bouches-du-Rhône","region":"Provence-Alpes-Côte d'Azur"}},{"type":"Feature","geometry":{"type":"Point","coordinates":[4.89078,43.44238]},"properties":{"latitude":"43.44238","longitude":"4.89078","bright_ti4":"315.11","scan":"0.44","track":"0.62","acq_date":"2026-05-31","acq_time":"241","satellite":"N20","instrument":"VIIRS","confidence":"n","version":"2.0NRT","bright_ti5":"289.23","frp":"2.26","daynight":"N","commune":"Fos-sur-Mer","code_insee":"13039","departement":"Bouches-du-Rhône","region":"Provence-Alpes-Côte d'Azur"}},{"type":"Feature","geometry":{"type":"Point","coordinates":[4.8988,43.44621]},"properties":{"latitude":"43.44621","longitude":"4.8988","bright_ti4":"333.77","scan":"0.44","track":"0.62","acq_date":"2026-05-31","acq_time":"241","satellite":"N20","instrument":"VIIRS","confidence":"n","version":"2.0NRT","bright_ti5":"290.48","frp":"2.26","daynight":"N","commune":"Fos-sur-Mer","code_insee":"13039","departement":"Bouches-du-Rhône","region":"Provence-Alpes-Côte d'Azur"}},{"type":"Feature","geometry":{"type":"Point","coordinates":[4.89378,43.4477]},"properties":{"latitude":"43.4477","longitude":"4.89378","bright_ti4":"320.15","scan":"0.44","track":"0.62","acq_date":"2026-05-31","acq_time":"241","satellite":"N20","instrument":"VIIRS","confidence":"n","version":"2.0NRT","bright_ti5":"289.23","frp":"2.26","daynight":"N","commune":"Fos-sur-Mer","code_insee":"13039","departement":"Bouches-du-Rhône","region":"Provence-Alpes-Côte d'Azur"}},{"type":"Feature","geometry":{"type":"Point","coordinates":[4.89961,43.44384]},"properties":{"latitude":"43.44384","longitude":"4.89961","bright_ti4":"342.23","scan":"0.42","track":"0.38","acq_date":"2026-05-31","acq_time":"1221","satellite":"N20","instrument":"VIIRS","confidence":"n","version":"2.0NRT","bright_ti5":"308.87","frp":"4.43","daynight":"D","commune":"Fos-sur-Mer","code_insee":"13039","departement":"Bouches-du-Rhône","region":"Provence-Alpes-Côte d'Azur"}},{"type":"Feature","geometry":{"type":"Point","coordinates":[4.89845,43.44723]},"properties":{"latitude":"43.44723","longitude":"4.89845","bright_ti4":"338.33","scan":"0.42","track":"0.38","acq_date":"2026-05-31","acq_time":"1221","satellite":"N20","instrument":"VIIRS","confidence":"n","version":"2.0NRT","bright_ti5":"306.95","frp":"4.43","daynight":"D","commune":"Fos-sur-Mer","code_insee":"13039","departement":"Bouches-du-Rhône","region":"Provence-Alpes-Côte d'Azur"}},{"type":"Feature","geometry":{"type":"Point","coordinates":[2.28261,51.0302]},"properties":{"latitude":"51.0302","longitude":"2.28261","bright_ti4":"301.16","scan":"0.43","track":"0.38","acq_date":"2026-05-31","acq_time":"143","satellite":"N21","instrument":"VIIRS","confidence":"n","version":"2.0NRT","bright_ti5":"277.23","frp":"1.6","daynight":"N","commune":"Grande-Synthe","code_insee":"59271","departement":"Nord","region":"Hauts-de-France"}},{"type":"Feature","geometry":{"type":"Point","coordinates":[2.29905,51.04257]},"properties":{"latitude":"51.04257","longitude":"2.29905","bright_ti4":"303.67","scan":"0.43","track":"0.38","acq_date":"2026-05-31","acq_time":"143","satellite":"N21","instrument":"VIIRS","confidence":"n","version":"2.0NRT","bright_ti5":"279.11","frp":"2.24","daynight":"N","commune":"Grande-Synthe","code_insee":"59271","departement":"Nord","region":"Hauts-de-France"}},{"type":"Feature","geometry":{"type":"Point","coordinates":[2.29294,51.04331]},"properties":{"latitude":"51.04331","longitude":"2.29294","bright_ti4":"318.38","scan":"0.43","track":"0.38","acq_date":"2026-05-31","acq_time":"143","satellite":"N21","instrument":"VIIRS","confidence":"n","version":"2.0NRT","bright_ti5":"276.86","frp":"2.8","daynight":"N","commune":"Grande-Synthe","code_insee":"59271","departement":"Nord","region":"Hauts-de-France"}},{"type":"Feature","geometry":{"type":"Point","coordinates":[2.3195,51.04726]},"properties":{"latitude":"51.04726","longitude":"2.3195","bright_ti4":"296.39","scan":"0.43","track":"0.38","acq_date":"2026-05-31","acq_time":"143","satellite":"N21","instrument":"VIIRS","confidence":"n","version":"2.0NRT","bright_ti5":"263.22","frp":"0.74","daynight":"N","commune":"Dunkerque","code_insee":"59183","departement":"Nord","region":"Hauts-de-France"}},{"type":"Feature","geometry":{"type":"Point","coordinates":[4.89533,43.43091]},"properties":{"latitude":"43.43091","longitude":"4.89533","bright_ti4":"305.26","scan":"0.4","track":"0.37","acq_date":"2026-05-31","acq_time":"145","satellite":"N21","instrument":"VIIRS","confidence":"n","version":"2.0NRT","bright_ti5":"293.27","frp":"1.14","daynight":"N","commune":"Fos-sur-Mer","code_insee":"13039","departement":"Bouches-du-Rhône","region":"Provence-Alpes-Côte d'Azur"}},{"type":"Feature","geometry":{"type":"Point","coordinates":[4.89639,43.4342]},"properties":{"latitude":"43.4342","longitude":"4.89639","bright_ti4":"303.07","scan":"0.4","track":"0.37","acq_date":"2026-05-31","acq_time":"145","satellite":"N21","instrument":"VIIRS","confidence":"n","version":"2.0NRT","bright_ti5":"292.19","frp":"0.56","daynight":"N","commune":"Fos-sur-Mer","code_insee":"13039","departement":"Bouches-du-Rhône","region":"Provence-Alpes-Côte d'Azur"}},{"type":"Feature","geometry":{"type":"Point","coordinates":[4.89159,43.43504]},"properties":{"latitude":"43.43504","longitude":"4.89159","bright_ti4":"303.28","scan":"0.4","track":"0.37","acq_date":"2026-05-31","acq_time":"145","satellite":"N21","instrument":"VIIRS","confidence":"n","version":"2.0NRT","bright_ti5":"292.64","frp":"1.48","daynight":"N","commune":"Fos-sur-Mer","code_insee":"13039","departement":"Bouches-du-Rhône","region":"Provence-Alpes-Côte d'Azur"}},{"type":"Feature","geometry":{"type":"Point","coordinates":[4.89265,43.43833]},"properties":{"latitude":"43.43833","longitude":"4.89265","bright_ti4":"322.71","scan":"0.4","track":"0.37","acq_date":"2026-05-31","acq_time":"145","satellite":"N21","instrument":"VIIRS","confidence":"n","version":"2.0NRT","bright_ti5":"293.69","frp":"1.48","daynight":"N","commune":"Fos-sur-Mer","code_insee":"13039","departement":"Bouches-du-Rhône","region":"Provence-Alpes-Côte d'Azur"}},{"type":"Feature","geometry":{"type":"Point","coordinates":[4.88785,43.43916]},"properties":{"latitude":"43.43916","longitude":"4.88785","bright_ti4":"308.68","scan":"0.4","track":"0.37","acq_date":"2026-05-31","acq_time":"145","satellite":"N21","instrument":"VIIRS","confidence":"n","version":"2.0NRT","bright_ti5":"292.27","frp":"1.48","daynight":"N","commune":"Fos-sur-Mer","code_insee":"13039","departement":"Bouches-du-Rhône","region":"Provence-Alpes-Côte d'Azur"}},{"type":"Feature","geometry":{"type":"Point","coordinates":[4.89373,43.44162]},"properties":{"latitude":"43.44162","longitude":"4.89373","bright_ti4":"313.23","scan":"0.4","track":"0.37","acq_date":"2026-05-31","acq_time":"145","satellite":"N21","instrument":"VIIRS","confidence":"n","version":"2.0NRT","bright_ti5":"292.2","frp":"1.48","daynight":"N","commune":"Fos-sur-Mer","code_insee":"13039","departement":"Bouches-du-Rhône","region":"Provence-Alpes-Côte d'Azur"}},{"type":"Feature","geometry":{"type":"Point","coordinates":[4.89961,43.44409]},"properties":{"latitude":"43.44409","longitude":"4.89961","bright_ti4":"311.98","scan":"0.4","track":"0.37","acq_date":"2026-05-31","acq_time":"145","satellite":"N21","instrument":"VIIRS","confidence":"n","version":"2.0NRT","bright_ti5":"292.85","frp":"1.22","daynight":"N","commune":"Fos-sur-Mer","code_insee":"13039","departement":"Bouches-du-Rhône","region":"Provence-Alpes-Côte d'Azur"}},{"type":"Feature","geometry":{"type":"Point","coordinates":[4.88999,43.44575]},"properties":{"latitude":"43.44575","longitude":"4.88999","bright_ti4":"306.67","scan":"0.4","track":"0.37","acq_date":"2026-05-31","acq_time":"145","satellite":"N21","instrument":"VIIRS","confidence":"n","version":"2.0NRT","bright_ti5":"291.52","frp":"1.48","daynight":"N","commune":"Fos-sur-Mer","code_insee":"13039","departement":"Bouches-du-Rhône","region":"Provence-Alpes-Côte d'Azur"}},{"type":"Feature","geometry":{"type":"Point","coordinates":[4.89587,43.44821]},"properties":{"latitude":"43.44821","longitude":"4.89587","bright_ti4":"330.26","scan":"0.4","track":"0.37","acq_date":"2026-05-31","acq_time":"145","satellite":"N21","instrument":"VIIRS","confidence":"n","version":"2.0NRT","bright_ti5":"292.88","frp":"10.25","daynight":"N","commune":"Fos-sur-Mer","code_insee":"13039","departement":"Bouches-du-Rhône","region":"Provence-Alpes-Côte d'Azur"}},{"type":"Feature","geometry":{"type":"Point","coordinates":[5.8212,45.91115]},"properties":{"latitude":"45.91115","longitude":"5.8212","bright_ti4":"300.89","scan":"0.4","track":"0.37","acq_date":"2026-05-31","acq_time":"145","satellite":"N21","instrument":"VIIRS","confidence":"n","version":"2.0NRT","bright_ti5":"288.47","frp":"0.83","daynight":"N","commune":"Anglefort","code_insee":"01010","departement":"Ain","region":"Auvergne-Rhône-Alpes"}},{"type":"Feature","geometry":{"type":"Point","coordinates":[3.42566,46.24885]},"properties":{"latitude":"46.24885","longitude":"3.42566","bright_ti4":"301.08","scan":"0.39","track":"0.36","acq_date":"2026-05-31","acq_time":"145","satellite":"N21","instrument":"VIIRS","confidence":"n","version":"2.0NRT","bright_ti5":"288.39","frp":"0.31","daynight":"N","commune":"Créchy","code_insee":"03091","departement":"Allier","region":"Auvergne-Rhône-Alpes"}},{"type":"Feature","geometry":{"type":"Point","coordinates":[7.23578,47.62841]},"properties":{"latitude":"47.62841","longitude":"7.23578","bright_ti4":"300.35","scan":"0.41","track":"0.37","acq_date":"2026-05-31","acq_time":"145","satellite":"N21","instrument":"VIIRS","confidence":"n","version":"2.0NRT","bright_ti5":"289.3","frp":"0.81","daynight":"N","commune":"Altkirch","code_insee":"68004","departement":"Haut-Rhin","region":"Grand Est"}},{"type":"Feature","geometry":{"type":"Point","coordinates":[2.98582,48.38589]},"properties":{"latitude":"48.38589","longitude":"2.98582","bright_ti4":"320.64","scan":"0.4","track":"0.37","acq_date":"2026-05-31","acq_time":"145","satellite":"N21","instrument":"VIIRS","confidence":"n","version":"2.0NRT","bright_ti5":"291.07","frp":"1.36","daynight":"N","commune":"Montereau-Fault-Yonne","code_insee":"77305","departement":"Seine-et-Marne","region":"Île-de-France"}},{"type":"Feature","geometry":{"type":"Point","coordinates":[2.9805,48.38663]},"properties":{"latitude":"48.38663","longitude":"2.9805","bright_ti4":"319.54","scan":"0.4","track":"0.37","acq_date":"2026-05-31","acq_time":"145","satellite":"N21","instrument":"VIIRS","confidence":"n","version":"2.0NRT","bright_ti5":"291.66","frp":"2.45","daynight":"N","commune":"Montereau-Fault-Yonne","code_insee":"77305","departement":"Seine-et-Marne","region":"Île-de-France"}},{"type":"Feature","geometry":{"type":"Point","coordinates":[7.29989,48.47777]},"properties":{"latitude":"48.47777","longitude":"7.29989","bright_ti4":"299.27","scan":"0.4","track":"0.37","acq_date":"2026-05-31","acq_time":"145","satellite":"N21","instrument":"VIIRS","confidence":"n","version":"2.0NRT","bright_ti5":"283.97","frp":"0.3","daynight":"N","commune":"Grendelbruch","code_insee":"67167","departement":"Bas-Rhin","region":"Grand Est"}},{"type":"Feature","geometry":{"type":"Point","coordinates":[6.11154,48.61138]},"properties":{"latitude":"48.61138","longitude":"6.11154","bright_ti4":"308.25","scan":"0.39","track":"0.36","acq_date":"2026-05-31","acq_time":"145","satellite":"N21","instrument":"VIIRS","confidence":"n","version":"2.0NRT","bright_ti5":"281.17","frp":"1.19","daynight":"N","commune":"Neuves-Maisons","code_insee":"54397","departement":"Meurthe-et-Moselle","region":"Grand Est"}},{"type":"Feature","geometry":{"type":"Point","coordinates":[5.68227,48.71589]},"properties":{"latitude":"48.71589","longitude":"5.68227","bright_ti4":"305.89","scan":"0.38","track":"0.36","acq_date":"2026-05-31","acq_time":"145","satellite":"N21","instrument":"VIIRS","confidence":"n","version":"2.0NRT","bright_ti5":"287.92","frp":"1.12","daynight":"N","commune":"Sorcy-Saint-Martin","code_insee":"55496","departement":"Meuse","region":"Grand Est"}},{"type":"Feature","geometry":{"type":"Point","coordinates":[4.56205,48.77012]},"properties":{"latitude":"48.77012","longitude":"4.56205","bright_ti4":"300.43","scan":"0.39","track":"0.36","acq_date":"2026-05-31","acq_time":"145","satellite":"N21","instrument":"VIIRS","confidence":"n","version":"2.0NRT","bright_ti5":"289.14","frp":"0.69","daynight":"N","commune":"Couvrot","code_insee":"51195","departement":"Marne","region":"Grand Est"}},{"type":"Feature","geometry":{"type":"Point","coordinates":[1.76142,48.98319]},"properties":{"latitude":"48.98319","longitude":"1.76142","bright_ti4":"310.63","scan":"0.43","track":"0.38","acq_date":"2026-05-31","acq_time":"145","satellite":"N21","instrument":"VIIRS","confidence":"n","version":"2.0NRT","bright_ti5":"261.74","frp":"0.73","daynight":"N","commune":"Porcheville","code_insee":"78501","departement":"Yvelines","region":"Île-de-France"}},{"type":"Feature","geometry":{"type":"Point","coordinates":[4.89608,43.44528]},"properties":{"latitude":"43.44528","longitude":"4.89608","bright_ti4":"333.45","scan":"0.51","track":"0.66","acq_date":"2026-05-31","acq_time":"1130","satellite":"N21","instrument":"VIIRS","confidence":"n","version":"2.0NRT","bright_ti5":"297.46","frp":"8.3","daynight":"D","commune":"Fos-sur-Mer","code_insee":"13039","departement":"Bouches-du-Rhône","region":"Provence-Alpes-Côte d'Azur"}}]}