{"type":"FeatureCollection","features":[{"type":"Feature","geometry":{"type":"Point","coordinates":[2.26354,51.0124]},"properties":{"latitude":"51.0124","longitude":"2.26354","bright_ti4":"296.31","scan":"0.73","track":"0.76","acq_date":"2026-08-20","acq_time":"39","satellite":"N20","instrument":"VIIRS","confidence":"n","version":"2.0NRT","bright_ti5":"283.57","frp":"0.73","daynight":"N","commune":"Dunkerque","code_insee":"59183","departement":"Nord","region":"Hauts-de-France"}},{"type":"Feature","geometry":{"type":"Point","coordinates":[2.26307,51.02656]},"properties":{"latitude":"51.02656","longitude":"2.26307","bright_ti4":"295.86","scan":"0.73","track":"0.76","acq_date":"2026-08-20","acq_time":"39","satellite":"N20","instrument":"VIIRS","confidence":"n","version":"2.0NRT","bright_ti5":"283.15","frp":"2.47","daynight":"N","commune":"Dunkerque","code_insee":"59183","departement":"Nord","region":"Hauts-de-France"}},{"type":"Feature","geometry":{"type":"Point","coordinates":[2.26906,51.03032]},"properties":{"latitude":"51.03032","longitude":"2.26906","bright_ti4":"300.54","scan":"0.73","track":"0.76","acq_date":"2026-08-20","acq_time":"39","satellite":"N20","instrument":"VIIRS","confidence":"n","version":"2.0NRT","bright_ti5":"284.01","frp":"1.13","daynight":"N","commune":"Grande-Synthe","code_insee":"59271","departement":"Nord","region":"Hauts-de-France"}},{"type":"Feature","geometry":{"type":"Point","coordinates":[2.28421,51.03421]},"properties":{"latitude":"51.03421","longitude":"2.28421","bright_ti4":"308.95","scan":"0.73","track":"0.76","acq_date":"2026-08-20","acq_time":"39","satellite":"N20","instrument":"VIIRS","confidence":"n","version":"2.0NRT","bright_ti5":"284.45","frp":"2.05","daynight":"N","commune":"Grande-Synthe","code_insee":"59271","departement":"Nord","region":"Hauts-de-France"}},{"type":"Feature","geometry":{"type":"Point","coordinates":[2.2794,51.03764]},"properties":{"latitude":"51.03764","longitude":"2.2794","bright_ti4":"297.49","scan":"0.73","track":"0.76","acq_date":"2026-08-20","acq_time":"39","satellite":"N20","instrument":"VIIRS","confidence":"n","version":"2.0NRT","bright_ti5":"283.18","frp":"1.52","daynight":"N","commune":"Grande-Synthe","code_insee":"59271","departement":"Nord","region":"Hauts-de-France"}},{"type":"Feature","geometry":{"type":"Point","coordinates":[2.29011,51.03788]},"properties":{"latitude":"51.03788","longitude":"2.29011","bright_ti4":"299.67","scan":"0.73","track":"0.76","acq_date":"2026-08-20","acq_time":"39","satellite":"N20","instrument":"VIIRS","confidence":"n","version":"2.0NRT","bright_ti5":"284.1","frp":"1.52","daynight":"N","commune":"Grande-Synthe","code_insee":"59271","departement":"Nord","region":"Hauts-de-France"}},{"type":"Feature","geometry":{"type":"Point","coordinates":[2.29457,51.04157]},"properties":{"latitude":"51.04157","longitude":"2.29457","bright_ti4":"299.92","scan":"0.73","track":"0.76","acq_date":"2026-08-20","acq_time":"39","satellite":"N20","instrument":"VIIRS","confidence":"n","version":"2.0NRT","bright_ti5":"284.43","frp":"2.95","daynight":"N","commune":"Grande-Synthe","code_insee":"59271","departement":"Nord","region":"Hauts-de-France"}},{"type":"Feature","geometry":{"type":"Point","coordinates":[2.28965,51.04494]},"properties":{"latitude":"51.04494","longitude":"2.28965","bright_ti4":"304.48","scan":"0.73","track":"0.76","acq_date":"2026-08-20","acq_time":"39","satellite":"N20","instrument":"VIIRS","confidence":"n","version":"2.0NRT","bright_ti5":"284.6","frp":"1.52","daynight":"N","commune":"Grande-Synthe","code_insee":"59271","departement":"Nord","region":"Hauts-de-France"}},{"type":"Feature","geometry":{"type":"Point","coordinates":[2.30045,51.04518]},"properties":{"latitude":"51.04518","longitude":"2.30045","bright_ti4":"297.42","scan":"0.73","track":"0.76","acq_date":"2026-08-20","acq_time":"39","satellite":"N20","instrument":"VIIRS","confidence":"n","version":"2.0NRT","bright_ti5":"284.48","frp":"2.18","daynight":"N","commune":"Grande-Synthe","code_insee":"59271","departement":"Nord","region":"Hauts-de-France"}},{"type":"Feature","geometry":{"type":"Point","coordinates":[1.73809,47.59486]},"properties":{"latitude":"47.59486","longitude":"1.73809","bright_ti4":"302.34","scan":"0.77","track":"0.77","acq_date":"2026-08-20","acq_time":"41","satellite":"N20","instrument":"VIIRS","confidence":"n","version":"2.0NRT","bright_ti5":"284.66","frp":"1.61","daynight":"N","commune":"Dhuizon","code_insee":"41074","departement":"Loir-et-Cher","region":"Centre-Val de Loire"}},{"type":"Feature","geometry":{"type":"Point","coordinates":[1.73563,47.60018]},"properties":{"latitude":"47.60018","longitude":"1.73563","bright_ti4":"297.06","scan":"0.77","track":"0.77","acq_date":"2026-08-20","acq_time":"41","satellite":"N20","instrument":"VIIRS","confidence":"n","version":"2.0NRT","bright_ti5":"284.29","frp":"1.36","daynight":"N","commune":"Villeny","code_insee":"41285","departement":"Loir-et-Cher","region":"Centre-Val de Loire"}}]}