{"type":"FeatureCollection","features":[{"type":"Feature","geometry":{"type":"Point","coordinates":[6.11826,48.61137]},"properties":{"latitude":"48.61137","longitude":"6.11826","bright_ti4":"307.78","scan":"0.55","track":"0.43","acq_date":"2026-08-22","acq_time":"124","satellite":"N","instrument":"VIIRS","confidence":"n","version":"2.0NRT","bright_ti5":"276.34","frp":"1.47","daynight":"N","commune":"Neuves-Maisons","code_insee":"54397","departement":"Meurthe-et-Moselle","region":"Grand Est"}},{"type":"Feature","geometry":{"type":"Point","coordinates":[6.11074,48.61209]},"properties":{"latitude":"48.61209","longitude":"6.11074","bright_ti4":"301.51","scan":"0.55","track":"0.43","acq_date":"2026-08-22","acq_time":"124","satellite":"N","instrument":"VIIRS","confidence":"n","version":"2.0NRT","bright_ti5":"282.52","frp":"1.17","daynight":"N","commune":"Neuves-Maisons","code_insee":"54397","departement":"Meurthe-et-Moselle","region":"Grand Est"}},{"type":"Feature","geometry":{"type":"Point","coordinates":[1.76421,48.98341]},"properties":{"latitude":"48.98341","longitude":"1.76421","bright_ti4":"299.59","scan":"0.57","track":"0.52","acq_date":"2026-08-22","acq_time":"124","satellite":"N","instrument":"VIIRS","confidence":"n","version":"2.0NRT","bright_ti5":"283.05","frp":"1.01","daynight":"N","commune":"Porcheville","code_insee":"78501","departement":"Yvelines","region":"Île-de-France"}},{"type":"Feature","geometry":{"type":"Point","coordinates":[1.75626,48.98388]},"properties":{"latitude":"48.98388","longitude":"1.75626","bright_ti4":"295.6","scan":"0.57","track":"0.52","acq_date":"2026-08-22","acq_time":"124","satellite":"N","instrument":"VIIRS","confidence":"n","version":"2.0NRT","bright_ti5":"283.11","frp":"1.01","daynight":"N","commune":"Limay","code_insee":"78335","departement":"Yvelines","region":"Île-de-France"}},{"type":"Feature","geometry":{"type":"Point","coordinates":[0.53548,49.47843]},"properties":{"latitude":"49.47843","longitude":"0.53548","bright_ti4":"297.95","scan":"0.33","track":"0.55","acq_date":"2026-08-22","acq_time":"124","satellite":"N","instrument":"VIIRS","confidence":"n","version":"2.0NRT","bright_ti5":"281.04","frp":"1.04","daynight":"N","commune":"Port-Jérôme-sur-Seine","code_insee":"76476","departement":"Seine-Maritime","region":"Normandie"}},{"type":"Feature","geometry":{"type":"Point","coordinates":[3.04979,49.63165]},"properties":{"latitude":"49.63165","longitude":"3.04979","bright_ti4":"313.98","scan":"0.5","track":"0.49","acq_date":"2026-08-22","acq_time":"124","satellite":"N","instrument":"VIIRS","confidence":"n","version":"2.0NRT","bright_ti5":"281.93","frp":"1.11","daynight":"N","commune":"Quesmy","code_insee":"60519","departement":"Oise","region":"Hauts-de-France"}},{"type":"Feature","geometry":{"type":"Point","coordinates":[2.29576,51.03398]},"properties":{"latitude":"51.03398","longitude":"2.29576","bright_ti4":"299","scan":"0.56","track":"0.52","acq_date":"2026-08-22","acq_time":"124","satellite":"N","instrument":"VIIRS","confidence":"n","version":"2.0NRT","bright_ti5":"282.13","frp":"1.51","daynight":"N","commune":"Dunkerque","code_insee":"59183","departement":"Nord","region":"Hauts-de-France"}},{"type":"Feature","geometry":{"type":"Point","coordinates":[2.29716,51.04356]},"properties":{"latitude":"51.04356","longitude":"2.29716","bright_ti4":"304.3","scan":"0.56","track":"0.52","acq_date":"2026-08-22","acq_time":"124","satellite":"N","instrument":"VIIRS","confidence":"n","version":"2.0NRT","bright_ti5":"279.74","frp":"1.21","daynight":"N","commune":"Grande-Synthe","code_insee":"59271","departement":"Nord","region":"Hauts-de-France"}},{"type":"Feature","geometry":{"type":"Point","coordinates":[2.32237,51.04698]},"properties":{"latitude":"51.04698","longitude":"2.32237","bright_ti4":"303.29","scan":"0.56","track":"0.51","acq_date":"2026-08-22","acq_time":"124","satellite":"N","instrument":"VIIRS","confidence":"n","version":"2.0NRT","bright_ti5":"283.87","frp":"1.75","daynight":"N","commune":"Dunkerque","code_insee":"59183","departement":"Nord","region":"Hauts-de-France"}},{"type":"Feature","geometry":{"type":"Point","coordinates":[5.45069,43.28595]},"properties":{"latitude":"43.28595","longitude":"5.45069","bright_ti4":"305.17","scan":"0.51","track":"0.41","acq_date":"2026-08-22","acq_time":"126","satellite":"N","instrument":"VIIRS","confidence":"n","version":"2.0NRT","bright_ti5":"289.52","frp":"0.55","daynight":"N","commune":"Marseille","code_insee":"13055","departement":"Bouches-du-Rhône","region":"Provence-Alpes-Côte d'Azur"}},{"type":"Feature","geometry":{"type":"Point","coordinates":[5.10658,43.39141]},"properties":{"latitude":"43.39141","longitude":"5.10658","bright_ti4":"304.55","scan":"0.53","track":"0.42","acq_date":"2026-08-22","acq_time":"126","satellite":"N","instrument":"VIIRS","confidence":"n","version":"2.0NRT","bright_ti5":"289.05","frp":"0.77","daynight":"N","commune":"Châteauneuf-les-Martigues","code_insee":"13026","departement":"Bouches-du-Rhône","region":"Provence-Alpes-Côte d'Azur"}},{"type":"Feature","geometry":{"type":"Point","coordinates":[5.10702,43.39529]},"properties":{"latitude":"43.39529","longitude":"5.10702","bright_ti4":"303.92","scan":"0.53","track":"0.42","acq_date":"2026-08-22","acq_time":"126","satellite":"N","instrument":"VIIRS","confidence":"n","version":"2.0NRT","bright_ti5":"290.21","frp":"0.77","daynight":"N","commune":"Châteauneuf-les-Martigues","code_insee":"13026","departement":"Bouches-du-Rhône","region":"Provence-Alpes-Côte d'Azur"}},{"type":"Feature","geometry":{"type":"Point","coordinates":[4.8918,43.43386]},"properties":{"latitude":"43.43386","longitude":"4.8918","bright_ti4":"328.36","scan":"0.54","track":"0.42","acq_date":"2026-08-22","acq_time":"126","satellite":"N","instrument":"VIIRS","confidence":"n","version":"2.0NRT","bright_ti5":"291.16","frp":"5.38","daynight":"N","commune":"Fos-sur-Mer","code_insee":"13039","departement":"Bouches-du-Rhône","region":"Provence-Alpes-Côte d'Azur"}},{"type":"Feature","geometry":{"type":"Point","coordinates":[4.89257,43.43774]},"properties":{"latitude":"43.43774","longitude":"4.89257","bright_ti4":"309.38","scan":"0.54","track":"0.42","acq_date":"2026-08-22","acq_time":"126","satellite":"N","instrument":"VIIRS","confidence":"n","version":"2.0NRT","bright_ti5":"288.81","frp":"1.75","daynight":"N","commune":"Fos-sur-Mer","code_insee":"13039","departement":"Bouches-du-Rhône","region":"Provence-Alpes-Côte d'Azur"}},{"type":"Feature","geometry":{"type":"Point","coordinates":[4.89334,43.44163]},"properties":{"latitude":"43.44163","longitude":"4.89334","bright_ti4":"318.54","scan":"0.54","track":"0.42","acq_date":"2026-08-22","acq_time":"126","satellite":"N","instrument":"VIIRS","confidence":"n","version":"2.0NRT","bright_ti5":"289.59","frp":"1.75","daynight":"N","commune":"Fos-sur-Mer","code_insee":"13039","departement":"Bouches-du-Rhône","region":"Provence-Alpes-Côte d'Azur"}},{"type":"Feature","geometry":{"type":"Point","coordinates":[4.87994,43.44304]},"properties":{"latitude":"43.44304","longitude":"4.87994","bright_ti4":"341.76","scan":"0.54","track":"0.42","acq_date":"2026-08-22","acq_time":"126","satellite":"N","instrument":"VIIRS","confidence":"n","version":"2.0NRT","bright_ti5":"291.22","frp":"7.09","daynight":"N","commune":"Fos-sur-Mer","code_insee":"13039","departement":"Bouches-du-Rhône","region":"Provence-Alpes-Côte d'Azur"}},{"type":"Feature","geometry":{"type":"Point","coordinates":[4.90079,43.44481]},"properties":{"latitude":"43.44481","longitude":"4.90079","bright_ti4":"331.48","scan":"0.54","track":"0.42","acq_date":"2026-08-22","acq_time":"126","satellite":"N","instrument":"VIIRS","confidence":"n","version":"2.0NRT","bright_ti5":"290.16","frp":"2.06","daynight":"N","commune":"Fos-sur-Mer","code_insee":"13039","departement":"Bouches-du-Rhône","region":"Provence-Alpes-Côte d'Azur"}},{"type":"Feature","geometry":{"type":"Point","coordinates":[4.8941,43.44551]},"properties":{"latitude":"43.44551","longitude":"4.8941","bright_ti4":"299.44","scan":"0.54","track":"0.42","acq_date":"2026-08-22","acq_time":"126","satellite":"N","instrument":"VIIRS","confidence":"n","version":"2.0NRT","bright_ti5":"288.42","frp":"2.06","daynight":"N","commune":"Fos-sur-Mer","code_insee":"13039","departement":"Bouches-du-Rhône","region":"Provence-Alpes-Côte d'Azur"}},{"type":"Feature","geometry":{"type":"Point","coordinates":[4.89487,43.4494]},"properties":{"latitude":"43.4494","longitude":"4.89487","bright_ti4":"309.93","scan":"0.54","track":"0.42","acq_date":"2026-08-22","acq_time":"126","satellite":"N","instrument":"VIIRS","confidence":"n","version":"2.0NRT","bright_ti5":"288.92","frp":"2.06","daynight":"N","commune":"Fos-sur-Mer","code_insee":"13039","departement":"Bouches-du-Rhône","region":"Provence-Alpes-Côte d'Azur"}},{"type":"Feature","geometry":{"type":"Point","coordinates":[7.37426,43.79503]},"properties":{"latitude":"43.79503","longitude":"7.37426","bright_ti4":"310.1","scan":"0.44","track":"0.38","acq_date":"2026-08-22","acq_time":"126","satellite":"N","instrument":"VIIRS","confidence":"n","version":"2.0NRT","bright_ti5":"291.18","frp":"1.1","daynight":"N","commune":"Blausasc","code_insee":"06019","departement":"Alpes-Maritimes","region":"Provence-Alpes-Côte d'Azur"}},{"type":"Feature","geometry":{"type":"Point","coordinates":[-0.83248,46.03675]},"properties":{"latitude":"46.03675","longitude":"-0.83248","bright_ti4":"311.94","scan":"0.35","track":"0.57","acq_date":"2026-08-22","acq_time":"126","satellite":"N","instrument":"VIIRS","confidence":"n","version":"2.0NRT","bright_ti5":"282.84","frp":"2.09","daynight":"N","commune":"Muron","code_insee":"17253","departement":"Charente-Maritime","region":"Nouvelle-Aquitaine"}},{"type":"Feature","geometry":{"type":"Point","coordinates":[-0.83723,46.03696]},"properties":{"latitude":"46.03696","longitude":"-0.83723","bright_ti4":"324.88","scan":"0.36","track":"0.57","acq_date":"2026-08-22","acq_time":"126","satellite":"N","instrument":"VIIRS","confidence":"n","version":"2.0NRT","bright_ti5":"282.04","frp":"3.13","daynight":"N","commune":"Muron","code_insee":"17253","departement":"Charente-Maritime","region":"Nouvelle-Aquitaine"}},{"type":"Feature","geometry":{"type":"Point","coordinates":[-0.14142,46.80676]},"properties":{"latitude":"46.80676","longitude":"-0.14142","bright_ti4":"296.21","scan":"0.33","track":"0.56","acq_date":"2026-08-22","acq_time":"126","satellite":"N","instrument":"VIIRS","confidence":"n","version":"2.0NRT","bright_ti5":"283.2","frp":"0.52","daynight":"N","commune":"Airvault","code_insee":"79005","departement":"Deux-Sèvres","region":"Nouvelle-Aquitaine"}},{"type":"Feature","geometry":{"type":"Point","coordinates":[2.98003,48.38634]},"properties":{"latitude":"48.38634","longitude":"2.98003","bright_ti4":"295.6","scan":"0.49","track":"0.49","acq_date":"2026-08-22","acq_time":"126","satellite":"N","instrument":"VIIRS","confidence":"n","version":"2.0NRT","bright_ti5":"284.78","frp":"0.87","daynight":"N","commune":"Montereau-Fault-Yonne","code_insee":"77305","departement":"Seine-et-Marne","region":"Île-de-France"}},{"type":"Feature","geometry":{"type":"Point","coordinates":[6.11574,48.60769]},"properties":{"latitude":"48.60769","longitude":"6.11574","bright_ti4":"297.82","scan":"0.53","track":"0.67","acq_date":"2026-08-22","acq_time":"304","satellite":"N","instrument":"VIIRS","confidence":"n","version":"2.0NRT","bright_ti5":"280.36","frp":"1.54","daynight":"N","commune":"Neuves-Maisons","code_insee":"54397","departement":"Meurthe-et-Moselle","region":"Grand Est"}},{"type":"Feature","geometry":{"type":"Point","coordinates":[6.11908,48.60909]},"properties":{"latitude":"48.60909","longitude":"6.11908","bright_ti4":"296.34","scan":"0.54","track":"0.67","acq_date":"2026-08-22","acq_time":"304","satellite":"N","instrument":"VIIRS","confidence":"n","version":"2.0NRT","bright_ti5":"280.56","frp":"1.14","daynight":"N","commune":"Neuves-Maisons","code_insee":"54397","departement":"Meurthe-et-Moselle","region":"Grand Est"}},{"type":"Feature","geometry":{"type":"Point","coordinates":[6.11246,48.61136]},"properties":{"latitude":"48.61136","longitude":"6.11246","bright_ti4":"296.73","scan":"0.53","track":"0.67","acq_date":"2026-08-22","acq_time":"304","satellite":"N","instrument":"VIIRS","confidence":"n","version":"2.0NRT","bright_ti5":"280.87","frp":"1.15","daynight":"N","commune":"Neuves-Maisons","code_insee":"54397","departement":"Meurthe-et-Moselle","region":"Grand Est"}},{"type":"Feature","geometry":{"type":"Point","coordinates":[4.56355,48.76634]},"properties":{"latitude":"48.76634","longitude":"4.56355","bright_ti4":"297.14","scan":"0.46","track":"0.63","acq_date":"2026-08-22","acq_time":"304","satellite":"N","instrument":"VIIRS","confidence":"n","version":"2.0NRT","bright_ti5":"281.32","frp":"0.65","daynight":"N","commune":"Couvrot","code_insee":"51195","departement":"Marne","region":"Grand Est"}},{"type":"Feature","geometry":{"type":"Point","coordinates":[1.76017,48.98423]},"properties":{"latitude":"48.98423","longitude":"1.76017","bright_ti4":"301.7","scan":"0.35","track":"0.56","acq_date":"2026-08-22","acq_time":"304","satellite":"N","instrument":"VIIRS","confidence":"n","version":"2.0NRT","bright_ti5":"283.5","frp":"0.51","daynight":"N","commune":"Porcheville","code_insee":"78501","departement":"Yvelines","region":"Île-de-France"}},{"type":"Feature","geometry":{"type":"Point","coordinates":[3.04652,49.62908]},"properties":{"latitude":"49.62908","longitude":"3.04652","bright_ti4":"296.68","scan":"0.37","track":"0.58","acq_date":"2026-08-22","acq_time":"304","satellite":"N","instrument":"VIIRS","confidence":"n","version":"2.0NRT","bright_ti5":"280.72","frp":"0.63","daynight":"N","commune":"Quesmy","code_insee":"60519","departement":"Oise","region":"Hauts-de-France"}},{"type":"Feature","geometry":{"type":"Point","coordinates":[3.0483,49.63204]},"properties":{"latitude":"49.63204","longitude":"3.0483","bright_ti4":"311.54","scan":"0.37","track":"0.58","acq_date":"2026-08-22","acq_time":"304","satellite":"N","instrument":"VIIRS","confidence":"n","version":"2.0NRT","bright_ti5":"280.7","frp":"0.81","daynight":"N","commune":"Quesmy","code_insee":"60519","departement":"Oise","region":"Hauts-de-France"}},{"type":"Feature","geometry":{"type":"Point","coordinates":[3.05036,49.63393]},"properties":{"latitude":"49.63393","longitude":"3.05036","bright_ti4":"297.71","scan":"0.37","track":"0.58","acq_date":"2026-08-22","acq_time":"304","satellite":"N","instrument":"VIIRS","confidence":"n","version":"2.0NRT","bright_ti5":"280.28","frp":"0.49","daynight":"N","commune":"Quesmy","code_insee":"60519","departement":"Oise","region":"Hauts-de-France"}},{"type":"Feature","geometry":{"type":"Point","coordinates":[3.97491,49.71697]},"properties":{"latitude":"49.71697","longitude":"3.97491","bright_ti4":"304","scan":"0.4","track":"0.6","acq_date":"2026-08-22","acq_time":"304","satellite":"N","instrument":"VIIRS","confidence":"n","version":"2.0NRT","bright_ti5":"280.86","frp":"1.15","daynight":"N","commune":"Agnicourt-et-Séchelles","code_insee":"02004","departement":"Aisne","region":"Hauts-de-France"}},{"type":"Feature","geometry":{"type":"Point","coordinates":[3.49498,50.3382]},"properties":{"latitude":"50.3382","longitude":"3.49498","bright_ti4":"304.57","scan":"0.37","track":"0.58","acq_date":"2026-08-22","acq_time":"304","satellite":"N","instrument":"VIIRS","confidence":"n","version":"2.0NRT","bright_ti5":"283.15","frp":"1.3","daynight":"N","commune":"Trith-Saint-Léger","code_insee":"59603","departement":"Nord","region":"Hauts-de-France"}},{"type":"Feature","geometry":{"type":"Point","coordinates":[4.89371,43.43958]},"properties":{"latitude":"43.43958","longitude":"4.89371","bright_ti4":"298.75","scan":"0.71","track":"0.75","acq_date":"2026-08-22","acq_time":"306","satellite":"N","instrument":"VIIRS","confidence":"n","version":"2.0NRT","bright_ti5":"285.62","frp":"2.69","daynight":"N","commune":"Fos-sur-Mer","code_insee":"13039","departement":"Bouches-du-Rhône","region":"Provence-Alpes-Côte d'Azur"}},{"type":"Feature","geometry":{"type":"Point","coordinates":[4.87737,43.44535]},"properties":{"latitude":"43.44535","longitude":"4.87737","bright_ti4":"298.29","scan":"0.71","track":"0.75","acq_date":"2026-08-22","acq_time":"306","satellite":"N","instrument":"VIIRS","confidence":"n","version":"2.0NRT","bright_ti5":"285.56","frp":"1.31","daynight":"N","commune":"Fos-sur-Mer","code_insee":"13039","departement":"Bouches-du-Rhône","region":"Provence-Alpes-Côte d'Azur"}},{"type":"Feature","geometry":{"type":"Point","coordinates":[4.89799,43.4459]},"properties":{"latitude":"43.4459","longitude":"4.89799","bright_ti4":"329.97","scan":"0.71","track":"0.75","acq_date":"2026-08-22","acq_time":"306","satellite":"N","instrument":"VIIRS","confidence":"n","version":"2.0NRT","bright_ti5":"286.56","frp":"2.69","daynight":"N","commune":"Fos-sur-Mer","code_insee":"13039","departement":"Bouches-du-Rhône","region":"Provence-Alpes-Côte d'Azur"}},{"type":"Feature","geometry":{"type":"Point","coordinates":[4.88981,43.4488]},"properties":{"latitude":"43.4488","longitude":"4.88981","bright_ti4":"297.97","scan":"0.71","track":"0.75","acq_date":"2026-08-22","acq_time":"306","satellite":"N","instrument":"VIIRS","confidence":"n","version":"2.0NRT","bright_ti5":"285.02","frp":"2.69","daynight":"N","commune":"Fos-sur-Mer","code_insee":"13039","departement":"Bouches-du-Rhône","region":"Provence-Alpes-Côte d'Azur"}},{"type":"Feature","geometry":{"type":"Point","coordinates":[-1.03839,48.10741]},"properties":{"latitude":"48.10741","longitude":"-1.03839","bright_ti4":"296.1","scan":"0.56","track":"0.52","acq_date":"2026-08-22","acq_time":"306","satellite":"N","instrument":"VIIRS","confidence":"n","version":"2.0NRT","bright_ti5":"283.3","frp":"0.92","daynight":"N","commune":"Saint-Pierre-la-Cour","code_insee":"53247","departement":"Mayenne","region":"Pays de la Loire"}},{"type":"Feature","geometry":{"type":"Point","coordinates":[-0.83222,46.03416]},"properties":{"latitude":"46.03416","longitude":"-0.83222","bright_ti4":"327.32","scan":"0.54","track":"0.42","acq_date":"2026-08-22","acq_time":"143","satellite":"N20","instrument":"VIIRS","confidence":"n","version":"2.0NRT","bright_ti5":"284.7","frp":"2.77","daynight":"N","commune":"Muron","code_insee":"17253","departement":"Charente-Maritime","region":"Nouvelle-Aquitaine"}},{"type":"Feature","geometry":{"type":"Point","coordinates":[-0.13932,46.80731]},"properties":{"latitude":"46.80731","longitude":"-0.13932","bright_ti4":"297.13","scan":"0.52","track":"0.41","acq_date":"2026-08-22","acq_time":"143","satellite":"N20","instrument":"VIIRS","confidence":"n","version":"2.0NRT","bright_ti5":"283.95","frp":"0.85","daynight":"N","commune":"Airvault","code_insee":"79005","departement":"Deux-Sèvres","region":"Nouvelle-Aquitaine"}},{"type":"Feature","geometry":{"type":"Point","coordinates":[-0.13877,46.80832]},"properties":{"latitude":"46.80832","longitude":"-0.13877","bright_ti4":"297.45","scan":"0.52","track":"0.41","acq_date":"2026-08-22","acq_time":"143","satellite":"N20","instrument":"VIIRS","confidence":"n","version":"2.0NRT","bright_ti5":"284.07","frp":"0.78","daynight":"N","commune":"Airvault","code_insee":"79005","departement":"Deux-Sèvres","region":"Nouvelle-Aquitaine"}},{"type":"Feature","geometry":{"type":"Point","coordinates":[-2.05729,47.31533]},"properties":{"latitude":"47.31533","longitude":"-2.05729","bright_ti4":"295.68","scan":"0.42","track":"0.45","acq_date":"2026-08-22","acq_time":"143","satellite":"N20","instrument":"VIIRS","confidence":"n","version":"2.0NRT","bright_ti5":"284.63","frp":"1.05","daynight":"N","commune":"Donges","code_insee":"44052","departement":"Loire-Atlantique","region":"Pays de la Loire"}},{"type":"Feature","geometry":{"type":"Point","coordinates":[-2.0569,47.31825]},"properties":{"latitude":"47.31825","longitude":"-2.0569","bright_ti4":"299.9","scan":"0.42","track":"0.45","acq_date":"2026-08-22","acq_time":"143","satellite":"N20","instrument":"VIIRS","confidence":"n","version":"2.0NRT","bright_ti5":"282.32","frp":"0.83","daynight":"N","commune":"Donges","code_insee":"44052","departement":"Loire-Atlantique","region":"Pays de la Loire"}},{"type":"Feature","geometry":{"type":"Point","coordinates":[7.23759,47.63002]},"properties":{"latitude":"47.63002","longitude":"7.23759","bright_ti4":"299.16","scan":"0.39","track":"0.36","acq_date":"2026-08-22","acq_time":"143","satellite":"N20","instrument":"VIIRS","confidence":"n","version":"2.0NRT","bright_ti5":"284.8","frp":"0.45","daynight":"N","commune":"Altkirch","code_insee":"68004","departement":"Haut-Rhin","region":"Grand Est"}},{"type":"Feature","geometry":{"type":"Point","coordinates":[3.23252,48.00159]},"properties":{"latitude":"48.00159","longitude":"3.23252","bright_ti4":"299.71","scan":"0.42","track":"0.37","acq_date":"2026-08-22","acq_time":"143","satellite":"N20","instrument":"VIIRS","confidence":"n","version":"2.0NRT","bright_ti5":"282.51","frp":"0.83","daynight":"N","commune":"Verlin","code_insee":"89440","departement":"Yonne","region":"Bourgogne-Franche-Comté"}},{"type":"Feature","geometry":{"type":"Point","coordinates":[2.98118,48.38865]},"properties":{"latitude":"48.38865","longitude":"2.98118","bright_ti4":"312.05","scan":"0.43","track":"0.38","acq_date":"2026-08-22","acq_time":"143","satellite":"N20","instrument":"VIIRS","confidence":"n","version":"2.0NRT","bright_ti5":"286.19","frp":"1.53","daynight":"N","commune":"Montereau-Fault-Yonne","code_insee":"77305","departement":"Seine-et-Marne","region":"Île-de-France"}},{"type":"Feature","geometry":{"type":"Point","coordinates":[6.11459,48.60886]},"properties":{"latitude":"48.60886","longitude":"6.11459","bright_ti4":"319.3","scan":"0.38","track":"0.36","acq_date":"2026-08-22","acq_time":"143","satellite":"N20","instrument":"VIIRS","confidence":"n","version":"2.0NRT","bright_ti5":"284.6","frp":"1.52","daynight":"N","commune":"Neuves-Maisons","code_insee":"54397","departement":"Meurthe-et-Moselle","region":"Grand Est"}},{"type":"Feature","geometry":{"type":"Point","coordinates":[6.10946,48.60966]},"properties":{"latitude":"48.60966","longitude":"6.10946","bright_ti4":"314.49","scan":"0.38","track":"0.36","acq_date":"2026-08-22","acq_time":"143","satellite":"N20","instrument":"VIIRS","confidence":"n","version":"2.0NRT","bright_ti5":"283.96","frp":"1.52","daynight":"N","commune":"Neuves-Maisons","code_insee":"54397","departement":"Meurthe-et-Moselle","region":"Grand Est"}},{"type":"Feature","geometry":{"type":"Point","coordinates":[6.11574,48.61212]},"properties":{"latitude":"48.61212","longitude":"6.11574","bright_ti4":"307.98","scan":"0.38","track":"0.36","acq_date":"2026-08-22","acq_time":"143","satellite":"N20","instrument":"VIIRS","confidence":"n","version":"2.0NRT","bright_ti5":"282.73","frp":"0.61","daynight":"N","commune":"Neuves-Maisons","code_insee":"54397","departement":"Meurthe-et-Moselle","region":"Grand Est"}},{"type":"Feature","geometry":{"type":"Point","coordinates":[5.6799,48.71633]},"properties":{"latitude":"48.71633","longitude":"5.6799","bright_ti4":"302.14","scan":"0.39","track":"0.36","acq_date":"2026-08-22","acq_time":"143","satellite":"N20","instrument":"VIIRS","confidence":"n","version":"2.0NRT","bright_ti5":"282.94","frp":"0.93","daynight":"N","commune":"Sorcy-Saint-Martin","code_insee":"55496","departement":"Meuse","region":"Grand Est"}},{"type":"Feature","geometry":{"type":"Point","coordinates":[4.56604,48.76888]},"properties":{"latitude":"48.76888","longitude":"4.56604","bright_ti4":"302.72","scan":"0.4","track":"0.37","acq_date":"2026-08-22","acq_time":"143","satellite":"N20","instrument":"VIIRS","confidence":"n","version":"2.0NRT","bright_ti5":"285.37","frp":"0.59","daynight":"N","commune":"Couvrot","code_insee":"51195","departement":"Marne","region":"Grand Est"}},{"type":"Feature","geometry":{"type":"Point","coordinates":[1.7642,48.98247]},"properties":{"latitude":"48.98247","longitude":"1.7642","bright_ti4":"297.64","scan":"0.47","track":"0.39","acq_date":"2026-08-22","acq_time":"143","satellite":"N20","instrument":"VIIRS","confidence":"n","version":"2.0NRT","bright_ti5":"283.89","frp":"1.76","daynight":"N","commune":"Porcheville","code_insee":"78501","departement":"Yvelines","region":"Île-de-France"}},{"type":"Feature","geometry":{"type":"Point","coordinates":[1.75784,48.98318]},"properties":{"latitude":"48.98318","longitude":"1.75784","bright_ti4":"327.41","scan":"0.47","track":"0.39","acq_date":"2026-08-22","acq_time":"143","satellite":"N20","instrument":"VIIRS","confidence":"n","version":"2.0NRT","bright_ti5":"284.85","frp":"1.76","daynight":"N","commune":"Limay","code_insee":"78335","departement":"Yvelines","region":"Île-de-France"}},{"type":"Feature","geometry":{"type":"Point","coordinates":[-1.13019,49.03582]},"properties":{"latitude":"49.03582","longitude":"-1.13019","bright_ti4":"304.88","scan":"0.4","track":"0.44","acq_date":"2026-08-22","acq_time":"143","satellite":"N20","instrument":"VIIRS","confidence":"n","version":"2.0NRT","bright_ti5":"281.79","frp":"0.78","daynight":"N","commune":"Bourgvallées","code_insee":"50546","departement":"Manche","region":"Normandie"}},{"type":"Feature","geometry":{"type":"Point","coordinates":[3.04958,49.63166]},"properties":{"latitude":"49.63166","longitude":"3.04958","bright_ti4":"324.4","scan":"0.43","track":"0.38","acq_date":"2026-08-22","acq_time":"143","satellite":"N20","instrument":"VIIRS","confidence":"n","version":"2.0NRT","bright_ti5":"283.26","frp":"2.51","daynight":"N","commune":"Quesmy","code_insee":"60519","departement":"Oise","region":"Hauts-de-France"}},{"type":"Feature","geometry":{"type":"Point","coordinates":[2.2709,51.02883]},"properties":{"latitude":"51.02883","longitude":"2.2709","bright_ti4":"317.52","scan":"0.47","track":"0.4","acq_date":"2026-08-22","acq_time":"143","satellite":"N20","instrument":"VIIRS","confidence":"n","version":"2.0NRT","bright_ti5":"278.04","frp":"2.64","daynight":"N","commune":"Grande-Synthe","code_insee":"59271","departement":"Nord","region":"Hauts-de-France"}},{"type":"Feature","geometry":{"type":"Point","coordinates":[2.2931,51.03382]},"properties":{"latitude":"51.03382","longitude":"2.2931","bright_ti4":"302.28","scan":"0.47","track":"0.4","acq_date":"2026-08-22","acq_time":"143","satellite":"N20","instrument":"VIIRS","confidence":"n","version":"2.0NRT","bright_ti5":"280.79","frp":"1.81","daynight":"N","commune":"Grande-Synthe","code_insee":"59271","departement":"Nord","region":"Hauts-de-France"}},{"type":"Feature","geometry":{"type":"Point","coordinates":[2.29515,51.04107]},"properties":{"latitude":"51.04107","longitude":"2.29515","bright_ti4":"297.9","scan":"0.47","track":"0.4","acq_date":"2026-08-22","acq_time":"143","satellite":"N20","instrument":"VIIRS","confidence":"n","version":"2.0NRT","bright_ti5":"283.13","frp":"5.78","daynight":"N","commune":"Grande-Synthe","code_insee":"59271","departement":"Nord","region":"Hauts-de-France"}},{"type":"Feature","geometry":{"type":"Point","coordinates":[2.30288,51.04393]},"properties":{"latitude":"51.04393","longitude":"2.30288","bright_ti4":"299.89","scan":"0.47","track":"0.4","acq_date":"2026-08-22","acq_time":"143","satellite":"N20","instrument":"VIIRS","confidence":"n","version":"2.0NRT","bright_ti5":"280.26","frp":"1.12","daynight":"N","commune":"Grande-Synthe","code_insee":"59271","departement":"Nord","region":"Hauts-de-France"}},{"type":"Feature","geometry":{"type":"Point","coordinates":[2.29617,51.04469]},"properties":{"latitude":"51.04469","longitude":"2.29617","bright_ti4":"330.85","scan":"0.47","track":"0.4","acq_date":"2026-08-22","acq_time":"143","satellite":"N20","instrument":"VIIRS","confidence":"n","version":"2.0NRT","bright_ti5":"286.49","frp":"5.78","daynight":"N","commune":"Grande-Synthe","code_insee":"59271","departement":"Nord","region":"Hauts-de-France"}},{"type":"Feature","geometry":{"type":"Point","coordinates":[5.10871,43.39415]},"properties":{"latitude":"43.39415","longitude":"5.10871","bright_ti4":"306.38","scan":"0.39","track":"0.36","acq_date":"2026-08-22","acq_time":"145","satellite":"N20","instrument":"VIIRS","confidence":"n","version":"2.0NRT","bright_ti5":"290.11","frp":"0.89","daynight":"N","commune":"Châteauneuf-les-Martigues","code_insee":"13026","departement":"Bouches-du-Rhône","region":"Provence-Alpes-Côte d'Azur"}},{"type":"Feature","geometry":{"type":"Point","coordinates":[4.88962,43.43332]},"properties":{"latitude":"43.43332","longitude":"4.88962","bright_ti4":"341.87","scan":"0.38","track":"0.36","acq_date":"2026-08-22","acq_time":"145","satellite":"N20","instrument":"VIIRS","confidence":"n","version":"2.0NRT","bright_ti5":"293.18","frp":"8.65","daynight":"N","commune":"Fos-sur-Mer","code_insee":"13039","departement":"Bouches-du-Rhône","region":"Provence-Alpes-Côte d'Azur"}},{"type":"Feature","geometry":{"type":"Point","coordinates":[4.88125,43.4381]},"properties":{"latitude":"43.4381","longitude":"4.88125","bright_ti4":"304.19","scan":"0.38","track":"0.36","acq_date":"2026-08-22","acq_time":"145","satellite":"N20","instrument":"VIIRS","confidence":"n","version":"2.0NRT","bright_ti5":"290.94","frp":"0.68","daynight":"N","commune":"Fos-sur-Mer","code_insee":"13039","departement":"Bouches-du-Rhône","region":"Provence-Alpes-Côte d'Azur"}},{"type":"Feature","geometry":{"type":"Point","coordinates":[4.89161,43.43985]},"properties":{"latitude":"43.43985","longitude":"4.89161","bright_ti4":"332.06","scan":"0.38","track":"0.36","acq_date":"2026-08-22","acq_time":"145","satellite":"N20","instrument":"VIIRS","confidence":"n","version":"2.0NRT","bright_ti5":"290.86","frp":"1.9","daynight":"N","commune":"Fos-sur-Mer","code_insee":"13039","departement":"Bouches-du-Rhône","region":"Provence-Alpes-Côte d'Azur"}},{"type":"Feature","geometry":{"type":"Point","coordinates":[4.88224,43.44136]},"properties":{"latitude":"43.44136","longitude":"4.88224","bright_ti4":"327.06","scan":"0.38","track":"0.36","acq_date":"2026-08-22","acq_time":"145","satellite":"N20","instrument":"VIIRS","confidence":"n","version":"2.0NRT","bright_ti5":"289.6","frp":"1.82","daynight":"N","commune":"Fos-sur-Mer","code_insee":"13039","departement":"Bouches-du-Rhône","region":"Provence-Alpes-Côte d'Azur"}},{"type":"Feature","geometry":{"type":"Point","coordinates":[4.87756,43.44212]},"properties":{"latitude":"43.44212","longitude":"4.87756","bright_ti4":"301.06","scan":"0.38","track":"0.36","acq_date":"2026-08-22","acq_time":"145","satellite":"N20","instrument":"VIIRS","confidence":"n","version":"2.0NRT","bright_ti5":"287.36","frp":"1.82","daynight":"N","commune":"Fos-sur-Mer","code_insee":"13039","departement":"Bouches-du-Rhône","region":"Provence-Alpes-Côte d'Azur"}},{"type":"Feature","geometry":{"type":"Point","coordinates":[4.88792,43.44387]},"properties":{"latitude":"43.44387","longitude":"4.88792","bright_ti4":"299.76","scan":"0.38","track":"0.36","acq_date":"2026-08-22","acq_time":"145","satellite":"N20","instrument":"VIIRS","confidence":"n","version":"2.0NRT","bright_ti5":"288.11","frp":"1.9","daynight":"N","commune":"Fos-sur-Mer","code_insee":"13039","departement":"Bouches-du-Rhône","region":"Provence-Alpes-Côte d'Azur"}},{"type":"Feature","geometry":{"type":"Point","coordinates":[4.90296,43.44485]},"properties":{"latitude":"43.44485","longitude":"4.90296","bright_ti4":"306.69","scan":"0.38","track":"0.36","acq_date":"2026-08-22","acq_time":"145","satellite":"N20","instrument":"VIIRS","confidence":"n","version":"2.0NRT","bright_ti5":"289.28","frp":"1.57","daynight":"N","commune":"Fos-sur-Mer","code_insee":"13039","departement":"Bouches-du-Rhône","region":"Provence-Alpes-Côte d'Azur"}},{"type":"Feature","geometry":{"type":"Point","coordinates":[4.87855,43.44538]},"properties":{"latitude":"43.44538","longitude":"4.87855","bright_ti4":"328.11","scan":"0.38","track":"0.36","acq_date":"2026-08-22","acq_time":"145","satellite":"N20","instrument":"VIIRS","confidence":"n","version":"2.0NRT","bright_ti5":"290.36","frp":"1.82","daynight":"N","commune":"Fos-sur-Mer","code_insee":"13039","departement":"Bouches-du-Rhône","region":"Provence-Alpes-Côte d'Azur"}},{"type":"Feature","geometry":{"type":"Point","coordinates":[4.89828,43.44561]},"properties":{"latitude":"43.44561","longitude":"4.89828","bright_ti4":"334.31","scan":"0.38","track":"0.36","acq_date":"2026-08-22","acq_time":"145","satellite":"N20","instrument":"VIIRS","confidence":"n","version":"2.0NRT","bright_ti5":"291.24","frp":"1.57","daynight":"N","commune":"Fos-sur-Mer","code_insee":"13039","departement":"Bouches-du-Rhône","region":"Provence-Alpes-Côte d'Azur"}},{"type":"Feature","geometry":{"type":"Point","coordinates":[4.89927,43.44887]},"properties":{"latitude":"43.44887","longitude":"4.89927","bright_ti4":"305.47","scan":"0.38","track":"0.36","acq_date":"2026-08-22","acq_time":"145","satellite":"N20","instrument":"VIIRS","confidence":"n","version":"2.0NRT","bright_ti5":"289.43","frp":"1.57","daynight":"N","commune":"Fos-sur-Mer","code_insee":"13039","departement":"Bouches-du-Rhône","region":"Provence-Alpes-Côte d'Azur"}},{"type":"Feature","geometry":{"type":"Point","coordinates":[4.89459,43.44963]},"properties":{"latitude":"43.44963","longitude":"4.89459","bright_ti4":"299.65","scan":"0.38","track":"0.36","acq_date":"2026-08-22","acq_time":"145","satellite":"N20","instrument":"VIIRS","confidence":"n","version":"2.0NRT","bright_ti5":"287.58","frp":"1.11","daynight":"N","commune":"Fos-sur-Mer","code_insee":"13039","departement":"Bouches-du-Rhône","region":"Provence-Alpes-Côte d'Azur"}},{"type":"Feature","geometry":{"type":"Point","coordinates":[7.37515,43.79407]},"properties":{"latitude":"43.79407","longitude":"7.37515","bright_ti4":"309.35","scan":"0.41","track":"0.37","acq_date":"2026-08-22","acq_time":"145","satellite":"N20","instrument":"VIIRS","confidence":"n","version":"2.0NRT","bright_ti5":"290.98","frp":"1.1","daynight":"N","commune":"Blausasc","code_insee":"06019","departement":"Alpes-Maritimes","region":"Provence-Alpes-Côte d'Azur"}},{"type":"Feature","geometry":{"type":"Point","coordinates":[1.22739,43.98812]},"properties":{"latitude":"43.98812","longitude":"1.22739","bright_ti4":"300.77","scan":"0.43","track":"0.38","acq_date":"2026-08-22","acq_time":"145","satellite":"N20","instrument":"VIIRS","confidence":"n","version":"2.0NRT","bright_ti5":"285.41","frp":"0.53","daynight":"N","commune":"Montech","code_insee":"82125","departement":"Tarn-et-Garonne","region":"Occitanie"}},{"type":"Feature","geometry":{"type":"Point","coordinates":[3.04756,49.62982]},"properties":{"latitude":"49.62982","longitude":"3.04756","bright_ti4":"309.64","scan":"0.49","track":"0.65","acq_date":"2026-08-22","acq_time":"48","satellite":"N21","instrument":"VIIRS","confidence":"n","version":"2.0NRT","bright_ti5":"280.13","frp":"2.14","daynight":"N","commune":"Quesmy","code_insee":"60519","departement":"Oise","region":"Hauts-de-France"}},{"type":"Feature","geometry":{"type":"Point","coordinates":[5.10833,43.39207]},"properties":{"latitude":"43.39207","longitude":"5.10833","bright_ti4":"310.07","scan":"0.36","track":"0.57","acq_date":"2026-08-22","acq_time":"50","satellite":"N21","instrument":"VIIRS","confidence":"n","version":"2.0NRT","bright_ti5":"288.85","frp":"0.79","daynight":"N","commune":"Châteauneuf-les-Martigues","code_insee":"13026","departement":"Bouches-du-Rhône","region":"Provence-Alpes-Côte d'Azur"}},{"type":"Feature","geometry":{"type":"Point","coordinates":[4.89534,43.43421]},"properties":{"latitude":"43.43421","longitude":"4.89534","bright_ti4":"299.26","scan":"0.36","track":"0.58","acq_date":"2026-08-22","acq_time":"50","satellite":"N21","instrument":"VIIRS","confidence":"n","version":"2.0NRT","bright_ti5":"288.12","frp":"1.16","daynight":"N","commune":"Fos-sur-Mer","code_insee":"13039","departement":"Bouches-du-Rhône","region":"Provence-Alpes-Côte d'Azur"}},{"type":"Feature","geometry":{"type":"Point","coordinates":[4.89081,43.43443]},"properties":{"latitude":"43.43443","longitude":"4.89081","bright_ti4":"302.97","scan":"0.36","track":"0.58","acq_date":"2026-08-22","acq_time":"50","satellite":"N21","instrument":"VIIRS","confidence":"n","version":"2.0NRT","bright_ti5":"288.38","frp":"1.33","daynight":"N","commune":"Fos-sur-Mer","code_insee":"13039","departement":"Bouches-du-Rhône","region":"Provence-Alpes-Côte d'Azur"}},{"type":"Feature","geometry":{"type":"Point","coordinates":[4.88626,43.43464]},"properties":{"latitude":"43.43464","longitude":"4.88626","bright_ti4":"306.24","scan":"0.36","track":"0.58","acq_date":"2026-08-22","acq_time":"50","satellite":"N21","instrument":"VIIRS","confidence":"n","version":"2.0NRT","bright_ti5":"289.13","frp":"1.33","daynight":"N","commune":"Fos-sur-Mer","code_insee":"13039","departement":"Bouches-du-Rhône","region":"Provence-Alpes-Côte d'Azur"}},{"type":"Feature","geometry":{"type":"Point","coordinates":[4.89126,43.43975]},"properties":{"latitude":"43.43975","longitude":"4.89126","bright_ti4":"331.23","scan":"0.36","track":"0.58","acq_date":"2026-08-22","acq_time":"50","satellite":"N21","instrument":"VIIRS","confidence":"n","version":"2.0NRT","bright_ti5":"288.76","frp":"4.35","daynight":"N","commune":"Fos-sur-Mer","code_insee":"13039","departement":"Bouches-du-Rhône","region":"Provence-Alpes-Côte d'Azur"}},{"type":"Feature","geometry":{"type":"Point","coordinates":[4.87762,43.4404]},"properties":{"latitude":"43.4404","longitude":"4.87762","bright_ti4":"318.52","scan":"0.37","track":"0.58","acq_date":"2026-08-22","acq_time":"50","satellite":"N21","instrument":"VIIRS","confidence":"n","version":"2.0NRT","bright_ti5":"289.09","frp":"3.53","daynight":"N","commune":"Fos-sur-Mer","code_insee":"13039","departement":"Bouches-du-Rhône","region":"Provence-Alpes-Côte d'Azur"}},{"type":"Feature","geometry":{"type":"Point","coordinates":[4.90076,43.44463]},"properties":{"latitude":"43.44463","longitude":"4.90076","bright_ti4":"315.28","scan":"0.36","track":"0.58","acq_date":"2026-08-22","acq_time":"50","satellite":"N21","instrument":"VIIRS","confidence":"n","version":"2.0NRT","bright_ti5":"287.88","frp":"2.42","daynight":"N","commune":"Fos-sur-Mer","code_insee":"13039","departement":"Bouches-du-Rhône","region":"Provence-Alpes-Côte d'Azur"}},{"type":"Feature","geometry":{"type":"Point","coordinates":[4.89626,43.44485]},"properties":{"latitude":"43.44485","longitude":"4.89626","bright_ti4":"320.95","scan":"0.36","track":"0.58","acq_date":"2026-08-22","acq_time":"50","satellite":"N21","instrument":"VIIRS","confidence":"n","version":"2.0NRT","bright_ti5":"289.5","frp":"2.42","daynight":"N","commune":"Fos-sur-Mer","code_insee":"13039","departement":"Bouches-du-Rhône","region":"Provence-Alpes-Côte d'Azur"}},{"type":"Feature","geometry":{"type":"Point","coordinates":[7.37527,43.79517]},"properties":{"latitude":"43.79517","longitude":"7.37527","bright_ti4":"302.22","scan":"0.55","track":"0.51","acq_date":"2026-08-22","acq_time":"50","satellite":"N21","instrument":"VIIRS","confidence":"n","version":"2.0NRT","bright_ti5":"290.31","frp":"0.87","daynight":"N","commune":"Blausasc","code_insee":"06019","departement":"Alpes-Maritimes","region":"Provence-Alpes-Côte d'Azur"}},{"type":"Feature","geometry":{"type":"Point","coordinates":[-0.83536,46.03331]},"properties":{"latitude":"46.03331","longitude":"-0.83536","bright_ti4":"325.14","scan":"0.73","track":"0.76","acq_date":"2026-08-22","acq_time":"50","satellite":"N21","instrument":"VIIRS","confidence":"n","version":"2.0NRT","bright_ti5":"282.86","frp":"5.46","daynight":"N","commune":"Muron","code_insee":"17253","departement":"Charente-Maritime","region":"Nouvelle-Aquitaine"}},{"type":"Feature","geometry":{"type":"Point","coordinates":[6.11289,48.60889]},"properties":{"latitude":"48.60889","longitude":"6.11289","bright_ti4":"301.15","scan":"0.6","track":"0.53","acq_date":"2026-08-22","acq_time":"228","satellite":"N21","instrument":"VIIRS","confidence":"n","version":"2.0NRT","bright_ti5":"283.41","frp":"1.48","daynight":"N","commune":"Neuves-Maisons","code_insee":"54397","departement":"Meurthe-et-Moselle","region":"Grand Est"}},{"type":"Feature","geometry":{"type":"Point","coordinates":[4.56167,48.76847]},"properties":{"latitude":"48.76847","longitude":"4.56167","bright_ti4":"301.78","scan":"0.51","track":"0.49","acq_date":"2026-08-22","acq_time":"228","satellite":"N21","instrument":"VIIRS","confidence":"n","version":"2.0NRT","bright_ti5":"283.79","frp":"1.15","daynight":"N","commune":"Couvrot","code_insee":"51195","departement":"Marne","region":"Grand Est"}},{"type":"Feature","geometry":{"type":"Point","coordinates":[0.53386,49.47707]},"properties":{"latitude":"49.47707","longitude":"0.53386","bright_ti4":"298.55","scan":"0.51","track":"0.41","acq_date":"2026-08-22","acq_time":"228","satellite":"N21","instrument":"VIIRS","confidence":"n","version":"2.0NRT","bright_ti5":"283.82","frp":"1.1","daynight":"N","commune":"Lillebonne","code_insee":"76384","departement":"Seine-Maritime","region":"Normandie"}},{"type":"Feature","geometry":{"type":"Point","coordinates":[3.04515,49.63254]},"properties":{"latitude":"49.63254","longitude":"3.04515","bright_ti4":"312.32","scan":"0.42","track":"0.45","acq_date":"2026-08-22","acq_time":"228","satellite":"N21","instrument":"VIIRS","confidence":"n","version":"2.0NRT","bright_ti5":"281.64","frp":"2.43","daynight":"N","commune":"Quesmy","code_insee":"60519","departement":"Oise","region":"Hauts-de-France"}},{"type":"Feature","geometry":{"type":"Point","coordinates":[5.10812,43.38852]},"properties":{"latitude":"43.38852","longitude":"5.10812","bright_ti4":"311.49","scan":"0.39","track":"0.59","acq_date":"2026-08-22","acq_time":"230","satellite":"N21","instrument":"VIIRS","confidence":"n","version":"2.0NRT","bright_ti5":"288.67","frp":"0.79","daynight":"N","commune":"Châteauneuf-les-Martigues","code_insee":"13026","departement":"Bouches-du-Rhône","region":"Provence-Alpes-Côte d'Azur"}},{"type":"Feature","geometry":{"type":"Point","coordinates":[5.10982,43.39085]},"properties":{"latitude":"43.39085","longitude":"5.10982","bright_ti4":"324.65","scan":"0.39","track":"0.59","acq_date":"2026-08-22","acq_time":"230","satellite":"N21","instrument":"VIIRS","confidence":"n","version":"2.0NRT","bright_ti5":"288.9","frp":"2.33","daynight":"N","commune":"Châteauneuf-les-Martigues","code_insee":"13026","departement":"Bouches-du-Rhône","region":"Provence-Alpes-Côte d'Azur"}},{"type":"Feature","geometry":{"type":"Point","coordinates":[5.11175,43.39335]},"properties":{"latitude":"43.39335","longitude":"5.11175","bright_ti4":"300.44","scan":"0.39","track":"0.59","acq_date":"2026-08-22","acq_time":"230","satellite":"N21","instrument":"VIIRS","confidence":"n","version":"2.0NRT","bright_ti5":"287.88","frp":"0.97","daynight":"N","commune":"Châteauneuf-les-Martigues","code_insee":"13026","departement":"Bouches-du-Rhône","region":"Provence-Alpes-Côte d'Azur"}},{"type":"Feature","geometry":{"type":"Point","coordinates":[-0.833,46.03426]},"properties":{"latitude":"46.03426","longitude":"-0.833","bright_ti4":"309.11","scan":"0.54","track":"0.42","acq_date":"2026-08-22","acq_time":"230","satellite":"N21","instrument":"VIIRS","confidence":"n","version":"2.0NRT","bright_ti5":"269.99","frp":"1.82","daynight":"N","commune":"Muron","code_insee":"17253","departement":"Charente-Maritime","region":"Nouvelle-Aquitaine"}},{"type":"Feature","geometry":{"type":"Point","coordinates":[-2.05558,47.31592]},"properties":{"latitude":"47.31592","longitude":"-2.05558","bright_ti4":"305.57","scan":"0.46","track":"0.39","acq_date":"2026-08-22","acq_time":"230","satellite":"N21","instrument":"VIIRS","confidence":"n","version":"2.0NRT","bright_ti5":"283.33","frp":"0.93","daynight":"N","commune":"Donges","code_insee":"44052","departement":"Loire-Atlantique","region":"Pays de la Loire"}},{"type":"Feature","geometry":{"type":"Point","coordinates":[-1.03725,48.10896]},"properties":{"latitude":"48.10896","longitude":"-1.03725","bright_ti4":"296.76","scan":"0.48","track":"0.4","acq_date":"2026-08-22","acq_time":"230","satellite":"N21","instrument":"VIIRS","confidence":"n","version":"2.0NRT","bright_ti5":"284.08","frp":"0.87","daynight":"N","commune":"Saint-Pierre-la-Cour","code_insee":"53247","departement":"Mayenne","region":"Pays de la Loire"}},{"type":"Feature","geometry":{"type":"Point","coordinates":[2.98313,48.38537]},"properties":{"latitude":"48.38537","longitude":"2.98313","bright_ti4":"304.06","scan":"0.45","track":"0.47","acq_date":"2026-08-22","acq_time":"230","satellite":"N21","instrument":"VIIRS","confidence":"n","version":"2.0NRT","bright_ti5":"285.73","frp":"1.18","daynight":"N","commune":"Montereau-Fault-Yonne","code_insee":"77305","departement":"Seine-et-Marne","region":"Île-de-France"}},{"type":"Feature","geometry":{"type":"Point","coordinates":[1.76151,48.9826]},"properties":{"latitude":"48.9826","longitude":"1.76151","bright_ti4":"320.37","scan":"0.39","track":"0.44","acq_date":"2026-08-22","acq_time":"230","satellite":"N21","instrument":"VIIRS","confidence":"n","version":"2.0NRT","bright_ti5":"285.31","frp":"1.73","daynight":"N","commune":"Porcheville","code_insee":"78501","departement":"Yvelines","region":"Île-de-France"}},{"type":"Feature","geometry":{"type":"Point","coordinates":[-1.12916,49.03606]},"properties":{"latitude":"49.03606","longitude":"-1.12916","bright_ti4":"307.43","scan":"0.46","track":"0.39","acq_date":"2026-08-22","acq_time":"230","satellite":"N21","instrument":"VIIRS","confidence":"n","version":"2.0NRT","bright_ti5":"282.53","frp":"0.9","daynight":"N","commune":"Bourgvallées","code_insee":"50546","departement":"Manche","region":"Normandie"}},{"type":"Feature","geometry":{"type":"Point","coordinates":[-1.13315,49.03593]},"properties":{"latitude":"49.03593","longitude":"-1.13315","bright_ti4":"295.15","scan":"0.49","track":"0.65","acq_date":"2026-08-22","acq_time":"323","satellite":"N20","instrument":"VIIRS","confidence":"n","version":"2.0NRT","bright_ti5":"280.73","frp":"0.63","daynight":"N","commune":"Bourgvallées","code_insee":"50546","departement":"Manche","region":"Normandie"}},{"type":"Feature","geometry":{"type":"Point","coordinates":[3.04397,49.63152]},"properties":{"latitude":"49.63152","longitude":"3.04397","bright_ti4":"295.78","scan":"0.68","track":"0.74","acq_date":"2026-08-22","acq_time":"323","satellite":"N20","instrument":"VIIRS","confidence":"n","version":"2.0NRT","bright_ti5":"279.22","frp":"0.63","daynight":"N","commune":"Quesmy","code_insee":"60519","departement":"Oise","region":"Hauts-de-France"}},{"type":"Feature","geometry":{"type":"Point","coordinates":[3.97707,49.71343]},"properties":{"latitude":"49.71343","longitude":"3.97707","bright_ti4":"299.09","scan":"0.73","track":"0.76","acq_date":"2026-08-22","acq_time":"323","satellite":"N20","instrument":"VIIRS","confidence":"n","version":"2.0NRT","bright_ti5":"279.1","frp":"1.31","daynight":"N","commune":"Agnicourt-et-Séchelles","code_insee":"02004","departement":"Aisne","region":"Hauts-de-France"}},{"type":"Feature","geometry":{"type":"Point","coordinates":[3.97199,49.71589]},"properties":{"latitude":"49.71589","longitude":"3.97199","bright_ti4":"308.38","scan":"0.73","track":"0.76","acq_date":"2026-08-22","acq_time":"323","satellite":"N20","instrument":"VIIRS","confidence":"n","version":"2.0NRT","bright_ti5":"278.73","frp":"1.8","daynight":"N","commune":"Agnicourt-et-Séchelles","code_insee":"02004","departement":"Aisne","region":"Hauts-de-France"}},{"type":"Feature","geometry":{"type":"Point","coordinates":[3.96844,49.71683]},"properties":{"latitude":"49.71683","longitude":"3.96844","bright_ti4":"295.49","scan":"0.73","track":"0.76","acq_date":"2026-08-22","acq_time":"323","satellite":"N20","instrument":"VIIRS","confidence":"n","version":"2.0NRT","bright_ti5":"278.33","frp":"1.31","daynight":"N","commune":"Agnicourt-et-Séchelles","code_insee":"02004","departement":"Aisne","region":"Hauts-de-France"}},{"type":"Feature","geometry":{"type":"Point","coordinates":[0.22507,49.68144]},"properties":{"latitude":"49.68144","longitude":"0.22507","bright_ti4":"330.35","scan":"0.56","track":"0.69","acq_date":"2026-08-22","acq_time":"1132","satellite":"N20","instrument":"VIIRS","confidence":"n","version":"2.0NRT","bright_ti5":"290.64","frp":"3.58","daynight":"D","commune":"Pierrefiques","code_insee":"76501","departement":"Seine-Maritime","region":"Normandie"}},{"type":"Feature","geometry":{"type":"Point","coordinates":[2.2752,51.02559]},"properties":{"latitude":"51.02559","longitude":"2.2752","bright_ti4":"327.35","scan":"0.42","track":"0.61","acq_date":"2026-08-22","acq_time":"1132","satellite":"N20","instrument":"VIIRS","confidence":"n","version":"2.0NRT","bright_ti5":"293.2","frp":"3.2","daynight":"D","commune":"Grande-Synthe","code_insee":"59271","departement":"Nord","region":"Hauts-de-France"}},{"type":"Feature","geometry":{"type":"Point","coordinates":[5.11139,43.39134]},"properties":{"latitude":"43.39134","longitude":"5.11139","bright_ti4":"339.73","scan":"0.46","track":"0.47","acq_date":"2026-08-22","acq_time":"1310","satellite":"N20","instrument":"VIIRS","confidence":"n","version":"2.0NRT","bright_ti5":"302.07","frp":"3.95","daynight":"D","commune":"Châteauneuf-les-Martigues","code_insee":"13026","departement":"Bouches-du-Rhône","region":"Provence-Alpes-Côte d'Azur"}},{"type":"Feature","geometry":{"type":"Point","coordinates":[4.89158,43.43975]},"properties":{"latitude":"43.43975","longitude":"4.89158","bright_ti4":"335.31","scan":"0.45","track":"0.47","acq_date":"2026-08-22","acq_time":"1310","satellite":"N20","instrument":"VIIRS","confidence":"n","version":"2.0NRT","bright_ti5":"305.1","frp":"5.91","daynight":"D","commune":"Fos-sur-Mer","code_insee":"13039","departement":"Bouches-du-Rhône","region":"Provence-Alpes-Côte d'Azur"}},{"type":"Feature","geometry":{"type":"Point","coordinates":[4.87969,43.44315]},"properties":{"latitude":"43.44315","longitude":"4.87969","bright_ti4":"345.56","scan":"0.45","track":"0.47","acq_date":"2026-08-22","acq_time":"1310","satellite":"N20","instrument":"VIIRS","confidence":"n","version":"2.0NRT","bright_ti5":"304.79","frp":"10.94","daynight":"D","commune":"Fos-sur-Mer","code_insee":"13039","departement":"Bouches-du-Rhône","region":"Provence-Alpes-Côte d'Azur"}},{"type":"Feature","geometry":{"type":"Point","coordinates":[4.89657,43.44454]},"properties":{"latitude":"43.44454","longitude":"4.89657","bright_ti4":"336.84","scan":"0.45","track":"0.47","acq_date":"2026-08-22","acq_time":"1310","satellite":"N20","instrument":"VIIRS","confidence":"n","version":"2.0NRT","bright_ti5":"305.81","frp":"3.69","daynight":"D","commune":"Fos-sur-Mer","code_insee":"13039","departement":"Bouches-du-Rhône","region":"Provence-Alpes-Côte d'Azur"}},{"type":"Feature","geometry":{"type":"Point","coordinates":[4.90222,43.445]},"properties":{"latitude":"43.445","longitude":"4.90222","bright_ti4":"333.19","scan":"0.45","track":"0.47","acq_date":"2026-08-22","acq_time":"1310","satellite":"N20","instrument":"VIIRS","confidence":"n","version":"2.0NRT","bright_ti5":"306.68","frp":"3.69","daynight":"D","commune":"Fos-sur-Mer","code_insee":"13039","departement":"Bouches-du-Rhône","region":"Provence-Alpes-Côte d'Azur"}},{"type":"Feature","geometry":{"type":"Point","coordinates":[3.96957,45.72596]},"properties":{"latitude":"45.72596","longitude":"3.96957","bright_ti4":"348.28","scan":"0.44","track":"0.46","acq_date":"2026-08-22","acq_time":"1310","satellite":"N20","instrument":"VIIRS","confidence":"n","version":"2.0NRT","bright_ti5":"307.54","frp":"54.96","daynight":"D","commune":"Sail-sous-Couzan","code_insee":"42195","departement":"Loire","region":"Auvergne-Rhône-Alpes"}},{"type":"Feature","geometry":{"type":"Point","coordinates":[3.85055,46.85439]},"properties":{"latitude":"46.85439","longitude":"3.85055","bright_ti4":"330.7","scan":"0.44","track":"0.46","acq_date":"2026-08-22","acq_time":"1310","satellite":"N20","instrument":"VIIRS","confidence":"n","version":"2.0NRT","bright_ti5":"300.31","frp":"6.69","daynight":"D","commune":"Sémelay","code_insee":"58276","departement":"Nièvre","region":"Bourgogne-Franche-Comté"}},{"type":"Feature","geometry":{"type":"Point","coordinates":[4.8919,43.43426]},"properties":{"latitude":"43.43426","longitude":"4.8919","bright_ti4":"336.99","scan":"0.47","track":"0.4","acq_date":"2026-08-22","acq_time":"1214","satellite":"N21","instrument":"VIIRS","confidence":"l","version":"2.0NRT","bright_ti5":"308.99","frp":"8.75","daynight":"D","commune":"Fos-sur-Mer","code_insee":"13039","departement":"Bouches-du-Rhône","region":"Provence-Alpes-Côte d'Azur"}},{"type":"Feature","geometry":{"type":"Point","coordinates":[4.90059,43.44355]},"properties":{"latitude":"43.44355","longitude":"4.90059","bright_ti4":"339.14","scan":"0.47","track":"0.4","acq_date":"2026-08-22","acq_time":"1214","satellite":"N21","instrument":"VIIRS","confidence":"n","version":"2.0NRT","bright_ti5":"305.95","frp":"4.75","daynight":"D","commune":"Fos-sur-Mer","code_insee":"13039","departement":"Bouches-du-Rhône","region":"Provence-Alpes-Côte d'Azur"}},{"type":"Feature","geometry":{"type":"Point","coordinates":[4.88237,43.44374]},"properties":{"latitude":"43.44374","longitude":"4.88237","bright_ti4":"332.93","scan":"0.47","track":"0.4","acq_date":"2026-08-22","acq_time":"1214","satellite":"N21","instrument":"VIIRS","confidence":"l","version":"2.0NRT","bright_ti5":"306.39","frp":"5.11","daynight":"D","commune":"Fos-sur-Mer","code_insee":"13039","departement":"Bouches-du-Rhône","region":"Provence-Alpes-Côte d'Azur"}},{"type":"Feature","geometry":{"type":"Point","coordinates":[4.89929,43.44708]},"properties":{"latitude":"43.44708","longitude":"4.89929","bright_ti4":"337.33","scan":"0.47","track":"0.4","acq_date":"2026-08-22","acq_time":"1214","satellite":"N21","instrument":"VIIRS","confidence":"n","version":"2.0NRT","bright_ti5":"307.52","frp":"4.75","daynight":"D","commune":"Fos-sur-Mer","code_insee":"13039","departement":"Bouches-du-Rhône","region":"Provence-Alpes-Côte d'Azur"}},{"type":"Feature","geometry":{"type":"Point","coordinates":[6.65181,48.9432]},"properties":{"latitude":"48.9432","longitude":"6.65181","bright_ti4":"340.08","scan":"0.39","track":"0.36","acq_date":"2026-08-22","acq_time":"1217","satellite":"N21","instrument":"VIIRS","confidence":"n","version":"2.0NRT","bright_ti5":"297.59","frp":"5.15","daynight":"D","commune":"Morhange","code_insee":"57483","departement":"Moselle","region":"Grand Est"}},{"type":"Feature","geometry":{"type":"Point","coordinates":[1.7633,48.98482]},"properties":{"latitude":"48.98482","longitude":"1.7633","bright_ti4":"328.5","scan":"0.48","track":"0.4","acq_date":"2026-08-22","acq_time":"1217","satellite":"N21","instrument":"VIIRS","confidence":"n","version":"2.0NRT","bright_ti5":"294.25","frp":"2","daynight":"D","commune":"Porcheville","code_insee":"78501","departement":"Yvelines","region":"Île-de-France"}},{"type":"Feature","geometry":{"type":"Point","coordinates":[2.27244,51.02671]},"properties":{"latitude":"51.02671","longitude":"2.27244","bright_ti4":"332.63","scan":"0.43","track":"0.38","acq_date":"2026-08-22","acq_time":"1217","satellite":"N21","instrument":"VIIRS","confidence":"n","version":"2.0NRT","bright_ti5":"299.45","frp":"3.41","daynight":"D","commune":"Grande-Synthe","code_insee":"59271","departement":"Nord","region":"Hauts-de-France"}},{"type":"Feature","geometry":{"type":"Point","coordinates":[2.2958,51.04591]},"properties":{"latitude":"51.04591","longitude":"2.2958","bright_ti4":"330.95","scan":"0.43","track":"0.38","acq_date":"2026-08-22","acq_time":"1217","satellite":"N21","instrument":"VIIRS","confidence":"n","version":"2.0NRT","bright_ti5":"296.21","frp":"12.62","daynight":"D","commune":"Grande-Synthe","code_insee":"59271","departement":"Nord","region":"Hauts-de-France"}},{"type":"Feature","geometry":{"type":"Point","coordinates":[6.06625,43.15408]},"properties":{"latitude":"43.15408","longitude":"6.06625","bright_ti4":"335.77","scan":"0.42","track":"0.38","acq_date":"2026-08-22","acq_time":"1251","satellite":"N","instrument":"VIIRS","confidence":"n","version":"2.0NRT","bright_ti5":"306.08","frp":"1.24","daynight":"D","commune":"La Farlède","code_insee":"83054","departement":"Var","region":"Provence-Alpes-Côte d'Azur"}},{"type":"Feature","geometry":{"type":"Point","coordinates":[2.06217,43.25719]},"properties":{"latitude":"43.25719","longitude":"2.06217","bright_ti4":"346.03","scan":"0.39","track":"0.36","acq_date":"2026-08-22","acq_time":"1251","satellite":"N","instrument":"VIIRS","confidence":"n","version":"2.0NRT","bright_ti5":"305.53","frp":"5.3","daynight":"D","commune":"Pexiora","code_insee":"11281","departement":"Aude","region":"Occitanie"}},{"type":"Feature","geometry":{"type":"Point","coordinates":[0.6656,43.26259]},"properties":{"latitude":"43.26259","longitude":"0.6656","bright_ti4":"358.17","scan":"0.41","track":"0.37","acq_date":"2026-08-22","acq_time":"1251","satellite":"N","instrument":"VIIRS","confidence":"l","version":"2.0NRT","bright_ti5":"300.19","frp":"8.77","daynight":"D","commune":"Blajan","code_insee":"31070","departement":"Haute-Garonne","region":"Occitanie"}},{"type":"Feature","geometry":{"type":"Point","coordinates":[0.67055,43.26346]},"properties":{"latitude":"43.26346","longitude":"0.67055","bright_ti4":"335.2","scan":"0.41","track":"0.37","acq_date":"2026-08-22","acq_time":"1251","satellite":"N","instrument":"VIIRS","confidence":"n","version":"2.0NRT","bright_ti5":"300.21","frp":"3.89","daynight":"D","commune":"Blajan","code_insee":"31070","departement":"Haute-Garonne","region":"Occitanie"}},{"type":"Feature","geometry":{"type":"Point","coordinates":[0.6755,43.26434]},"properties":{"latitude":"43.26434","longitude":"0.6755","bright_ti4":"342.29","scan":"0.41","track":"0.37","acq_date":"2026-08-22","acq_time":"1251","satellite":"N","instrument":"VIIRS","confidence":"n","version":"2.0NRT","bright_ti5":"299.44","frp":"3.89","daynight":"D","commune":"Blajan","code_insee":"31070","departement":"Haute-Garonne","region":"Occitanie"}},{"type":"Feature","geometry":{"type":"Point","coordinates":[0.85472,43.36331]},"properties":{"latitude":"43.36331","longitude":"0.85472","bright_ti4":"332.91","scan":"0.4","track":"0.37","acq_date":"2026-08-22","acq_time":"1251","satellite":"N","instrument":"VIIRS","confidence":"n","version":"2.0NRT","bright_ti5":"298.79","frp":"15.29","daynight":"D","commune":"L'Isle-en-Dodon","code_insee":"31239","departement":"Haute-Garonne","region":"Occitanie"}},{"type":"Feature","geometry":{"type":"Point","coordinates":[1.86005,43.40781]},"properties":{"latitude":"43.40781","longitude":"1.86005","bright_ti4":"335.29","scan":"0.39","track":"0.36","acq_date":"2026-08-22","acq_time":"1251","satellite":"N","instrument":"VIIRS","confidence":"n","version":"2.0NRT","bright_ti5":"302.38","frp":"7.3","daynight":"D","commune":"Montmaur","code_insee":"11252","departement":"Aude","region":"Occitanie"}},{"type":"Feature","geometry":{"type":"Point","coordinates":[1.86482,43.4086]},"properties":{"latitude":"43.4086","longitude":"1.86482","bright_ti4":"344.44","scan":"0.39","track":"0.36","acq_date":"2026-08-22","acq_time":"1251","satellite":"N","instrument":"VIIRS","confidence":"n","version":"2.0NRT","bright_ti5":"303.13","frp":"7.3","daynight":"D","commune":"Saint-Paulet","code_insee":"11362","departement":"Aude","region":"Occitanie"}},{"type":"Feature","geometry":{"type":"Point","coordinates":[4.89181,43.43484]},"properties":{"latitude":"43.43484","longitude":"4.89181","bright_ti4":"336.67","scan":"0.4","track":"0.37","acq_date":"2026-08-22","acq_time":"1251","satellite":"N","instrument":"VIIRS","confidence":"l","version":"2.0NRT","bright_ti5":"307.14","frp":"7.18","daynight":"D","commune":"Fos-sur-Mer","code_insee":"13039","departement":"Bouches-du-Rhône","region":"Provence-Alpes-Côte d'Azur"}},{"type":"Feature","geometry":{"type":"Point","coordinates":[4.89094,43.43819]},"properties":{"latitude":"43.43819","longitude":"4.89094","bright_ti4":"331.46","scan":"0.4","track":"0.37","acq_date":"2026-08-22","acq_time":"1251","satellite":"N","instrument":"VIIRS","confidence":"l","version":"2.0NRT","bright_ti5":"306.44","frp":"2.84","daynight":"D","commune":"Fos-sur-Mer","code_insee":"13039","departement":"Bouches-du-Rhône","region":"Provence-Alpes-Côte d'Azur"}},{"type":"Feature","geometry":{"type":"Point","coordinates":[4.89987,43.44289]},"properties":{"latitude":"43.44289","longitude":"4.89987","bright_ti4":"339.9","scan":"0.4","track":"0.37","acq_date":"2026-08-22","acq_time":"1251","satellite":"N","instrument":"VIIRS","confidence":"n","version":"2.0NRT","bright_ti5":"307.52","frp":"4.66","daynight":"D","commune":"Fos-sur-Mer","code_insee":"13039","departement":"Bouches-du-Rhône","region":"Provence-Alpes-Côte d'Azur"}},{"type":"Feature","geometry":{"type":"Point","coordinates":[4.8794,43.44355]},"properties":{"latitude":"43.44355","longitude":"4.8794","bright_ti4":"339.85","scan":"0.4","track":"0.37","acq_date":"2026-08-22","acq_time":"1251","satellite":"N","instrument":"VIIRS","confidence":"n","version":"2.0NRT","bright_ti5":"308.83","frp":"22.24","daynight":"D","commune":"Fos-sur-Mer","code_insee":"13039","departement":"Bouches-du-Rhône","region":"Provence-Alpes-Côte d'Azur"}},{"type":"Feature","geometry":{"type":"Point","coordinates":[4.899,43.44624]},"properties":{"latitude":"43.44624","longitude":"4.899","bright_ti4":"347.59","scan":"0.4","track":"0.37","acq_date":"2026-08-22","acq_time":"1251","satellite":"N","instrument":"VIIRS","confidence":"n","version":"2.0NRT","bright_ti5":"308.07","frp":"5.64","daynight":"D","commune":"Fos-sur-Mer","code_insee":"13039","departement":"Bouches-du-Rhône","region":"Provence-Alpes-Côte d'Azur"}},{"type":"Feature","geometry":{"type":"Point","coordinates":[5.1601,43.52356]},"properties":{"latitude":"43.52356","longitude":"5.1601","bright_ti4":"339.71","scan":"0.4","track":"0.37","acq_date":"2026-08-22","acq_time":"1251","satellite":"N","instrument":"VIIRS","confidence":"n","version":"2.0NRT","bright_ti5":"306.08","frp":"5.24","daynight":"D","commune":"Berre-l'Étang","code_insee":"13014","departement":"Bouches-du-Rhône","region":"Provence-Alpes-Côte d'Azur"}},{"type":"Feature","geometry":{"type":"Point","coordinates":[5.15923,43.52694]},"properties":{"latitude":"43.52694","longitude":"5.15923","bright_ti4":"345.47","scan":"0.4","track":"0.37","acq_date":"2026-08-22","acq_time":"1251","satellite":"N","instrument":"VIIRS","confidence":"n","version":"2.0NRT","bright_ti5":"305.39","frp":"5.24","daynight":"D","commune":"Berre-l'Étang","code_insee":"13014","departement":"Bouches-du-Rhône","region":"Provence-Alpes-Côte d'Azur"}},{"type":"Feature","geometry":{"type":"Point","coordinates":[1.42535,43.54895]},"properties":{"latitude":"43.54895","longitude":"1.42535","bright_ti4":"343.57","scan":"0.39","track":"0.36","acq_date":"2026-08-22","acq_time":"1251","satellite":"N","instrument":"VIIRS","confidence":"n","version":"2.0NRT","bright_ti5":"305.29","frp":"4.44","daynight":"D","commune":"Toulouse","code_insee":"31555","departement":"Haute-Garonne","region":"Occitanie"}},{"type":"Feature","geometry":{"type":"Point","coordinates":[1.4243,43.55225]},"properties":{"latitude":"43.55225","longitude":"1.4243","bright_ti4":"337.66","scan":"0.39","track":"0.36","acq_date":"2026-08-22","acq_time":"1251","satellite":"N","instrument":"VIIRS","confidence":"n","version":"2.0NRT","bright_ti5":"305.79","frp":"4.44","daynight":"D","commune":"Toulouse","code_insee":"31555","departement":"Haute-Garonne","region":"Occitanie"}},{"type":"Feature","geometry":{"type":"Point","coordinates":[1.11296,43.5597]},"properties":{"latitude":"43.5597","longitude":"1.11296","bright_ti4":"336.86","scan":"0.4","track":"0.37","acq_date":"2026-08-22","acq_time":"1251","satellite":"N","instrument":"VIIRS","confidence":"n","version":"2.0NRT","bright_ti5":"297.74","frp":"2.09","daynight":"D","commune":"Auradé","code_insee":"32016","departement":"Gers","region":"Occitanie"}},{"type":"Feature","geometry":{"type":"Point","coordinates":[1.87127,43.62825]},"properties":{"latitude":"43.62825","longitude":"1.87127","bright_ti4":"336.09","scan":"0.39","track":"0.36","acq_date":"2026-08-22","acq_time":"1251","satellite":"N","instrument":"VIIRS","confidence":"n","version":"2.0NRT","bright_ti5":"301.6","frp":"2.26","daynight":"D","commune":"Roquevidal","code_insee":"81229","departement":"Tarn","region":"Occitanie"}},{"type":"Feature","geometry":{"type":"Point","coordinates":[0.48201,43.77193]},"properties":{"latitude":"43.77193","longitude":"0.48201","bright_ti4":"336.31","scan":"0.41","track":"0.37","acq_date":"2026-08-22","acq_time":"1251","satellite":"N","instrument":"VIIRS","confidence":"n","version":"2.0NRT","bright_ti5":"298.71","frp":"1.32","daynight":"D","commune":"Lavardens","code_insee":"32204","departement":"Gers","region":"Occitanie"}},{"type":"Feature","geometry":{"type":"Point","coordinates":[0.71944,44.12112]},"properties":{"latitude":"44.12112","longitude":"0.71944","bright_ti4":"344.48","scan":"0.4","track":"0.37","acq_date":"2026-08-22","acq_time":"1251","satellite":"N","instrument":"VIIRS","confidence":"n","version":"2.0NRT","bright_ti5":"296.79","frp":"6.62","daynight":"D","commune":"Caudecoste","code_insee":"47060","departement":"Lot-et-Garonne","region":"Nouvelle-Aquitaine"}},{"type":"Feature","geometry":{"type":"Point","coordinates":[0.39095,44.31472]},"properties":{"latitude":"44.31472","longitude":"0.39095","bright_ti4":"345.21","scan":"0.41","track":"0.37","acq_date":"2026-08-22","acq_time":"1251","satellite":"N","instrument":"VIIRS","confidence":"n","version":"2.0NRT","bright_ti5":"296.47","frp":"6.59","daynight":"D","commune":"Aiguillon","code_insee":"47004","departement":"Lot-et-Garonne","region":"Nouvelle-Aquitaine"}},{"type":"Feature","geometry":{"type":"Point","coordinates":[0.37977,44.3163]},"properties":{"latitude":"44.3163","longitude":"0.37977","bright_ti4":"356.49","scan":"0.41","track":"0.37","acq_date":"2026-08-22","acq_time":"1251","satellite":"N","instrument":"VIIRS","confidence":"n","version":"2.0NRT","bright_ti5":"299.74","frp":"11.3","daynight":"D","commune":"Aiguillon","code_insee":"47004","departement":"Lot-et-Garonne","region":"Nouvelle-Aquitaine"}},{"type":"Feature","geometry":{"type":"Point","coordinates":[0.45843,44.37288]},"properties":{"latitude":"44.37288","longitude":"0.45843","bright_ti4":"343.02","scan":"0.4","track":"0.37","acq_date":"2026-08-22","acq_time":"1251","satellite":"N","instrument":"VIIRS","confidence":"n","version":"2.0NRT","bright_ti5":"298.56","frp":"2.72","daynight":"D","commune":"Granges-sur-Lot","code_insee":"47111","departement":"Lot-et-Garonne","region":"Nouvelle-Aquitaine"}},{"type":"Feature","geometry":{"type":"Point","coordinates":[0.82052,44.48159]},"properties":{"latitude":"44.48159","longitude":"0.82052","bright_ti4":"339.79","scan":"0.4","track":"0.37","acq_date":"2026-08-22","acq_time":"1251","satellite":"N","instrument":"VIIRS","confidence":"n","version":"2.0NRT","bright_ti5":"299.25","frp":"2.15","daynight":"D","commune":"Saint-Aubin","code_insee":"47230","departement":"Lot-et-Garonne","region":"Nouvelle-Aquitaine"}},{"type":"Feature","geometry":{"type":"Point","coordinates":[0.82545,44.48243]},"properties":{"latitude":"44.48243","longitude":"0.82545","bright_ti4":"341.51","scan":"0.4","track":"0.37","acq_date":"2026-08-22","acq_time":"1251","satellite":"N","instrument":"VIIRS","confidence":"n","version":"2.0NRT","bright_ti5":"301.56","frp":"3.47","daynight":"D","commune":"Saint-Aubin","code_insee":"47230","departement":"Lot-et-Garonne","region":"Nouvelle-Aquitaine"}},{"type":"Feature","geometry":{"type":"Point","coordinates":[0.81941,44.4849]},"properties":{"latitude":"44.4849","longitude":"0.81941","bright_ti4":"347.34","scan":"0.4","track":"0.37","acq_date":"2026-08-22","acq_time":"1251","satellite":"N","instrument":"VIIRS","confidence":"n","version":"2.0NRT","bright_ti5":"299.3","frp":"3.72","daynight":"D","commune":"Saint-Aubin","code_insee":"47230","departement":"Lot-et-Garonne","region":"Nouvelle-Aquitaine"}},{"type":"Feature","geometry":{"type":"Point","coordinates":[-0.20309,44.69495]},"properties":{"latitude":"44.69495","longitude":"-0.20309","bright_ti4":"346.13","scan":"0.41","track":"0.37","acq_date":"2026-08-22","acq_time":"1253","satellite":"N","instrument":"VIIRS","confidence":"n","version":"2.0NRT","bright_ti5":"301.68","frp":"2.66","daynight":"D","commune":"Porte-de-Benauge","code_insee":"33008","departement":"Gironde","region":"Nouvelle-Aquitaine"}},{"type":"Feature","geometry":{"type":"Point","coordinates":[-0.99233,44.6979]},"properties":{"latitude":"44.6979","longitude":"-0.99233","bright_ti4":"339.85","scan":"0.43","track":"0.38","acq_date":"2026-08-22","acq_time":"1253","satellite":"N","instrument":"VIIRS","confidence":"n","version":"2.0NRT","bright_ti5":"302.27","frp":"3.76","daynight":"D","commune":"Audenge","code_insee":"33019","departement":"Gironde","region":"Nouvelle-Aquitaine"}},{"type":"Feature","geometry":{"type":"Point","coordinates":[-0.20127,44.69792]},"properties":{"latitude":"44.69792","longitude":"-0.20127","bright_ti4":"349.23","scan":"0.41","track":"0.37","acq_date":"2026-08-22","acq_time":"1253","satellite":"N","instrument":"VIIRS","confidence":"n","version":"2.0NRT","bright_ti5":"302.43","frp":"4.63","daynight":"D","commune":"Porte-de-Benauge","code_insee":"33008","departement":"Gironde","region":"Nouvelle-Aquitaine"}},{"type":"Feature","geometry":{"type":"Point","coordinates":[-0.98696,44.69891]},"properties":{"latitude":"44.69891","longitude":"-0.98696","bright_ti4":"340.86","scan":"0.43","track":"0.38","acq_date":"2026-08-22","acq_time":"1253","satellite":"N","instrument":"VIIRS","confidence":"n","version":"2.0NRT","bright_ti5":"302.66","frp":"6.58","daynight":"D","commune":"Audenge","code_insee":"33019","departement":"Gironde","region":"Nouvelle-Aquitaine"}},{"type":"Feature","geometry":{"type":"Point","coordinates":[-0.16281,44.75857]},"properties":{"latitude":"44.75857","longitude":"-0.16281","bright_ti4":"335.09","scan":"0.41","track":"0.37","acq_date":"2026-08-22","acq_time":"1253","satellite":"N","instrument":"VIIRS","confidence":"n","version":"2.0NRT","bright_ti5":"301.7","frp":"3.64","daynight":"D","commune":"Lugasson","code_insee":"33258","departement":"Gironde","region":"Nouvelle-Aquitaine"}},{"type":"Feature","geometry":{"type":"Point","coordinates":[1.85109,44.84056]},"properties":{"latitude":"44.84056","longitude":"1.85109","bright_ti4":"345.83","scan":"0.39","track":"0.36","acq_date":"2026-08-22","acq_time":"1253","satellite":"N","instrument":"VIIRS","confidence":"n","version":"2.0NRT","bright_ti5":"300.55","frp":"4.88","daynight":"D","commune":"Saint-Jean-Lespinasse","code_insee":"46271","departement":"Lot","region":"Occitanie"}},{"type":"Feature","geometry":{"type":"Point","coordinates":[1.46443,44.92812]},"properties":{"latitude":"44.92812","longitude":"1.46443","bright_ti4":"351.99","scan":"0.39","track":"0.36","acq_date":"2026-08-22","acq_time":"1253","satellite":"N","instrument":"VIIRS","confidence":"n","version":"2.0NRT","bright_ti5":"304.54","frp":"4.61","daynight":"D","commune":"Souillac","code_insee":"46309","departement":"Lot","region":"Occitanie"}},{"type":"Feature","geometry":{"type":"Point","coordinates":[0.18864,44.98769]},"properties":{"latitude":"44.98769","longitude":"0.18864","bright_ti4":"335.46","scan":"0.4","track":"0.37","acq_date":"2026-08-22","acq_time":"1253","satellite":"N","instrument":"VIIRS","confidence":"n","version":"2.0NRT","bright_ti5":"297.67","frp":"3.3","daynight":"D","commune":"Montpon-Ménestérol","code_insee":"24294","departement":"Dordogne","region":"Nouvelle-Aquitaine"}},{"type":"Feature","geometry":{"type":"Point","coordinates":[0.10033,45.02523]},"properties":{"latitude":"45.02523","longitude":"0.10033","bright_ti4":"347.54","scan":"0.4","track":"0.37","acq_date":"2026-08-22","acq_time":"1253","satellite":"N","instrument":"VIIRS","confidence":"n","version":"2.0NRT","bright_ti5":"304.6","frp":"7.46","daynight":"D","commune":"Montpon-Ménestérol","code_insee":"24294","departement":"Dordogne","region":"Nouvelle-Aquitaine"}},{"type":"Feature","geometry":{"type":"Point","coordinates":[-0.87094,45.10966]},"properties":{"latitude":"45.10966","longitude":"-0.87094","bright_ti4":"348.57","scan":"0.43","track":"0.38","acq_date":"2026-08-22","acq_time":"1253","satellite":"N","instrument":"VIIRS","confidence":"n","version":"2.0NRT","bright_ti5":"300.51","frp":"10.59","daynight":"D","commune":"Saint-Laurent-Médoc","code_insee":"33424","departement":"Gironde","region":"Nouvelle-Aquitaine"}},{"type":"Feature","geometry":{"type":"Point","coordinates":[1.06804,45.1529]},"properties":{"latitude":"45.1529","longitude":"1.06804","bright_ti4":"330.92","scan":"0.39","track":"0.36","acq_date":"2026-08-22","acq_time":"1253","satellite":"N","instrument":"VIIRS","confidence":"n","version":"2.0NRT","bright_ti5":"300.33","frp":"5.28","daynight":"D","commune":"Thenon","code_insee":"24550","departement":"Dordogne","region":"Nouvelle-Aquitaine"}},{"type":"Feature","geometry":{"type":"Point","coordinates":[0.31128,45.21032]},"properties":{"latitude":"45.21032","longitude":"0.31128","bright_ti4":"343.53","scan":"0.4","track":"0.37","acq_date":"2026-08-22","acq_time":"1253","satellite":"N","instrument":"VIIRS","confidence":"n","version":"2.0NRT","bright_ti5":"301.42","frp":"2.95","daynight":"D","commune":"Vanxains","code_insee":"24564","departement":"Dordogne","region":"Nouvelle-Aquitaine"}},{"type":"Feature","geometry":{"type":"Point","coordinates":[0.62189,45.21457]},"properties":{"latitude":"45.21457","longitude":"0.62189","bright_ti4":"345.18","scan":"0.4","track":"0.37","acq_date":"2026-08-22","acq_time":"1253","satellite":"N","instrument":"VIIRS","confidence":"n","version":"2.0NRT","bright_ti5":"299.44","frp":"40.92","daynight":"D","commune":"La Chapelle-Gonaguet","code_insee":"24108","departement":"Dordogne","region":"Nouvelle-Aquitaine"}},{"type":"Feature","geometry":{"type":"Point","coordinates":[1.10185,45.36347]},"properties":{"latitude":"45.36347","longitude":"1.10185","bright_ti4":"339.17","scan":"0.39","track":"0.36","acq_date":"2026-08-22","acq_time":"1253","satellite":"N","instrument":"VIIRS","confidence":"n","version":"2.0NRT","bright_ti5":"306.78","frp":"3.24","daynight":"D","commune":"Saint-Médard-d'Excideuil","code_insee":"24463","departement":"Dordogne","region":"Nouvelle-Aquitaine"}},{"type":"Feature","geometry":{"type":"Point","coordinates":[0.81855,45.3856]},"properties":{"latitude":"45.3856","longitude":"0.81855","bright_ti4":"345.53","scan":"0.39","track":"0.36","acq_date":"2026-08-22","acq_time":"1253","satellite":"N","instrument":"VIIRS","confidence":"n","version":"2.0NRT","bright_ti5":"303.32","frp":"2.21","daynight":"D","commune":"Saint-Pierre-de-Côle","code_insee":"24485","departement":"Dordogne","region":"Nouvelle-Aquitaine"}},{"type":"Feature","geometry":{"type":"Point","coordinates":[1.0615,45.39145]},"properties":{"latitude":"45.39145","longitude":"1.0615","bright_ti4":"335.43","scan":"0.39","track":"0.36","acq_date":"2026-08-22","acq_time":"1253","satellite":"N","instrument":"VIIRS","confidence":"n","version":"2.0NRT","bright_ti5":"303.19","frp":"0.87","daynight":"D","commune":"Dussac","code_insee":"24158","departement":"Dordogne","region":"Nouvelle-Aquitaine"}},{"type":"Feature","geometry":{"type":"Point","coordinates":[0.4701,45.54235]},"properties":{"latitude":"45.54235","longitude":"0.4701","bright_ti4":"351.57","scan":"0.4","track":"0.37","acq_date":"2026-08-22","acq_time":"1253","satellite":"N","instrument":"VIIRS","confidence":"n","version":"2.0NRT","bright_ti5":"301.19","frp":"5.29","daynight":"D","commune":"Mainzac","code_insee":"16203","departement":"Charente","region":"Nouvelle-Aquitaine"}},{"type":"Feature","geometry":{"type":"Point","coordinates":[0.46895,45.54565]},"properties":{"latitude":"45.54565","longitude":"0.46895","bright_ti4":"339.04","scan":"0.4","track":"0.37","acq_date":"2026-08-22","acq_time":"1253","satellite":"N","instrument":"VIIRS","confidence":"n","version":"2.0NRT","bright_ti5":"299.28","frp":"5.29","daynight":"D","commune":"Mainzac","code_insee":"16203","departement":"Charente","region":"Nouvelle-Aquitaine"}},{"type":"Feature","geometry":{"type":"Point","coordinates":[0.47395,45.54651]},"properties":{"latitude":"45.54651","longitude":"0.47395","bright_ti4":"346.33","scan":"0.4","track":"0.37","acq_date":"2026-08-22","acq_time":"1253","satellite":"N","instrument":"VIIRS","confidence":"n","version":"2.0NRT","bright_ti5":"300.91","frp":"5.29","daynight":"D","commune":"Mainzac","code_insee":"16203","departement":"Charente","region":"Nouvelle-Aquitaine"}},{"type":"Feature","geometry":{"type":"Point","coordinates":[0.37817,45.68645]},"properties":{"latitude":"45.68645","longitude":"0.37817","bright_ti4":"344.01","scan":"0.4","track":"0.37","acq_date":"2026-08-22","acq_time":"1253","satellite":"N","instrument":"VIIRS","confidence":"n","version":"2.0NRT","bright_ti5":"300.88","frp":"8.81","daynight":"D","commune":"Moulins-sur-Tardoire","code_insee":"16406","departement":"Charente","region":"Nouvelle-Aquitaine"}},{"type":"Feature","geometry":{"type":"Point","coordinates":[4.89402,45.70584]},"properties":{"latitude":"45.70584","longitude":"4.89402","bright_ti4":"332.98","scan":"0.41","track":"0.37","acq_date":"2026-08-22","acq_time":"1253","satellite":"N","instrument":"VIIRS","confidence":"l","version":"2.0NRT","bright_ti5":"306.55","frp":"1.5","daynight":"D","commune":"Vénissieux","code_insee":"69259","departement":"Rhône","region":"Auvergne-Rhône-Alpes"}},{"type":"Feature","geometry":{"type":"Point","coordinates":[0.39164,45.72381]},"properties":{"latitude":"45.72381","longitude":"0.39164","bright_ti4":"338.74","scan":"0.4","track":"0.37","acq_date":"2026-08-22","acq_time":"1253","satellite":"N","instrument":"VIIRS","confidence":"n","version":"2.0NRT","bright_ti5":"303.38","frp":"7.32","daynight":"D","commune":"La Rochefoucauld-en-Angoumois","code_insee":"16281","departement":"Charente","region":"Nouvelle-Aquitaine"}},{"type":"Feature","geometry":{"type":"Point","coordinates":[3.9697,45.72502]},"properties":{"latitude":"45.72502","longitude":"3.9697","bright_ti4":"336.95","scan":"0.4","track":"0.37","acq_date":"2026-08-22","acq_time":"1253","satellite":"N","instrument":"VIIRS","confidence":"n","version":"2.0NRT","bright_ti5":"299.44","frp":"25.81","daynight":"D","commune":"Sail-sous-Couzan","code_insee":"42195","departement":"Loire","region":"Auvergne-Rhône-Alpes"}},{"type":"Feature","geometry":{"type":"Point","coordinates":[0.43333,45.74143]},"properties":{"latitude":"45.74143","longitude":"0.43333","bright_ti4":"345.42","scan":"0.4","track":"0.37","acq_date":"2026-08-22","acq_time":"1253","satellite":"N","instrument":"VIIRS","confidence":"n","version":"2.0NRT","bright_ti5":"304.37","frp":"5.74","daynight":"D","commune":"Marillac-le-Franc","code_insee":"16209","departement":"Charente","region":"Nouvelle-Aquitaine"}},{"type":"Feature","geometry":{"type":"Point","coordinates":[0.43835,45.74229]},"properties":{"latitude":"45.74229","longitude":"0.43835","bright_ti4":"335.6","scan":"0.4","track":"0.37","acq_date":"2026-08-22","acq_time":"1253","satellite":"N","instrument":"VIIRS","confidence":"n","version":"2.0NRT","bright_ti5":"304.01","frp":"6.67","daynight":"D","commune":"Marillac-le-Franc","code_insee":"16209","departement":"Charente","region":"Nouvelle-Aquitaine"}},{"type":"Feature","geometry":{"type":"Point","coordinates":[0.42216,45.74303]},"properties":{"latitude":"45.74303","longitude":"0.42216","bright_ti4":"341.98","scan":"0.4","track":"0.37","acq_date":"2026-08-22","acq_time":"1253","satellite":"N","instrument":"VIIRS","confidence":"n","version":"2.0NRT","bright_ti5":"303.17","frp":"3.12","daynight":"D","commune":"Marillac-le-Franc","code_insee":"16209","departement":"Charente","region":"Nouvelle-Aquitaine"}},{"type":"Feature","geometry":{"type":"Point","coordinates":[0.43218,45.74474]},"properties":{"latitude":"45.74474","longitude":"0.43218","bright_ti4":"343.86","scan":"0.4","track":"0.37","acq_date":"2026-08-22","acq_time":"1253","satellite":"N","instrument":"VIIRS","confidence":"n","version":"2.0NRT","bright_ti5":"304.49","frp":"5.74","daynight":"D","commune":"Yvrac-et-Malleyrand","code_insee":"16425","departement":"Charente","region":"Nouvelle-Aquitaine"}},{"type":"Feature","geometry":{"type":"Point","coordinates":[1.17717,45.82069]},"properties":{"latitude":"45.82069","longitude":"1.17717","bright_ti4":"351.26","scan":"0.39","track":"0.36","acq_date":"2026-08-22","acq_time":"1253","satellite":"N","instrument":"VIIRS","confidence":"n","version":"2.0NRT","bright_ti5":"308.39","frp":"10.25","daynight":"D","commune":"Isle","code_insee":"87075","departement":"Haute-Vienne","region":"Nouvelle-Aquitaine"}},{"type":"Feature","geometry":{"type":"Point","coordinates":[0.10716,45.84854]},"properties":{"latitude":"45.84854","longitude":"0.10716","bright_ti4":"348.19","scan":"0.4","track":"0.37","acq_date":"2026-08-22","acq_time":"1253","satellite":"N","instrument":"VIIRS","confidence":"n","version":"2.0NRT","bright_ti5":"307.97","frp":"8.32","daynight":"D","commune":"Villognon","code_insee":"16414","departement":"Charente","region":"Nouvelle-Aquitaine"}},{"type":"Feature","geometry":{"type":"Point","coordinates":[0.10598,45.85186]},"properties":{"latitude":"45.85186","longitude":"0.10598","bright_ti4":"355.44","scan":"0.4","track":"0.37","acq_date":"2026-08-22","acq_time":"1253","satellite":"N","instrument":"VIIRS","confidence":"n","version":"2.0NRT","bright_ti5":"308.34","frp":"8.32","daynight":"D","commune":"Villognon","code_insee":"16414","departement":"Charente","region":"Nouvelle-Aquitaine"}},{"type":"Feature","geometry":{"type":"Point","coordinates":[0.1048,45.85517]},"properties":{"latitude":"45.85517","longitude":"0.1048","bright_ti4":"354.27","scan":"0.4","track":"0.37","acq_date":"2026-08-22","acq_time":"1253","satellite":"N","instrument":"VIIRS","confidence":"n","version":"2.0NRT","bright_ti5":"307.4","frp":"10.05","daynight":"D","commune":"Villognon","code_insee":"16414","departement":"Charente","region":"Nouvelle-Aquitaine"}},{"type":"Feature","geometry":{"type":"Point","coordinates":[0.11258,45.86357]},"properties":{"latitude":"45.86357","longitude":"0.11258","bright_ti4":"345.68","scan":"0.4","track":"0.37","acq_date":"2026-08-22","acq_time":"1253","satellite":"N","instrument":"VIIRS","confidence":"n","version":"2.0NRT","bright_ti5":"304.22","frp":"4.2","daynight":"D","commune":"Villognon","code_insee":"16414","departement":"Charente","region":"Nouvelle-Aquitaine"}},{"type":"Feature","geometry":{"type":"Point","coordinates":[0.11919,45.87527]},"properties":{"latitude":"45.87527","longitude":"0.11919","bright_ti4":"351.7","scan":"0.4","track":"0.37","acq_date":"2026-08-22","acq_time":"1253","satellite":"N","instrument":"VIIRS","confidence":"n","version":"2.0NRT","bright_ti5":"304.85","frp":"6.92","daynight":"D","commune":"Villognon","code_insee":"16414","departement":"Charente","region":"Nouvelle-Aquitaine"}},{"type":"Feature","geometry":{"type":"Point","coordinates":[0.34297,45.93839]},"properties":{"latitude":"45.93839","longitude":"0.34297","bright_ti4":"335.83","scan":"0.4","track":"0.37","acq_date":"2026-08-22","acq_time":"1253","satellite":"N","instrument":"VIIRS","confidence":"l","version":"2.0NRT","bright_ti5":"306.89","frp":"3.6","daynight":"D","commune":"Chassiecq","code_insee":"16087","departement":"Charente","region":"Nouvelle-Aquitaine"}},{"type":"Feature","geometry":{"type":"Point","coordinates":[0.35802,45.94096]},"properties":{"latitude":"45.94096","longitude":"0.35802","bright_ti4":"335.56","scan":"0.4","track":"0.37","acq_date":"2026-08-22","acq_time":"1253","satellite":"N","instrument":"VIIRS","confidence":"n","version":"2.0NRT","bright_ti5":"303.98","frp":"2.74","daynight":"D","commune":"Chassiecq","code_insee":"16087","departement":"Charente","region":"Nouvelle-Aquitaine"}},{"type":"Feature","geometry":{"type":"Point","coordinates":[0.34181,45.94168]},"properties":{"latitude":"45.94168","longitude":"0.34181","bright_ti4":"340.5","scan":"0.4","track":"0.37","acq_date":"2026-08-22","acq_time":"1253","satellite":"N","instrument":"VIIRS","confidence":"n","version":"2.0NRT","bright_ti5":"303.13","frp":"3.6","daynight":"D","commune":"Chassiecq","code_insee":"16087","departement":"Charente","region":"Nouvelle-Aquitaine"}},{"type":"Feature","geometry":{"type":"Point","coordinates":[0.35186,45.9434]},"properties":{"latitude":"45.9434","longitude":"0.35186","bright_ti4":"336.2","scan":"0.4","track":"0.37","acq_date":"2026-08-22","acq_time":"1253","satellite":"N","instrument":"VIIRS","confidence":"l","version":"2.0NRT","bright_ti5":"306.28","frp":"2.74","daynight":"D","commune":"Chassiecq","code_insee":"16087","departement":"Charente","region":"Nouvelle-Aquitaine"}},{"type":"Feature","geometry":{"type":"Point","coordinates":[0.35687,45.94426]},"properties":{"latitude":"45.94426","longitude":"0.35687","bright_ti4":"345.44","scan":"0.4","track":"0.37","acq_date":"2026-08-22","acq_time":"1253","satellite":"N","instrument":"VIIRS","confidence":"n","version":"2.0NRT","bright_ti5":"304.38","frp":"2.74","daynight":"D","commune":"Chassiecq","code_insee":"16087","departement":"Charente","region":"Nouvelle-Aquitaine"}},{"type":"Feature","geometry":{"type":"Point","coordinates":[0.12135,45.96004]},"properties":{"latitude":"45.96004","longitude":"0.12135","bright_ti4":"337.31","scan":"0.4","track":"0.37","acq_date":"2026-08-22","acq_time":"1253","satellite":"N","instrument":"VIIRS","confidence":"n","version":"2.0NRT","bright_ti5":"304.77","frp":"1.59","daynight":"D","commune":"Charmé","code_insee":"16083","departement":"Charente","region":"Nouvelle-Aquitaine"}},{"type":"Feature","geometry":{"type":"Point","coordinates":[0.11848,45.96009]},"properties":{"latitude":"45.96009","longitude":"0.11848","bright_ti4":"342.75","scan":"0.4","track":"0.37","acq_date":"2026-08-22","acq_time":"1253","satellite":"N","instrument":"VIIRS","confidence":"n","version":"2.0NRT","bright_ti5":"307.38","frp":"6.53","daynight":"D","commune":"Charmé","code_insee":"16083","departement":"Charente","region":"Nouvelle-Aquitaine"}},{"type":"Feature","geometry":{"type":"Point","coordinates":[0.12355,45.96097]},"properties":{"latitude":"45.96097","longitude":"0.12355","bright_ti4":"336.43","scan":"0.4","track":"0.37","acq_date":"2026-08-22","acq_time":"1253","satellite":"N","instrument":"VIIRS","confidence":"n","version":"2.0NRT","bright_ti5":"305.95","frp":"3.12","daynight":"D","commune":"Charmé","code_insee":"16083","departement":"Charente","region":"Nouvelle-Aquitaine"}},{"type":"Feature","geometry":{"type":"Point","coordinates":[0.12238,45.96428]},"properties":{"latitude":"45.96428","longitude":"0.12238","bright_ti4":"338.88","scan":"0.4","track":"0.37","acq_date":"2026-08-22","acq_time":"1253","satellite":"N","instrument":"VIIRS","confidence":"n","version":"2.0NRT","bright_ti5":"306.13","frp":"3.12","daynight":"D","commune":"Charmé","code_insee":"16083","departement":"Charente","region":"Nouvelle-Aquitaine"}},{"type":"Feature","geometry":{"type":"Point","coordinates":[-0.08669,46.24968]},"properties":{"latitude":"46.24968","longitude":"-0.08669","bright_ti4":"347.41","scan":"0.4","track":"0.37","acq_date":"2026-08-22","acq_time":"1253","satellite":"N","instrument":"VIIRS","confidence":"n","version":"2.0NRT","bright_ti5":"305.49","frp":"3.96","daynight":"D","commune":"Lezay","code_insee":"79148","departement":"Deux-Sèvres","region":"Nouvelle-Aquitaine"}},{"type":"Feature","geometry":{"type":"Point","coordinates":[0.62579,49.35951]},"properties":{"latitude":"49.35951","longitude":"0.62579","bright_ti4":"339.72","scan":"0.38","track":"0.36","acq_date":"2026-08-22","acq_time":"1253","satellite":"N","instrument":"VIIRS","confidence":"n","version":"2.0NRT","bright_ti5":"301.1","frp":"3.16","daynight":"D","commune":"Valletot","code_insee":"27669","departement":"Eure","region":"Normandie"}},{"type":"Feature","geometry":{"type":"Point","coordinates":[2.29544,51.04243]},"properties":{"latitude":"51.04243","longitude":"2.29544","bright_ti4":"333.71","scan":"0.4","track":"0.37","acq_date":"2026-08-22","acq_time":"1253","satellite":"N","instrument":"VIIRS","confidence":"n","version":"2.0NRT","bright_ti5":"297.87","frp":"2.54","daynight":"D","commune":"Grande-Synthe","code_insee":"59271","departement":"Nord","region":"Hauts-de-France"}},{"type":"Feature","geometry":{"type":"Point","coordinates":[2.3239,51.04626]},"properties":{"latitude":"51.04626","longitude":"2.3239","bright_ti4":"333.28","scan":"0.4","track":"0.37","acq_date":"2026-08-22","acq_time":"1253","satellite":"N","instrument":"VIIRS","confidence":"n","version":"2.0NRT","bright_ti5":"298.4","frp":"1.85","daynight":"D","commune":"Dunkerque","code_insee":"59183","departement":"Nord","region":"Hauts-de-France"}}]}