{"type":"FeatureCollection","features":[{"type":"Feature","geometry":{"type":"Point","coordinates":[4.67242,46.98093]},"properties":{"latitude":"46.98093","longitude":"4.67242","bright_ti4":"330.14","scan":"0.46","track":"0.39","acq_date":"2026-07-11","acq_time":"130","satellite":"N20","instrument":"VIIRS","confidence":"n","version":"2.0NRT","bright_ti5":"292.27","frp":"5.42","daynight":"N","commune":"Baubigny","code_insee":"21050","departement":"Côte-d'Or","region":"Bourgogne-Franche-Comté"}},{"type":"Feature","geometry":{"type":"Point","coordinates":[4.66644,46.98164]},"properties":{"latitude":"46.98164","longitude":"4.66644","bright_ti4":"328.44","scan":"0.46","track":"0.39","acq_date":"2026-07-11","acq_time":"130","satellite":"N20","instrument":"VIIRS","confidence":"n","version":"2.0NRT","bright_ti5":"290.11","frp":"5.42","daynight":"N","commune":"La Rochepot","code_insee":"21527","departement":"Côte-d'Or","region":"Bourgogne-Franche-Comté"}},{"type":"Feature","geometry":{"type":"Point","coordinates":[4.16839,47.38177]},"properties":{"latitude":"47.38177","longitude":"4.16839","bright_ti4":"301.64","scan":"0.48","track":"0.4","acq_date":"2026-07-11","acq_time":"130","satellite":"N20","instrument":"VIIRS","confidence":"n","version":"2.0NRT","bright_ti5":"287.54","frp":"0.89","daynight":"N","commune":"La Roche-en-Brenil","code_insee":"21525","departement":"Côte-d'Or","region":"Bourgogne-Franche-Comté"}},{"type":"Feature","geometry":{"type":"Point","coordinates":[2.63116,48.43375]},"properties":{"latitude":"48.43375","longitude":"2.63116","bright_ti4":"307.29","scan":"0.56","track":"0.43","acq_date":"2026-07-11","acq_time":"130","satellite":"N20","instrument":"VIIRS","confidence":"n","version":"2.0NRT","bright_ti5":"285.82","frp":"3","daynight":"N","commune":"Fontainebleau","code_insee":"77186","departement":"Seine-et-Marne","region":"Île-de-France"}},{"type":"Feature","geometry":{"type":"Point","coordinates":[2.63954,48.43698]},"properties":{"latitude":"48.43698","longitude":"2.63954","bright_ti4":"303.91","scan":"0.56","track":"0.43","acq_date":"2026-07-11","acq_time":"130","satellite":"N20","instrument":"VIIRS","confidence":"n","version":"2.0NRT","bright_ti5":"289.17","frp":"3","daynight":"N","commune":"Fontainebleau","code_insee":"77186","departement":"Seine-et-Marne","region":"Île-de-France"}},{"type":"Feature","geometry":{"type":"Point","coordinates":[2.63191,48.4377]},"properties":{"latitude":"48.4377","longitude":"2.63191","bright_ti4":"328.55","scan":"0.56","track":"0.43","acq_date":"2026-07-11","acq_time":"130","satellite":"N20","instrument":"VIIRS","confidence":"n","version":"2.0NRT","bright_ti5":"291.04","frp":"3","daynight":"N","commune":"Fontainebleau","code_insee":"77186","departement":"Seine-et-Marne","region":"Île-de-France"}},{"type":"Feature","geometry":{"type":"Point","coordinates":[6.96781,48.69056]},"properties":{"latitude":"48.69056","longitude":"6.96781","bright_ti4":"306.53","scan":"0.41","track":"0.37","acq_date":"2026-07-11","acq_time":"130","satellite":"N20","instrument":"VIIRS","confidence":"n","version":"2.0NRT","bright_ti5":"291.55","frp":"1.1","daynight":"N","commune":"Héming","code_insee":"57314","departement":"Moselle","region":"Grand Est"}},{"type":"Feature","geometry":{"type":"Point","coordinates":[2.64536,49.22666]},"properties":{"latitude":"49.22666","longitude":"2.64536","bright_ti4":"317.58","scan":"0.57","track":"0.43","acq_date":"2026-07-11","acq_time":"130","satellite":"N20","instrument":"VIIRS","confidence":"n","version":"2.0NRT","bright_ti5":"290.33","frp":"2.46","daynight":"N","commune":"Chamant","code_insee":"60138","departement":"Oise","region":"Hauts-de-France"}},{"type":"Feature","geometry":{"type":"Point","coordinates":[-0.40972,49.32838]},"properties":{"latitude":"49.32838","longitude":"-0.40972","bright_ti4":"302.55","scan":"0.52","track":"0.5","acq_date":"2026-07-11","acq_time":"130","satellite":"N20","instrument":"VIIRS","confidence":"n","version":"2.0NRT","bright_ti5":"289.37","frp":"0.57","daynight":"N","commune":"Bernières-sur-Mer","code_insee":"14066","departement":"Calvados","region":"Normandie"}},{"type":"Feature","geometry":{"type":"Point","coordinates":[4.7708,49.885]},"properties":{"latitude":"49.885","longitude":"4.7708","bright_ti4":"316.96","scan":"0.49","track":"0.4","acq_date":"2026-07-11","acq_time":"130","satellite":"N20","instrument":"VIIRS","confidence":"n","version":"2.0NRT","bright_ti5":"291.67","frp":"1.44","daynight":"N","commune":"Monthermé","code_insee":"08302","departement":"Ardennes","region":"Grand Est"}},{"type":"Feature","geometry":{"type":"Point","coordinates":[3.56368,50.40158]},"properties":{"latitude":"50.40158","longitude":"3.56368","bright_ti4":"302.8","scan":"0.54","track":"0.42","acq_date":"2026-07-11","acq_time":"130","satellite":"N20","instrument":"VIIRS","confidence":"n","version":"2.0NRT","bright_ti5":"292.2","frp":"1","daynight":"N","commune":"Saint-Saulve","code_insee":"59544","departement":"Nord","region":"Hauts-de-France"}},{"type":"Feature","geometry":{"type":"Point","coordinates":[2.27428,51.02735]},"properties":{"latitude":"51.02735","longitude":"2.27428","bright_ti4":"314.07","scan":"0.41","track":"0.45","acq_date":"2026-07-11","acq_time":"130","satellite":"N20","instrument":"VIIRS","confidence":"n","version":"2.0NRT","bright_ti5":"291.5","frp":"1.85","daynight":"N","commune":"Grande-Synthe","code_insee":"59271","departement":"Nord","region":"Hauts-de-France"}},{"type":"Feature","geometry":{"type":"Point","coordinates":[2.26835,51.02784]},"properties":{"latitude":"51.02784","longitude":"2.26835","bright_ti4":"307.75","scan":"0.41","track":"0.45","acq_date":"2026-07-11","acq_time":"130","satellite":"N20","instrument":"VIIRS","confidence":"n","version":"2.0NRT","bright_ti5":"290.66","frp":"1.85","daynight":"N","commune":"Grande-Synthe","code_insee":"59271","departement":"Nord","region":"Hauts-de-France"}},{"type":"Feature","geometry":{"type":"Point","coordinates":[2.28791,51.03464]},"properties":{"latitude":"51.03464","longitude":"2.28791","bright_ti4":"319.12","scan":"0.41","track":"0.45","acq_date":"2026-07-11","acq_time":"130","satellite":"N20","instrument":"VIIRS","confidence":"n","version":"2.0NRT","bright_ti5":"290.98","frp":"2.13","daynight":"N","commune":"Grande-Synthe","code_insee":"59271","departement":"Nord","region":"Hauts-de-France"}},{"type":"Feature","geometry":{"type":"Point","coordinates":[2.29646,51.04655]},"properties":{"latitude":"51.04655","longitude":"2.29646","bright_ti4":"339.65","scan":"0.41","track":"0.45","acq_date":"2026-07-11","acq_time":"130","satellite":"N20","instrument":"VIIRS","confidence":"n","version":"2.0NRT","bright_ti5":"293.33","frp":"10.36","daynight":"N","commune":"Grande-Synthe","code_insee":"59271","departement":"Nord","region":"Hauts-de-France"}},{"type":"Feature","geometry":{"type":"Point","coordinates":[2.32101,51.0487]},"properties":{"latitude":"51.0487","longitude":"2.32101","bright_ti4":"304.87","scan":"0.41","track":"0.45","acq_date":"2026-07-11","acq_time":"130","satellite":"N20","instrument":"VIIRS","confidence":"n","version":"2.0NRT","bright_ti5":"289.87","frp":"1.27","daynight":"N","commune":"Dunkerque","code_insee":"59183","departement":"Nord","region":"Hauts-de-France"}},{"type":"Feature","geometry":{"type":"Point","coordinates":[4.89585,43.43358]},"properties":{"latitude":"43.43358","longitude":"4.89585","bright_ti4":"312.24","scan":"0.42","track":"0.37","acq_date":"2026-07-11","acq_time":"132","satellite":"N20","instrument":"VIIRS","confidence":"n","version":"2.0NRT","bright_ti5":"293.96","frp":"8.2","daynight":"N","commune":"Fos-sur-Mer","code_insee":"13039","departement":"Bouches-du-Rhône","region":"Provence-Alpes-Côte d'Azur"}},{"type":"Feature","geometry":{"type":"Point","coordinates":[4.89073,43.43426]},"properties":{"latitude":"43.43426","longitude":"4.89073","bright_ti4":"334.6","scan":"0.42","track":"0.37","acq_date":"2026-07-11","acq_time":"132","satellite":"N20","instrument":"VIIRS","confidence":"n","version":"2.0NRT","bright_ti5":"296.42","frp":"8.2","daynight":"N","commune":"Fos-sur-Mer","code_insee":"13039","departement":"Bouches-du-Rhône","region":"Provence-Alpes-Côte d'Azur"}},{"type":"Feature","geometry":{"type":"Point","coordinates":[4.89159,43.43768]},"properties":{"latitude":"43.43768","longitude":"4.89159","bright_ti4":"305.17","scan":"0.42","track":"0.37","acq_date":"2026-07-11","acq_time":"132","satellite":"N20","instrument":"VIIRS","confidence":"n","version":"2.0NRT","bright_ti5":"293.31","frp":"1.3","daynight":"N","commune":"Fos-sur-Mer","code_insee":"13039","departement":"Bouches-du-Rhône","region":"Provence-Alpes-Côte d'Azur"}},{"type":"Feature","geometry":{"type":"Point","coordinates":[4.89244,43.44109]},"properties":{"latitude":"43.44109","longitude":"4.89244","bright_ti4":"310.04","scan":"0.42","track":"0.37","acq_date":"2026-07-11","acq_time":"132","satellite":"N20","instrument":"VIIRS","confidence":"n","version":"2.0NRT","bright_ti5":"294.52","frp":"1.3","daynight":"N","commune":"Fos-sur-Mer","code_insee":"13039","departement":"Bouches-du-Rhône","region":"Provence-Alpes-Côte d'Azur"}},{"type":"Feature","geometry":{"type":"Point","coordinates":[4.89842,43.44382]},"properties":{"latitude":"43.44382","longitude":"4.89842","bright_ti4":"317.75","scan":"0.42","track":"0.37","acq_date":"2026-07-11","acq_time":"132","satellite":"N20","instrument":"VIIRS","confidence":"n","version":"2.0NRT","bright_ti5":"294.18","frp":"2.65","daynight":"N","commune":"Fos-sur-Mer","code_insee":"13039","departement":"Bouches-du-Rhône","region":"Provence-Alpes-Côte d'Azur"}},{"type":"Feature","geometry":{"type":"Point","coordinates":[7.37496,43.79387]},"properties":{"latitude":"43.79387","longitude":"7.37496","bright_ti4":"310.44","scan":"0.38","track":"0.36","acq_date":"2026-07-11","acq_time":"132","satellite":"N20","instrument":"VIIRS","confidence":"n","version":"2.0NRT","bright_ti5":"293.47","frp":"1.17","daynight":"N","commune":"Blausasc","code_insee":"06019","departement":"Alpes-Maritimes","region":"Provence-Alpes-Côte d'Azur"}},{"type":"Feature","geometry":{"type":"Point","coordinates":[1.34308,43.90362]},"properties":{"latitude":"43.90362","longitude":"1.34308","bright_ti4":"303.51","scan":"0.56","track":"0.43","acq_date":"2026-07-11","acq_time":"132","satellite":"N20","instrument":"VIIRS","confidence":"n","version":"2.0NRT","bright_ti5":"289.2","frp":"0.85","daynight":"N","commune":"Labastide-Saint-Pierre","code_insee":"82079","departement":"Tarn-et-Garonne","region":"Occitanie"}},{"type":"Feature","geometry":{"type":"Point","coordinates":[0.72279,44.14553]},"properties":{"latitude":"44.14553","longitude":"0.72279","bright_ti4":"332.49","scan":"0.4","track":"0.45","acq_date":"2026-07-11","acq_time":"132","satellite":"N20","instrument":"VIIRS","confidence":"n","version":"2.0NRT","bright_ti5":"290.03","frp":"3.21","daynight":"N","commune":"Caudecoste","code_insee":"47060","departement":"Lot-et-Garonne","region":"Nouvelle-Aquitaine"}},{"type":"Feature","geometry":{"type":"Point","coordinates":[1.10416,47.28839]},"properties":{"latitude":"47.28839","longitude":"1.10416","bright_ti4":"296.21","scan":"0.51","track":"0.66","acq_date":"2026-07-11","acq_time":"310","satellite":"N20","instrument":"VIIRS","confidence":"n","version":"2.0NRT","bright_ti5":"279.94","frp":"0.74","daynight":"N","commune":"Épeigné-les-Bois","code_insee":"37100","departement":"Indre-et-Loire","region":"Centre-Val de Loire"}},{"type":"Feature","geometry":{"type":"Point","coordinates":[1.09802,47.29043]},"properties":{"latitude":"47.29043","longitude":"1.09802","bright_ti4":"295.3","scan":"0.51","track":"0.66","acq_date":"2026-07-11","acq_time":"310","satellite":"N20","instrument":"VIIRS","confidence":"n","version":"2.0NRT","bright_ti5":"280.24","frp":"0.63","daynight":"N","commune":"Épeigné-les-Bois","code_insee":"37100","departement":"Indre-et-Loire","region":"Centre-Val de Loire"}},{"type":"Feature","geometry":{"type":"Point","coordinates":[2.63871,48.43799]},"properties":{"latitude":"48.43799","longitude":"2.63871","bright_ti4":"312.97","scan":"0.54","track":"0.68","acq_date":"2026-07-11","acq_time":"310","satellite":"N20","instrument":"VIIRS","confidence":"n","version":"2.0NRT","bright_ti5":"288.74","frp":"2.01","daynight":"N","commune":"Fontainebleau","code_insee":"77186","departement":"Seine-et-Marne","region":"Île-de-France"}},{"type":"Feature","geometry":{"type":"Point","coordinates":[0.53753,49.47953]},"properties":{"latitude":"49.47953","longitude":"0.53753","bright_ti4":"301.35","scan":"0.41","track":"0.61","acq_date":"2026-07-11","acq_time":"310","satellite":"N20","instrument":"VIIRS","confidence":"n","version":"2.0NRT","bright_ti5":"288.96","frp":"0.86","daynight":"N","commune":"Port-Jérôme-sur-Seine","code_insee":"76476","departement":"Seine-Maritime","region":"Normandie"}},{"type":"Feature","geometry":{"type":"Point","coordinates":[2.28774,51.0351]},"properties":{"latitude":"51.0351","longitude":"2.28774","bright_ti4":"300.24","scan":"0.42","track":"0.61","acq_date":"2026-07-11","acq_time":"310","satellite":"N20","instrument":"VIIRS","confidence":"n","version":"2.0NRT","bright_ti5":"263.75","frp":"1.42","daynight":"N","commune":"Grande-Synthe","code_insee":"59271","departement":"Nord","region":"Hauts-de-France"}},{"type":"Feature","geometry":{"type":"Point","coordinates":[4.21619,48.45191]},"properties":{"latitude":"48.45191","longitude":"4.21619","bright_ti4":"343.16","scan":"0.58","track":"0.7","acq_date":"2026-07-11","acq_time":"1117","satellite":"N20","instrument":"VIIRS","confidence":"n","version":"2.0NRT","bright_ti5":"302.68","frp":"9.01","daynight":"D","commune":"Avant-lès-Ramerupt","code_insee":"10021","departement":"Aube","region":"Grand Est"}},{"type":"Feature","geometry":{"type":"Point","coordinates":[4.21793,48.45538]},"properties":{"latitude":"48.45538","longitude":"4.21793","bright_ti4":"344.1","scan":"0.58","track":"0.7","acq_date":"2026-07-11","acq_time":"1117","satellite":"N20","instrument":"VIIRS","confidence":"n","version":"2.0NRT","bright_ti5":"299.49","frp":"4.26","daynight":"D","commune":"Avant-lès-Ramerupt","code_insee":"10021","departement":"Aube","region":"Grand Est"}},{"type":"Feature","geometry":{"type":"Point","coordinates":[1.46107,49.23141]},"properties":{"latitude":"49.23141","longitude":"1.46107","bright_ti4":"335.24","scan":"0.7","track":"0.75","acq_date":"2026-07-11","acq_time":"1117","satellite":"N20","instrument":"VIIRS","confidence":"n","version":"2.0NRT","bright_ti5":"297.6","frp":"9.24","daynight":"D","commune":"Les Andelys","code_insee":"27016","departement":"Eure","region":"Normandie"}},{"type":"Feature","geometry":{"type":"Point","coordinates":[1.46919,49.23448]},"properties":{"latitude":"49.23448","longitude":"1.46919","bright_ti4":"354.49","scan":"0.7","track":"0.75","acq_date":"2026-07-11","acq_time":"1117","satellite":"N20","instrument":"VIIRS","confidence":"n","version":"2.0NRT","bright_ti5":"298.42","frp":"9.24","daynight":"D","commune":"Les Andelys","code_insee":"27016","departement":"Eure","region":"Normandie"}},{"type":"Feature","geometry":{"type":"Point","coordinates":[5.22017,49.65086]},"properties":{"latitude":"49.65086","longitude":"5.22017","bright_ti4":"332.04","scan":"0.48","track":"0.65","acq_date":"2026-07-11","acq_time":"1117","satellite":"N20","instrument":"VIIRS","confidence":"n","version":"2.0NRT","bright_ti5":"303.01","frp":"6.8","daynight":"D","commune":"Les Deux-Villes","code_insee":"08138","departement":"Ardennes","region":"Grand Est"}},{"type":"Feature","geometry":{"type":"Point","coordinates":[5.22635,49.65292]},"properties":{"latitude":"49.65292","longitude":"5.22635","bright_ti4":"367","scan":"0.48","track":"0.65","acq_date":"2026-07-11","acq_time":"1117","satellite":"N20","instrument":"VIIRS","confidence":"h","version":"2.0NRT","bright_ti5":"302.92","frp":"6.8","daynight":"D","commune":"Les Deux-Villes","code_insee":"08138","departement":"Ardennes","region":"Grand Est"}},{"type":"Feature","geometry":{"type":"Point","coordinates":[5.22482,49.65393]},"properties":{"latitude":"49.65393","longitude":"5.22482","bright_ti4":"367","scan":"0.48","track":"0.65","acq_date":"2026-07-11","acq_time":"1117","satellite":"N20","instrument":"VIIRS","confidence":"h","version":"2.0NRT","bright_ti5":"304.78","frp":"10.67","daynight":"D","commune":"Les Deux-Villes","code_insee":"08138","departement":"Ardennes","region":"Grand Est"}},{"type":"Feature","geometry":{"type":"Point","coordinates":[4.88995,43.43501]},"properties":{"latitude":"43.43501","longitude":"4.88995","bright_ti4":"338.64","scan":"0.49","track":"0.4","acq_date":"2026-07-11","acq_time":"1255","satellite":"N20","instrument":"VIIRS","confidence":"n","version":"2.0NRT","bright_ti5":"306.94","frp":"7.6","daynight":"D","commune":"Fos-sur-Mer","code_insee":"13039","departement":"Bouches-du-Rhône","region":"Provence-Alpes-Côte d'Azur"}},{"type":"Feature","geometry":{"type":"Point","coordinates":[4.88317,43.43804]},"properties":{"latitude":"43.43804","longitude":"4.88317","bright_ti4":"340.98","scan":"0.49","track":"0.4","acq_date":"2026-07-11","acq_time":"1255","satellite":"N20","instrument":"VIIRS","confidence":"n","version":"2.0NRT","bright_ti5":"304.7","frp":"7.6","daynight":"D","commune":"Fos-sur-Mer","code_insee":"13039","departement":"Bouches-du-Rhône","region":"Provence-Alpes-Côte d'Azur"}},{"type":"Feature","geometry":{"type":"Point","coordinates":[2.67223,44.27537]},"properties":{"latitude":"44.27537","longitude":"2.67223","bright_ti4":"346.73","scan":"0.42","track":"0.38","acq_date":"2026-07-11","acq_time":"1255","satellite":"N20","instrument":"VIIRS","confidence":"n","version":"2.0NRT","bright_ti5":"310.24","frp":"6.1","daynight":"D","commune":"Pont-de-Salars","code_insee":"12185","departement":"Aveyron","region":"Occitanie"}},{"type":"Feature","geometry":{"type":"Point","coordinates":[5.29985,44.74945]},"properties":{"latitude":"44.74945","longitude":"5.29985","bright_ti4":"337.57","scan":"0.52","track":"0.42","acq_date":"2026-07-11","acq_time":"1255","satellite":"N20","instrument":"VIIRS","confidence":"n","version":"2.0NRT","bright_ti5":"303.97","frp":"8.42","daynight":"D","commune":"Sainte-Croix","code_insee":"26299","departement":"Drôme","region":"Auvergne-Rhône-Alpes"}},{"type":"Feature","geometry":{"type":"Point","coordinates":[5.29307,44.75265]},"properties":{"latitude":"44.75265","longitude":"5.29307","bright_ti4":"334.2","scan":"0.52","track":"0.42","acq_date":"2026-07-11","acq_time":"1255","satellite":"N20","instrument":"VIIRS","confidence":"l","version":"2.0NRT","bright_ti5":"304.65","frp":"5.08","daynight":"D","commune":"Pontaix","code_insee":"26248","departement":"Drôme","region":"Auvergne-Rhône-Alpes"}},{"type":"Feature","geometry":{"type":"Point","coordinates":[0.31591,44.76396]},"properties":{"latitude":"44.76396","longitude":"0.31591","bright_ti4":"350.84","scan":"0.39","track":"0.36","acq_date":"2026-07-11","acq_time":"1255","satellite":"N20","instrument":"VIIRS","confidence":"n","version":"2.0NRT","bright_ti5":"305.21","frp":"2.22","daynight":"D","commune":"Thénac","code_insee":"24549","departement":"Dordogne","region":"Nouvelle-Aquitaine"}},{"type":"Feature","geometry":{"type":"Point","coordinates":[2.86176,46.69586]},"properties":{"latitude":"46.69586","longitude":"2.86176","bright_ti4":"340.91","scan":"0.45","track":"0.39","acq_date":"2026-07-11","acq_time":"1255","satellite":"N20","instrument":"VIIRS","confidence":"n","version":"2.0NRT","bright_ti5":"309.92","frp":"5.89","daynight":"D","commune":"Couleuvre","code_insee":"03087","departement":"Allier","region":"Auvergne-Rhône-Alpes"}},{"type":"Feature","geometry":{"type":"Point","coordinates":[1.84979,46.87617]},"properties":{"latitude":"46.87617","longitude":"1.84979","bright_ti4":"339.99","scan":"0.42","track":"0.38","acq_date":"2026-07-11","acq_time":"1257","satellite":"N20","instrument":"VIIRS","confidence":"l","version":"2.0NRT","bright_ti5":"310.91","frp":"3.09","daynight":"D","commune":"Neuvy-Pailloux","code_insee":"36140","departement":"Indre","region":"Centre-Val de Loire"}},{"type":"Feature","geometry":{"type":"Point","coordinates":[6.7668,47.48094]},"properties":{"latitude":"47.48094","longitude":"6.7668","bright_ti4":"330.83","scan":"0.43","track":"0.46","acq_date":"2026-07-11","acq_time":"1257","satellite":"N20","instrument":"VIIRS","confidence":"l","version":"2.0NRT","bright_ti5":"304.13","frp":"2.56","daynight":"D","commune":"Bart","code_insee":"25043","departement":"Doubs","region":"Bourgogne-Franche-Comté"}},{"type":"Feature","geometry":{"type":"Point","coordinates":[1.19782,48.59777]},"properties":{"latitude":"48.59777","longitude":"1.19782","bright_ti4":"336.33","scan":"0.42","track":"0.38","acq_date":"2026-07-11","acq_time":"1257","satellite":"N20","instrument":"VIIRS","confidence":"l","version":"2.0NRT","bright_ti5":"310.22","frp":"2.39","daynight":"D","commune":"Saint-Maixme-Hauterive","code_insee":"28351","departement":"Eure-et-Loir","region":"Centre-Val de Loire"}},{"type":"Feature","geometry":{"type":"Point","coordinates":[5.87643,48.71788]},"properties":{"latitude":"48.71788","longitude":"5.87643","bright_ti4":"336.79","scan":"0.41","track":"0.45","acq_date":"2026-07-11","acq_time":"1257","satellite":"N20","instrument":"VIIRS","confidence":"n","version":"2.0NRT","bright_ti5":"309.42","frp":"0.83","daynight":"D","commune":"Bruley","code_insee":"54102","departement":"Meurthe-et-Moselle","region":"Grand Est"}},{"type":"Feature","geometry":{"type":"Point","coordinates":[2.27749,51.02728]},"properties":{"latitude":"51.02728","longitude":"2.27749","bright_ti4":"334.91","scan":"0.48","track":"0.4","acq_date":"2026-07-11","acq_time":"1257","satellite":"N20","instrument":"VIIRS","confidence":"n","version":"2.0NRT","bright_ti5":"300.73","frp":"3.84","daynight":"D","commune":"Grande-Synthe","code_insee":"59271","departement":"Nord","region":"Hauts-de-France"}},{"type":"Feature","geometry":{"type":"Point","coordinates":[2.28431,51.02802]},"properties":{"latitude":"51.02802","longitude":"2.28431","bright_ti4":"336.86","scan":"0.48","track":"0.4","acq_date":"2026-07-11","acq_time":"1257","satellite":"N20","instrument":"VIIRS","confidence":"n","version":"2.0NRT","bright_ti5":"301.97","frp":"3.84","daynight":"D","commune":"Grande-Synthe","code_insee":"59271","departement":"Nord","region":"Hauts-de-France"}},{"type":"Feature","geometry":{"type":"Point","coordinates":[2.27652,51.03093]},"properties":{"latitude":"51.03093","longitude":"2.27652","bright_ti4":"332.87","scan":"0.48","track":"0.4","acq_date":"2026-07-11","acq_time":"1257","satellite":"N20","instrument":"VIIRS","confidence":"n","version":"2.0NRT","bright_ti5":"297.35","frp":"3.84","daynight":"D","commune":"Grande-Synthe","code_insee":"59271","departement":"Nord","region":"Hauts-de-France"}},{"type":"Feature","geometry":{"type":"Point","coordinates":[2.28333,51.03167]},"properties":{"latitude":"51.03167","longitude":"2.28333","bright_ti4":"335.94","scan":"0.48","track":"0.4","acq_date":"2026-07-11","acq_time":"1257","satellite":"N20","instrument":"VIIRS","confidence":"n","version":"2.0NRT","bright_ti5":"296.85","frp":"3.84","daynight":"D","commune":"Grande-Synthe","code_insee":"59271","departement":"Nord","region":"Hauts-de-France"}},{"type":"Feature","geometry":{"type":"Point","coordinates":[2.26839,51.02763]},"properties":{"latitude":"51.02763","longitude":"2.26839","bright_ti4":"309.48","scan":"0.76","track":"0.77","acq_date":"2026-07-11","acq_time":"35","satellite":"N21","instrument":"VIIRS","confidence":"n","version":"2.0NRT","bright_ti5":"281.25","frp":"2.79","daynight":"N","commune":"Grande-Synthe","code_insee":"59271","departement":"Nord","region":"Hauts-de-France"}},{"type":"Feature","geometry":{"type":"Point","coordinates":[2.27336,51.03135]},"properties":{"latitude":"51.03135","longitude":"2.27336","bright_ti4":"302.51","scan":"0.76","track":"0.77","acq_date":"2026-07-11","acq_time":"35","satellite":"N21","instrument":"VIIRS","confidence":"n","version":"2.0NRT","bright_ti5":"283.9","frp":"3.34","daynight":"N","commune":"Grande-Synthe","code_insee":"59271","departement":"Nord","region":"Hauts-de-France"}},{"type":"Feature","geometry":{"type":"Point","coordinates":[2.28431,51.03163]},"properties":{"latitude":"51.03163","longitude":"2.28431","bright_ti4":"296.98","scan":"0.76","track":"0.77","acq_date":"2026-07-11","acq_time":"35","satellite":"N21","instrument":"VIIRS","confidence":"n","version":"2.0NRT","bright_ti5":"284.12","frp":"3.37","daynight":"N","commune":"Grande-Synthe","code_insee":"59271","departement":"Nord","region":"Hauts-de-France"}},{"type":"Feature","geometry":{"type":"Point","coordinates":[2.28965,51.03537]},"properties":{"latitude":"51.03537","longitude":"2.28965","bright_ti4":"295.92","scan":"0.76","track":"0.77","acq_date":"2026-07-11","acq_time":"35","satellite":"N21","instrument":"VIIRS","confidence":"n","version":"2.0NRT","bright_ti5":"276.58","frp":"1.35","daynight":"N","commune":"Grande-Synthe","code_insee":"59271","departement":"Nord","region":"Hauts-de-France"}},{"type":"Feature","geometry":{"type":"Point","coordinates":[2.3,51.04278]},"properties":{"latitude":"51.04278","longitude":"2.3","bright_ti4":"296.57","scan":"0.76","track":"0.77","acq_date":"2026-07-11","acq_time":"35","satellite":"N21","instrument":"VIIRS","confidence":"n","version":"2.0NRT","bright_ti5":"272.44","frp":"1.35","daynight":"N","commune":"Grande-Synthe","code_insee":"59271","departement":"Nord","region":"Hauts-de-France"}},{"type":"Feature","geometry":{"type":"Point","coordinates":[4.89128,43.43297]},"properties":{"latitude":"43.43297","longitude":"4.89128","bright_ti4":"333.31","scan":"0.54","track":"0.68","acq_date":"2026-07-11","acq_time":"37","satellite":"N21","instrument":"VIIRS","confidence":"n","version":"2.0NRT","bright_ti5":"290.58","frp":"3.4","daynight":"N","commune":"Fos-sur-Mer","code_insee":"13039","departement":"Bouches-du-Rhône","region":"Provence-Alpes-Côte d'Azur"}},{"type":"Feature","geometry":{"type":"Point","coordinates":[4.88452,43.43309]},"properties":{"latitude":"43.43309","longitude":"4.88452","bright_ti4":"302.1","scan":"0.54","track":"0.68","acq_date":"2026-07-11","acq_time":"37","satellite":"N21","instrument":"VIIRS","confidence":"n","version":"2.0NRT","bright_ti5":"290.26","frp":"6.79","daynight":"N","commune":"Fos-sur-Mer","code_insee":"13039","departement":"Bouches-du-Rhône","region":"Provence-Alpes-Côte d'Azur"}},{"type":"Feature","geometry":{"type":"Point","coordinates":[4.89825,43.4391]},"properties":{"latitude":"43.4391","longitude":"4.89825","bright_ti4":"303.75","scan":"0.54","track":"0.68","acq_date":"2026-07-11","acq_time":"37","satellite":"N21","instrument":"VIIRS","confidence":"n","version":"2.0NRT","bright_ti5":"289.36","frp":"3.4","daynight":"N","commune":"Fos-sur-Mer","code_insee":"13039","departement":"Bouches-du-Rhône","region":"Provence-Alpes-Côte d'Azur"}},{"type":"Feature","geometry":{"type":"Point","coordinates":[4.89148,43.43923]},"properties":{"latitude":"43.43923","longitude":"4.89148","bright_ti4":"307.93","scan":"0.54","track":"0.68","acq_date":"2026-07-11","acq_time":"37","satellite":"N21","instrument":"VIIRS","confidence":"n","version":"2.0NRT","bright_ti5":"290.48","frp":"3.4","daynight":"N","commune":"Fos-sur-Mer","code_insee":"13039","departement":"Bouches-du-Rhône","region":"Provence-Alpes-Côte d'Azur"}},{"type":"Feature","geometry":{"type":"Point","coordinates":[2.64348,49.22538]},"properties":{"latitude":"49.22538","longitude":"2.64348","bright_ti4":"298.01","scan":"0.73","track":"0.76","acq_date":"2026-07-11","acq_time":"37","satellite":"N21","instrument":"VIIRS","confidence":"n","version":"2.0NRT","bright_ti5":"278.31","frp":"2.9","daynight":"N","commune":"Chamant","code_insee":"60138","departement":"Oise","region":"Hauts-de-France"}},{"type":"Feature","geometry":{"type":"Point","coordinates":[4.66721,46.98272]},"properties":{"latitude":"46.98272","longitude":"4.66721","bright_ti4":"323.26","scan":"0.42","track":"0.45","acq_date":"2026-07-11","acq_time":"215","satellite":"N21","instrument":"VIIRS","confidence":"n","version":"2.0NRT","bright_ti5":"286.73","frp":"1.53","daynight":"N","commune":"La Rochepot","code_insee":"21527","departement":"Côte-d'Or","region":"Bourgogne-Franche-Comté"}},{"type":"Feature","geometry":{"type":"Point","coordinates":[6.86624,48.07141]},"properties":{"latitude":"48.07141","longitude":"6.86624","bright_ti4":"297.64","scan":"0.49","track":"0.48","acq_date":"2026-07-11","acq_time":"215","satellite":"N21","instrument":"VIIRS","confidence":"n","version":"2.0NRT","bright_ti5":"269.1","frp":"0.56","daynight":"N","commune":"Gérardmer","code_insee":"88196","departement":"Vosges","region":"Grand Est"}},{"type":"Feature","geometry":{"type":"Point","coordinates":[2.63718,48.43488]},"properties":{"latitude":"48.43488","longitude":"2.63718","bright_ti4":"328.45","scan":"0.49","track":"0.4","acq_date":"2026-07-11","acq_time":"215","satellite":"N21","instrument":"VIIRS","confidence":"n","version":"2.0NRT","bright_ti5":"293.6","frp":"6.1","daynight":"N","commune":"Fontainebleau","code_insee":"77186","departement":"Seine-et-Marne","region":"Île-de-France"}},{"type":"Feature","geometry":{"type":"Point","coordinates":[2.63088,48.43618]},"properties":{"latitude":"48.43618","longitude":"2.63088","bright_ti4":"317.05","scan":"0.49","track":"0.4","acq_date":"2026-07-11","acq_time":"215","satellite":"N21","instrument":"VIIRS","confidence":"n","version":"2.0NRT","bright_ti5":"291.78","frp":"4.33","daynight":"N","commune":"Fontainebleau","code_insee":"77186","departement":"Seine-et-Marne","region":"Île-de-France"}},{"type":"Feature","geometry":{"type":"Point","coordinates":[4.02576,48.63368]},"properties":{"latitude":"48.63368","longitude":"4.02576","bright_ti4":"299.98","scan":"0.54","track":"0.42","acq_date":"2026-07-11","acq_time":"215","satellite":"N21","instrument":"VIIRS","confidence":"n","version":"2.0NRT","bright_ti5":"283.39","frp":"0.65","daynight":"N","commune":"Salon","code_insee":"10365","departement":"Aube","region":"Grand Est"}},{"type":"Feature","geometry":{"type":"Point","coordinates":[6.9673,48.68888]},"properties":{"latitude":"48.68888","longitude":"6.9673","bright_ti4":"302.57","scan":"0.47","track":"0.48","acq_date":"2026-07-11","acq_time":"215","satellite":"N21","instrument":"VIIRS","confidence":"n","version":"2.0NRT","bright_ti5":"289.12","frp":"1.63","daynight":"N","commune":"Héming","code_insee":"57314","departement":"Moselle","region":"Grand Est"}},{"type":"Feature","geometry":{"type":"Point","coordinates":[2.73716,48.94864]},"properties":{"latitude":"48.94864","longitude":"2.73716","bright_ti4":"302.29","scan":"0.48","track":"0.4","acq_date":"2026-07-11","acq_time":"215","satellite":"N21","instrument":"VIIRS","confidence":"n","version":"2.0NRT","bright_ti5":"291.14","frp":"0.73","daynight":"N","commune":"Fresnes-sur-Marne","code_insee":"77196","departement":"Seine-et-Marne","region":"Île-de-France"}},{"type":"Feature","geometry":{"type":"Point","coordinates":[-0.4086,49.32517]},"properties":{"latitude":"49.32517","longitude":"-0.4086","bright_ti4":"306.03","scan":"0.4","track":"0.37","acq_date":"2026-07-11","acq_time":"215","satellite":"N21","instrument":"VIIRS","confidence":"n","version":"2.0NRT","bright_ti5":"291.07","frp":"0.63","daynight":"N","commune":"Bernières-sur-Mer","code_insee":"14066","departement":"Calvados","region":"Normandie"}},{"type":"Feature","geometry":{"type":"Point","coordinates":[6.05113,49.33471]},"properties":{"latitude":"49.33471","longitude":"6.05113","bright_ti4":"307.37","scan":"0.42","track":"0.45","acq_date":"2026-07-11","acq_time":"215","satellite":"N21","instrument":"VIIRS","confidence":"n","version":"2.0NRT","bright_ti5":"291.51","frp":"1.01","daynight":"N","commune":"Nilvange","code_insee":"57508","departement":"Moselle","region":"Grand Est"}},{"type":"Feature","geometry":{"type":"Point","coordinates":[0.53411,49.47496]},"properties":{"latitude":"49.47496","longitude":"0.53411","bright_ti4":"302.6","scan":"0.41","track":"0.37","acq_date":"2026-07-11","acq_time":"215","satellite":"N21","instrument":"VIIRS","confidence":"n","version":"2.0NRT","bright_ti5":"292.33","frp":"1.35","daynight":"N","commune":"Lillebonne","code_insee":"76384","departement":"Seine-Maritime","region":"Normandie"}},{"type":"Feature","geometry":{"type":"Point","coordinates":[2.27301,51.02796]},"properties":{"latitude":"51.02796","longitude":"2.27301","bright_ti4":"326.62","scan":"0.43","track":"0.38","acq_date":"2026-07-11","acq_time":"215","satellite":"N21","instrument":"VIIRS","confidence":"n","version":"2.0NRT","bright_ti5":"293.08","frp":"3.02","daynight":"N","commune":"Grande-Synthe","code_insee":"59271","departement":"Nord","region":"Hauts-de-France"}},{"type":"Feature","geometry":{"type":"Point","coordinates":[2.28817,51.03238]},"properties":{"latitude":"51.03238","longitude":"2.28817","bright_ti4":"318.39","scan":"0.43","track":"0.38","acq_date":"2026-07-11","acq_time":"215","satellite":"N21","instrument":"VIIRS","confidence":"n","version":"2.0NRT","bright_ti5":"292.24","frp":"2.77","daynight":"N","commune":"Grande-Synthe","code_insee":"59271","departement":"Nord","region":"Hauts-de-France"}},{"type":"Feature","geometry":{"type":"Point","coordinates":[2.28982,51.03575]},"properties":{"latitude":"51.03575","longitude":"2.28982","bright_ti4":"323.67","scan":"0.43","track":"0.38","acq_date":"2026-07-11","acq_time":"215","satellite":"N21","instrument":"VIIRS","confidence":"n","version":"2.0NRT","bright_ti5":"293.13","frp":"2.77","daynight":"N","commune":"Grande-Synthe","code_insee":"59271","departement":"Nord","region":"Hauts-de-France"}},{"type":"Feature","geometry":{"type":"Point","coordinates":[2.29312,51.04248]},"properties":{"latitude":"51.04248","longitude":"2.29312","bright_ti4":"307.57","scan":"0.43","track":"0.38","acq_date":"2026-07-11","acq_time":"215","satellite":"N21","instrument":"VIIRS","confidence":"n","version":"2.0NRT","bright_ti5":"294.45","frp":"1.46","daynight":"N","commune":"Grande-Synthe","code_insee":"59271","departement":"Nord","region":"Hauts-de-France"}},{"type":"Feature","geometry":{"type":"Point","coordinates":[2.29477,51.04584]},"properties":{"latitude":"51.04584","longitude":"2.29477","bright_ti4":"328.93","scan":"0.43","track":"0.38","acq_date":"2026-07-11","acq_time":"215","satellite":"N21","instrument":"VIIRS","confidence":"n","version":"2.0NRT","bright_ti5":"296.89","frp":"9.16","daynight":"N","commune":"Grande-Synthe","code_insee":"59271","departement":"Nord","region":"Hauts-de-France"}},{"type":"Feature","geometry":{"type":"Point","coordinates":[4.89436,43.43128]},"properties":{"latitude":"43.43128","longitude":"4.89436","bright_ti4":"312.84","scan":"0.52","track":"0.5","acq_date":"2026-07-11","acq_time":"217","satellite":"N21","instrument":"VIIRS","confidence":"n","version":"2.0NRT","bright_ti5":"292.92","frp":"2.23","daynight":"N","commune":"Fos-sur-Mer","code_insee":"13039","departement":"Bouches-du-Rhône","region":"Provence-Alpes-Côte d'Azur"}},{"type":"Feature","geometry":{"type":"Point","coordinates":[4.8957,43.43211]},"properties":{"latitude":"43.43211","longitude":"4.8957","bright_ti4":"309.92","scan":"0.52","track":"0.5","acq_date":"2026-07-11","acq_time":"217","satellite":"N21","instrument":"VIIRS","confidence":"n","version":"2.0NRT","bright_ti5":"292.75","frp":"2.61","daynight":"N","commune":"Fos-sur-Mer","code_insee":"13039","departement":"Bouches-du-Rhône","region":"Provence-Alpes-Côte d'Azur"}},{"type":"Feature","geometry":{"type":"Point","coordinates":[4.8882,43.43278]},"properties":{"latitude":"43.43278","longitude":"4.8882","bright_ti4":"304.21","scan":"0.52","track":"0.5","acq_date":"2026-07-11","acq_time":"217","satellite":"N21","instrument":"VIIRS","confidence":"n","version":"2.0NRT","bright_ti5":"292.92","frp":"2.23","daynight":"N","commune":"Fos-sur-Mer","code_insee":"13039","departement":"Bouches-du-Rhône","region":"Provence-Alpes-Côte d'Azur"}},{"type":"Feature","geometry":{"type":"Point","coordinates":[4.88956,43.43365]},"properties":{"latitude":"43.43365","longitude":"4.88956","bright_ti4":"304.31","scan":"0.52","track":"0.5","acq_date":"2026-07-11","acq_time":"217","satellite":"N21","instrument":"VIIRS","confidence":"n","version":"2.0NRT","bright_ti5":"293.05","frp":"2.32","daynight":"N","commune":"Fos-sur-Mer","code_insee":"13039","departement":"Bouches-du-Rhône","region":"Provence-Alpes-Côte d'Azur"}},{"type":"Feature","geometry":{"type":"Point","coordinates":[4.89162,43.438]},"properties":{"latitude":"43.438","longitude":"4.89162","bright_ti4":"304.94","scan":"0.52","track":"0.5","acq_date":"2026-07-11","acq_time":"217","satellite":"N21","instrument":"VIIRS","confidence":"n","version":"2.0NRT","bright_ti5":"292.89","frp":"3.13","daynight":"N","commune":"Fos-sur-Mer","code_insee":"13039","departement":"Bouches-du-Rhône","region":"Provence-Alpes-Côte d'Azur"}},{"type":"Feature","geometry":{"type":"Point","coordinates":[4.89982,43.44082]},"properties":{"latitude":"43.44082","longitude":"4.89982","bright_ti4":"307.63","scan":"0.52","track":"0.5","acq_date":"2026-07-11","acq_time":"217","satellite":"N21","instrument":"VIIRS","confidence":"n","version":"2.0NRT","bright_ti5":"291.4","frp":"1.08","daynight":"N","commune":"Fos-sur-Mer","code_insee":"13039","departement":"Bouches-du-Rhône","region":"Provence-Alpes-Côte d'Azur"}},{"type":"Feature","geometry":{"type":"Point","coordinates":[0.72219,44.14559]},"properties":{"latitude":"44.14559","longitude":"0.72219","bright_ti4":"313.54","scan":"0.5","track":"0.41","acq_date":"2026-07-11","acq_time":"217","satellite":"N21","instrument":"VIIRS","confidence":"n","version":"2.0NRT","bright_ti5":"289.7","frp":"1.74","daynight":"N","commune":"Caudecoste","code_insee":"47060","departement":"Lot-et-Garonne","region":"Nouvelle-Aquitaine"}},{"type":"Feature","geometry":{"type":"Point","coordinates":[0.72315,44.14784]},"properties":{"latitude":"44.14784","longitude":"0.72315","bright_ti4":"306.21","scan":"0.5","track":"0.41","acq_date":"2026-07-11","acq_time":"217","satellite":"N21","instrument":"VIIRS","confidence":"n","version":"2.0NRT","bright_ti5":"289.94","frp":"1.61","daynight":"N","commune":"Caudecoste","code_insee":"47060","departement":"Lot-et-Garonne","region":"Nouvelle-Aquitaine"}},{"type":"Feature","geometry":{"type":"Point","coordinates":[2.71427,45.17231]},"properties":{"latitude":"45.17231","longitude":"2.71427","bright_ti4":"295.59","scan":"0.57","track":"0.43","acq_date":"2026-07-11","acq_time":"217","satellite":"N21","instrument":"VIIRS","confidence":"n","version":"2.0NRT","bright_ti5":"278.16","frp":"1.35","daynight":"N","commune":"Le Claux","code_insee":"15050","departement":"Cantal","region":"Auvergne-Rhône-Alpes"}},{"type":"Feature","geometry":{"type":"Point","coordinates":[2.7696,42.69867]},"properties":{"latitude":"42.69867","longitude":"2.7696","bright_ti4":"340.42","scan":"0.57","track":"0.52","acq_date":"2026-07-11","acq_time":"1202","satellite":"N21","instrument":"VIIRS","confidence":"n","version":"2.0NRT","bright_ti5":"298.77","frp":"5.54","daynight":"D","commune":"Pézilla-la-Rivière","code_insee":"66140","departement":"Pyrénées-Orientales","region":"Occitanie"}},{"type":"Feature","geometry":{"type":"Point","coordinates":[4.89111,43.43546]},"properties":{"latitude":"43.43546","longitude":"4.89111","bright_ti4":"343.3","scan":"0.43","track":"0.46","acq_date":"2026-07-11","acq_time":"1202","satellite":"N21","instrument":"VIIRS","confidence":"n","version":"2.0NRT","bright_ti5":"306.35","frp":"12","daynight":"D","commune":"Fos-sur-Mer","code_insee":"13039","departement":"Bouches-du-Rhône","region":"Provence-Alpes-Côte d'Azur"}},{"type":"Feature","geometry":{"type":"Point","coordinates":[5.88153,44.4386]},"properties":{"latitude":"44.4386","longitude":"5.88153","bright_ti4":"330.53","scan":"0.56","track":"0.43","acq_date":"2026-07-11","acq_time":"1202","satellite":"N21","instrument":"VIIRS","confidence":"n","version":"2.0NRT","bright_ti5":"299.28","frp":"4.49","daynight":"D","commune":"Barcillonnette","code_insee":"05013","departement":"Hautes-Alpes","region":"Provence-Alpes-Côte d'Azur"}},{"type":"Feature","geometry":{"type":"Point","coordinates":[0.08249,47.03907]},"properties":{"latitude":"47.03907","longitude":"0.08249","bright_ti4":"332.16","scan":"0.57","track":"0.52","acq_date":"2026-07-11","acq_time":"1202","satellite":"N21","instrument":"VIIRS","confidence":"l","version":"2.0NRT","bright_ti5":"304.81","frp":"5.61","daynight":"D","commune":"Loudun","code_insee":"86137","departement":"Vienne","region":"Nouvelle-Aquitaine"}},{"type":"Feature","geometry":{"type":"Point","coordinates":[0.08216,47.04256]},"properties":{"latitude":"47.04256","longitude":"0.08216","bright_ti4":"340.5","scan":"0.57","track":"0.52","acq_date":"2026-07-11","acq_time":"1202","satellite":"N21","instrument":"VIIRS","confidence":"n","version":"2.0NRT","bright_ti5":"305.15","frp":"6.48","daynight":"D","commune":"Loudun","code_insee":"86137","departement":"Vienne","region":"Nouvelle-Aquitaine"}},{"type":"Feature","geometry":{"type":"Point","coordinates":[2.08419,48.77923]},"properties":{"latitude":"48.77923","longitude":"2.08419","bright_ti4":"351.31","scan":"0.42","track":"0.45","acq_date":"2026-07-11","acq_time":"1204","satellite":"N21","instrument":"VIIRS","confidence":"n","version":"2.0NRT","bright_ti5":"314.46","frp":"28.71","daynight":"D","commune":"Guyancourt","code_insee":"78297","departement":"Yvelines","region":"Île-de-France"}},{"type":"Feature","geometry":{"type":"Point","coordinates":[4.6444,49.3449]},"properties":{"latitude":"49.3449","longitude":"4.6444","bright_ti4":"343.77","scan":"0.49","track":"0.41","acq_date":"2026-07-11","acq_time":"1204","satellite":"N21","instrument":"VIIRS","confidence":"n","version":"2.0NRT","bright_ti5":"309.57","frp":"6.12","daynight":"D","commune":"Mont-Saint-Martin","code_insee":"08308","departement":"Ardennes","region":"Grand Est"}},{"type":"Feature","geometry":{"type":"Point","coordinates":[3.01811,49.61435]},"properties":{"latitude":"49.61435","longitude":"3.01811","bright_ti4":"334.47","scan":"0.56","track":"0.43","acq_date":"2026-07-11","acq_time":"1204","satellite":"N21","instrument":"VIIRS","confidence":"n","version":"2.0NRT","bright_ti5":"306.38","frp":"7.54","daynight":"D","commune":"Crisolles","code_insee":"60181","departement":"Oise","region":"Hauts-de-France"}},{"type":"Feature","geometry":{"type":"Point","coordinates":[3.99412,50.28379]},"properties":{"latitude":"50.28379","longitude":"3.99412","bright_ti4":"332.14","scan":"0.5","track":"0.41","acq_date":"2026-07-11","acq_time":"1204","satellite":"N21","instrument":"VIIRS","confidence":"l","version":"2.0NRT","bright_ti5":"305.76","frp":"5.03","daynight":"D","commune":"Maubeuge","code_insee":"59392","departement":"Nord","region":"Hauts-de-France"}},{"type":"Feature","geometry":{"type":"Point","coordinates":[4.0008,50.28521]},"properties":{"latitude":"50.28521","longitude":"4.0008","bright_ti4":"334.91","scan":"0.5","track":"0.41","acq_date":"2026-07-11","acq_time":"1204","satellite":"N21","instrument":"VIIRS","confidence":"n","version":"2.0NRT","bright_ti5":"306.33","frp":"5.4","daynight":"D","commune":"Maubeuge","code_insee":"59392","departement":"Nord","region":"Hauts-de-France"}},{"type":"Feature","geometry":{"type":"Point","coordinates":[2.28405,51.03085]},"properties":{"latitude":"51.03085","longitude":"2.28405","bright_ti4":"336.53","scan":"0.55","track":"0.43","acq_date":"2026-07-11","acq_time":"1204","satellite":"N21","instrument":"VIIRS","confidence":"n","version":"2.0NRT","bright_ti5":"307.32","frp":"30.35","daynight":"D","commune":"Grande-Synthe","code_insee":"59271","departement":"Nord","region":"Hauts-de-France"}},{"type":"Feature","geometry":{"type":"Point","coordinates":[2.2894,51.03624]},"properties":{"latitude":"51.03624","longitude":"2.2894","bright_ti4":"333.8","scan":"0.55","track":"0.43","acq_date":"2026-07-11","acq_time":"1204","satellite":"N21","instrument":"VIIRS","confidence":"l","version":"2.0NRT","bright_ti5":"304.87","frp":"6.99","daynight":"D","commune":"Grande-Synthe","code_insee":"59271","departement":"Nord","region":"Hauts-de-France"}},{"type":"Feature","geometry":{"type":"Point","coordinates":[-0.42601,42.95616]},"properties":{"latitude":"42.95616","longitude":"-0.42601","bright_ti4":"367","scan":"0.36","track":"0.57","acq_date":"2026-07-11","acq_time":"1342","satellite":"N21","instrument":"VIIRS","confidence":"h","version":"2.0NRT","bright_ti5":"302.01","frp":"16.03","daynight":"D","commune":"Laruns","code_insee":"64320","departement":"Pyrénées-Atlantiques","region":"Nouvelle-Aquitaine"}},{"type":"Feature","geometry":{"type":"Point","coordinates":[-0.42672,42.95624]},"properties":{"latitude":"42.95624","longitude":"-0.42672","bright_ti4":"367","scan":"0.36","track":"0.57","acq_date":"2026-07-11","acq_time":"1342","satellite":"N21","instrument":"VIIRS","confidence":"h","version":"2.0NRT","bright_ti5":"303.09","frp":"18.99","daynight":"D","commune":"Laruns","code_insee":"64320","departement":"Pyrénées-Atlantiques","region":"Nouvelle-Aquitaine"}},{"type":"Feature","geometry":{"type":"Point","coordinates":[0.79259,45.26977]},"properties":{"latitude":"45.26977","longitude":"0.79259","bright_ti4":"354.37","scan":"0.43","track":"0.62","acq_date":"2026-07-11","acq_time":"1344","satellite":"N21","instrument":"VIIRS","confidence":"n","version":"2.0NRT","bright_ti5":"300.68","frp":"7.25","daynight":"D","commune":"Sorges et Ligueux en Périgord","code_insee":"24540","departement":"Dordogne","region":"Nouvelle-Aquitaine"}},{"type":"Feature","geometry":{"type":"Point","coordinates":[0.94518,46.0073]},"properties":{"latitude":"46.0073","longitude":"0.94518","bright_ti4":"335.61","scan":"0.44","track":"0.62","acq_date":"2026-07-11","acq_time":"1344","satellite":"N21","instrument":"VIIRS","confidence":"n","version":"2.0NRT","bright_ti5":"303.64","frp":"5.57","daynight":"D","commune":"Montrol-Sénard","code_insee":"87100","departement":"Haute-Vienne","region":"Nouvelle-Aquitaine"}},{"type":"Feature","geometry":{"type":"Point","coordinates":[0.10439,46.50034]},"properties":{"latitude":"46.50034","longitude":"0.10439","bright_ti4":"339.24","scan":"0.4","track":"0.6","acq_date":"2026-07-11","acq_time":"1344","satellite":"N21","instrument":"VIIRS","confidence":"n","version":"2.0NRT","bright_ti5":"300.62","frp":"2.01","daynight":"D","commune":"Jazeneuil","code_insee":"86116","departement":"Vienne","region":"Nouvelle-Aquitaine"}},{"type":"Feature","geometry":{"type":"Point","coordinates":[2.96597,47.2069]},"properties":{"latitude":"47.2069","longitude":"2.96597","bright_ti4":"331.94","scan":"0.56","track":"0.69","acq_date":"2026-07-11","acq_time":"1344","satellite":"N21","instrument":"VIIRS","confidence":"n","version":"2.0NRT","bright_ti5":"298.76","frp":"12.57","daynight":"D","commune":"Herry","code_insee":"18110","departement":"Cher","region":"Centre-Val de Loire"}},{"type":"Feature","geometry":{"type":"Point","coordinates":[0.10186,48.40353]},"properties":{"latitude":"48.40353","longitude":"0.10186","bright_ti4":"367","scan":"0.41","track":"0.61","acq_date":"2026-07-11","acq_time":"1344","satellite":"N21","instrument":"VIIRS","confidence":"h","version":"2.0NRT","bright_ti5":"306.53","frp":"14.74","daynight":"D","commune":"Saint-Paterne - Le Chevain","code_insee":"72308","departement":"Sarthe","region":"Pays de la Loire"}},{"type":"Feature","geometry":{"type":"Point","coordinates":[0.10147,48.40913]},"properties":{"latitude":"48.40913","longitude":"0.10147","bright_ti4":"341.69","scan":"0.41","track":"0.61","acq_date":"2026-07-11","acq_time":"1344","satellite":"N21","instrument":"VIIRS","confidence":"n","version":"2.0NRT","bright_ti5":"302.96","frp":"14.74","daynight":"D","commune":"Saint-Paterne - Le Chevain","code_insee":"72308","departement":"Sarthe","region":"Pays de la Loire"}},{"type":"Feature","geometry":{"type":"Point","coordinates":[1.18121,48.59568]},"properties":{"latitude":"48.59568","longitude":"1.18121","bright_ti4":"367","scan":"0.47","track":"0.64","acq_date":"2026-07-11","acq_time":"1344","satellite":"N21","instrument":"VIIRS","confidence":"h","version":"2.0NRT","bright_ti5":"299.8","frp":"13.43","daynight":"D","commune":"Saint-Maixme-Hauterive","code_insee":"28351","departement":"Eure-et-Loir","region":"Centre-Val de Loire"}},{"type":"Feature","geometry":{"type":"Point","coordinates":[1.18758,48.59578]},"properties":{"latitude":"48.59578","longitude":"1.18758","bright_ti4":"347.3","scan":"0.47","track":"0.64","acq_date":"2026-07-11","acq_time":"1344","satellite":"N21","instrument":"VIIRS","confidence":"n","version":"2.0NRT","bright_ti5":"301.07","frp":"13.43","daynight":"D","commune":"Saint-Maixme-Hauterive","code_insee":"28351","departement":"Eure-et-Loir","region":"Centre-Val de Loire"}},{"type":"Feature","geometry":{"type":"Point","coordinates":[1.19397,48.59588]},"properties":{"latitude":"48.59588","longitude":"1.19397","bright_ti4":"367","scan":"0.47","track":"0.64","acq_date":"2026-07-11","acq_time":"1344","satellite":"N21","instrument":"VIIRS","confidence":"h","version":"2.0NRT","bright_ti5":"305.22","frp":"29.15","daynight":"D","commune":"Saint-Maixme-Hauterive","code_insee":"28351","departement":"Eure-et-Loir","region":"Centre-Val de Loire"}},{"type":"Feature","geometry":{"type":"Point","coordinates":[5.31165,48.88878]},"properties":{"latitude":"48.88878","longitude":"5.31165","bright_ti4":"335.12","scan":"0.73","track":"0.76","acq_date":"2026-07-11","acq_time":"1344","satellite":"N21","instrument":"VIIRS","confidence":"n","version":"2.0NRT","bright_ti5":"301.25","frp":"3.19","daynight":"D","commune":"Pierrefitte-sur-Aire","code_insee":"55404","departement":"Meuse","region":"Grand Est"}},{"type":"Feature","geometry":{"type":"Point","coordinates":[5.87943,49.23425]},"properties":{"latitude":"49.23425","longitude":"5.87943","bright_ti4":"347.5","scan":"0.77","track":"0.78","acq_date":"2026-07-11","acq_time":"1344","satellite":"N21","instrument":"VIIRS","confidence":"n","version":"2.0NRT","bright_ti5":"304.32","frp":"13.85","daynight":"D","commune":"Les Baroches","code_insee":"54048","departement":"Meurthe-et-Moselle","region":"Grand Est"}},{"type":"Feature","geometry":{"type":"Point","coordinates":[1.16068,49.54616]},"properties":{"latitude":"49.54616","longitude":"1.16068","bright_ti4":"334","scan":"0.47","track":"0.64","acq_date":"2026-07-11","acq_time":"1344","satellite":"N21","instrument":"VIIRS","confidence":"n","version":"2.0NRT","bright_ti5":"300.78","frp":"3.01","daynight":"D","commune":"Saint-Georges-sur-Fontaine","code_insee":"76580","departement":"Seine-Maritime","region":"Normandie"}},{"type":"Feature","geometry":{"type":"Point","coordinates":[1.16055,49.55208]},"properties":{"latitude":"49.55208","longitude":"1.16055","bright_ti4":"338.83","scan":"0.47","track":"0.64","acq_date":"2026-07-11","acq_time":"1344","satellite":"N21","instrument":"VIIRS","confidence":"n","version":"2.0NRT","bright_ti5":"301.74","frp":"4.49","daynight":"D","commune":"Saint-Georges-sur-Fontaine","code_insee":"76580","departement":"Seine-Maritime","region":"Normandie"}},{"type":"Feature","geometry":{"type":"Point","coordinates":[3.12065,50.69645]},"properties":{"latitude":"50.69645","longitude":"3.12065","bright_ti4":"367","scan":"0.58","track":"0.7","acq_date":"2026-07-11","acq_time":"1344","satellite":"N21","instrument":"VIIRS","confidence":"h","version":"2.0NRT","bright_ti5":"302.51","frp":"12.38","daynight":"D","commune":"Marcq-en-Barœul","code_insee":"59378","departement":"Nord","region":"Hauts-de-France"}},{"type":"Feature","geometry":{"type":"Point","coordinates":[2.27971,51.02917]},"properties":{"latitude":"51.02917","longitude":"2.27971","bright_ti4":"350.84","scan":"0.53","track":"0.67","acq_date":"2026-07-11","acq_time":"1344","satellite":"N21","instrument":"VIIRS","confidence":"n","version":"2.0NRT","bright_ti5":"301.01","frp":"16.24","daynight":"D","commune":"Grande-Synthe","code_insee":"59271","departement":"Nord","region":"Hauts-de-France"}},{"type":"Feature","geometry":{"type":"Point","coordinates":[2.29505,51.04165]},"properties":{"latitude":"51.04165","longitude":"2.29505","bright_ti4":"331.21","scan":"0.54","track":"0.68","acq_date":"2026-07-11","acq_time":"1344","satellite":"N21","instrument":"VIIRS","confidence":"n","version":"2.0NRT","bright_ti5":"298.39","frp":"4.85","daynight":"D","commune":"Grande-Synthe","code_insee":"59271","departement":"Nord","region":"Hauts-de-France"}}]}