{"type":"FeatureCollection","features":[{"type":"Feature","geometry":{"type":"Point","coordinates":[4.8959,43.43251]},"properties":{"latitude":"43.43251","longitude":"4.8959","bright_ti4":"310.95","scan":"0.53","track":"0.42","acq_date":"2026-06-03","acq_time":"124","satellite":"N","instrument":"VIIRS","confidence":"n","version":"2.0NRT","bright_ti5":"289.48","frp":"2.01","daynight":"N","commune":"Fos-sur-Mer","code_insee":"13039","departement":"Bouches-du-Rhône","region":"Provence-Alpes-Côte d'Azur"}},{"type":"Feature","geometry":{"type":"Point","coordinates":[4.89669,43.43638]},"properties":{"latitude":"43.43638","longitude":"4.89669","bright_ti4":"300.46","scan":"0.53","track":"0.42","acq_date":"2026-06-03","acq_time":"124","satellite":"N","instrument":"VIIRS","confidence":"n","version":"2.0NRT","bright_ti5":"288.2","frp":"1.08","daynight":"N","commune":"Fos-sur-Mer","code_insee":"13039","departement":"Bouches-du-Rhône","region":"Provence-Alpes-Côte d'Azur"}},{"type":"Feature","geometry":{"type":"Point","coordinates":[4.89004,43.43709]},"properties":{"latitude":"43.43709","longitude":"4.89004","bright_ti4":"310.05","scan":"0.53","track":"0.42","acq_date":"2026-06-03","acq_time":"124","satellite":"N","instrument":"VIIRS","confidence":"n","version":"2.0NRT","bright_ti5":"288.97","frp":"2.33","daynight":"N","commune":"Fos-sur-Mer","code_insee":"13039","departement":"Bouches-du-Rhône","region":"Provence-Alpes-Côte d'Azur"}},{"type":"Feature","geometry":{"type":"Point","coordinates":[4.89823,43.44413]},"properties":{"latitude":"43.44413","longitude":"4.89823","bright_ti4":"317.55","scan":"0.53","track":"0.42","acq_date":"2026-06-03","acq_time":"124","satellite":"N","instrument":"VIIRS","confidence":"n","version":"2.0NRT","bright_ti5":"288.33","frp":"2.43","daynight":"N","commune":"Fos-sur-Mer","code_insee":"13039","departement":"Bouches-du-Rhône","region":"Provence-Alpes-Côte d'Azur"}},{"type":"Feature","geometry":{"type":"Point","coordinates":[4.84425,43.44586]},"properties":{"latitude":"43.44586","longitude":"4.84425","bright_ti4":"317.92","scan":"0.54","track":"0.42","acq_date":"2026-06-03","acq_time":"124","satellite":"N","instrument":"VIIRS","confidence":"n","version":"2.0NRT","bright_ti5":"288.19","frp":"1.27","daynight":"N","commune":"Fos-sur-Mer","code_insee":"13039","departement":"Bouches-du-Rhône","region":"Provence-Alpes-Côte d'Azur"}},{"type":"Feature","geometry":{"type":"Point","coordinates":[4.899,43.44801]},"properties":{"latitude":"43.44801","longitude":"4.899","bright_ti4":"323.86","scan":"0.53","track":"0.42","acq_date":"2026-06-03","acq_time":"124","satellite":"N","instrument":"VIIRS","confidence":"n","version":"2.0NRT","bright_ti5":"289.97","frp":"2.43","daynight":"N","commune":"Fos-sur-Mer","code_insee":"13039","departement":"Bouches-du-Rhône","region":"Provence-Alpes-Côte d'Azur"}},{"type":"Feature","geometry":{"type":"Point","coordinates":[4.87076,46.105]},"properties":{"latitude":"46.105","longitude":"4.87076","bright_ti4":"296.27","scan":"0.57","track":"0.43","acq_date":"2026-06-03","acq_time":"124","satellite":"N","instrument":"VIIRS","confidence":"n","version":"2.0NRT","bright_ti5":"283.3","frp":"0.81","daynight":"N","commune":"Chaneins","code_insee":"01083","departement":"Ain","region":"Auvergne-Rhône-Alpes"}},{"type":"Feature","geometry":{"type":"Point","coordinates":[3.42588,46.25131]},"properties":{"latitude":"46.25131","longitude":"3.42588","bright_ti4":"297.48","scan":"0.44","track":"0.46","acq_date":"2026-06-03","acq_time":"124","satellite":"N","instrument":"VIIRS","confidence":"n","version":"2.0NRT","bright_ti5":"283.81","frp":"0.79","daynight":"N","commune":"Créchy","code_insee":"03091","departement":"Allier","region":"Auvergne-Rhône-Alpes"}},{"type":"Feature","geometry":{"type":"Point","coordinates":[4.89665,43.4341]},"properties":{"latitude":"43.4341","longitude":"4.89665","bright_ti4":"303.52","scan":"0.71","track":"0.75","acq_date":"2026-06-03","acq_time":"304","satellite":"N","instrument":"VIIRS","confidence":"n","version":"2.0NRT","bright_ti5":"285.29","frp":"1.66","daynight":"N","commune":"Fos-sur-Mer","code_insee":"13039","departement":"Bouches-du-Rhône","region":"Provence-Alpes-Côte d'Azur"}},{"type":"Feature","geometry":{"type":"Point","coordinates":[4.89266,43.4434]},"properties":{"latitude":"43.4434","longitude":"4.89266","bright_ti4":"297.24","scan":"0.71","track":"0.75","acq_date":"2026-06-03","acq_time":"304","satellite":"N","instrument":"VIIRS","confidence":"n","version":"2.0NRT","bright_ti5":"285.23","frp":"1.6","daynight":"N","commune":"Fos-sur-Mer","code_insee":"13039","departement":"Bouches-du-Rhône","region":"Provence-Alpes-Côte d'Azur"}},{"type":"Feature","geometry":{"type":"Point","coordinates":[4.89697,43.44975]},"properties":{"latitude":"43.44975","longitude":"4.89697","bright_ti4":"309.32","scan":"0.71","track":"0.75","acq_date":"2026-06-03","acq_time":"304","satellite":"N","instrument":"VIIRS","confidence":"n","version":"2.0NRT","bright_ti5":"285.39","frp":"1.6","daynight":"N","commune":"Fos-sur-Mer","code_insee":"13039","departement":"Bouches-du-Rhône","region":"Provence-Alpes-Côte d'Azur"}},{"type":"Feature","geometry":{"type":"Point","coordinates":[4.88853,43.43526]},"properties":{"latitude":"43.43526","longitude":"4.88853","bright_ti4":"339","scan":"0.4","track":"0.37","acq_date":"2026-06-03","acq_time":"1249","satellite":"N","instrument":"VIIRS","confidence":"l","version":"2.0NRT","bright_ti5":"309.79","frp":"8.76","daynight":"D","commune":"Fos-sur-Mer","code_insee":"13039","departement":"Bouches-du-Rhône","region":"Provence-Alpes-Côte d'Azur"}},{"type":"Feature","geometry":{"type":"Point","coordinates":[4.89576,43.44666]},"properties":{"latitude":"43.44666","longitude":"4.89576","bright_ti4":"338.24","scan":"0.4","track":"0.37","acq_date":"2026-06-03","acq_time":"1249","satellite":"N","instrument":"VIIRS","confidence":"l","version":"2.0NRT","bright_ti5":"309.96","frp":"10.98","daynight":"D","commune":"Fos-sur-Mer","code_insee":"13039","departement":"Bouches-du-Rhône","region":"Provence-Alpes-Côte d'Azur"}},{"type":"Feature","geometry":{"type":"Point","coordinates":[2.46327,50.62601]},"properties":{"latitude":"50.62601","longitude":"2.46327","bright_ti4":"314.38","scan":"0.47","track":"0.4","acq_date":"2026-06-03","acq_time":"139","satellite":"N20","instrument":"VIIRS","confidence":"n","version":"2.0NRT","bright_ti5":"283.35","frp":"1","daynight":"N","commune":"Isbergues","code_insee":"62473","departement":"Pas-de-Calais","region":"Hauts-de-France"}},{"type":"Feature","geometry":{"type":"Point","coordinates":[2.29758,51.04701]},"properties":{"latitude":"51.04701","longitude":"2.29758","bright_ti4":"333.15","scan":"0.48","track":"0.4","acq_date":"2026-06-03","acq_time":"139","satellite":"N20","instrument":"VIIRS","confidence":"n","version":"2.0NRT","bright_ti5":"278.69","frp":"5.55","daynight":"N","commune":"Grande-Synthe","code_insee":"59271","departement":"Nord","region":"Hauts-de-France"}},{"type":"Feature","geometry":{"type":"Point","coordinates":[4.65181,45.61893]},"properties":{"latitude":"45.61893","longitude":"4.65181","bright_ti4":"313.34","scan":"0.39","track":"0.36","acq_date":"2026-06-03","acq_time":"141","satellite":"N20","instrument":"VIIRS","confidence":"n","version":"2.0NRT","bright_ti5":"283.35","frp":"1.34","daynight":"N","commune":"Mornant","code_insee":"69141","departement":"Rhône","region":"Auvergne-Rhône-Alpes"}},{"type":"Feature","geometry":{"type":"Point","coordinates":[4.87297,46.10472]},"properties":{"latitude":"46.10472","longitude":"4.87297","bright_ti4":"299.41","scan":"0.39","track":"0.36","acq_date":"2026-06-03","acq_time":"141","satellite":"N20","instrument":"VIIRS","confidence":"n","version":"2.0NRT","bright_ti5":"283.69","frp":"0.5","daynight":"N","commune":"Valeins","code_insee":"01428","departement":"Ain","region":"Auvergne-Rhône-Alpes"}},{"type":"Feature","geometry":{"type":"Point","coordinates":[7.23639,47.62874]},"properties":{"latitude":"47.62874","longitude":"7.23639","bright_ti4":"299.66","scan":"0.39","track":"0.36","acq_date":"2026-06-03","acq_time":"141","satellite":"N20","instrument":"VIIRS","confidence":"n","version":"2.0NRT","bright_ti5":"283.79","frp":"0.61","daynight":"N","commune":"Altkirch","code_insee":"68004","departement":"Haut-Rhin","region":"Grand Est"}},{"type":"Feature","geometry":{"type":"Point","coordinates":[6.1097,48.56431]},"properties":{"latitude":"48.56431","longitude":"6.1097","bright_ti4":"301.73","scan":"0.39","track":"0.36","acq_date":"2026-06-03","acq_time":"141","satellite":"N20","instrument":"VIIRS","confidence":"n","version":"2.0NRT","bright_ti5":"283.09","frp":"0.58","daynight":"N","commune":"Xeuilley","code_insee":"54596","departement":"Meurthe-et-Moselle","region":"Grand Est"}},{"type":"Feature","geometry":{"type":"Point","coordinates":[5.0101,43.3815]},"properties":{"latitude":"43.3815","longitude":"5.0101","bright_ti4":"303.99","scan":"0.38","track":"0.36","acq_date":"2026-06-03","acq_time":"143","satellite":"N20","instrument":"VIIRS","confidence":"n","version":"2.0NRT","bright_ti5":"290.31","frp":"0.87","daynight":"N","commune":"Martigues","code_insee":"13056","departement":"Bouches-du-Rhône","region":"Provence-Alpes-Côte d'Azur"}},{"type":"Feature","geometry":{"type":"Point","coordinates":[4.88469,43.42911]},"properties":{"latitude":"43.42911","longitude":"4.88469","bright_ti4":"300.01","scan":"0.38","track":"0.36","acq_date":"2026-06-03","acq_time":"143","satellite":"N20","instrument":"VIIRS","confidence":"n","version":"2.0NRT","bright_ti5":"288.86","frp":"0.38","daynight":"N","commune":"Fos-sur-Mer","code_insee":"13039","departement":"Bouches-du-Rhône","region":"Provence-Alpes-Côte d'Azur"}},{"type":"Feature","geometry":{"type":"Point","coordinates":[4.89602,43.43414]},"properties":{"latitude":"43.43414","longitude":"4.89602","bright_ti4":"302.06","scan":"0.38","track":"0.36","acq_date":"2026-06-03","acq_time":"143","satellite":"N20","instrument":"VIIRS","confidence":"n","version":"2.0NRT","bright_ti5":"288.75","frp":"1.32","daynight":"N","commune":"Fos-sur-Mer","code_insee":"13039","departement":"Bouches-du-Rhône","region":"Provence-Alpes-Côte d'Azur"}},{"type":"Feature","geometry":{"type":"Point","coordinates":[4.89232,43.43816]},"properties":{"latitude":"43.43816","longitude":"4.89232","bright_ti4":"321.2","scan":"0.38","track":"0.36","acq_date":"2026-06-03","acq_time":"143","satellite":"N20","instrument":"VIIRS","confidence":"n","version":"2.0NRT","bright_ti5":"288.62","frp":"1.32","daynight":"N","commune":"Fos-sur-Mer","code_insee":"13039","departement":"Bouches-du-Rhône","region":"Provence-Alpes-Côte d'Azur"}},{"type":"Feature","geometry":{"type":"Point","coordinates":[4.89897,43.44394]},"properties":{"latitude":"43.44394","longitude":"4.89897","bright_ti4":"338.67","scan":"0.38","track":"0.36","acq_date":"2026-06-03","acq_time":"143","satellite":"N20","instrument":"VIIRS","confidence":"n","version":"2.0NRT","bright_ti5":"290.18","frp":"4.07","daynight":"N","commune":"Fos-sur-Mer","code_insee":"13039","departement":"Bouches-du-Rhône","region":"Provence-Alpes-Côte d'Azur"}},{"type":"Feature","geometry":{"type":"Point","coordinates":[4.8408,43.44639]},"properties":{"latitude":"43.44639","longitude":"4.8408","bright_ti4":"328.21","scan":"0.38","track":"0.36","acq_date":"2026-06-03","acq_time":"143","satellite":"N20","instrument":"VIIRS","confidence":"n","version":"2.0NRT","bright_ti5":"288.24","frp":"1.34","daynight":"N","commune":"Fos-sur-Mer","code_insee":"13039","departement":"Bouches-du-Rhône","region":"Provence-Alpes-Côte d'Azur"}},{"type":"Feature","geometry":{"type":"Point","coordinates":[4.89996,43.4472]},"properties":{"latitude":"43.4472","longitude":"4.89996","bright_ti4":"334.91","scan":"0.38","track":"0.36","acq_date":"2026-06-03","acq_time":"143","satellite":"N20","instrument":"VIIRS","confidence":"n","version":"2.0NRT","bright_ti5":"290.35","frp":"1.61","daynight":"N","commune":"Fos-sur-Mer","code_insee":"13039","departement":"Bouches-du-Rhône","region":"Provence-Alpes-Côte d'Azur"}},{"type":"Feature","geometry":{"type":"Point","coordinates":[4.89527,43.44795]},"properties":{"latitude":"43.44795","longitude":"4.89527","bright_ti4":"316.21","scan":"0.38","track":"0.36","acq_date":"2026-06-03","acq_time":"143","satellite":"N20","instrument":"VIIRS","confidence":"n","version":"2.0NRT","bright_ti5":"288.49","frp":"1.61","daynight":"N","commune":"Fos-sur-Mer","code_insee":"13039","departement":"Bouches-du-Rhône","region":"Provence-Alpes-Côte d'Azur"}},{"type":"Feature","geometry":{"type":"Point","coordinates":[2.29047,51.03671]},"properties":{"latitude":"51.03671","longitude":"2.29047","bright_ti4":"322.56","scan":"0.55","track":"0.68","acq_date":"2026-06-03","acq_time":"319","satellite":"N20","instrument":"VIIRS","confidence":"n","version":"2.0NRT","bright_ti5":"281.76","frp":"5.96","daynight":"N","commune":"Grande-Synthe","code_insee":"59271","departement":"Nord","region":"Hauts-de-France"}},{"type":"Feature","geometry":{"type":"Point","coordinates":[2.29546,51.04222]},"properties":{"latitude":"51.04222","longitude":"2.29546","bright_ti4":"298.51","scan":"0.55","track":"0.68","acq_date":"2026-06-03","acq_time":"319","satellite":"N20","instrument":"VIIRS","confidence":"n","version":"2.0NRT","bright_ti5":"280.77","frp":"2.46","daynight":"N","commune":"Grande-Synthe","code_insee":"59271","departement":"Nord","region":"Hauts-de-France"}},{"type":"Feature","geometry":{"type":"Point","coordinates":[2.3005,51.04771]},"properties":{"latitude":"51.04771","longitude":"2.3005","bright_ti4":"312.06","scan":"0.55","track":"0.68","acq_date":"2026-06-03","acq_time":"319","satellite":"N20","instrument":"VIIRS","confidence":"n","version":"2.0NRT","bright_ti5":"281.02","frp":"2.46","daynight":"N","commune":"Grande-Synthe","code_insee":"59271","departement":"Nord","region":"Hauts-de-France"}},{"type":"Feature","geometry":{"type":"Point","coordinates":[-0.28697,43.23685]},"properties":{"latitude":"43.23685","longitude":"-0.28697","bright_ti4":"341.66","scan":"0.42","track":"0.37","acq_date":"2026-06-03","acq_time":"1308","satellite":"N20","instrument":"VIIRS","confidence":"n","version":"2.0NRT","bright_ti5":"308.21","frp":"4.21","daynight":"D","commune":"Bordes","code_insee":"64138","departement":"Pyrénées-Atlantiques","region":"Nouvelle-Aquitaine"}},{"type":"Feature","geometry":{"type":"Point","coordinates":[4.89659,43.44539]},"properties":{"latitude":"43.44539","longitude":"4.89659","bright_ti4":"343.14","scan":"0.44","track":"0.46","acq_date":"2026-06-03","acq_time":"1308","satellite":"N20","instrument":"VIIRS","confidence":"n","version":"2.0NRT","bright_ti5":"306.09","frp":"7.39","daynight":"D","commune":"Fos-sur-Mer","code_insee":"13039","departement":"Bouches-du-Rhône","region":"Provence-Alpes-Côte d'Azur"}},{"type":"Feature","geometry":{"type":"Point","coordinates":[2.2527,51.03243]},"properties":{"latitude":"51.03243","longitude":"2.2527","bright_ti4":"295.3","scan":"0.55","track":"0.68","acq_date":"2026-06-03","acq_time":"48","satellite":"N21","instrument":"VIIRS","confidence":"n","version":"2.0NRT","bright_ti5":"277.04","frp":"1.1","daynight":"N","commune":"Dunkerque","code_insee":"59183","departement":"Nord","region":"Hauts-de-France"}},{"type":"Feature","geometry":{"type":"Point","coordinates":[5.00973,43.37932]},"properties":{"latitude":"43.37932","longitude":"5.00973","bright_ti4":"303","scan":"0.37","track":"0.58","acq_date":"2026-06-03","acq_time":"50","satellite":"N21","instrument":"VIIRS","confidence":"n","version":"2.0NRT","bright_ti5":"290.11","frp":"0.86","daynight":"N","commune":"Martigues","code_insee":"13056","departement":"Bouches-du-Rhône","region":"Provence-Alpes-Côte d'Azur"}},{"type":"Feature","geometry":{"type":"Point","coordinates":[4.89548,43.4307]},"properties":{"latitude":"43.4307","longitude":"4.89548","bright_ti4":"316.5","scan":"0.37","track":"0.58","acq_date":"2026-06-03","acq_time":"50","satellite":"N21","instrument":"VIIRS","confidence":"n","version":"2.0NRT","bright_ti5":"289.7","frp":"2.01","daynight":"N","commune":"Fos-sur-Mer","code_insee":"13039","departement":"Bouches-du-Rhône","region":"Provence-Alpes-Côte d'Azur"}},{"type":"Feature","geometry":{"type":"Point","coordinates":[4.89372,43.43335]},"properties":{"latitude":"43.43335","longitude":"4.89372","bright_ti4":"301.22","scan":"0.37","track":"0.58","acq_date":"2026-06-03","acq_time":"50","satellite":"N21","instrument":"VIIRS","confidence":"n","version":"2.0NRT","bright_ti5":"287.92","frp":"0.92","daynight":"N","commune":"Fos-sur-Mer","code_insee":"13039","departement":"Bouches-du-Rhône","region":"Provence-Alpes-Côte d'Azur"}},{"type":"Feature","geometry":{"type":"Point","coordinates":[4.89131,43.43628]},"properties":{"latitude":"43.43628","longitude":"4.89131","bright_ti4":"304.14","scan":"0.37","track":"0.58","acq_date":"2026-06-03","acq_time":"50","satellite":"N21","instrument":"VIIRS","confidence":"n","version":"2.0NRT","bright_ti5":"288.39","frp":"1.27","daynight":"N","commune":"Fos-sur-Mer","code_insee":"13039","departement":"Bouches-du-Rhône","region":"Provence-Alpes-Côte d'Azur"}},{"type":"Feature","geometry":{"type":"Point","coordinates":[4.90102,43.44125]},"properties":{"latitude":"43.44125","longitude":"4.90102","bright_ti4":"303.46","scan":"0.37","track":"0.58","acq_date":"2026-06-03","acq_time":"50","satellite":"N21","instrument":"VIIRS","confidence":"n","version":"2.0NRT","bright_ti5":"287.16","frp":"0.92","daynight":"N","commune":"Fos-sur-Mer","code_insee":"13039","departement":"Bouches-du-Rhône","region":"Provence-Alpes-Côte d'Azur"}},{"type":"Feature","geometry":{"type":"Point","coordinates":[4.89643,43.44146]},"properties":{"latitude":"43.44146","longitude":"4.89643","bright_ti4":"303.19","scan":"0.37","track":"0.58","acq_date":"2026-06-03","acq_time":"50","satellite":"N21","instrument":"VIIRS","confidence":"n","version":"2.0NRT","bright_ti5":"287.52","frp":"1.27","daynight":"N","commune":"Fos-sur-Mer","code_insee":"13039","departement":"Bouches-du-Rhône","region":"Provence-Alpes-Côte d'Azur"}},{"type":"Feature","geometry":{"type":"Point","coordinates":[4.84036,43.4439]},"properties":{"latitude":"43.4439","longitude":"4.84036","bright_ti4":"305.37","scan":"0.38","track":"0.59","acq_date":"2026-06-03","acq_time":"50","satellite":"N21","instrument":"VIIRS","confidence":"n","version":"2.0NRT","bright_ti5":"286.64","frp":"0.58","daynight":"N","commune":"Fos-sur-Mer","code_insee":"13039","departement":"Bouches-du-Rhône","region":"Provence-Alpes-Côte d'Azur"}},{"type":"Feature","geometry":{"type":"Point","coordinates":[4.89685,43.44684]},"properties":{"latitude":"43.44684","longitude":"4.89685","bright_ti4":"312.99","scan":"0.37","track":"0.58","acq_date":"2026-06-03","acq_time":"50","satellite":"N21","instrument":"VIIRS","confidence":"n","version":"2.0NRT","bright_ti5":"288.68","frp":"1.6","daynight":"N","commune":"Fos-sur-Mer","code_insee":"13039","departement":"Bouches-du-Rhône","region":"Provence-Alpes-Côte d'Azur"}},{"type":"Feature","geometry":{"type":"Point","coordinates":[4.87175,46.10227]},"properties":{"latitude":"46.10227","longitude":"4.87175","bright_ti4":"300.22","scan":"0.39","track":"0.6","acq_date":"2026-06-03","acq_time":"50","satellite":"N21","instrument":"VIIRS","confidence":"n","version":"2.0NRT","bright_ti5":"282.64","frp":"0.48","daynight":"N","commune":"Chaneins","code_insee":"01083","departement":"Ain","region":"Auvergne-Rhône-Alpes"}},{"type":"Feature","geometry":{"type":"Point","coordinates":[6.09563,49.32362]},"properties":{"latitude":"49.32362","longitude":"6.09563","bright_ti4":"298.57","scan":"0.56","track":"0.51","acq_date":"2026-06-03","acq_time":"228","satellite":"N21","instrument":"VIIRS","confidence":"n","version":"2.0NRT","bright_ti5":"281.94","frp":"1.32","daynight":"N","commune":"Serémange-Erzange","code_insee":"57647","departement":"Moselle","region":"Grand Est"}},{"type":"Feature","geometry":{"type":"Point","coordinates":[6.09709,49.32602]},"properties":{"latitude":"49.32602","longitude":"6.09709","bright_ti4":"295.02","scan":"0.56","track":"0.52","acq_date":"2026-06-03","acq_time":"228","satellite":"N21","instrument":"VIIRS","confidence":"n","version":"2.0NRT","bright_ti5":"281.74","frp":"1.74","daynight":"N","commune":"Serémange-Erzange","code_insee":"57647","departement":"Moselle","region":"Grand Est"}},{"type":"Feature","geometry":{"type":"Point","coordinates":[2.28764,51.03345]},"properties":{"latitude":"51.03345","longitude":"2.28764","bright_ti4":"310.92","scan":"0.54","track":"0.42","acq_date":"2026-06-03","acq_time":"228","satellite":"N21","instrument":"VIIRS","confidence":"n","version":"2.0NRT","bright_ti5":"280.44","frp":"2.31","daynight":"N","commune":"Grande-Synthe","code_insee":"59271","departement":"Nord","region":"Hauts-de-France"}},{"type":"Feature","geometry":{"type":"Point","coordinates":[2.29254,51.04262]},"properties":{"latitude":"51.04262","longitude":"2.29254","bright_ti4":"298.63","scan":"0.54","track":"0.42","acq_date":"2026-06-03","acq_time":"228","satellite":"N21","instrument":"VIIRS","confidence":"n","version":"2.0NRT","bright_ti5":"281.3","frp":"3.67","daynight":"N","commune":"Grande-Synthe","code_insee":"59271","departement":"Nord","region":"Hauts-de-France"}},{"type":"Feature","geometry":{"type":"Point","coordinates":[2.30118,51.04285]},"properties":{"latitude":"51.04285","longitude":"2.30118","bright_ti4":"295.61","scan":"0.54","track":"0.42","acq_date":"2026-06-03","acq_time":"228","satellite":"N21","instrument":"VIIRS","confidence":"n","version":"2.0NRT","bright_ti5":"278.76","frp":"3.2","daynight":"N","commune":"Grande-Synthe","code_insee":"59271","departement":"Nord","region":"Hauts-de-France"}},{"type":"Feature","geometry":{"type":"Point","coordinates":[2.29389,51.04446]},"properties":{"latitude":"51.04446","longitude":"2.29389","bright_ti4":"327.82","scan":"0.54","track":"0.42","acq_date":"2026-06-03","acq_time":"228","satellite":"N21","instrument":"VIIRS","confidence":"n","version":"2.0NRT","bright_ti5":"282.66","frp":"5.84","daynight":"N","commune":"Grande-Synthe","code_insee":"59271","departement":"Nord","region":"Hauts-de-France"}},{"type":"Feature","geometry":{"type":"Point","coordinates":[2.30189,51.04465]},"properties":{"latitude":"51.04465","longitude":"2.30189","bright_ti4":"300.84","scan":"0.54","track":"0.42","acq_date":"2026-06-03","acq_time":"228","satellite":"N21","instrument":"VIIRS","confidence":"n","version":"2.0NRT","bright_ti5":"280.04","frp":"3.67","daynight":"N","commune":"Grande-Synthe","code_insee":"59271","departement":"Nord","region":"Hauts-de-France"}},{"type":"Feature","geometry":{"type":"Point","coordinates":[2.29463,51.04629]},"properties":{"latitude":"51.04629","longitude":"2.29463","bright_ti4":"328.17","scan":"0.54","track":"0.42","acq_date":"2026-06-03","acq_time":"228","satellite":"N21","instrument":"VIIRS","confidence":"n","version":"2.0NRT","bright_ti5":"282.19","frp":"3.67","daynight":"N","commune":"Grande-Synthe","code_insee":"59271","departement":"Nord","region":"Hauts-de-France"}},{"type":"Feature","geometry":{"type":"Point","coordinates":[4.89887,43.42972]},"properties":{"latitude":"43.42972","longitude":"4.89887","bright_ti4":"299.38","scan":"0.37","track":"0.58","acq_date":"2026-06-03","acq_time":"230","satellite":"N21","instrument":"VIIRS","confidence":"n","version":"2.0NRT","bright_ti5":"287.58","frp":"1.11","daynight":"N","commune":"Fos-sur-Mer","code_insee":"13039","departement":"Bouches-du-Rhône","region":"Provence-Alpes-Côte d'Azur"}},{"type":"Feature","geometry":{"type":"Point","coordinates":[4.89841,43.4299]},"properties":{"latitude":"43.4299","longitude":"4.89841","bright_ti4":"302.65","scan":"0.37","track":"0.58","acq_date":"2026-06-03","acq_time":"230","satellite":"N21","instrument":"VIIRS","confidence":"n","version":"2.0NRT","bright_ti5":"287.85","frp":"2.87","daynight":"N","commune":"Fos-sur-Mer","code_insee":"13039","departement":"Bouches-du-Rhône","region":"Provence-Alpes-Côte d'Azur"}},{"type":"Feature","geometry":{"type":"Point","coordinates":[4.89458,43.43091]},"properties":{"latitude":"43.43091","longitude":"4.89458","bright_ti4":"313.03","scan":"0.37","track":"0.58","acq_date":"2026-06-03","acq_time":"230","satellite":"N21","instrument":"VIIRS","confidence":"n","version":"2.0NRT","bright_ti5":"287.91","frp":"1.48","daynight":"N","commune":"Fos-sur-Mer","code_insee":"13039","departement":"Bouches-du-Rhône","region":"Provence-Alpes-Côte d'Azur"}},{"type":"Feature","geometry":{"type":"Point","coordinates":[4.89296,43.43708]},"properties":{"latitude":"43.43708","longitude":"4.89296","bright_ti4":"307.96","scan":"0.37","track":"0.58","acq_date":"2026-06-03","acq_time":"230","satellite":"N21","instrument":"VIIRS","confidence":"n","version":"2.0NRT","bright_ti5":"287.92","frp":"1.48","daynight":"N","commune":"Fos-sur-Mer","code_insee":"13039","departement":"Bouches-du-Rhône","region":"Provence-Alpes-Côte d'Azur"}},{"type":"Feature","geometry":{"type":"Point","coordinates":[4.89252,43.4373]},"properties":{"latitude":"43.4373","longitude":"4.89252","bright_ti4":"306.67","scan":"0.37","track":"0.58","acq_date":"2026-06-03","acq_time":"230","satellite":"N21","instrument":"VIIRS","confidence":"n","version":"2.0NRT","bright_ti5":"287.63","frp":"1.88","daynight":"N","commune":"Fos-sur-Mer","code_insee":"13039","departement":"Bouches-du-Rhône","region":"Provence-Alpes-Côte d'Azur"}},{"type":"Feature","geometry":{"type":"Point","coordinates":[4.89994,43.44087]},"properties":{"latitude":"43.44087","longitude":"4.89994","bright_ti4":"304.56","scan":"0.37","track":"0.58","acq_date":"2026-06-03","acq_time":"230","satellite":"N21","instrument":"VIIRS","confidence":"n","version":"2.0NRT","bright_ti5":"286.89","frp":"1.7","daynight":"N","commune":"Fos-sur-Mer","code_insee":"13039","departement":"Bouches-du-Rhône","region":"Provence-Alpes-Côte d'Azur"}},{"type":"Feature","geometry":{"type":"Point","coordinates":[4.89945,43.44107]},"properties":{"latitude":"43.44107","longitude":"4.89945","bright_ti4":"310.64","scan":"0.37","track":"0.58","acq_date":"2026-06-03","acq_time":"230","satellite":"N21","instrument":"VIIRS","confidence":"n","version":"2.0NRT","bright_ti5":"287.27","frp":"1.39","daynight":"N","commune":"Fos-sur-Mer","code_insee":"13039","departement":"Bouches-du-Rhône","region":"Provence-Alpes-Côte d'Azur"}},{"type":"Feature","geometry":{"type":"Point","coordinates":[4.89564,43.44205]},"properties":{"latitude":"43.44205","longitude":"4.89564","bright_ti4":"300.26","scan":"0.37","track":"0.58","acq_date":"2026-06-03","acq_time":"230","satellite":"N21","instrument":"VIIRS","confidence":"n","version":"2.0NRT","bright_ti5":"287.04","frp":"1.7","daynight":"N","commune":"Fos-sur-Mer","code_insee":"13039","departement":"Bouches-du-Rhône","region":"Provence-Alpes-Côte d'Azur"}},{"type":"Feature","geometry":{"type":"Point","coordinates":[4.89518,43.44228]},"properties":{"latitude":"43.44228","longitude":"4.89518","bright_ti4":"302.62","scan":"0.37","track":"0.58","acq_date":"2026-06-03","acq_time":"230","satellite":"N21","instrument":"VIIRS","confidence":"n","version":"2.0NRT","bright_ti5":"287.33","frp":"1.71","daynight":"N","commune":"Fos-sur-Mer","code_insee":"13039","departement":"Bouches-du-Rhône","region":"Provence-Alpes-Côte d'Azur"}},{"type":"Feature","geometry":{"type":"Point","coordinates":[4.89142,43.44322]},"properties":{"latitude":"43.44322","longitude":"4.89142","bright_ti4":"299.15","scan":"0.37","track":"0.58","acq_date":"2026-06-03","acq_time":"230","satellite":"N21","instrument":"VIIRS","confidence":"n","version":"2.0NRT","bright_ti5":"286.51","frp":"2.07","daynight":"N","commune":"Fos-sur-Mer","code_insee":"13039","departement":"Bouches-du-Rhône","region":"Provence-Alpes-Côte d'Azur"}},{"type":"Feature","geometry":{"type":"Point","coordinates":[4.89097,43.44346]},"properties":{"latitude":"43.44346","longitude":"4.89097","bright_ti4":"301.3","scan":"0.37","track":"0.58","acq_date":"2026-06-03","acq_time":"230","satellite":"N21","instrument":"VIIRS","confidence":"n","version":"2.0NRT","bright_ti5":"286.55","frp":"1.71","daynight":"N","commune":"Fos-sur-Mer","code_insee":"13039","departement":"Bouches-du-Rhône","region":"Provence-Alpes-Côte d'Azur"}},{"type":"Feature","geometry":{"type":"Point","coordinates":[4.84349,43.445]},"properties":{"latitude":"43.445","longitude":"4.84349","bright_ti4":"296.55","scan":"0.37","track":"0.58","acq_date":"2026-06-03","acq_time":"230","satellite":"N21","instrument":"VIIRS","confidence":"n","version":"2.0NRT","bright_ti5":"286.54","frp":"0.5","daynight":"N","commune":"Fos-sur-Mer","code_insee":"13039","departement":"Bouches-du-Rhône","region":"Provence-Alpes-Côte d'Azur"}},{"type":"Feature","geometry":{"type":"Point","coordinates":[4.84324,43.44547]},"properties":{"latitude":"43.44547","longitude":"4.84324","bright_ti4":"299.46","scan":"0.37","track":"0.58","acq_date":"2026-06-03","acq_time":"230","satellite":"N21","instrument":"VIIRS","confidence":"n","version":"2.0NRT","bright_ti5":"286.42","frp":"0.79","daynight":"N","commune":"Fos-sur-Mer","code_insee":"13039","departement":"Bouches-du-Rhône","region":"Provence-Alpes-Côte d'Azur"}},{"type":"Feature","geometry":{"type":"Point","coordinates":[4.90213,43.44606]},"properties":{"latitude":"43.44606","longitude":"4.90213","bright_ti4":"296.73","scan":"0.37","track":"0.58","acq_date":"2026-06-03","acq_time":"230","satellite":"N21","instrument":"VIIRS","confidence":"n","version":"2.0NRT","bright_ti5":"286.31","frp":"1.39","daynight":"N","commune":"Fos-sur-Mer","code_insee":"13039","departement":"Bouches-du-Rhône","region":"Provence-Alpes-Côte d'Azur"}},{"type":"Feature","geometry":{"type":"Point","coordinates":[4.83927,43.44616]},"properties":{"latitude":"43.44616","longitude":"4.83927","bright_ti4":"297.39","scan":"0.37","track":"0.58","acq_date":"2026-06-03","acq_time":"230","satellite":"N21","instrument":"VIIRS","confidence":"n","version":"2.0NRT","bright_ti5":"286.21","frp":"0.5","daynight":"N","commune":"Port-Saint-Louis-du-Rhône","code_insee":"13078","departement":"Bouches-du-Rhône","region":"Provence-Alpes-Côte d'Azur"}},{"type":"Feature","geometry":{"type":"Point","coordinates":[4.89836,43.44702]},"properties":{"latitude":"43.44702","longitude":"4.89836","bright_ti4":"327.54","scan":"0.37","track":"0.58","acq_date":"2026-06-03","acq_time":"230","satellite":"N21","instrument":"VIIRS","confidence":"n","version":"2.0NRT","bright_ti5":"287.86","frp":"1.7","daynight":"N","commune":"Fos-sur-Mer","code_insee":"13039","departement":"Bouches-du-Rhône","region":"Provence-Alpes-Côte d'Azur"}},{"type":"Feature","geometry":{"type":"Point","coordinates":[4.89788,43.44725]},"properties":{"latitude":"43.44725","longitude":"4.89788","bright_ti4":"324.1","scan":"0.37","track":"0.58","acq_date":"2026-06-03","acq_time":"230","satellite":"N21","instrument":"VIIRS","confidence":"n","version":"2.0NRT","bright_ti5":"287.72","frp":"1.71","daynight":"N","commune":"Fos-sur-Mer","code_insee":"13039","departement":"Bouches-du-Rhône","region":"Provence-Alpes-Côte d'Azur"}},{"type":"Feature","geometry":{"type":"Point","coordinates":[4.62108,43.8035]},"properties":{"latitude":"43.8035","longitude":"4.62108","bright_ti4":"297.16","scan":"0.35","track":"0.57","acq_date":"2026-06-03","acq_time":"230","satellite":"N21","instrument":"VIIRS","confidence":"n","version":"2.0NRT","bright_ti5":"287.13","frp":"0.41","daynight":"N","commune":"Beaucaire","code_insee":"30032","departement":"Gard","region":"Occitanie"}},{"type":"Feature","geometry":{"type":"Point","coordinates":[-2.02267,47.32146]},"properties":{"latitude":"47.32146","longitude":"-2.02267","bright_ti4":"299.33","scan":"0.45","track":"0.39","acq_date":"2026-06-03","acq_time":"230","satellite":"N21","instrument":"VIIRS","confidence":"n","version":"2.0NRT","bright_ti5":"283.48","frp":"0.77","daynight":"N","commune":"Donges","code_insee":"44052","departement":"Loire-Atlantique","region":"Pays de la Loire"}},{"type":"Feature","geometry":{"type":"Point","coordinates":[4.88961,43.43761]},"properties":{"latitude":"43.43761","longitude":"4.88961","bright_ti4":"335.77","scan":"0.48","track":"0.4","acq_date":"2026-06-03","acq_time":"1214","satellite":"N21","instrument":"VIIRS","confidence":"l","version":"2.0NRT","bright_ti5":"306.48","frp":"9.45","daynight":"D","commune":"Fos-sur-Mer","code_insee":"13039","departement":"Bouches-du-Rhône","region":"Provence-Alpes-Côte d'Azur"}},{"type":"Feature","geometry":{"type":"Point","coordinates":[4.89979,43.44345]},"properties":{"latitude":"43.44345","longitude":"4.89979","bright_ti4":"332.22","scan":"0.48","track":"0.4","acq_date":"2026-06-03","acq_time":"1214","satellite":"N21","instrument":"VIIRS","confidence":"l","version":"2.0NRT","bright_ti5":"302.6","frp":"5.83","daynight":"D","commune":"Fos-sur-Mer","code_insee":"13039","departement":"Bouches-du-Rhône","region":"Provence-Alpes-Côte d'Azur"}}]}