{"type":"FeatureCollection","features":[{"type":"Feature","geometry":{"type":"Point","coordinates":[2.28533,51.03401]},"properties":{"latitude":"51.03401","longitude":"2.28533","bright_ti4":"303.15","scan":"0.73","track":"0.76","acq_date":"2026-08-24","acq_time":"45","satellite":"N","instrument":"VIIRS","confidence":"n","version":"2.0NRT","bright_ti5":"281.77","frp":"2.24","daynight":"N","commune":"Grande-Synthe","code_insee":"59271","departement":"Nord","region":"Hauts-de-France"}},{"type":"Feature","geometry":{"type":"Point","coordinates":[4.8948,43.43486]},"properties":{"latitude":"43.43486","longitude":"4.8948","bright_ti4":"303.29","scan":"0.52","track":"0.67","acq_date":"2026-08-24","acq_time":"48","satellite":"N","instrument":"VIIRS","confidence":"n","version":"2.0NRT","bright_ti5":"289.46","frp":"2.58","daynight":"N","commune":"Fos-sur-Mer","code_insee":"13039","departement":"Bouches-du-Rhône","region":"Provence-Alpes-Côte d'Azur"}},{"type":"Feature","geometry":{"type":"Point","coordinates":[4.88132,43.43517]},"properties":{"latitude":"43.43517","longitude":"4.88132","bright_ti4":"313.13","scan":"0.53","track":"0.67","acq_date":"2026-08-24","acq_time":"48","satellite":"N","instrument":"VIIRS","confidence":"n","version":"2.0NRT","bright_ti5":"288.66","frp":"1.95","daynight":"N","commune":"Fos-sur-Mer","code_insee":"13039","departement":"Bouches-du-Rhône","region":"Provence-Alpes-Côte d'Azur"}},{"type":"Feature","geometry":{"type":"Point","coordinates":[4.88105,43.43848]},"properties":{"latitude":"43.43848","longitude":"4.88105","bright_ti4":"324.48","scan":"0.53","track":"0.67","acq_date":"2026-08-24","acq_time":"48","satellite":"N","instrument":"VIIRS","confidence":"n","version":"2.0NRT","bright_ti5":"289.46","frp":"3.83","daynight":"N","commune":"Fos-sur-Mer","code_insee":"13039","departement":"Bouches-du-Rhône","region":"Provence-Alpes-Côte d'Azur"}},{"type":"Feature","geometry":{"type":"Point","coordinates":[4.88158,43.44144]},"properties":{"latitude":"43.44144","longitude":"4.88158","bright_ti4":"310.12","scan":"0.53","track":"0.67","acq_date":"2026-08-24","acq_time":"48","satellite":"N","instrument":"VIIRS","confidence":"n","version":"2.0NRT","bright_ti5":"289.3","frp":"1.95","daynight":"N","commune":"Fos-sur-Mer","code_insee":"13039","departement":"Bouches-du-Rhône","region":"Provence-Alpes-Côte d'Azur"}},{"type":"Feature","geometry":{"type":"Point","coordinates":[4.89486,43.44452]},"properties":{"latitude":"43.44452","longitude":"4.89486","bright_ti4":"307.98","scan":"0.52","track":"0.67","acq_date":"2026-08-24","acq_time":"48","satellite":"N","instrument":"VIIRS","confidence":"n","version":"2.0NRT","bright_ti5":"289.01","frp":"2.1","daynight":"N","commune":"Fos-sur-Mer","code_insee":"13039","departement":"Bouches-du-Rhône","region":"Provence-Alpes-Côte d'Azur"}},{"type":"Feature","geometry":{"type":"Point","coordinates":[4.89536,43.44741]},"properties":{"latitude":"43.44741","longitude":"4.89536","bright_ti4":"310.35","scan":"0.52","track":"0.67","acq_date":"2026-08-24","acq_time":"48","satellite":"N","instrument":"VIIRS","confidence":"n","version":"2.0NRT","bright_ti5":"289.12","frp":"1.73","daynight":"N","commune":"Fos-sur-Mer","code_insee":"13039","departement":"Bouches-du-Rhône","region":"Provence-Alpes-Côte d'Azur"}},{"type":"Feature","geometry":{"type":"Point","coordinates":[7.37283,43.79192]},"properties":{"latitude":"43.79192","longitude":"7.37283","bright_ti4":"300.21","scan":"0.4","track":"0.6","acq_date":"2026-08-24","acq_time":"48","satellite":"N","instrument":"VIIRS","confidence":"n","version":"2.0NRT","bright_ti5":"287.25","frp":"0.77","daynight":"N","commune":"Blausasc","code_insee":"06019","departement":"Alpes-Maritimes","region":"Provence-Alpes-Côte d'Azur"}},{"type":"Feature","geometry":{"type":"Point","coordinates":[7.37463,43.79584]},"properties":{"latitude":"43.79584","longitude":"7.37463","bright_ti4":"305.85","scan":"0.4","track":"0.6","acq_date":"2026-08-24","acq_time":"48","satellite":"N","instrument":"VIIRS","confidence":"n","version":"2.0NRT","bright_ti5":"287.57","frp":"0.43","daynight":"N","commune":"Blausasc","code_insee":"06019","departement":"Alpes-Maritimes","region":"Provence-Alpes-Côte d'Azur"}},{"type":"Feature","geometry":{"type":"Point","coordinates":[4.8982,43.44669]},"properties":{"latitude":"43.44669","longitude":"4.8982","bright_ti4":"314.71","scan":"0.52","track":"0.5","acq_date":"2026-08-24","acq_time":"228","satellite":"N","instrument":"VIIRS","confidence":"n","version":"2.0NRT","bright_ti5":"292.18","frp":"3.39","daynight":"N","commune":"Fos-sur-Mer","code_insee":"13039","departement":"Bouches-du-Rhône","region":"Provence-Alpes-Côte d'Azur"}},{"type":"Feature","geometry":{"type":"Point","coordinates":[2.16603,51.01302]},"properties":{"latitude":"51.01302","longitude":"2.16603","bright_ti4":"301.04","scan":"0.43","track":"0.38","acq_date":"2026-08-24","acq_time":"228","satellite":"N","instrument":"VIIRS","confidence":"n","version":"2.0NRT","bright_ti5":"284.04","frp":"1.12","daynight":"N","commune":"Gravelines","code_insee":"59273","departement":"Nord","region":"Hauts-de-France"}},{"type":"Feature","geometry":{"type":"Point","coordinates":[2.27046,51.02594]},"properties":{"latitude":"51.02594","longitude":"2.27046","bright_ti4":"308.83","scan":"0.43","track":"0.38","acq_date":"2026-08-24","acq_time":"228","satellite":"N","instrument":"VIIRS","confidence":"n","version":"2.0NRT","bright_ti5":"284.74","frp":"1.24","daynight":"N","commune":"Grande-Synthe","code_insee":"59271","departement":"Nord","region":"Hauts-de-France"}},{"type":"Feature","geometry":{"type":"Point","coordinates":[2.27213,51.02933]},"properties":{"latitude":"51.02933","longitude":"2.27213","bright_ti4":"298.5","scan":"0.43","track":"0.38","acq_date":"2026-08-24","acq_time":"228","satellite":"N","instrument":"VIIRS","confidence":"n","version":"2.0NRT","bright_ti5":"285.16","frp":"0.92","daynight":"N","commune":"Grande-Synthe","code_insee":"59271","departement":"Nord","region":"Hauts-de-France"}},{"type":"Feature","geometry":{"type":"Point","coordinates":[2.2542,51.03284]},"properties":{"latitude":"51.03284","longitude":"2.2542","bright_ti4":"302.45","scan":"0.43","track":"0.38","acq_date":"2026-08-24","acq_time":"228","satellite":"N","instrument":"VIIRS","confidence":"n","version":"2.0NRT","bright_ti5":"284.97","frp":"0.95","daynight":"N","commune":"Dunkerque","code_insee":"59183","departement":"Nord","region":"Hauts-de-France"}},{"type":"Feature","geometry":{"type":"Point","coordinates":[2.28743,51.03376]},"properties":{"latitude":"51.03376","longitude":"2.28743","bright_ti4":"311.08","scan":"0.43","track":"0.38","acq_date":"2026-08-24","acq_time":"228","satellite":"N","instrument":"VIIRS","confidence":"n","version":"2.0NRT","bright_ti5":"285.91","frp":"1.67","daynight":"N","commune":"Grande-Synthe","code_insee":"59271","departement":"Nord","region":"Hauts-de-France"}},{"type":"Feature","geometry":{"type":"Point","coordinates":[2.27548,51.0361]},"properties":{"latitude":"51.0361","longitude":"2.27548","bright_ti4":"297.57","scan":"0.43","track":"0.38","acq_date":"2026-08-24","acq_time":"228","satellite":"N","instrument":"VIIRS","confidence":"n","version":"2.0NRT","bright_ti5":"284.68","frp":"0.49","daynight":"N","commune":"Grande-Synthe","code_insee":"59271","departement":"Nord","region":"Hauts-de-France"}},{"type":"Feature","geometry":{"type":"Point","coordinates":[2.29079,51.04053]},"properties":{"latitude":"51.04053","longitude":"2.29079","bright_ti4":"297.9","scan":"0.43","track":"0.38","acq_date":"2026-08-24","acq_time":"228","satellite":"N","instrument":"VIIRS","confidence":"n","version":"2.0NRT","bright_ti5":"285.47","frp":"0.86","daynight":"N","commune":"Grande-Synthe","code_insee":"59271","departement":"Nord","region":"Hauts-de-France"}},{"type":"Feature","geometry":{"type":"Point","coordinates":[2.29845,51.04275]},"properties":{"latitude":"51.04275","longitude":"2.29845","bright_ti4":"308.68","scan":"0.43","track":"0.38","acq_date":"2026-08-24","acq_time":"228","satellite":"N","instrument":"VIIRS","confidence":"n","version":"2.0NRT","bright_ti5":"286.57","frp":"1.01","daynight":"N","commune":"Grande-Synthe","code_insee":"59271","departement":"Nord","region":"Hauts-de-France"}},{"type":"Feature","geometry":{"type":"Point","coordinates":[2.29247,51.04392]},"properties":{"latitude":"51.04392","longitude":"2.29247","bright_ti4":"301.09","scan":"0.43","track":"0.38","acq_date":"2026-08-24","acq_time":"228","satellite":"N","instrument":"VIIRS","confidence":"n","version":"2.0NRT","bright_ti5":"285.14","frp":"0.86","daynight":"N","commune":"Grande-Synthe","code_insee":"59271","departement":"Nord","region":"Hauts-de-France"}},{"type":"Feature","geometry":{"type":"Point","coordinates":[2.31976,51.04602]},"properties":{"latitude":"51.04602","longitude":"2.31976","bright_ti4":"328.61","scan":"0.43","track":"0.38","acq_date":"2026-08-24","acq_time":"228","satellite":"N","instrument":"VIIRS","confidence":"n","version":"2.0NRT","bright_ti5":"286.52","frp":"3.24","daynight":"N","commune":"Dunkerque","code_insee":"59183","departement":"Nord","region":"Hauts-de-France"}},{"type":"Feature","geometry":{"type":"Point","coordinates":[2.30013,51.04614]},"properties":{"latitude":"51.04614","longitude":"2.30013","bright_ti4":"308.72","scan":"0.43","track":"0.38","acq_date":"2026-08-24","acq_time":"228","satellite":"N","instrument":"VIIRS","confidence":"n","version":"2.0NRT","bright_ti5":"285.01","frp":"1.95","daynight":"N","commune":"Grande-Synthe","code_insee":"59271","departement":"Nord","region":"Hauts-de-France"}},{"type":"Feature","geometry":{"type":"Point","coordinates":[2.29415,51.0473]},"properties":{"latitude":"51.0473","longitude":"2.29415","bright_ti4":"323.62","scan":"0.43","track":"0.38","acq_date":"2026-08-24","acq_time":"228","satellite":"N","instrument":"VIIRS","confidence":"n","version":"2.0NRT","bright_ti5":"289.23","frp":"2.95","daynight":"N","commune":"Grande-Synthe","code_insee":"59271","departement":"Nord","region":"Hauts-de-France"}},{"type":"Feature","geometry":{"type":"Point","coordinates":[0.54957,49.47228]},"properties":{"latitude":"49.47228","longitude":"0.54957","bright_ti4":"296.82","scan":"0.45","track":"0.63","acq_date":"2026-08-24","acq_time":"105","satellite":"N20","instrument":"VIIRS","confidence":"n","version":"2.0NRT","bright_ti5":"277.05","frp":"0.73","daynight":"N","commune":"Port-Jérôme-sur-Seine","code_insee":"76476","departement":"Seine-Maritime","region":"Normandie"}},{"type":"Feature","geometry":{"type":"Point","coordinates":[1.58421,49.744]},"properties":{"latitude":"49.744","longitude":"1.58421","bright_ti4":"298.14","scan":"0.41","track":"0.6","acq_date":"2026-08-24","acq_time":"105","satellite":"N20","instrument":"VIIRS","confidence":"n","version":"2.0NRT","bright_ti5":"279.9","frp":"0.34","daynight":"N","commune":"Flamets-Frétils","code_insee":"76265","departement":"Seine-Maritime","region":"Normandie"}},{"type":"Feature","geometry":{"type":"Point","coordinates":[4.8943,43.43271]},"properties":{"latitude":"43.43271","longitude":"4.8943","bright_ti4":"305.25","scan":"0.5","track":"0.49","acq_date":"2026-08-24","acq_time":"107","satellite":"N20","instrument":"VIIRS","confidence":"n","version":"2.0NRT","bright_ti5":"291.97","frp":"1.98","daynight":"N","commune":"Fos-sur-Mer","code_insee":"13039","departement":"Bouches-du-Rhône","region":"Provence-Alpes-Côte d'Azur"}},{"type":"Feature","geometry":{"type":"Point","coordinates":[4.89634,43.44625]},"properties":{"latitude":"43.44625","longitude":"4.89634","bright_ti4":"320.96","scan":"0.5","track":"0.49","acq_date":"2026-08-24","acq_time":"107","satellite":"N20","instrument":"VIIRS","confidence":"n","version":"2.0NRT","bright_ti5":"292.31","frp":"2.73","daynight":"N","commune":"Fos-sur-Mer","code_insee":"13039","departement":"Bouches-du-Rhône","region":"Provence-Alpes-Côte d'Azur"}},{"type":"Feature","geometry":{"type":"Point","coordinates":[7.3745,43.79508]},"properties":{"latitude":"43.79508","longitude":"7.3745","bright_ti4":"311.62","scan":"0.38","track":"0.44","acq_date":"2026-08-24","acq_time":"107","satellite":"N20","instrument":"VIIRS","confidence":"n","version":"2.0NRT","bright_ti5":"291.22","frp":"1.1","daynight":"N","commune":"Blausasc","code_insee":"06019","departement":"Alpes-Maritimes","region":"Provence-Alpes-Côte d'Azur"}},{"type":"Feature","geometry":{"type":"Point","coordinates":[2.26869,51.01753]},"properties":{"latitude":"51.01753","longitude":"2.26869","bright_ti4":"300.65","scan":"0.39","track":"0.59","acq_date":"2026-08-24","acq_time":"107","satellite":"N20","instrument":"VIIRS","confidence":"n","version":"2.0NRT","bright_ti5":"284.48","frp":"0.74","daynight":"N","commune":"Grande-Synthe","code_insee":"59271","departement":"Nord","region":"Hauts-de-France"}},{"type":"Feature","geometry":{"type":"Point","coordinates":[2.26754,51.01792]},"properties":{"latitude":"51.01792","longitude":"2.26754","bright_ti4":"302.53","scan":"0.39","track":"0.59","acq_date":"2026-08-24","acq_time":"107","satellite":"N20","instrument":"VIIRS","confidence":"n","version":"2.0NRT","bright_ti5":"284.08","frp":"0.45","daynight":"N","commune":"Grande-Synthe","code_insee":"59271","departement":"Nord","region":"Hauts-de-France"}},{"type":"Feature","geometry":{"type":"Point","coordinates":[2.26852,51.02888]},"properties":{"latitude":"51.02888","longitude":"2.26852","bright_ti4":"306.28","scan":"0.39","track":"0.59","acq_date":"2026-08-24","acq_time":"107","satellite":"N20","instrument":"VIIRS","confidence":"n","version":"2.0NRT","bright_ti5":"282.41","frp":"0.62","daynight":"N","commune":"Grande-Synthe","code_insee":"59271","departement":"Nord","region":"Hauts-de-France"}},{"type":"Feature","geometry":{"type":"Point","coordinates":[2.2858,51.03389]},"properties":{"latitude":"51.03389","longitude":"2.2858","bright_ti4":"313.21","scan":"0.39","track":"0.59","acq_date":"2026-08-24","acq_time":"107","satellite":"N20","instrument":"VIIRS","confidence":"n","version":"2.0NRT","bright_ti5":"282.3","frp":"1.51","daynight":"N","commune":"Grande-Synthe","code_insee":"59271","departement":"Nord","region":"Hauts-de-France"}},{"type":"Feature","geometry":{"type":"Point","coordinates":[2.27456,51.03421]},"properties":{"latitude":"51.03421","longitude":"2.27456","bright_ti4":"296.18","scan":"0.39","track":"0.59","acq_date":"2026-08-24","acq_time":"107","satellite":"N20","instrument":"VIIRS","confidence":"n","version":"2.0NRT","bright_ti5":"281.95","frp":"0.62","daynight":"N","commune":"Grande-Synthe","code_insee":"59271","departement":"Nord","region":"Hauts-de-France"}},{"type":"Feature","geometry":{"type":"Point","coordinates":[2.25212,51.03483]},"properties":{"latitude":"51.03483","longitude":"2.25212","bright_ti4":"302.47","scan":"0.39","track":"0.59","acq_date":"2026-08-24","acq_time":"107","satellite":"N20","instrument":"VIIRS","confidence":"n","version":"2.0NRT","bright_ti5":"284.62","frp":"0.72","daynight":"N","commune":"Dunkerque","code_insee":"59183","departement":"Nord","region":"Hauts-de-France"}},{"type":"Feature","geometry":{"type":"Point","coordinates":[2.2806,51.03953]},"properties":{"latitude":"51.03953","longitude":"2.2806","bright_ti4":"312.42","scan":"0.39","track":"0.59","acq_date":"2026-08-24","acq_time":"107","satellite":"N20","instrument":"VIIRS","confidence":"n","version":"2.0NRT","bright_ti5":"284.11","frp":"1.94","daynight":"N","commune":"Grande-Synthe","code_insee":"59271","departement":"Nord","region":"Hauts-de-France"}},{"type":"Feature","geometry":{"type":"Point","coordinates":[2.29788,51.04453]},"properties":{"latitude":"51.04453","longitude":"2.29788","bright_ti4":"306.95","scan":"0.38","track":"0.59","acq_date":"2026-08-24","acq_time":"107","satellite":"N20","instrument":"VIIRS","confidence":"n","version":"2.0NRT","bright_ti5":"286.51","frp":"1.4","daynight":"N","commune":"Grande-Synthe","code_insee":"59271","departement":"Nord","region":"Hauts-de-France"}},{"type":"Feature","geometry":{"type":"Point","coordinates":[2.29228,51.04469]},"properties":{"latitude":"51.04469","longitude":"2.29228","bright_ti4":"310.04","scan":"0.38","track":"0.59","acq_date":"2026-08-24","acq_time":"107","satellite":"N20","instrument":"VIIRS","confidence":"n","version":"2.0NRT","bright_ti5":"285.99","frp":"1.4","daynight":"N","commune":"Grande-Synthe","code_insee":"59271","departement":"Nord","region":"Hauts-de-France"}},{"type":"Feature","geometry":{"type":"Point","coordinates":[2.32065,51.04935]},"properties":{"latitude":"51.04935","longitude":"2.32065","bright_ti4":"296.21","scan":"0.38","track":"0.59","acq_date":"2026-08-24","acq_time":"107","satellite":"N20","instrument":"VIIRS","confidence":"n","version":"2.0NRT","bright_ti5":"284.58","frp":"0.77","daynight":"N","commune":"Dunkerque","code_insee":"59183","departement":"Nord","region":"Hauts-de-France"}},{"type":"Feature","geometry":{"type":"Point","coordinates":[2.2739,51.02711]},"properties":{"latitude":"51.02711","longitude":"2.2739","bright_ti4":"300.95","scan":"0.48","track":"0.48","acq_date":"2026-08-24","acq_time":"245","satellite":"N20","instrument":"VIIRS","confidence":"n","version":"2.0NRT","bright_ti5":"283.93","frp":"0.72","daynight":"N","commune":"Grande-Synthe","code_insee":"59271","departement":"Nord","region":"Hauts-de-France"}},{"type":"Feature","geometry":{"type":"Point","coordinates":[2.2675,51.02876]},"properties":{"latitude":"51.02876","longitude":"2.2675","bright_ti4":"295.33","scan":"0.48","track":"0.48","acq_date":"2026-08-24","acq_time":"245","satellite":"N20","instrument":"VIIRS","confidence":"n","version":"2.0NRT","bright_ti5":"284.72","frp":"0.72","daynight":"N","commune":"Grande-Synthe","code_insee":"59271","departement":"Nord","region":"Hauts-de-France"}},{"type":"Feature","geometry":{"type":"Point","coordinates":[2.28562,51.03371]},"properties":{"latitude":"51.03371","longitude":"2.28562","bright_ti4":"304.35","scan":"0.48","track":"0.48","acq_date":"2026-08-24","acq_time":"245","satellite":"N20","instrument":"VIIRS","confidence":"n","version":"2.0NRT","bright_ti5":"284.22","frp":"1.16","daynight":"N","commune":"Grande-Synthe","code_insee":"59271","departement":"Nord","region":"Hauts-de-France"}},{"type":"Feature","geometry":{"type":"Point","coordinates":[2.28833,51.03782]},"properties":{"latitude":"51.03782","longitude":"2.28833","bright_ti4":"301.99","scan":"0.48","track":"0.48","acq_date":"2026-08-24","acq_time":"245","satellite":"N20","instrument":"VIIRS","confidence":"n","version":"2.0NRT","bright_ti5":"284.03","frp":"0.72","daynight":"N","commune":"Grande-Synthe","code_insee":"59271","departement":"Nord","region":"Hauts-de-France"}},{"type":"Feature","geometry":{"type":"Point","coordinates":[2.29102,51.04193]},"properties":{"latitude":"51.04193","longitude":"2.29102","bright_ti4":"297.54","scan":"0.48","track":"0.48","acq_date":"2026-08-24","acq_time":"245","satellite":"N20","instrument":"VIIRS","confidence":"n","version":"2.0NRT","bright_ti5":"285.08","frp":"0.72","daynight":"N","commune":"Grande-Synthe","code_insee":"59271","departement":"Nord","region":"Hauts-de-France"}},{"type":"Feature","geometry":{"type":"Point","coordinates":[2.30008,51.04442]},"properties":{"latitude":"51.04442","longitude":"2.30008","bright_ti4":"308.05","scan":"0.48","track":"0.48","acq_date":"2026-08-24","acq_time":"245","satellite":"N20","instrument":"VIIRS","confidence":"n","version":"2.0NRT","bright_ti5":"285.83","frp":"2.57","daynight":"N","commune":"Grande-Synthe","code_insee":"59271","departement":"Nord","region":"Hauts-de-France"}},{"type":"Feature","geometry":{"type":"Point","coordinates":[2.29925,51.04478]},"properties":{"latitude":"51.04478","longitude":"2.29925","bright_ti4":"320.52","scan":"0.48","track":"0.48","acq_date":"2026-08-24","acq_time":"245","satellite":"N20","instrument":"VIIRS","confidence":"n","version":"2.0NRT","bright_ti5":"286.88","frp":"3.18","daynight":"N","commune":"Grande-Synthe","code_insee":"59271","departement":"Nord","region":"Hauts-de-France"}},{"type":"Feature","geometry":{"type":"Point","coordinates":[2.29371,51.04605]},"properties":{"latitude":"51.04605","longitude":"2.29371","bright_ti4":"321.92","scan":"0.48","track":"0.48","acq_date":"2026-08-24","acq_time":"245","satellite":"N20","instrument":"VIIRS","confidence":"n","version":"2.0NRT","bright_ti5":"285.48","frp":"2.57","daynight":"N","commune":"Grande-Synthe","code_insee":"59271","departement":"Nord","region":"Hauts-de-France"}},{"type":"Feature","geometry":{"type":"Point","coordinates":[2.29291,51.04644]},"properties":{"latitude":"51.04644","longitude":"2.29291","bright_ti4":"310.41","scan":"0.48","track":"0.48","acq_date":"2026-08-24","acq_time":"245","satellite":"N20","instrument":"VIIRS","confidence":"n","version":"2.0NRT","bright_ti5":"285.95","frp":"3.15","daynight":"N","commune":"Grande-Synthe","code_insee":"59271","departement":"Nord","region":"Hauts-de-France"}},{"type":"Feature","geometry":{"type":"Point","coordinates":[2.32468,51.04774]},"properties":{"latitude":"51.04774","longitude":"2.32468","bright_ti4":"317.85","scan":"0.48","track":"0.48","acq_date":"2026-08-24","acq_time":"245","satellite":"N20","instrument":"VIIRS","confidence":"n","version":"2.0NRT","bright_ti5":"286.15","frp":"1.68","daynight":"N","commune":"Dunkerque","code_insee":"59183","departement":"Nord","region":"Hauts-de-France"}},{"type":"Feature","geometry":{"type":"Point","coordinates":[2.32377,51.048]},"properties":{"latitude":"51.048","longitude":"2.32377","bright_ti4":"322.98","scan":"0.48","track":"0.48","acq_date":"2026-08-24","acq_time":"245","satellite":"N20","instrument":"VIIRS","confidence":"n","version":"2.0NRT","bright_ti5":"286.47","frp":"3.01","daynight":"N","commune":"Dunkerque","code_insee":"59183","departement":"Nord","region":"Hauts-de-France"}},{"type":"Feature","geometry":{"type":"Point","coordinates":[4.89297,43.44149]},"properties":{"latitude":"43.44149","longitude":"4.89297","bright_ti4":"300.03","scan":"0.53","track":"0.67","acq_date":"2026-08-24","acq_time":"247","satellite":"N20","instrument":"VIIRS","confidence":"n","version":"2.0NRT","bright_ti5":"289.12","frp":"1.85","daynight":"N","commune":"Fos-sur-Mer","code_insee":"13039","departement":"Bouches-du-Rhône","region":"Provence-Alpes-Côte d'Azur"}},{"type":"Feature","geometry":{"type":"Point","coordinates":[4.89639,43.44719]},"properties":{"latitude":"43.44719","longitude":"4.89639","bright_ti4":"300.73","scan":"0.53","track":"0.67","acq_date":"2026-08-24","acq_time":"247","satellite":"N20","instrument":"VIIRS","confidence":"n","version":"2.0NRT","bright_ti5":"288.78","frp":"0.67","daynight":"N","commune":"Fos-sur-Mer","code_insee":"13039","departement":"Bouches-du-Rhône","region":"Provence-Alpes-Côte d'Azur"}},{"type":"Feature","geometry":{"type":"Point","coordinates":[2.2732,51.02714]},"properties":{"latitude":"51.02714","longitude":"2.2732","bright_ti4":"312.53","scan":"0.4","track":"0.37","acq_date":"2026-08-24","acq_time":"149","satellite":"N21","instrument":"VIIRS","confidence":"n","version":"2.0NRT","bright_ti5":"285.5","frp":"1.22","daynight":"N","commune":"Grande-Synthe","code_insee":"59271","departement":"Nord","region":"Hauts-de-France"}},{"type":"Feature","geometry":{"type":"Point","coordinates":[2.26759,51.0279]},"properties":{"latitude":"51.0279","longitude":"2.26759","bright_ti4":"305.79","scan":"0.4","track":"0.37","acq_date":"2026-08-24","acq_time":"149","satellite":"N21","instrument":"VIIRS","confidence":"n","version":"2.0NRT","bright_ti5":"287.2","frp":"1.22","daynight":"N","commune":"Grande-Synthe","code_insee":"59271","departement":"Nord","region":"Hauts-de-France"}},{"type":"Feature","geometry":{"type":"Point","coordinates":[2.2519,51.03353]},"properties":{"latitude":"51.03353","longitude":"2.2519","bright_ti4":"306.86","scan":"0.4","track":"0.37","acq_date":"2026-08-24","acq_time":"149","satellite":"N21","instrument":"VIIRS","confidence":"n","version":"2.0NRT","bright_ti5":"286.15","frp":"0.76","daynight":"N","commune":"Dunkerque","code_insee":"59183","departement":"Nord","region":"Hauts-de-France"}},{"type":"Feature","geometry":{"type":"Point","coordinates":[2.27549,51.03377]},"properties":{"latitude":"51.03377","longitude":"2.27549","bright_ti4":"303.73","scan":"0.4","track":"0.37","acq_date":"2026-08-24","acq_time":"149","satellite":"N21","instrument":"VIIRS","confidence":"n","version":"2.0NRT","bright_ti5":"285.77","frp":"0.94","daynight":"N","commune":"Grande-Synthe","code_insee":"59271","departement":"Nord","region":"Hauts-de-France"}},{"type":"Feature","geometry":{"type":"Point","coordinates":[2.28785,51.03555]},"properties":{"latitude":"51.03555","longitude":"2.28785","bright_ti4":"313.4","scan":"0.4","track":"0.37","acq_date":"2026-08-24","acq_time":"149","satellite":"N21","instrument":"VIIRS","confidence":"n","version":"2.0NRT","bright_ti5":"286.56","frp":"1.82","daynight":"N","commune":"Grande-Synthe","code_insee":"59271","departement":"Nord","region":"Hauts-de-France"}},{"type":"Feature","geometry":{"type":"Point","coordinates":[2.28899,51.03887]},"properties":{"latitude":"51.03887","longitude":"2.28899","bright_ti4":"328.06","scan":"0.4","track":"0.37","acq_date":"2026-08-24","acq_time":"149","satellite":"N21","instrument":"VIIRS","confidence":"n","version":"2.0NRT","bright_ti5":"286.77","frp":"1.82","daynight":"N","commune":"Grande-Synthe","code_insee":"59271","departement":"Nord","region":"Hauts-de-France"}},{"type":"Feature","geometry":{"type":"Point","coordinates":[2.29014,51.04219]},"properties":{"latitude":"51.04219","longitude":"2.29014","bright_ti4":"302.37","scan":"0.4","track":"0.37","acq_date":"2026-08-24","acq_time":"149","satellite":"N21","instrument":"VIIRS","confidence":"n","version":"2.0NRT","bright_ti5":"287.11","frp":"1.28","daynight":"N","commune":"Grande-Synthe","code_insee":"59271","departement":"Nord","region":"Hauts-de-France"}},{"type":"Feature","geometry":{"type":"Point","coordinates":[2.3025,51.04397]},"properties":{"latitude":"51.04397","longitude":"2.3025","bright_ti4":"307.95","scan":"0.4","track":"0.37","acq_date":"2026-08-24","acq_time":"149","satellite":"N21","instrument":"VIIRS","confidence":"n","version":"2.0NRT","bright_ti5":"286.28","frp":"3.44","daynight":"N","commune":"Grande-Synthe","code_insee":"59271","departement":"Nord","region":"Hauts-de-France"}},{"type":"Feature","geometry":{"type":"Point","coordinates":[2.29689,51.04473]},"properties":{"latitude":"51.04473","longitude":"2.29689","bright_ti4":"337.89","scan":"0.4","track":"0.37","acq_date":"2026-08-24","acq_time":"149","satellite":"N21","instrument":"VIIRS","confidence":"n","version":"2.0NRT","bright_ti5":"288.44","frp":"3.44","daynight":"N","commune":"Grande-Synthe","code_insee":"59271","departement":"Nord","region":"Hauts-de-France"}},{"type":"Feature","geometry":{"type":"Point","coordinates":[2.32046,51.04497]},"properties":{"latitude":"51.04497","longitude":"2.32046","bright_ti4":"298.03","scan":"0.4","track":"0.37","acq_date":"2026-08-24","acq_time":"149","satellite":"N21","instrument":"VIIRS","confidence":"n","version":"2.0NRT","bright_ti5":"287.98","frp":"0.53","daynight":"N","commune":"Dunkerque","code_insee":"59183","departement":"Nord","region":"Hauts-de-France"}},{"type":"Feature","geometry":{"type":"Point","coordinates":[2.3216,51.04829]},"properties":{"latitude":"51.04829","longitude":"2.3216","bright_ti4":"300.15","scan":"0.4","track":"0.37","acq_date":"2026-08-24","acq_time":"149","satellite":"N21","instrument":"VIIRS","confidence":"n","version":"2.0NRT","bright_ti5":"287.67","frp":"0.53","daynight":"N","commune":"Dunkerque","code_insee":"59183","departement":"Nord","region":"Hauts-de-France"}},{"type":"Feature","geometry":{"type":"Point","coordinates":[4.88459,43.43644]},"properties":{"latitude":"43.43644","longitude":"4.88459","bright_ti4":"306.41","scan":"0.44","track":"0.38","acq_date":"2026-08-24","acq_time":"152","satellite":"N21","instrument":"VIIRS","confidence":"n","version":"2.0NRT","bright_ti5":"291.79","frp":"2.09","daynight":"N","commune":"Fos-sur-Mer","code_insee":"13039","departement":"Bouches-du-Rhône","region":"Provence-Alpes-Côte d'Azur"}},{"type":"Feature","geometry":{"type":"Point","coordinates":[4.87934,43.43742]},"properties":{"latitude":"43.43742","longitude":"4.87934","bright_ti4":"329.61","scan":"0.44","track":"0.38","acq_date":"2026-08-24","acq_time":"152","satellite":"N21","instrument":"VIIRS","confidence":"n","version":"2.0NRT","bright_ti5":"293.84","frp":"4.15","daynight":"N","commune":"Fos-sur-Mer","code_insee":"13039","departement":"Bouches-du-Rhône","region":"Provence-Alpes-Côte d'Azur"}},{"type":"Feature","geometry":{"type":"Point","coordinates":[4.88169,43.43816]},"properties":{"latitude":"43.43816","longitude":"4.88169","bright_ti4":"331.01","scan":"0.44","track":"0.38","acq_date":"2026-08-24","acq_time":"152","satellite":"N21","instrument":"VIIRS","confidence":"n","version":"2.0NRT","bright_ti5":"293.48","frp":"7.21","daynight":"N","commune":"Fos-sur-Mer","code_insee":"13039","departement":"Bouches-du-Rhône","region":"Provence-Alpes-Côte d'Azur"}},{"type":"Feature","geometry":{"type":"Point","coordinates":[4.89107,43.43888]},"properties":{"latitude":"43.43888","longitude":"4.89107","bright_ti4":"308.23","scan":"0.44","track":"0.38","acq_date":"2026-08-24","acq_time":"152","satellite":"N21","instrument":"VIIRS","confidence":"n","version":"2.0NRT","bright_ti5":"293.18","frp":"2.09","daynight":"N","commune":"Fos-sur-Mer","code_insee":"13039","departement":"Bouches-du-Rhône","region":"Provence-Alpes-Côte d'Azur"}},{"type":"Feature","geometry":{"type":"Point","coordinates":[4.8934,43.43959]},"properties":{"latitude":"43.43959","longitude":"4.8934","bright_ti4":"309.34","scan":"0.44","track":"0.38","acq_date":"2026-08-24","acq_time":"152","satellite":"N21","instrument":"VIIRS","confidence":"n","version":"2.0NRT","bright_ti5":"293.16","frp":"1.54","daynight":"N","commune":"Fos-sur-Mer","code_insee":"13039","departement":"Bouches-du-Rhône","region":"Provence-Alpes-Côte d'Azur"}},{"type":"Feature","geometry":{"type":"Point","coordinates":[4.9011,43.44544]},"properties":{"latitude":"43.44544","longitude":"4.9011","bright_ti4":"314.51","scan":"0.44","track":"0.38","acq_date":"2026-08-24","acq_time":"152","satellite":"N21","instrument":"VIIRS","confidence":"n","version":"2.0NRT","bright_ti5":"292.35","frp":"2.16","daynight":"N","commune":"Fos-sur-Mer","code_insee":"13039","departement":"Bouches-du-Rhône","region":"Provence-Alpes-Côte d'Azur"}},{"type":"Feature","geometry":{"type":"Point","coordinates":[4.89585,43.44644]},"properties":{"latitude":"43.44644","longitude":"4.89585","bright_ti4":"320.2","scan":"0.44","track":"0.38","acq_date":"2026-08-24","acq_time":"152","satellite":"N21","instrument":"VIIRS","confidence":"n","version":"2.0NRT","bright_ti5":"293.22","frp":"2.16","daynight":"N","commune":"Fos-sur-Mer","code_insee":"13039","departement":"Bouches-du-Rhône","region":"Provence-Alpes-Côte d'Azur"}},{"type":"Feature","geometry":{"type":"Point","coordinates":[7.3741,43.79408]},"properties":{"latitude":"43.79408","longitude":"7.3741","bright_ti4":"301.56","scan":"0.53","track":"0.42","acq_date":"2026-08-24","acq_time":"152","satellite":"N21","instrument":"VIIRS","confidence":"n","version":"2.0NRT","bright_ti5":"290.7","frp":"1.06","daynight":"N","commune":"Blausasc","code_insee":"06019","departement":"Alpes-Maritimes","region":"Provence-Alpes-Côte d'Azur"}},{"type":"Feature","geometry":{"type":"Point","coordinates":[6.96837,48.68966]},"properties":{"latitude":"48.68966","longitude":"6.96837","bright_ti4":"300.06","scan":"0.43","track":"0.38","acq_date":"2026-08-24","acq_time":"152","satellite":"N21","instrument":"VIIRS","confidence":"n","version":"2.0NRT","bright_ti5":"279.21","frp":"1.12","daynight":"N","commune":"Héming","code_insee":"57314","departement":"Moselle","region":"Grand Est"}},{"type":"Feature","geometry":{"type":"Point","coordinates":[5.68435,48.71598]},"properties":{"latitude":"48.71598","longitude":"5.68435","bright_ti4":"295.65","scan":"0.4","track":"0.37","acq_date":"2026-08-24","acq_time":"152","satellite":"N21","instrument":"VIIRS","confidence":"n","version":"2.0NRT","bright_ti5":"277.73","frp":"0.71","daynight":"N","commune":"Sorcy-Saint-Martin","code_insee":"55496","departement":"Meuse","region":"Grand Est"}},{"type":"Feature","geometry":{"type":"Point","coordinates":[2.28861,51.0365]},"properties":{"latitude":"51.0365","longitude":"2.28861","bright_ti4":"303.53","scan":"0.74","track":"0.76","acq_date":"2026-08-24","acq_time":"330","satellite":"N21","instrument":"VIIRS","confidence":"n","version":"2.0NRT","bright_ti5":"284.29","frp":"1.64","daynight":"N","commune":"Grande-Synthe","code_insee":"59271","departement":"Nord","region":"Hauts-de-France"}},{"type":"Feature","geometry":{"type":"Point","coordinates":[2.28644,51.03785]},"properties":{"latitude":"51.03785","longitude":"2.28644","bright_ti4":"295.97","scan":"0.74","track":"0.76","acq_date":"2026-08-24","acq_time":"330","satellite":"N21","instrument":"VIIRS","confidence":"n","version":"2.0NRT","bright_ti5":"284.11","frp":"2.42","daynight":"N","commune":"Grande-Synthe","code_insee":"59271","departement":"Nord","region":"Hauts-de-France"}},{"type":"Feature","geometry":{"type":"Point","coordinates":[2.29471,51.04242]},"properties":{"latitude":"51.04242","longitude":"2.29471","bright_ti4":"304.95","scan":"0.74","track":"0.76","acq_date":"2026-08-24","acq_time":"330","satellite":"N21","instrument":"VIIRS","confidence":"n","version":"2.0NRT","bright_ti5":"285.73","frp":"1.64","daynight":"N","commune":"Grande-Synthe","code_insee":"59271","departement":"Nord","region":"Hauts-de-France"}},{"type":"Feature","geometry":{"type":"Point","coordinates":[2.29259,51.04377]},"properties":{"latitude":"51.04377","longitude":"2.29259","bright_ti4":"301.73","scan":"0.74","track":"0.76","acq_date":"2026-08-24","acq_time":"330","satellite":"N21","instrument":"VIIRS","confidence":"n","version":"2.0NRT","bright_ti5":"285.34","frp":"3.09","daynight":"N","commune":"Grande-Synthe","code_insee":"59271","departement":"Nord","region":"Hauts-de-France"}}]}