{"type":"FeatureCollection","features":[{"type":"Feature","geometry":{"type":"Point","coordinates":[4.886,43.43805]},"properties":{"latitude":"43.43805","longitude":"4.886","bright_ti4":"304.66","scan":"0.52","track":"0.66","acq_date":"2026-06-21","acq_time":"45","satellite":"N","instrument":"VIIRS","confidence":"n","version":"2.0NRT","bright_ti5":"291.09","frp":"2.68","daynight":"N","commune":"Fos-sur-Mer","code_insee":"13039","departement":"Bouches-du-Rhône","region":"Provence-Alpes-Côte d'Azur"}},{"type":"Feature","geometry":{"type":"Point","coordinates":[4.89959,43.44401]},"properties":{"latitude":"43.44401","longitude":"4.89959","bright_ti4":"311.45","scan":"0.51","track":"0.66","acq_date":"2026-06-21","acq_time":"45","satellite":"N","instrument":"VIIRS","confidence":"n","version":"2.0NRT","bright_ti5":"289.51","frp":"2.15","daynight":"N","commune":"Fos-sur-Mer","code_insee":"13039","departement":"Bouches-du-Rhône","region":"Provence-Alpes-Côte d'Azur"}},{"type":"Feature","geometry":{"type":"Point","coordinates":[4.89295,43.44416]},"properties":{"latitude":"43.44416","longitude":"4.89295","bright_ti4":"320.26","scan":"0.52","track":"0.66","acq_date":"2026-06-21","acq_time":"45","satellite":"N","instrument":"VIIRS","confidence":"n","version":"2.0NRT","bright_ti5":"290.75","frp":"2.15","daynight":"N","commune":"Fos-sur-Mer","code_insee":"13039","departement":"Bouches-du-Rhône","region":"Provence-Alpes-Côte d'Azur"}},{"type":"Feature","geometry":{"type":"Point","coordinates":[7.37287,43.79727]},"properties":{"latitude":"43.79727","longitude":"7.37287","bright_ti4":"302.49","scan":"0.39","track":"0.59","acq_date":"2026-06-21","acq_time":"45","satellite":"N","instrument":"VIIRS","confidence":"n","version":"2.0NRT","bright_ti5":"290.78","frp":"0.42","daynight":"N","commune":"Blausasc","code_insee":"06019","departement":"Alpes-Maritimes","region":"Provence-Alpes-Côte d'Azur"}},{"type":"Feature","geometry":{"type":"Point","coordinates":[5.66293,45.23184]},"properties":{"latitude":"45.23184","longitude":"5.66293","bright_ti4":"302.42","scan":"0.48","track":"0.65","acq_date":"2026-06-21","acq_time":"45","satellite":"N","instrument":"VIIRS","confidence":"n","version":"2.0NRT","bright_ti5":"289.87","frp":"0.59","daynight":"N","commune":"Saint-Égrève","code_insee":"38382","departement":"Isère","region":"Auvergne-Rhône-Alpes"}},{"type":"Feature","geometry":{"type":"Point","coordinates":[5.66464,45.23198]},"properties":{"latitude":"45.23198","longitude":"5.66464","bright_ti4":"302.87","scan":"0.48","track":"0.65","acq_date":"2026-06-21","acq_time":"45","satellite":"N","instrument":"VIIRS","confidence":"n","version":"2.0NRT","bright_ti5":"290.2","frp":"0.55","daynight":"N","commune":"Saint-Égrève","code_insee":"38382","departement":"Isère","region":"Auvergne-Rhône-Alpes"}},{"type":"Feature","geometry":{"type":"Point","coordinates":[4.75461,45.44468]},"properties":{"latitude":"45.44468","longitude":"4.75461","bright_ti4":"299.63","scan":"0.54","track":"0.68","acq_date":"2026-06-21","acq_time":"45","satellite":"N","instrument":"VIIRS","confidence":"n","version":"2.0NRT","bright_ti5":"288.52","frp":"0.54","daynight":"N","commune":"Saint-Michel-sur-Rhône","code_insee":"42265","departement":"Loire","region":"Auvergne-Rhône-Alpes"}},{"type":"Feature","geometry":{"type":"Point","coordinates":[7.23412,47.63059]},"properties":{"latitude":"47.63059","longitude":"7.23412","bright_ti4":"297.69","scan":"0.42","track":"0.61","acq_date":"2026-06-21","acq_time":"45","satellite":"N","instrument":"VIIRS","confidence":"n","version":"2.0NRT","bright_ti5":"284.84","frp":"0.54","daynight":"N","commune":"Altkirch","code_insee":"68004","departement":"Haut-Rhin","region":"Grand Est"}},{"type":"Feature","geometry":{"type":"Point","coordinates":[7.03757,47.85543]},"properties":{"latitude":"47.85543","longitude":"7.03757","bright_ti4":"302.2","scan":"0.43","track":"0.62","acq_date":"2026-06-21","acq_time":"45","satellite":"N","instrument":"VIIRS","confidence":"n","version":"2.0NRT","bright_ti5":"286.13","frp":"0.42","daynight":"N","commune":"Moosch","code_insee":"68217","departement":"Haut-Rhin","region":"Grand Est"}},{"type":"Feature","geometry":{"type":"Point","coordinates":[4.98358,48.82518]},"properties":{"latitude":"48.82518","longitude":"4.98358","bright_ti4":"300.36","scan":"0.54","track":"0.68","acq_date":"2026-06-21","acq_time":"45","satellite":"N","instrument":"VIIRS","confidence":"n","version":"2.0NRT","bright_ti5":"288.32","frp":"0.67","daynight":"N","commune":"Revigny-sur-Ornain","code_insee":"55427","departement":"Meuse","region":"Grand Est"}},{"type":"Feature","geometry":{"type":"Point","coordinates":[4.77551,48.97456]},"properties":{"latitude":"48.97456","longitude":"4.77551","bright_ti4":"297.48","scan":"0.55","track":"0.68","acq_date":"2026-06-21","acq_time":"45","satellite":"N","instrument":"VIIRS","confidence":"n","version":"2.0NRT","bright_ti5":"287.18","frp":"0.27","daynight":"N","commune":"Dommartin-Varimont","code_insee":"51214","departement":"Marne","region":"Grand Est"}},{"type":"Feature","geometry":{"type":"Point","coordinates":[4.7606,45.44494]},"properties":{"latitude":"45.44494","longitude":"4.7606","bright_ti4":"299.16","scan":"0.46","track":"0.47","acq_date":"2026-06-21","acq_time":"226","satellite":"N","instrument":"VIIRS","confidence":"n","version":"2.0NRT","bright_ti5":"285.12","frp":"0.95","daynight":"N","commune":"Saint-Clair-du-Rhône","code_insee":"38378","departement":"Isère","region":"Auvergne-Rhône-Alpes"}},{"type":"Feature","geometry":{"type":"Point","coordinates":[2.81102,45.83862]},"properties":{"latitude":"45.83862","longitude":"2.81102","bright_ti4":"298.38","scan":"0.56","track":"0.43","acq_date":"2026-06-21","acq_time":"226","satellite":"N","instrument":"VIIRS","confidence":"n","version":"2.0NRT","bright_ti5":"285.64","frp":"0.52","daynight":"N","commune":"Bromont-Lamothe","code_insee":"63055","departement":"Puy-de-Dôme","region":"Auvergne-Rhône-Alpes"}},{"type":"Feature","geometry":{"type":"Point","coordinates":[2.81099,45.8407]},"properties":{"latitude":"45.8407","longitude":"2.81099","bright_ti4":"297.57","scan":"0.56","track":"0.43","acq_date":"2026-06-21","acq_time":"226","satellite":"N","instrument":"VIIRS","confidence":"n","version":"2.0NRT","bright_ti5":"285.7","frp":"0.45","daynight":"N","commune":"Bromont-Lamothe","code_insee":"63055","departement":"Puy-de-Dôme","region":"Auvergne-Rhône-Alpes"}},{"type":"Feature","geometry":{"type":"Point","coordinates":[-1.82392,47.2064]},"properties":{"latitude":"47.2064","longitude":"-1.82392","bright_ti4":"313.26","scan":"0.39","track":"0.37","acq_date":"2026-06-21","acq_time":"226","satellite":"N","instrument":"VIIRS","confidence":"n","version":"2.0NRT","bright_ti5":"287.7","frp":"1.04","daynight":"N","commune":"Rouans","code_insee":"44145","departement":"Loire-Atlantique","region":"Pays de la Loire"}},{"type":"Feature","geometry":{"type":"Point","coordinates":[-1.82246,47.20693]},"properties":{"latitude":"47.20693","longitude":"-1.82246","bright_ti4":"310.78","scan":"0.39","track":"0.37","acq_date":"2026-06-21","acq_time":"226","satellite":"N","instrument":"VIIRS","confidence":"n","version":"2.0NRT","bright_ti5":"287.48","frp":"1.17","daynight":"N","commune":"Rouans","code_insee":"44145","departement":"Loire-Atlantique","region":"Pays de la Loire"}},{"type":"Feature","geometry":{"type":"Point","coordinates":[5.81808,48.10081]},"properties":{"latitude":"48.10081","longitude":"5.81808","bright_ti4":"297.84","scan":"0.44","track":"0.46","acq_date":"2026-06-21","acq_time":"226","satellite":"N","instrument":"VIIRS","confidence":"n","version":"2.0NRT","bright_ti5":"286.09","frp":"0.23","daynight":"N","commune":"Martigny-les-Bains","code_insee":"88289","departement":"Vosges","region":"Grand Est"}},{"type":"Feature","geometry":{"type":"Point","coordinates":[-1.03789,48.10854]},"properties":{"latitude":"48.10854","longitude":"-1.03789","bright_ti4":"304.64","scan":"0.4","track":"0.37","acq_date":"2026-06-21","acq_time":"226","satellite":"N","instrument":"VIIRS","confidence":"n","version":"2.0NRT","bright_ti5":"291.79","frp":"0.93","daynight":"N","commune":"Saint-Pierre-la-Cour","code_insee":"53247","departement":"Mayenne","region":"Pays de la Loire"}},{"type":"Feature","geometry":{"type":"Point","coordinates":[6.11079,48.61016]},"properties":{"latitude":"48.61016","longitude":"6.11079","bright_ti4":"301.13","scan":"0.44","track":"0.46","acq_date":"2026-06-21","acq_time":"226","satellite":"N","instrument":"VIIRS","confidence":"n","version":"2.0NRT","bright_ti5":"290.72","frp":"1.06","daynight":"N","commune":"Neuves-Maisons","code_insee":"54397","departement":"Meurthe-et-Moselle","region":"Grand Est"}},{"type":"Feature","geometry":{"type":"Point","coordinates":[5.91563,48.78437]},"properties":{"latitude":"48.78437","longitude":"5.91563","bright_ti4":"299.21","scan":"0.43","track":"0.46","acq_date":"2026-06-21","acq_time":"226","satellite":"N","instrument":"VIIRS","confidence":"n","version":"2.0NRT","bright_ti5":"287.63","frp":"0.51","daynight":"N","commune":"Manoncourt-en-Woëvre","code_insee":"54346","departement":"Meurthe-et-Moselle","region":"Grand Est"}},{"type":"Feature","geometry":{"type":"Point","coordinates":[4.98927,48.82559]},"properties":{"latitude":"48.82559","longitude":"4.98927","bright_ti4":"300.4","scan":"0.39","track":"0.44","acq_date":"2026-06-21","acq_time":"226","satellite":"N","instrument":"VIIRS","confidence":"n","version":"2.0NRT","bright_ti5":"289.06","frp":"0.75","daynight":"N","commune":"Revigny-sur-Ornain","code_insee":"55427","departement":"Meuse","region":"Grand Est"}},{"type":"Feature","geometry":{"type":"Point","coordinates":[4.98531,48.82686]},"properties":{"latitude":"48.82686","longitude":"4.98531","bright_ti4":"303.25","scan":"0.39","track":"0.44","acq_date":"2026-06-21","acq_time":"226","satellite":"N","instrument":"VIIRS","confidence":"n","version":"2.0NRT","bright_ti5":"289.07","frp":"0.6","daynight":"N","commune":"Revigny-sur-Ornain","code_insee":"55427","departement":"Meuse","region":"Grand Est"}},{"type":"Feature","geometry":{"type":"Point","coordinates":[1.75993,48.98324]},"properties":{"latitude":"48.98324","longitude":"1.75993","bright_ti4":"331.39","scan":"0.45","track":"0.39","acq_date":"2026-06-21","acq_time":"226","satellite":"N","instrument":"VIIRS","confidence":"n","version":"2.0NRT","bright_ti5":"290.91","frp":"4.02","daynight":"N","commune":"Porcheville","code_insee":"78501","departement":"Yvelines","region":"Île-de-France"}},{"type":"Feature","geometry":{"type":"Point","coordinates":[0.5326,49.4784]},"properties":{"latitude":"49.4784","longitude":"0.5326","bright_ti4":"309.5","scan":"0.42","track":"0.37","acq_date":"2026-06-21","acq_time":"226","satellite":"N","instrument":"VIIRS","confidence":"n","version":"2.0NRT","bright_ti5":"289.17","frp":"1.11","daynight":"N","commune":"Lillebonne","code_insee":"76384","departement":"Seine-Maritime","region":"Normandie"}},{"type":"Feature","geometry":{"type":"Point","coordinates":[2.16235,49.77001]},"properties":{"latitude":"49.77001","longitude":"2.16235","bright_ti4":"299.09","scan":"0.45","track":"0.39","acq_date":"2026-06-21","acq_time":"226","satellite":"N","instrument":"VIIRS","confidence":"n","version":"2.0NRT","bright_ti5":"288.02","frp":"0.6","daynight":"N","commune":"Conty","code_insee":"80211","departement":"Somme","region":"Hauts-de-France"}},{"type":"Feature","geometry":{"type":"Point","coordinates":[2.2729,51.0301]},"properties":{"latitude":"51.0301","longitude":"2.2729","bright_ti4":"311.03","scan":"0.44","track":"0.38","acq_date":"2026-06-21","acq_time":"226","satellite":"N","instrument":"VIIRS","confidence":"n","version":"2.0NRT","bright_ti5":"289.13","frp":"1.97","daynight":"N","commune":"Grande-Synthe","code_insee":"59271","departement":"Nord","region":"Hauts-de-France"}},{"type":"Feature","geometry":{"type":"Point","coordinates":[2.25483,51.03367]},"properties":{"latitude":"51.03367","longitude":"2.25483","bright_ti4":"301.33","scan":"0.43","track":"0.38","acq_date":"2026-06-21","acq_time":"226","satellite":"N","instrument":"VIIRS","confidence":"n","version":"2.0NRT","bright_ti5":"288.8","frp":"0.51","daynight":"N","commune":"Dunkerque","code_insee":"59183","departement":"Nord","region":"Hauts-de-France"}},{"type":"Feature","geometry":{"type":"Point","coordinates":[2.28833,51.03453]},"properties":{"latitude":"51.03453","longitude":"2.28833","bright_ti4":"331.75","scan":"0.44","track":"0.38","acq_date":"2026-06-21","acq_time":"226","satellite":"N","instrument":"VIIRS","confidence":"n","version":"2.0NRT","bright_ti5":"290.44","frp":"4.69","daynight":"N","commune":"Grande-Synthe","code_insee":"59271","departement":"Nord","region":"Hauts-de-France"}},{"type":"Feature","geometry":{"type":"Point","coordinates":[2.29172,51.04134]},"properties":{"latitude":"51.04134","longitude":"2.29172","bright_ti4":"304.06","scan":"0.44","track":"0.38","acq_date":"2026-06-21","acq_time":"226","satellite":"N","instrument":"VIIRS","confidence":"n","version":"2.0NRT","bright_ti5":"289.78","frp":"1.17","daynight":"N","commune":"Grande-Synthe","code_insee":"59271","departement":"Nord","region":"Hauts-de-France"}},{"type":"Feature","geometry":{"type":"Point","coordinates":[2.29945,51.04355]},"properties":{"latitude":"51.04355","longitude":"2.29945","bright_ti4":"317.42","scan":"0.44","track":"0.38","acq_date":"2026-06-21","acq_time":"226","satellite":"N","instrument":"VIIRS","confidence":"n","version":"2.0NRT","bright_ti5":"290.61","frp":"7.05","daynight":"N","commune":"Grande-Synthe","code_insee":"59271","departement":"Nord","region":"Hauts-de-France"}},{"type":"Feature","geometry":{"type":"Point","coordinates":[2.29342,51.04474]},"properties":{"latitude":"51.04474","longitude":"2.29342","bright_ti4":"331.54","scan":"0.44","track":"0.38","acq_date":"2026-06-21","acq_time":"226","satellite":"N","instrument":"VIIRS","confidence":"n","version":"2.0NRT","bright_ti5":"291.62","frp":"22.22","daynight":"N","commune":"Grande-Synthe","code_insee":"59271","departement":"Nord","region":"Hauts-de-France"}},{"type":"Feature","geometry":{"type":"Point","coordinates":[2.32095,51.04678]},"properties":{"latitude":"51.04678","longitude":"2.32095","bright_ti4":"305.64","scan":"0.44","track":"0.38","acq_date":"2026-06-21","acq_time":"226","satellite":"N","instrument":"VIIRS","confidence":"n","version":"2.0NRT","bright_ti5":"290.42","frp":"0.88","daynight":"N","commune":"Dunkerque","code_insee":"59183","departement":"Nord","region":"Hauts-de-France"}},{"type":"Feature","geometry":{"type":"Point","coordinates":[2.31492,51.04797]},"properties":{"latitude":"51.04797","longitude":"2.31492","bright_ti4":"300.1","scan":"0.44","track":"0.38","acq_date":"2026-06-21","acq_time":"226","satellite":"N","instrument":"VIIRS","confidence":"n","version":"2.0NRT","bright_ti5":"288.83","frp":"0.88","daynight":"N","commune":"Dunkerque","code_insee":"59183","departement":"Nord","region":"Hauts-de-France"}},{"type":"Feature","geometry":{"type":"Point","coordinates":[4.88954,43.43003]},"properties":{"latitude":"43.43003","longitude":"4.88954","bright_ti4":"304.07","scan":"0.53","track":"0.5","acq_date":"2026-06-21","acq_time":"228","satellite":"N","instrument":"VIIRS","confidence":"n","version":"2.0NRT","bright_ti5":"292.68","frp":"2.8","daynight":"N","commune":"Fos-sur-Mer","code_insee":"13039","departement":"Bouches-du-Rhône","region":"Provence-Alpes-Côte d'Azur"}},{"type":"Feature","geometry":{"type":"Point","coordinates":[4.89692,43.43436]},"properties":{"latitude":"43.43436","longitude":"4.89692","bright_ti4":"303.88","scan":"0.53","track":"0.5","acq_date":"2026-06-21","acq_time":"228","satellite":"N","instrument":"VIIRS","confidence":"n","version":"2.0NRT","bright_ti5":"292.14","frp":"0.77","daynight":"N","commune":"Fos-sur-Mer","code_insee":"13039","departement":"Bouches-du-Rhône","region":"Provence-Alpes-Côte d'Azur"}},{"type":"Feature","geometry":{"type":"Point","coordinates":[4.89062,43.43593]},"properties":{"latitude":"43.43593","longitude":"4.89062","bright_ti4":"303.48","scan":"0.53","track":"0.5","acq_date":"2026-06-21","acq_time":"228","satellite":"N","instrument":"VIIRS","confidence":"n","version":"2.0NRT","bright_ti5":"292.48","frp":"0.77","daynight":"N","commune":"Fos-sur-Mer","code_insee":"13039","departement":"Bouches-du-Rhône","region":"Provence-Alpes-Côte d'Azur"}},{"type":"Feature","geometry":{"type":"Point","coordinates":[4.89274,43.44035]},"properties":{"latitude":"43.44035","longitude":"4.89274","bright_ti4":"304.01","scan":"0.53","track":"0.5","acq_date":"2026-06-21","acq_time":"228","satellite":"N","instrument":"VIIRS","confidence":"n","version":"2.0NRT","bright_ti5":"292.37","frp":"0.77","daynight":"N","commune":"Fos-sur-Mer","code_insee":"13039","departement":"Bouches-du-Rhône","region":"Provence-Alpes-Côte d'Azur"}},{"type":"Feature","geometry":{"type":"Point","coordinates":[4.90117,43.44321]},"properties":{"latitude":"43.44321","longitude":"4.90117","bright_ti4":"313.65","scan":"0.53","track":"0.5","acq_date":"2026-06-21","acq_time":"228","satellite":"N","instrument":"VIIRS","confidence":"n","version":"2.0NRT","bright_ti5":"290.38","frp":"3.35","daynight":"N","commune":"Fos-sur-Mer","code_insee":"13039","departement":"Bouches-du-Rhône","region":"Provence-Alpes-Côte d'Azur"}},{"type":"Feature","geometry":{"type":"Point","coordinates":[4.89584,43.44331]},"properties":{"latitude":"43.44331","longitude":"4.89584","bright_ti4":"318.26","scan":"0.53","track":"0.5","acq_date":"2026-06-21","acq_time":"228","satellite":"N","instrument":"VIIRS","confidence":"n","version":"2.0NRT","bright_ti5":"291.36","frp":"4.23","daynight":"N","commune":"Fos-sur-Mer","code_insee":"13039","departement":"Bouches-du-Rhône","region":"Provence-Alpes-Côte d'Azur"}},{"type":"Feature","geometry":{"type":"Point","coordinates":[4.89486,43.44478]},"properties":{"latitude":"43.44478","longitude":"4.89486","bright_ti4":"328.94","scan":"0.53","track":"0.5","acq_date":"2026-06-21","acq_time":"228","satellite":"N","instrument":"VIIRS","confidence":"n","version":"2.0NRT","bright_ti5":"292.08","frp":"3.35","daynight":"N","commune":"Fos-sur-Mer","code_insee":"13039","departement":"Bouches-du-Rhône","region":"Provence-Alpes-Côte d'Azur"}},{"type":"Feature","geometry":{"type":"Point","coordinates":[4.89796,43.44773]},"properties":{"latitude":"43.44773","longitude":"4.89796","bright_ti4":"342.47","scan":"0.53","track":"0.5","acq_date":"2026-06-21","acq_time":"228","satellite":"N","instrument":"VIIRS","confidence":"n","version":"2.0NRT","bright_ti5":"293.93","frp":"7.19","daynight":"N","commune":"Fos-sur-Mer","code_insee":"13039","departement":"Bouches-du-Rhône","region":"Provence-Alpes-Côte d'Azur"}},{"type":"Feature","geometry":{"type":"Point","coordinates":[4.89698,43.4492]},"properties":{"latitude":"43.4492","longitude":"4.89698","bright_ti4":"327.53","scan":"0.53","track":"0.5","acq_date":"2026-06-21","acq_time":"228","satellite":"N","instrument":"VIIRS","confidence":"n","version":"2.0NRT","bright_ti5":"292.56","frp":"3.35","daynight":"N","commune":"Fos-sur-Mer","code_insee":"13039","departement":"Bouches-du-Rhône","region":"Provence-Alpes-Côte d'Azur"}},{"type":"Feature","geometry":{"type":"Point","coordinates":[2.32515,46.67743]},"properties":{"latitude":"46.67743","longitude":"2.32515","bright_ti4":"331.07","scan":"0.45","track":"0.47","acq_date":"2026-06-21","acq_time":"1212","satellite":"N","instrument":"VIIRS","confidence":"l","version":"2.0NRT","bright_ti5":"305.64","frp":"0.84","daynight":"D","commune":"Marçais","code_insee":"18136","departement":"Cher","region":"Centre-Val de Loire"}},{"type":"Feature","geometry":{"type":"Point","coordinates":[2.23638,46.71603]},"properties":{"latitude":"46.71603","longitude":"2.23638","bright_ti4":"367","scan":"0.45","track":"0.47","acq_date":"2026-06-21","acq_time":"1212","satellite":"N","instrument":"VIIRS","confidence":"h","version":"2.0NRT","bright_ti5":"309.33","frp":"13.39","daynight":"D","commune":"Touchay","code_insee":"18266","departement":"Cher","region":"Centre-Val de Loire"}},{"type":"Feature","geometry":{"type":"Point","coordinates":[2.62052,47.02305]},"properties":{"latitude":"47.02305","longitude":"2.62052","bright_ti4":"341.7","scan":"0.43","track":"0.46","acq_date":"2026-06-21","acq_time":"1212","satellite":"N","instrument":"VIIRS","confidence":"n","version":"2.0NRT","bright_ti5":"305.86","frp":"5.33","daynight":"D","commune":"Avord","code_insee":"18018","departement":"Cher","region":"Centre-Val de Loire"}},{"type":"Feature","geometry":{"type":"Point","coordinates":[2.62591,47.02431]},"properties":{"latitude":"47.02431","longitude":"2.62591","bright_ti4":"342.28","scan":"0.42","track":"0.46","acq_date":"2026-06-21","acq_time":"1212","satellite":"N","instrument":"VIIRS","confidence":"n","version":"2.0NRT","bright_ti5":"310.66","frp":"5.33","daynight":"D","commune":"Avord","code_insee":"18018","departement":"Cher","region":"Centre-Val de Loire"}},{"type":"Feature","geometry":{"type":"Point","coordinates":[2.62386,47.02832]},"properties":{"latitude":"47.02832","longitude":"2.62386","bright_ti4":"330.15","scan":"0.42","track":"0.46","acq_date":"2026-06-21","acq_time":"1212","satellite":"N","instrument":"VIIRS","confidence":"l","version":"2.0NRT","bright_ti5":"304.16","frp":"1.37","daynight":"D","commune":"Avord","code_insee":"18018","departement":"Cher","region":"Centre-Val de Loire"}},{"type":"Feature","geometry":{"type":"Point","coordinates":[0.15434,47.21346]},"properties":{"latitude":"47.21346","longitude":"0.15434","bright_ti4":"331.51","scan":"0.54","track":"0.5","acq_date":"2026-06-21","acq_time":"1212","satellite":"N","instrument":"VIIRS","confidence":"n","version":"2.0NRT","bright_ti5":"300.06","frp":"2.67","daynight":"D","commune":"Savigny-en-Véron","code_insee":"37242","departement":"Indre-et-Loire","region":"Centre-Val de Loire"}},{"type":"Feature","geometry":{"type":"Point","coordinates":[1.76051,48.9827]},"properties":{"latitude":"48.9827","longitude":"1.76051","bright_ti4":"331.49","scan":"0.41","track":"0.45","acq_date":"2026-06-21","acq_time":"1214","satellite":"N","instrument":"VIIRS","confidence":"n","version":"2.0NRT","bright_ti5":"297.75","frp":"2.57","daynight":"D","commune":"Porcheville","code_insee":"78501","departement":"Yvelines","region":"Île-de-France"}},{"type":"Feature","geometry":{"type":"Point","coordinates":[-0.80707,49.1004]},"properties":{"latitude":"49.1004","longitude":"-0.80707","bright_ti4":"337.52","scan":"0.52","track":"0.5","acq_date":"2026-06-21","acq_time":"1214","satellite":"N","instrument":"VIIRS","confidence":"n","version":"2.0NRT","bright_ti5":"296.81","frp":"9.27","daynight":"D","commune":"Caumont-sur-Aure","code_insee":"14143","departement":"Calvados","region":"Normandie"}},{"type":"Feature","geometry":{"type":"Point","coordinates":[3.00724,50.44452]},"properties":{"latitude":"50.44452","longitude":"3.00724","bright_ti4":"331.75","scan":"0.52","track":"0.41","acq_date":"2026-06-21","acq_time":"1214","satellite":"N","instrument":"VIIRS","confidence":"l","version":"2.0NRT","bright_ti5":"305.96","frp":"3.46","daynight":"D","commune":"Dourges","code_insee":"62274","departement":"Pas-de-Calais","region":"Hauts-de-France"}},{"type":"Feature","geometry":{"type":"Point","coordinates":[3.0123,50.44969]},"properties":{"latitude":"50.44969","longitude":"3.0123","bright_ti4":"331.01","scan":"0.52","track":"0.41","acq_date":"2026-06-21","acq_time":"1214","satellite":"N","instrument":"VIIRS","confidence":"l","version":"2.0NRT","bright_ti5":"304.71","frp":"5.22","daynight":"D","commune":"Dourges","code_insee":"62274","departement":"Pas-de-Calais","region":"Hauts-de-France"}},{"type":"Feature","geometry":{"type":"Point","coordinates":[2.29645,51.04342]},"properties":{"latitude":"51.04342","longitude":"2.29645","bright_ti4":"338.85","scan":"0.53","track":"0.42","acq_date":"2026-06-21","acq_time":"1214","satellite":"N","instrument":"VIIRS","confidence":"n","version":"2.0NRT","bright_ti5":"300.14","frp":"13.48","daynight":"D","commune":"Grande-Synthe","code_insee":"59271","departement":"Nord","region":"Hauts-de-France"}},{"type":"Feature","geometry":{"type":"Point","coordinates":[2.29556,51.04462]},"properties":{"latitude":"51.04462","longitude":"2.29556","bright_ti4":"338.6","scan":"0.53","track":"0.42","acq_date":"2026-06-21","acq_time":"1214","satellite":"N","instrument":"VIIRS","confidence":"n","version":"2.0NRT","bright_ti5":"301.58","frp":"15.35","daynight":"D","commune":"Grande-Synthe","code_insee":"59271","departement":"Nord","region":"Hauts-de-France"}},{"type":"Feature","geometry":{"type":"Point","coordinates":[1.23057,43.28501]},"properties":{"latitude":"43.28501","longitude":"1.23057","bright_ti4":"302.19","scan":"0.39","track":"0.59","acq_date":"2026-06-21","acq_time":"105","satellite":"N20","instrument":"VIIRS","confidence":"n","version":"2.0NRT","bright_ti5":"276.86","frp":"3.72","daynight":"N","commune":"Carbonne","code_insee":"31107","departement":"Haute-Garonne","region":"Occitanie"}},{"type":"Feature","geometry":{"type":"Point","coordinates":[1.22546,43.28524]},"properties":{"latitude":"43.28524","longitude":"1.22546","bright_ti4":"354.83","scan":"0.39","track":"0.59","acq_date":"2026-06-21","acq_time":"105","satellite":"N20","instrument":"VIIRS","confidence":"n","version":"2.0NRT","bright_ti5":"278.21","frp":"3.72","daynight":"N","commune":"Carbonne","code_insee":"31107","departement":"Haute-Garonne","region":"Occitanie"}},{"type":"Feature","geometry":{"type":"Point","coordinates":[4.99794,43.3848]},"properties":{"latitude":"43.3848","longitude":"4.99794","bright_ti4":"303.54","scan":"0.5","track":"0.49","acq_date":"2026-06-21","acq_time":"105","satellite":"N20","instrument":"VIIRS","confidence":"n","version":"2.0NRT","bright_ti5":"292.44","frp":"1.68","daynight":"N","commune":"Martigues","code_insee":"13056","departement":"Bouches-du-Rhône","region":"Provence-Alpes-Côte d'Azur"}},{"type":"Feature","geometry":{"type":"Point","coordinates":[4.89731,43.43441]},"properties":{"latitude":"43.43441","longitude":"4.89731","bright_ti4":"304.49","scan":"0.51","track":"0.49","acq_date":"2026-06-21","acq_time":"105","satellite":"N20","instrument":"VIIRS","confidence":"n","version":"2.0NRT","bright_ti5":"293.14","frp":"1.02","daynight":"N","commune":"Fos-sur-Mer","code_insee":"13039","departement":"Bouches-du-Rhône","region":"Provence-Alpes-Côte d'Azur"}},{"type":"Feature","geometry":{"type":"Point","coordinates":[4.89099,43.43488]},"properties":{"latitude":"43.43488","longitude":"4.89099","bright_ti4":"304.13","scan":"0.51","track":"0.49","acq_date":"2026-06-21","acq_time":"105","satellite":"N20","instrument":"VIIRS","confidence":"n","version":"2.0NRT","bright_ti5":"293.8","frp":"1.64","daynight":"N","commune":"Fos-sur-Mer","code_insee":"13039","departement":"Bouches-du-Rhône","region":"Provence-Alpes-Côte d'Azur"}},{"type":"Feature","geometry":{"type":"Point","coordinates":[4.89166,43.43943]},"properties":{"latitude":"43.43943","longitude":"4.89166","bright_ti4":"311.12","scan":"0.51","track":"0.49","acq_date":"2026-06-21","acq_time":"105","satellite":"N20","instrument":"VIIRS","confidence":"n","version":"2.0NRT","bright_ti5":"293.24","frp":"1.64","daynight":"N","commune":"Fos-sur-Mer","code_insee":"13039","departement":"Bouches-du-Rhône","region":"Provence-Alpes-Côte d'Azur"}},{"type":"Feature","geometry":{"type":"Point","coordinates":[4.89867,43.44351]},"properties":{"latitude":"43.44351","longitude":"4.89867","bright_ti4":"328.53","scan":"0.51","track":"0.49","acq_date":"2026-06-21","acq_time":"105","satellite":"N20","instrument":"VIIRS","confidence":"n","version":"2.0NRT","bright_ti5":"292.61","frp":"3.79","daynight":"N","commune":"Fos-sur-Mer","code_insee":"13039","departement":"Bouches-du-Rhône","region":"Provence-Alpes-Côte d'Azur"}},{"type":"Feature","geometry":{"type":"Point","coordinates":[4.89933,43.44805]},"properties":{"latitude":"43.44805","longitude":"4.89933","bright_ti4":"327.38","scan":"0.51","track":"0.49","acq_date":"2026-06-21","acq_time":"105","satellite":"N20","instrument":"VIIRS","confidence":"n","version":"2.0NRT","bright_ti5":"293.69","frp":"3.79","daynight":"N","commune":"Fos-sur-Mer","code_insee":"13039","departement":"Bouches-du-Rhône","region":"Provence-Alpes-Côte d'Azur"}},{"type":"Feature","geometry":{"type":"Point","coordinates":[-1.82522,47.20583]},"properties":{"latitude":"47.20583","longitude":"-1.82522","bright_ti4":"305.62","scan":"0.58","track":"0.69","acq_date":"2026-06-21","acq_time":"105","satellite":"N20","instrument":"VIIRS","confidence":"n","version":"2.0NRT","bright_ti5":"286.83","frp":"0.87","daynight":"N","commune":"Rouans","code_insee":"44145","departement":"Loire-Atlantique","region":"Pays de la Loire"}},{"type":"Feature","geometry":{"type":"Point","coordinates":[7.52671,47.8131]},"properties":{"latitude":"47.8131","longitude":"7.52671","bright_ti4":"313.68","scan":"0.43","track":"0.46","acq_date":"2026-06-21","acq_time":"105","satellite":"N20","instrument":"VIIRS","confidence":"n","version":"2.0NRT","bright_ti5":"290.6","frp":"1.75","daynight":"N","commune":"Chalampé","code_insee":"68064","departement":"Haut-Rhin","region":"Grand Est"}},{"type":"Feature","geometry":{"type":"Point","coordinates":[5.82061,48.09794]},"properties":{"latitude":"48.09794","longitude":"5.82061","bright_ti4":"297.77","scan":"0.51","track":"0.49","acq_date":"2026-06-21","acq_time":"105","satellite":"N20","instrument":"VIIRS","confidence":"n","version":"2.0NRT","bright_ti5":"284.52","frp":"0.32","daynight":"N","commune":"Martigny-les-Bains","code_insee":"88289","departement":"Vosges","region":"Grand Est"}},{"type":"Feature","geometry":{"type":"Point","coordinates":[5.91206,48.14259]},"properties":{"latitude":"48.14259","longitude":"5.91206","bright_ti4":"298.47","scan":"0.51","track":"0.49","acq_date":"2026-06-21","acq_time":"105","satellite":"N20","instrument":"VIIRS","confidence":"n","version":"2.0NRT","bright_ti5":"287.66","frp":"0.35","daynight":"N","commune":"Dombrot-le-Sec","code_insee":"88140","departement":"Vosges","region":"Grand Est"}},{"type":"Feature","geometry":{"type":"Point","coordinates":[4.9887,48.82527]},"properties":{"latitude":"48.82527","longitude":"4.9887","bright_ti4":"301.38","scan":"0.57","track":"0.52","acq_date":"2026-06-21","acq_time":"105","satellite":"N20","instrument":"VIIRS","confidence":"n","version":"2.0NRT","bright_ti5":"288.8","frp":"1.18","daynight":"N","commune":"Revigny-sur-Ornain","code_insee":"55427","departement":"Meuse","region":"Grand Est"}},{"type":"Feature","geometry":{"type":"Point","coordinates":[4.99122,48.82549]},"properties":{"latitude":"48.82549","longitude":"4.99122","bright_ti4":"305.41","scan":"0.57","track":"0.52","acq_date":"2026-06-21","acq_time":"105","satellite":"N20","instrument":"VIIRS","confidence":"n","version":"2.0NRT","bright_ti5":"288.82","frp":"0.83","daynight":"N","commune":"Revigny-sur-Ornain","code_insee":"55427","departement":"Meuse","region":"Grand Est"}},{"type":"Feature","geometry":{"type":"Point","coordinates":[0.53575,49.47569]},"properties":{"latitude":"49.47569","longitude":"0.53575","bright_ti4":"300.56","scan":"0.46","track":"0.63","acq_date":"2026-06-21","acq_time":"105","satellite":"N20","instrument":"VIIRS","confidence":"n","version":"2.0NRT","bright_ti5":"286.37","frp":"1.16","daynight":"N","commune":"Lillebonne","code_insee":"76384","departement":"Seine-Maritime","region":"Normandie"}},{"type":"Feature","geometry":{"type":"Point","coordinates":[2.16247,49.76972]},"properties":{"latitude":"49.76972","longitude":"2.16247","bright_ti4":"301.63","scan":"0.39","track":"0.59","acq_date":"2026-06-21","acq_time":"105","satellite":"N20","instrument":"VIIRS","confidence":"n","version":"2.0NRT","bright_ti5":"286.23","frp":"0.56","daynight":"N","commune":"Conty","code_insee":"80211","departement":"Somme","region":"Hauts-de-France"}},{"type":"Feature","geometry":{"type":"Point","coordinates":[2.16402,49.76972]},"properties":{"latitude":"49.76972","longitude":"2.16402","bright_ti4":"298.12","scan":"0.39","track":"0.59","acq_date":"2026-06-21","acq_time":"105","satellite":"N20","instrument":"VIIRS","confidence":"n","version":"2.0NRT","bright_ti5":"286.51","frp":"0.51","daynight":"N","commune":"Conty","code_insee":"80211","departement":"Somme","region":"Hauts-de-France"}},{"type":"Feature","geometry":{"type":"Point","coordinates":[2.92668,50.07626]},"properties":{"latitude":"50.07626","longitude":"2.92668","bright_ti4":"296.05","scan":"0.36","track":"0.57","acq_date":"2026-06-21","acq_time":"105","satellite":"N20","instrument":"VIIRS","confidence":"n","version":"2.0NRT","bright_ti5":"263.5","frp":"0.47","daynight":"N","commune":"Barastre","code_insee":"62082","departement":"Pas-de-Calais","region":"Hauts-de-France"}},{"type":"Feature","geometry":{"type":"Point","coordinates":[2.92621,50.07833]},"properties":{"latitude":"50.07833","longitude":"2.92621","bright_ti4":"296.29","scan":"0.36","track":"0.57","acq_date":"2026-06-21","acq_time":"105","satellite":"N20","instrument":"VIIRS","confidence":"n","version":"2.0NRT","bright_ti5":"264.09","frp":"0.44","daynight":"N","commune":"Barastre","code_insee":"62082","departement":"Pas-de-Calais","region":"Hauts-de-France"}},{"type":"Feature","geometry":{"type":"Point","coordinates":[2.37973,50.18132]},"properties":{"latitude":"50.18132","longitude":"2.37973","bright_ti4":"300.83","scan":"0.38","track":"0.59","acq_date":"2026-06-21","acq_time":"105","satellite":"N20","instrument":"VIIRS","confidence":"n","version":"2.0NRT","bright_ti5":"286.14","frp":"0.44","daynight":"N","commune":"Grouches-Luchuel","code_insee":"80392","departement":"Somme","region":"Hauts-de-France"}},{"type":"Feature","geometry":{"type":"Point","coordinates":[7.37291,43.79571]},"properties":{"latitude":"43.79571","longitude":"7.37291","bright_ti4":"302.16","scan":"0.39","track":"0.44","acq_date":"2026-06-21","acq_time":"107","satellite":"N20","instrument":"VIIRS","confidence":"n","version":"2.0NRT","bright_ti5":"291.42","frp":"0.45","daynight":"N","commune":"Blausasc","code_insee":"06019","departement":"Alpes-Maritimes","region":"Provence-Alpes-Côte d'Azur"}},{"type":"Feature","geometry":{"type":"Point","coordinates":[4.85235,45.20533]},"properties":{"latitude":"45.20533","longitude":"4.85235","bright_ti4":"306.37","scan":"0.53","track":"0.5","acq_date":"2026-06-21","acq_time":"107","satellite":"N20","instrument":"VIIRS","confidence":"n","version":"2.0NRT","bright_ti5":"288.83","frp":"0.6","daynight":"N","commune":"Beausemblant","code_insee":"26041","departement":"Drôme","region":"Auvergne-Rhône-Alpes"}},{"type":"Feature","geometry":{"type":"Point","coordinates":[4.76297,45.44259]},"properties":{"latitude":"45.44259","longitude":"4.76297","bright_ti4":"304.26","scan":"0.54","track":"0.51","acq_date":"2026-06-21","acq_time":"107","satellite":"N20","instrument":"VIIRS","confidence":"n","version":"2.0NRT","bright_ti5":"290.04","frp":"0.91","daynight":"N","commune":"Saint-Clair-du-Rhône","code_insee":"38378","departement":"Isère","region":"Auvergne-Rhône-Alpes"}},{"type":"Feature","geometry":{"type":"Point","coordinates":[4.76352,45.44472]},"properties":{"latitude":"45.44472","longitude":"4.76352","bright_ti4":"305.02","scan":"0.54","track":"0.51","acq_date":"2026-06-21","acq_time":"107","satellite":"N20","instrument":"VIIRS","confidence":"n","version":"2.0NRT","bright_ti5":"290.47","frp":"0.79","daynight":"N","commune":"Saint-Clair-du-Rhône","code_insee":"38378","departement":"Isère","region":"Auvergne-Rhône-Alpes"}},{"type":"Feature","geometry":{"type":"Point","coordinates":[2.81484,45.8376]},"properties":{"latitude":"45.8376","longitude":"2.81484","bright_ti4":"307.26","scan":"0.34","track":"0.56","acq_date":"2026-06-21","acq_time":"107","satellite":"N20","instrument":"VIIRS","confidence":"n","version":"2.0NRT","bright_ti5":"286.24","frp":"0.65","daynight":"N","commune":"Bromont-Lamothe","code_insee":"63055","departement":"Puy-de-Dôme","region":"Auvergne-Rhône-Alpes"}},{"type":"Feature","geometry":{"type":"Point","coordinates":[6.11836,48.61298]},"properties":{"latitude":"48.61298","longitude":"6.11836","bright_ti4":"301.93","scan":"0.4","track":"0.6","acq_date":"2026-06-21","acq_time":"243","satellite":"N20","instrument":"VIIRS","confidence":"n","version":"2.0NRT","bright_ti5":"288.63","frp":"1.1","daynight":"N","commune":"Neuves-Maisons","code_insee":"54397","departement":"Meurthe-et-Moselle","region":"Grand Est"}},{"type":"Feature","geometry":{"type":"Point","coordinates":[6.11335,48.61452]},"properties":{"latitude":"48.61452","longitude":"6.11335","bright_ti4":"317.79","scan":"0.4","track":"0.6","acq_date":"2026-06-21","acq_time":"243","satellite":"N20","instrument":"VIIRS","confidence":"n","version":"2.0NRT","bright_ti5":"289.1","frp":"1.1","daynight":"N","commune":"Neuves-Maisons","code_insee":"54397","departement":"Meurthe-et-Moselle","region":"Grand Est"}},{"type":"Feature","geometry":{"type":"Point","coordinates":[4.56581,48.7688]},"properties":{"latitude":"48.7688","longitude":"4.56581","bright_ti4":"303.27","scan":"0.34","track":"0.56","acq_date":"2026-06-21","acq_time":"243","satellite":"N20","instrument":"VIIRS","confidence":"n","version":"2.0NRT","bright_ti5":"289.83","frp":"0.85","daynight":"N","commune":"Couvrot","code_insee":"51195","departement":"Marne","region":"Grand Est"}},{"type":"Feature","geometry":{"type":"Point","coordinates":[1.76504,48.98454]},"properties":{"latitude":"48.98454","longitude":"1.76504","bright_ti4":"317.88","scan":"0.52","track":"0.5","acq_date":"2026-06-21","acq_time":"243","satellite":"N20","instrument":"VIIRS","confidence":"n","version":"2.0NRT","bright_ti5":"289.52","frp":"2.23","daynight":"N","commune":"Porcheville","code_insee":"78501","departement":"Yvelines","region":"Île-de-France"}},{"type":"Feature","geometry":{"type":"Point","coordinates":[1.75839,48.98629]},"properties":{"latitude":"48.98629","longitude":"1.75839","bright_ti4":"306.03","scan":"0.51","track":"0.5","acq_date":"2026-06-21","acq_time":"243","satellite":"N20","instrument":"VIIRS","confidence":"n","version":"2.0NRT","bright_ti5":"288.26","frp":"2.23","daynight":"N","commune":"Limay","code_insee":"78335","departement":"Yvelines","region":"Île-de-France"}},{"type":"Feature","geometry":{"type":"Point","coordinates":[0.53562,49.47752]},"properties":{"latitude":"49.47752","longitude":"0.53562","bright_ti4":"304.85","scan":"0.44","track":"0.46","acq_date":"2026-06-21","acq_time":"243","satellite":"N20","instrument":"VIIRS","confidence":"n","version":"2.0NRT","bright_ti5":"288.53","frp":"1.55","daynight":"N","commune":"Port-Jérôme-sur-Seine","code_insee":"76476","departement":"Seine-Maritime","region":"Normandie"}},{"type":"Feature","geometry":{"type":"Point","coordinates":[2.26778,51.01329]},"properties":{"latitude":"51.01329","longitude":"2.26778","bright_ti4":"297.76","scan":"0.47","track":"0.48","acq_date":"2026-06-21","acq_time":"243","satellite":"N20","instrument":"VIIRS","confidence":"n","version":"2.0NRT","bright_ti5":"287.5","frp":"0.38","daynight":"N","commune":"Dunkerque","code_insee":"59183","departement":"Nord","region":"Hauts-de-France"}},{"type":"Feature","geometry":{"type":"Point","coordinates":[2.26795,51.01369]},"properties":{"latitude":"51.01369","longitude":"2.26795","bright_ti4":"298.55","scan":"0.47","track":"0.48","acq_date":"2026-06-21","acq_time":"243","satellite":"N20","instrument":"VIIRS","confidence":"n","version":"2.0NRT","bright_ti5":"287.66","frp":"0.46","daynight":"N","commune":"Dunkerque","code_insee":"59183","departement":"Nord","region":"Hauts-de-France"}},{"type":"Feature","geometry":{"type":"Point","coordinates":[2.26955,51.02763]},"properties":{"latitude":"51.02763","longitude":"2.26955","bright_ti4":"314.51","scan":"0.47","track":"0.48","acq_date":"2026-06-21","acq_time":"243","satellite":"N20","instrument":"VIIRS","confidence":"n","version":"2.0NRT","bright_ti5":"288.16","frp":"1.59","daynight":"N","commune":"Grande-Synthe","code_insee":"59271","departement":"Nord","region":"Hauts-de-France"}},{"type":"Feature","geometry":{"type":"Point","coordinates":[2.2901,51.03667]},"properties":{"latitude":"51.03667","longitude":"2.2901","bright_ti4":"330.14","scan":"0.47","track":"0.48","acq_date":"2026-06-21","acq_time":"243","satellite":"N20","instrument":"VIIRS","confidence":"n","version":"2.0NRT","bright_ti5":"289.22","frp":"4.88","daynight":"N","commune":"Grande-Synthe","code_insee":"59271","departement":"Nord","region":"Hauts-de-France"}},{"type":"Feature","geometry":{"type":"Point","coordinates":[2.29275,51.04078]},"properties":{"latitude":"51.04078","longitude":"2.29275","bright_ti4":"300.04","scan":"0.47","track":"0.48","acq_date":"2026-06-21","acq_time":"243","satellite":"N20","instrument":"VIIRS","confidence":"n","version":"2.0NRT","bright_ti5":"288.66","frp":"2.63","daynight":"N","commune":"Grande-Synthe","code_insee":"59271","departement":"Nord","region":"Hauts-de-France"}},{"type":"Feature","geometry":{"type":"Point","coordinates":[2.30172,51.04325]},"properties":{"latitude":"51.04325","longitude":"2.30172","bright_ti4":"309.91","scan":"0.47","track":"0.48","acq_date":"2026-06-21","acq_time":"243","satellite":"N20","instrument":"VIIRS","confidence":"n","version":"2.0NRT","bright_ti5":"289.88","frp":"2.67","daynight":"N","commune":"Grande-Synthe","code_insee":"59271","departement":"Nord","region":"Hauts-de-France"}},{"type":"Feature","geometry":{"type":"Point","coordinates":[2.29541,51.04488]},"properties":{"latitude":"51.04488","longitude":"2.29541","bright_ti4":"337.75","scan":"0.47","track":"0.48","acq_date":"2026-06-21","acq_time":"243","satellite":"N20","instrument":"VIIRS","confidence":"n","version":"2.0NRT","bright_ti5":"289.4","frp":"2.63","daynight":"N","commune":"Grande-Synthe","code_insee":"59271","departement":"Nord","region":"Hauts-de-France"}},{"type":"Feature","geometry":{"type":"Point","coordinates":[2.31969,51.0482]},"properties":{"latitude":"51.0482","longitude":"2.31969","bright_ti4":"303.28","scan":"0.47","track":"0.48","acq_date":"2026-06-21","acq_time":"243","satellite":"N20","instrument":"VIIRS","confidence":"n","version":"2.0NRT","bright_ti5":"289.32","frp":"1.34","daynight":"N","commune":"Dunkerque","code_insee":"59183","departement":"Nord","region":"Hauts-de-France"}},{"type":"Feature","geometry":{"type":"Point","coordinates":[5.0034,43.3821]},"properties":{"latitude":"43.3821","longitude":"5.0034","bright_ti4":"305.24","scan":"0.53","track":"0.67","acq_date":"2026-06-21","acq_time":"245","satellite":"N20","instrument":"VIIRS","confidence":"n","version":"2.0NRT","bright_ti5":"291.76","frp":"1.17","daynight":"N","commune":"Martigues","code_insee":"13056","departement":"Bouches-du-Rhône","region":"Provence-Alpes-Côte d'Azur"}},{"type":"Feature","geometry":{"type":"Point","coordinates":[4.99947,43.38382]},"properties":{"latitude":"43.38382","longitude":"4.99947","bright_ti4":"312.46","scan":"0.53","track":"0.67","acq_date":"2026-06-21","acq_time":"245","satellite":"N20","instrument":"VIIRS","confidence":"n","version":"2.0NRT","bright_ti5":"291.38","frp":"1.37","daynight":"N","commune":"Martigues","code_insee":"13056","departement":"Bouches-du-Rhône","region":"Provence-Alpes-Côte d'Azur"}},{"type":"Feature","geometry":{"type":"Point","coordinates":[4.99745,43.38398]},"properties":{"latitude":"43.38398","longitude":"4.99745","bright_ti4":"303.2","scan":"0.53","track":"0.67","acq_date":"2026-06-21","acq_time":"245","satellite":"N20","instrument":"VIIRS","confidence":"n","version":"2.0NRT","bright_ti5":"290.4","frp":"1.17","daynight":"N","commune":"Martigues","code_insee":"13056","departement":"Bouches-du-Rhône","region":"Provence-Alpes-Côte d'Azur"}},{"type":"Feature","geometry":{"type":"Point","coordinates":[4.89947,43.43503]},"properties":{"latitude":"43.43503","longitude":"4.89947","bright_ti4":"301.1","scan":"0.52","track":"0.67","acq_date":"2026-06-21","acq_time":"245","satellite":"N20","instrument":"VIIRS","confidence":"n","version":"2.0NRT","bright_ti5":"290.52","frp":"1.56","daynight":"N","commune":"Fos-sur-Mer","code_insee":"13039","departement":"Bouches-du-Rhône","region":"Provence-Alpes-Côte d'Azur"}},{"type":"Feature","geometry":{"type":"Point","coordinates":[4.89684,43.44258]},"properties":{"latitude":"43.44258","longitude":"4.89684","bright_ti4":"308.87","scan":"0.52","track":"0.67","acq_date":"2026-06-21","acq_time":"245","satellite":"N20","instrument":"VIIRS","confidence":"n","version":"2.0NRT","bright_ti5":"290.26","frp":"2.27","daynight":"N","commune":"Fos-sur-Mer","code_insee":"13039","departement":"Bouches-du-Rhône","region":"Provence-Alpes-Côte d'Azur"}},{"type":"Feature","geometry":{"type":"Point","coordinates":[4.89929,43.44297]},"properties":{"latitude":"43.44297","longitude":"4.89929","bright_ti4":"324.04","scan":"0.52","track":"0.67","acq_date":"2026-06-21","acq_time":"245","satellite":"N20","instrument":"VIIRS","confidence":"n","version":"2.0NRT","bright_ti5":"290.66","frp":"3.34","daynight":"N","commune":"Fos-sur-Mer","code_insee":"13039","departement":"Bouches-du-Rhône","region":"Provence-Alpes-Côte d'Azur"}},{"type":"Feature","geometry":{"type":"Point","coordinates":[4.9003,43.44823]},"properties":{"latitude":"43.44823","longitude":"4.9003","bright_ti4":"317.86","scan":"0.52","track":"0.67","acq_date":"2026-06-21","acq_time":"245","satellite":"N20","instrument":"VIIRS","confidence":"n","version":"2.0NRT","bright_ti5":"290.61","frp":"2.27","daynight":"N","commune":"Fos-sur-Mer","code_insee":"13039","departement":"Bouches-du-Rhône","region":"Provence-Alpes-Côte d'Azur"}},{"type":"Feature","geometry":{"type":"Point","coordinates":[4.9027,43.44864]},"properties":{"latitude":"43.44864","longitude":"4.9027","bright_ti4":"303.58","scan":"0.52","track":"0.67","acq_date":"2026-06-21","acq_time":"245","satellite":"N20","instrument":"VIIRS","confidence":"n","version":"2.0NRT","bright_ti5":"290.2","frp":"0.78","daynight":"N","commune":"Fos-sur-Mer","code_insee":"13039","departement":"Bouches-du-Rhône","region":"Provence-Alpes-Côte d'Azur"}},{"type":"Feature","geometry":{"type":"Point","coordinates":[4.89673,43.45053]},"properties":{"latitude":"43.45053","longitude":"4.89673","bright_ti4":"306.11","scan":"0.52","track":"0.67","acq_date":"2026-06-21","acq_time":"245","satellite":"N20","instrument":"VIIRS","confidence":"n","version":"2.0NRT","bright_ti5":"288.76","frp":"1.2","daynight":"N","commune":"Fos-sur-Mer","code_insee":"13039","departement":"Bouches-du-Rhône","region":"Provence-Alpes-Côte d'Azur"}},{"type":"Feature","geometry":{"type":"Point","coordinates":[5.66859,45.23094]},"properties":{"latitude":"45.23094","longitude":"5.66859","bright_ti4":"302.84","scan":"0.5","track":"0.66","acq_date":"2026-06-21","acq_time":"245","satellite":"N20","instrument":"VIIRS","confidence":"n","version":"2.0NRT","bright_ti5":"289.24","frp":"0.77","daynight":"N","commune":"Saint-Égrève","code_insee":"38382","departement":"Isère","region":"Auvergne-Rhône-Alpes"}},{"type":"Feature","geometry":{"type":"Point","coordinates":[4.79364,45.35033]},"properties":{"latitude":"45.35033","longitude":"4.79364","bright_ti4":"298.49","scan":"0.45","track":"0.63","acq_date":"2026-06-21","acq_time":"245","satellite":"N20","instrument":"VIIRS","confidence":"n","version":"2.0NRT","bright_ti5":"286.7","frp":"0.4","daynight":"N","commune":"Salaise-sur-Sanne","code_insee":"38468","departement":"Isère","region":"Auvergne-Rhône-Alpes"}},{"type":"Feature","geometry":{"type":"Point","coordinates":[4.7627,45.4423]},"properties":{"latitude":"45.4423","longitude":"4.7627","bright_ti4":"303.93","scan":"0.45","track":"0.63","acq_date":"2026-06-21","acq_time":"245","satellite":"N20","instrument":"VIIRS","confidence":"n","version":"2.0NRT","bright_ti5":"288.73","frp":"0.62","daynight":"N","commune":"Saint-Clair-du-Rhône","code_insee":"38378","departement":"Isère","region":"Auvergne-Rhône-Alpes"}},{"type":"Feature","geometry":{"type":"Point","coordinates":[4.76458,45.44349]},"properties":{"latitude":"45.44349","longitude":"4.76458","bright_ti4":"299.81","scan":"0.45","track":"0.63","acq_date":"2026-06-21","acq_time":"245","satellite":"N20","instrument":"VIIRS","confidence":"n","version":"2.0NRT","bright_ti5":"287.87","frp":"0.69","daynight":"N","commune":"Saint-Clair-du-Rhône","code_insee":"38378","departement":"Isère","region":"Auvergne-Rhône-Alpes"}},{"type":"Feature","geometry":{"type":"Point","coordinates":[-1.82435,47.2057]},"properties":{"latitude":"47.2057","longitude":"-1.82435","bright_ti4":"302.62","scan":"0.41","track":"0.45","acq_date":"2026-06-21","acq_time":"245","satellite":"N20","instrument":"VIIRS","confidence":"n","version":"2.0NRT","bright_ti5":"287.47","frp":"0.95","daynight":"N","commune":"Rouans","code_insee":"44145","departement":"Loire-Atlantique","region":"Pays de la Loire"}},{"type":"Feature","geometry":{"type":"Point","coordinates":[-1.03488,48.10864]},"properties":{"latitude":"48.10864","longitude":"-1.03488","bright_ti4":"301.38","scan":"0.42","track":"0.45","acq_date":"2026-06-21","acq_time":"245","satellite":"N20","instrument":"VIIRS","confidence":"n","version":"2.0NRT","bright_ti5":"290.7","frp":"0.68","daynight":"N","commune":"Saint-Pierre-la-Cour","code_insee":"53247","departement":"Mayenne","region":"Pays de la Loire"}},{"type":"Feature","geometry":{"type":"Point","coordinates":[2.23489,46.71755]},"properties":{"latitude":"46.71755","longitude":"2.23489","bright_ti4":"353.65","scan":"0.41","track":"0.37","acq_date":"2026-06-21","acq_time":"1232","satellite":"N20","instrument":"VIIRS","confidence":"n","version":"2.0NRT","bright_ti5":"316.33","frp":"73.05","daynight":"D","commune":"Touchay","code_insee":"18266","departement":"Cher","region":"Centre-Val de Loire"}},{"type":"Feature","geometry":{"type":"Point","coordinates":[3.63399,47.66673]},"properties":{"latitude":"47.66673","longitude":"3.63399","bright_ti4":"340.59","scan":"0.39","track":"0.36","acq_date":"2026-06-21","acq_time":"1232","satellite":"N20","instrument":"VIIRS","confidence":"n","version":"2.0NRT","bright_ti5":"309.42","frp":"39.53","daynight":"D","commune":"Bazarnes","code_insee":"89030","departement":"Yonne","region":"Bourgogne-Franche-Comté"}},{"type":"Feature","geometry":{"type":"Point","coordinates":[3.63906,47.66756]},"properties":{"latitude":"47.66756","longitude":"3.63906","bright_ti4":"367","scan":"0.39","track":"0.36","acq_date":"2026-06-21","acq_time":"1232","satellite":"N20","instrument":"VIIRS","confidence":"h","version":"2.0NRT","bright_ti5":"312.31","frp":"37.62","daynight":"D","commune":"Bazarnes","code_insee":"89030","departement":"Yonne","region":"Bourgogne-Franche-Comté"}},{"type":"Feature","geometry":{"type":"Point","coordinates":[2.98242,48.38515]},"properties":{"latitude":"48.38515","longitude":"2.98242","bright_ti4":"339.63","scan":"0.39","track":"0.36","acq_date":"2026-06-21","acq_time":"1232","satellite":"N20","instrument":"VIIRS","confidence":"l","version":"2.0NRT","bright_ti5":"314.35","frp":"2.59","daynight":"D","commune":"Montereau-Fault-Yonne","code_insee":"77305","departement":"Seine-et-Marne","region":"Île-de-France"}},{"type":"Feature","geometry":{"type":"Point","coordinates":[1.75969,48.98177]},"properties":{"latitude":"48.98177","longitude":"1.75969","bright_ti4":"335.33","scan":"0.4","track":"0.37","acq_date":"2026-06-21","acq_time":"1232","satellite":"N20","instrument":"VIIRS","confidence":"n","version":"2.0NRT","bright_ti5":"301.51","frp":"2.32","daynight":"D","commune":"Porcheville","code_insee":"78501","departement":"Yvelines","region":"Île-de-France"}},{"type":"Feature","geometry":{"type":"Point","coordinates":[2.27248,51.0281]},"properties":{"latitude":"51.0281","longitude":"2.27248","bright_ti4":"335.29","scan":"0.39","track":"0.36","acq_date":"2026-06-21","acq_time":"1232","satellite":"N20","instrument":"VIIRS","confidence":"n","version":"2.0NRT","bright_ti5":"305.67","frp":"3.56","daynight":"D","commune":"Grande-Synthe","code_insee":"59271","departement":"Nord","region":"Hauts-de-France"}},{"type":"Feature","geometry":{"type":"Point","coordinates":[2.29548,51.04222]},"properties":{"latitude":"51.04222","longitude":"2.29548","bright_ti4":"336.91","scan":"0.39","track":"0.36","acq_date":"2026-06-21","acq_time":"1232","satellite":"N20","instrument":"VIIRS","confidence":"n","version":"2.0NRT","bright_ti5":"304.14","frp":"3.6","daynight":"D","commune":"Grande-Synthe","code_insee":"59271","departement":"Nord","region":"Hauts-de-France"}},{"type":"Feature","geometry":{"type":"Point","coordinates":[2.30088,51.0431]},"properties":{"latitude":"51.0431","longitude":"2.30088","bright_ti4":"338.87","scan":"0.39","track":"0.36","acq_date":"2026-06-21","acq_time":"1232","satellite":"N20","instrument":"VIIRS","confidence":"n","version":"2.0NRT","bright_ti5":"302.92","frp":"3.65","daynight":"D","commune":"Grande-Synthe","code_insee":"59271","departement":"Nord","region":"Hauts-de-France"}},{"type":"Feature","geometry":{"type":"Point","coordinates":[2.29954,51.04635]},"properties":{"latitude":"51.04635","longitude":"2.29954","bright_ti4":"333.7","scan":"0.39","track":"0.36","acq_date":"2026-06-21","acq_time":"1232","satellite":"N20","instrument":"VIIRS","confidence":"n","version":"2.0NRT","bright_ti5":"299","frp":"1.95","daynight":"D","commune":"Grande-Synthe","code_insee":"59271","departement":"Nord","region":"Hauts-de-France"}},{"type":"Feature","geometry":{"type":"Point","coordinates":[2.01752,49.74161]},"properties":{"latitude":"49.74161","longitude":"2.01752","bright_ti4":"300.64","scan":"0.4","track":"0.37","acq_date":"2026-06-21","acq_time":"149","satellite":"N21","instrument":"VIIRS","confidence":"n","version":"2.0NRT","bright_ti5":"287.7","frp":"0.39","daynight":"N","commune":"Bergicourt","code_insee":"80083","departement":"Somme","region":"Hauts-de-France"}},{"type":"Feature","geometry":{"type":"Point","coordinates":[2.16306,49.76991]},"properties":{"latitude":"49.76991","longitude":"2.16306","bright_ti4":"303.81","scan":"0.4","track":"0.37","acq_date":"2026-06-21","acq_time":"149","satellite":"N21","instrument":"VIIRS","confidence":"n","version":"2.0NRT","bright_ti5":"289.19","frp":"0.81","daynight":"N","commune":"Conty","code_insee":"80211","departement":"Somme","region":"Hauts-de-France"}},{"type":"Feature","geometry":{"type":"Point","coordinates":[2.13909,49.86534]},"properties":{"latitude":"49.86534","longitude":"2.13909","bright_ti4":"298.15","scan":"0.4","track":"0.37","acq_date":"2026-06-21","acq_time":"149","satellite":"N21","instrument":"VIIRS","confidence":"n","version":"2.0NRT","bright_ti5":"287.64","frp":"0.36","daynight":"N","commune":"Pissy","code_insee":"80626","departement":"Somme","region":"Hauts-de-France"}},{"type":"Feature","geometry":{"type":"Point","coordinates":[2.3804,50.18047]},"properties":{"latitude":"50.18047","longitude":"2.3804","bright_ti4":"304.64","scan":"0.4","track":"0.37","acq_date":"2026-06-21","acq_time":"149","satellite":"N21","instrument":"VIIRS","confidence":"n","version":"2.0NRT","bright_ti5":"288.13","frp":"0.74","daynight":"N","commune":"Grouches-Luchuel","code_insee":"80392","departement":"Somme","region":"Hauts-de-France"}},{"type":"Feature","geometry":{"type":"Point","coordinates":[2.27231,51.02826]},"properties":{"latitude":"51.02826","longitude":"2.27231","bright_ti4":"317.02","scan":"0.4","track":"0.37","acq_date":"2026-06-21","acq_time":"149","satellite":"N21","instrument":"VIIRS","confidence":"n","version":"2.0NRT","bright_ti5":"289.9","frp":"2.59","daynight":"N","commune":"Grande-Synthe","code_insee":"59271","departement":"Nord","region":"Hauts-de-France"}},{"type":"Feature","geometry":{"type":"Point","coordinates":[2.28588,51.03338]},"properties":{"latitude":"51.03338","longitude":"2.28588","bright_ti4":"325.73","scan":"0.4","track":"0.37","acq_date":"2026-06-21","acq_time":"149","satellite":"N21","instrument":"VIIRS","confidence":"n","version":"2.0NRT","bright_ti5":"290.07","frp":"3.2","daynight":"N","commune":"Grande-Synthe","code_insee":"59271","departement":"Nord","region":"Hauts-de-France"}},{"type":"Feature","geometry":{"type":"Point","coordinates":[2.287,51.03671]},"properties":{"latitude":"51.03671","longitude":"2.287","bright_ti4":"330.4","scan":"0.4","track":"0.37","acq_date":"2026-06-21","acq_time":"149","satellite":"N21","instrument":"VIIRS","confidence":"n","version":"2.0NRT","bright_ti5":"290.2","frp":"3.2","daynight":"N","commune":"Grande-Synthe","code_insee":"59271","departement":"Nord","region":"Hauts-de-France"}},{"type":"Feature","geometry":{"type":"Point","coordinates":[2.30056,51.04184]},"properties":{"latitude":"51.04184","longitude":"2.30056","bright_ti4":"300.55","scan":"0.4","track":"0.37","acq_date":"2026-06-21","acq_time":"149","satellite":"N21","instrument":"VIIRS","confidence":"n","version":"2.0NRT","bright_ti5":"288.58","frp":"0.99","daynight":"N","commune":"Grande-Synthe","code_insee":"59271","departement":"Nord","region":"Hauts-de-France"}},{"type":"Feature","geometry":{"type":"Point","coordinates":[2.29492,51.0426]},"properties":{"latitude":"51.0426","longitude":"2.29492","bright_ti4":"308.34","scan":"0.4","track":"0.37","acq_date":"2026-06-21","acq_time":"149","satellite":"N21","instrument":"VIIRS","confidence":"n","version":"2.0NRT","bright_ti5":"289.91","frp":"0.99","daynight":"N","commune":"Grande-Synthe","code_insee":"59271","departement":"Nord","region":"Hauts-de-France"}},{"type":"Feature","geometry":{"type":"Point","coordinates":[2.28926,51.04337]},"properties":{"latitude":"51.04337","longitude":"2.28926","bright_ti4":"297.37","scan":"0.4","track":"0.37","acq_date":"2026-06-21","acq_time":"149","satellite":"N21","instrument":"VIIRS","confidence":"n","version":"2.0NRT","bright_ti5":"286.82","frp":"1.11","daynight":"N","commune":"Grande-Synthe","code_insee":"59271","departement":"Nord","region":"Hauts-de-France"}},{"type":"Feature","geometry":{"type":"Point","coordinates":[2.30169,51.04516]},"properties":{"latitude":"51.04516","longitude":"2.30169","bright_ti4":"300.47","scan":"0.4","track":"0.37","acq_date":"2026-06-21","acq_time":"149","satellite":"N21","instrument":"VIIRS","confidence":"n","version":"2.0NRT","bright_ti5":"287.96","frp":"0.8","daynight":"N","commune":"Grande-Synthe","code_insee":"59271","departement":"Nord","region":"Hauts-de-France"}},{"type":"Feature","geometry":{"type":"Point","coordinates":[2.29604,51.04593]},"properties":{"latitude":"51.04593","longitude":"2.29604","bright_ti4":"308.54","scan":"0.4","track":"0.37","acq_date":"2026-06-21","acq_time":"149","satellite":"N21","instrument":"VIIRS","confidence":"n","version":"2.0NRT","bright_ti5":"287.91","frp":"0.8","daynight":"N","commune":"Grande-Synthe","code_insee":"59271","departement":"Nord","region":"Hauts-de-France"}},{"type":"Feature","geometry":{"type":"Point","coordinates":[4.99845,43.38184]},"properties":{"latitude":"43.38184","longitude":"4.99845","bright_ti4":"312.29","scan":"0.43","track":"0.38","acq_date":"2026-06-21","acq_time":"152","satellite":"N21","instrument":"VIIRS","confidence":"n","version":"2.0NRT","bright_ti5":"294.29","frp":"1.49","daynight":"N","commune":"Martigues","code_insee":"13056","departement":"Bouches-du-Rhône","region":"Provence-Alpes-Côte d'Azur"}},{"type":"Feature","geometry":{"type":"Point","coordinates":[4.8946,43.42871]},"properties":{"latitude":"43.42871","longitude":"4.8946","bright_ti4":"305.97","scan":"0.43","track":"0.38","acq_date":"2026-06-21","acq_time":"152","satellite":"N21","instrument":"VIIRS","confidence":"n","version":"2.0NRT","bright_ti5":"294.22","frp":"1.45","daynight":"N","commune":"Fos-sur-Mer","code_insee":"13039","departement":"Bouches-du-Rhône","region":"Provence-Alpes-Côte d'Azur"}},{"type":"Feature","geometry":{"type":"Point","coordinates":[4.89579,43.4321]},"properties":{"latitude":"43.4321","longitude":"4.89579","bright_ti4":"308.23","scan":"0.43","track":"0.38","acq_date":"2026-06-21","acq_time":"152","satellite":"N21","instrument":"VIIRS","confidence":"n","version":"2.0NRT","bright_ti5":"294.27","frp":"1.45","daynight":"N","commune":"Fos-sur-Mer","code_insee":"13039","departement":"Bouches-du-Rhône","region":"Provence-Alpes-Côte d'Azur"}},{"type":"Feature","geometry":{"type":"Point","coordinates":[4.89182,43.43647]},"properties":{"latitude":"43.43647","longitude":"4.89182","bright_ti4":"308.84","scan":"0.43","track":"0.38","acq_date":"2026-06-21","acq_time":"152","satellite":"N21","instrument":"VIIRS","confidence":"n","version":"2.0NRT","bright_ti5":"293.95","frp":"1.14","daynight":"N","commune":"Fos-sur-Mer","code_insee":"13039","departement":"Bouches-du-Rhône","region":"Provence-Alpes-Côte d'Azur"}},{"type":"Feature","geometry":{"type":"Point","coordinates":[4.89302,43.43987]},"properties":{"latitude":"43.43987","longitude":"4.89302","bright_ti4":"308.51","scan":"0.43","track":"0.38","acq_date":"2026-06-21","acq_time":"152","satellite":"N21","instrument":"VIIRS","confidence":"n","version":"2.0NRT","bright_ti5":"294.38","frp":"1.14","daynight":"N","commune":"Fos-sur-Mer","code_insee":"13039","departement":"Bouches-du-Rhône","region":"Provence-Alpes-Côte d'Azur"}},{"type":"Feature","geometry":{"type":"Point","coordinates":[4.89938,43.4423]},"properties":{"latitude":"43.4423","longitude":"4.89938","bright_ti4":"334.24","scan":"0.43","track":"0.38","acq_date":"2026-06-21","acq_time":"152","satellite":"N21","instrument":"VIIRS","confidence":"n","version":"2.0NRT","bright_ti5":"294.11","frp":"4.55","daynight":"N","commune":"Fos-sur-Mer","code_insee":"13039","departement":"Bouches-du-Rhône","region":"Provence-Alpes-Côte d'Azur"}},{"type":"Feature","geometry":{"type":"Point","coordinates":[4.88906,43.44423]},"properties":{"latitude":"43.44423","longitude":"4.88906","bright_ti4":"307.26","scan":"0.43","track":"0.38","acq_date":"2026-06-21","acq_time":"152","satellite":"N21","instrument":"VIIRS","confidence":"n","version":"2.0NRT","bright_ti5":"292.75","frp":"1.26","daynight":"N","commune":"Fos-sur-Mer","code_insee":"13039","departement":"Bouches-du-Rhône","region":"Provence-Alpes-Côte d'Azur"}},{"type":"Feature","geometry":{"type":"Point","coordinates":[4.90058,43.44569]},"properties":{"latitude":"43.44569","longitude":"4.90058","bright_ti4":"344.52","scan":"0.43","track":"0.38","acq_date":"2026-06-21","acq_time":"152","satellite":"N21","instrument":"VIIRS","confidence":"n","version":"2.0NRT","bright_ti5":"295.38","frp":"4.55","daynight":"N","commune":"Fos-sur-Mer","code_insee":"13039","departement":"Bouches-du-Rhône","region":"Provence-Alpes-Côte d'Azur"}},{"type":"Feature","geometry":{"type":"Point","coordinates":[4.89542,43.44666]},"properties":{"latitude":"43.44666","longitude":"4.89542","bright_ti4":"311.22","scan":"0.43","track":"0.38","acq_date":"2026-06-21","acq_time":"152","satellite":"N21","instrument":"VIIRS","confidence":"n","version":"2.0NRT","bright_ti5":"294.66","frp":"4.55","daynight":"N","commune":"Fos-sur-Mer","code_insee":"13039","departement":"Bouches-du-Rhône","region":"Provence-Alpes-Côte d'Azur"}},{"type":"Feature","geometry":{"type":"Point","coordinates":[5.66791,45.23017]},"properties":{"latitude":"45.23017","longitude":"5.66791","bright_ti4":"303.39","scan":"0.43","track":"0.38","acq_date":"2026-06-21","acq_time":"152","satellite":"N21","instrument":"VIIRS","confidence":"n","version":"2.0NRT","bright_ti5":"292.84","frp":"0.68","daynight":"N","commune":"Saint-Égrève","code_insee":"38382","departement":"Isère","region":"Auvergne-Rhône-Alpes"}},{"type":"Feature","geometry":{"type":"Point","coordinates":[4.79175,45.34832]},"properties":{"latitude":"45.34832","longitude":"4.79175","bright_ti4":"302.72","scan":"0.41","track":"0.37","acq_date":"2026-06-21","acq_time":"152","satellite":"N21","instrument":"VIIRS","confidence":"n","version":"2.0NRT","bright_ti5":"290.12","frp":"0.53","daynight":"N","commune":"Salaise-sur-Sanne","code_insee":"38468","departement":"Isère","region":"Auvergne-Rhône-Alpes"}},{"type":"Feature","geometry":{"type":"Point","coordinates":[4.76082,45.44212]},"properties":{"latitude":"45.44212","longitude":"4.76082","bright_ti4":"306.06","scan":"0.41","track":"0.37","acq_date":"2026-06-21","acq_time":"152","satellite":"N21","instrument":"VIIRS","confidence":"n","version":"2.0NRT","bright_ti5":"291.64","frp":"0.98","daynight":"N","commune":"Saint-Clair-du-Rhône","code_insee":"38378","departement":"Isère","region":"Auvergne-Rhône-Alpes"}},{"type":"Feature","geometry":{"type":"Point","coordinates":[2.8165,45.83869]},"properties":{"latitude":"45.83869","longitude":"2.8165","bright_ti4":"300.26","scan":"0.38","track":"0.36","acq_date":"2026-06-21","acq_time":"152","satellite":"N21","instrument":"VIIRS","confidence":"n","version":"2.0NRT","bright_ti5":"287.72","frp":"0.45","daynight":"N","commune":"Bromont-Lamothe","code_insee":"63055","departement":"Puy-de-Dôme","region":"Auvergne-Rhône-Alpes"}},{"type":"Feature","geometry":{"type":"Point","coordinates":[5.82199,45.91068]},"properties":{"latitude":"45.91068","longitude":"5.82199","bright_ti4":"304.1","scan":"0.43","track":"0.38","acq_date":"2026-06-21","acq_time":"152","satellite":"N21","instrument":"VIIRS","confidence":"n","version":"2.0NRT","bright_ti5":"292.41","frp":"0.78","daynight":"N","commune":"Anglefort","code_insee":"01010","departement":"Ain","region":"Auvergne-Rhône-Alpes"}},{"type":"Feature","geometry":{"type":"Point","coordinates":[-1.82561,47.2082]},"properties":{"latitude":"47.2082","longitude":"-1.82561","bright_ti4":"314.78","scan":"0.47","track":"0.4","acq_date":"2026-06-21","acq_time":"152","satellite":"N21","instrument":"VIIRS","confidence":"n","version":"2.0NRT","bright_ti5":"288.21","frp":"1.82","daynight":"N","commune":"Rouans","code_insee":"44145","departement":"Loire-Atlantique","region":"Pays de la Loire"}},{"type":"Feature","geometry":{"type":"Point","coordinates":[7.03835,47.85843]},"properties":{"latitude":"47.85843","longitude":"7.03835","bright_ti4":"305.83","scan":"0.43","track":"0.38","acq_date":"2026-06-21","acq_time":"152","satellite":"N21","instrument":"VIIRS","confidence":"n","version":"2.0NRT","bright_ti5":"288.77","frp":"0.43","daynight":"N","commune":"Moosch","code_insee":"68217","departement":"Haut-Rhin","region":"Grand Est"}},{"type":"Feature","geometry":{"type":"Point","coordinates":[6.9693,47.86793]},"properties":{"latitude":"47.86793","longitude":"6.9693","bright_ti4":"302.21","scan":"0.43","track":"0.38","acq_date":"2026-06-21","acq_time":"152","satellite":"N21","instrument":"VIIRS","confidence":"n","version":"2.0NRT","bright_ti5":"288.45","frp":"0.53","daynight":"N","commune":"Mollau","code_insee":"68213","departement":"Haut-Rhin","region":"Grand Est"}},{"type":"Feature","geometry":{"type":"Point","coordinates":[7.01971,47.88755]},"properties":{"latitude":"47.88755","longitude":"7.01971","bright_ti4":"302.69","scan":"0.43","track":"0.38","acq_date":"2026-06-21","acq_time":"152","satellite":"N21","instrument":"VIIRS","confidence":"n","version":"2.0NRT","bright_ti5":"290.22","frp":"0.57","daynight":"N","commune":"Ranspach","code_insee":"68262","departement":"Haut-Rhin","region":"Grand Est"}},{"type":"Feature","geometry":{"type":"Point","coordinates":[6.1817,48.03969]},"properties":{"latitude":"48.03969","longitude":"6.1817","bright_ti4":"298.13","scan":"0.41","track":"0.37","acq_date":"2026-06-21","acq_time":"152","satellite":"N21","instrument":"VIIRS","confidence":"n","version":"2.0NRT","bright_ti5":"287.59","frp":"0.29","daynight":"N","commune":"Gruey-lès-Surance","code_insee":"88221","departement":"Vosges","region":"Grand Est"}},{"type":"Feature","geometry":{"type":"Point","coordinates":[5.81736,48.09824]},"properties":{"latitude":"48.09824","longitude":"5.81736","bright_ti4":"303.02","scan":"0.4","track":"0.37","acq_date":"2026-06-21","acq_time":"152","satellite":"N21","instrument":"VIIRS","confidence":"n","version":"2.0NRT","bright_ti5":"286.9","frp":"0.52","daynight":"N","commune":"Martigny-les-Bains","code_insee":"88289","departement":"Vosges","region":"Grand Est"}},{"type":"Feature","geometry":{"type":"Point","coordinates":[5.91093,48.14304]},"properties":{"latitude":"48.14304","longitude":"5.91093","bright_ti4":"300.64","scan":"0.41","track":"0.37","acq_date":"2026-06-21","acq_time":"152","satellite":"N21","instrument":"VIIRS","confidence":"n","version":"2.0NRT","bright_ti5":"288.39","frp":"0.49","daynight":"N","commune":"Dombrot-le-Sec","code_insee":"88140","departement":"Vosges","region":"Grand Est"}},{"type":"Feature","geometry":{"type":"Point","coordinates":[6.44603,48.16706]},"properties":{"latitude":"48.16706","longitude":"6.44603","bright_ti4":"302.04","scan":"0.42","track":"0.37","acq_date":"2026-06-21","acq_time":"152","satellite":"N21","instrument":"VIIRS","confidence":"n","version":"2.0NRT","bright_ti5":"290.68","frp":"0.51","daynight":"N","commune":"Épinal","code_insee":"88160","departement":"Vosges","region":"Grand Est"}},{"type":"Feature","geometry":{"type":"Point","coordinates":[6.10967,48.56189]},"properties":{"latitude":"48.56189","longitude":"6.10967","bright_ti4":"300.9","scan":"0.41","track":"0.37","acq_date":"2026-06-21","acq_time":"152","satellite":"N21","instrument":"VIIRS","confidence":"n","version":"2.0NRT","bright_ti5":"290.05","frp":"0.78","daynight":"N","commune":"Xeuilley","code_insee":"54596","departement":"Meurthe-et-Moselle","region":"Grand Est"}},{"type":"Feature","geometry":{"type":"Point","coordinates":[6.11258,48.6109]},"properties":{"latitude":"48.6109","longitude":"6.11258","bright_ti4":"325.03","scan":"0.41","track":"0.37","acq_date":"2026-06-21","acq_time":"152","satellite":"N21","instrument":"VIIRS","confidence":"n","version":"2.0NRT","bright_ti5":"292.86","frp":"3.75","daynight":"N","commune":"Neuves-Maisons","code_insee":"54397","departement":"Meurthe-et-Moselle","region":"Grand Est"}},{"type":"Feature","geometry":{"type":"Point","coordinates":[5.6827,48.71497]},"properties":{"latitude":"48.71497","longitude":"5.6827","bright_ti4":"302.65","scan":"0.4","track":"0.37","acq_date":"2026-06-21","acq_time":"152","satellite":"N21","instrument":"VIIRS","confidence":"n","version":"2.0NRT","bright_ti5":"289.94","frp":"0.84","daynight":"N","commune":"Sorcy-Saint-Martin","code_insee":"55496","departement":"Meuse","region":"Grand Est"}},{"type":"Feature","geometry":{"type":"Point","coordinates":[5.68471,48.71685]},"properties":{"latitude":"48.71685","longitude":"5.68471","bright_ti4":"302.27","scan":"0.4","track":"0.37","acq_date":"2026-06-21","acq_time":"152","satellite":"N21","instrument":"VIIRS","confidence":"n","version":"2.0NRT","bright_ti5":"289.83","frp":"0.6","daynight":"N","commune":"Sorcy-Saint-Martin","code_insee":"55496","departement":"Meuse","region":"Grand Est"}},{"type":"Feature","geometry":{"type":"Point","coordinates":[4.56173,48.77003]},"properties":{"latitude":"48.77003","longitude":"4.56173","bright_ti4":"301.32","scan":"0.39","track":"0.36","acq_date":"2026-06-21","acq_time":"152","satellite":"N21","instrument":"VIIRS","confidence":"n","version":"2.0NRT","bright_ti5":"290.71","frp":"1.05","daynight":"N","commune":"Couvrot","code_insee":"51195","departement":"Marne","region":"Grand Est"}},{"type":"Feature","geometry":{"type":"Point","coordinates":[5.91619,48.78488]},"properties":{"latitude":"48.78488","longitude":"5.91619","bright_ti4":"302.18","scan":"0.4","track":"0.37","acq_date":"2026-06-21","acq_time":"152","satellite":"N21","instrument":"VIIRS","confidence":"n","version":"2.0NRT","bright_ti5":"288.2","frp":"0.75","daynight":"N","commune":"Manoncourt-en-Woëvre","code_insee":"54346","departement":"Meurthe-et-Moselle","region":"Grand Est"}},{"type":"Feature","geometry":{"type":"Point","coordinates":[4.99094,48.8264]},"properties":{"latitude":"48.8264","longitude":"4.99094","bright_ti4":"304.76","scan":"0.39","track":"0.36","acq_date":"2026-06-21","acq_time":"152","satellite":"N21","instrument":"VIIRS","confidence":"n","version":"2.0NRT","bright_ti5":"289.27","frp":"1.17","daynight":"N","commune":"Revigny-sur-Ornain","code_insee":"55427","departement":"Meuse","region":"Grand Est"}},{"type":"Feature","geometry":{"type":"Point","coordinates":[4.7797,48.97552]},"properties":{"latitude":"48.97552","longitude":"4.7797","bright_ti4":"303.73","scan":"0.39","track":"0.36","acq_date":"2026-06-21","acq_time":"152","satellite":"N21","instrument":"VIIRS","confidence":"n","version":"2.0NRT","bright_ti5":"289.84","frp":"0.73","daynight":"N","commune":"Dommartin-Varimont","code_insee":"51214","departement":"Marne","region":"Grand Est"}},{"type":"Feature","geometry":{"type":"Point","coordinates":[1.75869,48.98301]},"properties":{"latitude":"48.98301","longitude":"1.75869","bright_ti4":"329.69","scan":"0.4","track":"0.37","acq_date":"2026-06-21","acq_time":"152","satellite":"N21","instrument":"VIIRS","confidence":"n","version":"2.0NRT","bright_ti5":"292.35","frp":"4.87","daynight":"N","commune":"Porcheville","code_insee":"78501","departement":"Yvelines","region":"Île-de-France"}},{"type":"Feature","geometry":{"type":"Point","coordinates":[0.53366,49.47674]},"properties":{"latitude":"49.47674","longitude":"0.53366","bright_ti4":"308.02","scan":"0.42","track":"0.38","acq_date":"2026-06-21","acq_time":"152","satellite":"N21","instrument":"VIIRS","confidence":"n","version":"2.0NRT","bright_ti5":"289.52","frp":"1.73","daynight":"N","commune":"Lillebonne","code_insee":"76384","departement":"Seine-Maritime","region":"Normandie"}},{"type":"Feature","geometry":{"type":"Point","coordinates":[1.72646,49.64633]},"properties":{"latitude":"49.64633","longitude":"1.72646","bright_ti4":"298.73","scan":"0.4","track":"0.37","acq_date":"2026-06-21","acq_time":"152","satellite":"N21","instrument":"VIIRS","confidence":"n","version":"2.0NRT","bright_ti5":"287.76","frp":"0.45","daynight":"N","commune":"Formerie","code_insee":"60245","departement":"Oise","region":"Hauts-de-France"}},{"type":"Feature","geometry":{"type":"Point","coordinates":[2.29179,51.03183]},"properties":{"latitude":"51.03183","longitude":"2.29179","bright_ti4":"303.51","scan":"0.73","track":"0.76","acq_date":"2026-06-21","acq_time":"330","satellite":"N21","instrument":"VIIRS","confidence":"n","version":"2.0NRT","bright_ti5":"284.8","frp":"3.55","daynight":"N","commune":"Grande-Synthe","code_insee":"59271","departement":"Nord","region":"Hauts-de-France"}},{"type":"Feature","geometry":{"type":"Point","coordinates":[2.28293,51.03534]},"properties":{"latitude":"51.03534","longitude":"2.28293","bright_ti4":"305.06","scan":"0.73","track":"0.76","acq_date":"2026-06-21","acq_time":"330","satellite":"N21","instrument":"VIIRS","confidence":"n","version":"2.0NRT","bright_ti5":"285.01","frp":"4.45","daynight":"N","commune":"Grande-Synthe","code_insee":"59271","departement":"Nord","region":"Hauts-de-France"}},{"type":"Feature","geometry":{"type":"Point","coordinates":[2.30392,51.04358]},"properties":{"latitude":"51.04358","longitude":"2.30392","bright_ti4":"305.43","scan":"0.73","track":"0.76","acq_date":"2026-06-21","acq_time":"330","satellite":"N21","instrument":"VIIRS","confidence":"n","version":"2.0NRT","bright_ti5":"285.13","frp":"4.97","daynight":"N","commune":"Grande-Synthe","code_insee":"59271","departement":"Nord","region":"Hauts-de-France"}},{"type":"Feature","geometry":{"type":"Point","coordinates":[2.29512,51.04706]},"properties":{"latitude":"51.04706","longitude":"2.29512","bright_ti4":"314.23","scan":"0.73","track":"0.76","acq_date":"2026-06-21","acq_time":"330","satellite":"N21","instrument":"VIIRS","confidence":"n","version":"2.0NRT","bright_ti5":"285.08","frp":"4.56","daynight":"N","commune":"Grande-Synthe","code_insee":"59271","departement":"Nord","region":"Hauts-de-France"}},{"type":"Feature","geometry":{"type":"Point","coordinates":[-0.80533,49.10091]},"properties":{"latitude":"49.10091","longitude":"-0.80533","bright_ti4":"367","scan":"0.66","track":"0.73","acq_date":"2026-06-21","acq_time":"332","satellite":"N21","instrument":"VIIRS","confidence":"h","version":"2.0NRT","bright_ti5":"287.62","frp":"35.68","daynight":"N","commune":"Caumont-sur-Aure","code_insee":"14143","departement":"Calvados","region":"Normandie"}},{"type":"Feature","geometry":{"type":"Point","coordinates":[-0.79893,49.10112]},"properties":{"latitude":"49.10112","longitude":"-0.79893","bright_ti4":"321.67","scan":"0.66","track":"0.73","acq_date":"2026-06-21","acq_time":"332","satellite":"N21","instrument":"VIIRS","confidence":"n","version":"2.0NRT","bright_ti5":"285.4","frp":"20.16","daynight":"N","commune":"Caumont-sur-Aure","code_insee":"14143","departement":"Calvados","region":"Normandie"}},{"type":"Feature","geometry":{"type":"Point","coordinates":[-0.80645,49.10386]},"properties":{"latitude":"49.10386","longitude":"-0.80645","bright_ti4":"367","scan":"0.66","track":"0.73","acq_date":"2026-06-21","acq_time":"332","satellite":"N21","instrument":"VIIRS","confidence":"h","version":"2.0NRT","bright_ti5":"286.45","frp":"27.48","daynight":"N","commune":"Caumont-sur-Aure","code_insee":"14143","departement":"Calvados","region":"Normandie"}},{"type":"Feature","geometry":{"type":"Point","coordinates":[4.89804,43.44725]},"properties":{"latitude":"43.44725","longitude":"4.89804","bright_ti4":"341.61","scan":"0.43","track":"0.62","acq_date":"2026-06-21","acq_time":"1136","satellite":"N21","instrument":"VIIRS","confidence":"n","version":"2.0NRT","bright_ti5":"305.68","frp":"8","daynight":"D","commune":"Fos-sur-Mer","code_insee":"13039","departement":"Bouches-du-Rhône","region":"Provence-Alpes-Côte d'Azur"}},{"type":"Feature","geometry":{"type":"Point","coordinates":[4.06345,46.60463]},"properties":{"latitude":"46.60463","longitude":"4.06345","bright_ti4":"340.93","scan":"0.38","track":"0.59","acq_date":"2026-06-21","acq_time":"1138","satellite":"N21","instrument":"VIIRS","confidence":"n","version":"2.0NRT","bright_ti5":"306.53","frp":"6.71","daynight":"D","commune":"Gueugnon","code_insee":"71230","departement":"Saône-et-Loire","region":"Bourgogne-Franche-Comté"}},{"type":"Feature","geometry":{"type":"Point","coordinates":[2.62519,47.02142]},"properties":{"latitude":"47.02142","longitude":"2.62519","bright_ti4":"331.09","scan":"0.42","track":"0.61","acq_date":"2026-06-21","acq_time":"1138","satellite":"N21","instrument":"VIIRS","confidence":"n","version":"2.0NRT","bright_ti5":"301.82","frp":"1.69","daynight":"D","commune":"Avord","code_insee":"18018","departement":"Cher","region":"Centre-Val de Loire"}},{"type":"Feature","geometry":{"type":"Point","coordinates":[2.6218,47.0266]},"properties":{"latitude":"47.0266","longitude":"2.6218","bright_ti4":"367","scan":"0.42","track":"0.61","acq_date":"2026-06-21","acq_time":"1138","satellite":"N21","instrument":"VIIRS","confidence":"h","version":"2.0NRT","bright_ti5":"305.76","frp":"9.07","daynight":"D","commune":"Avord","code_insee":"18018","departement":"Cher","region":"Centre-Val de Loire"}},{"type":"Feature","geometry":{"type":"Point","coordinates":[2.29814,51.04544]},"properties":{"latitude":"51.04544","longitude":"2.29814","bright_ti4":"338.34","scan":"0.32","track":"0.55","acq_date":"2026-06-21","acq_time":"1138","satellite":"N21","instrument":"VIIRS","confidence":"n","version":"2.0NRT","bright_ti5":"291.67","frp":"5.89","daynight":"D","commune":"Grande-Synthe","code_insee":"59271","departement":"Nord","region":"Hauts-de-France"}},{"type":"Feature","geometry":{"type":"Point","coordinates":[4.89792,43.44306]},"properties":{"latitude":"43.44306","longitude":"4.89792","bright_ti4":"337.43","scan":"0.63","track":"0.54","acq_date":"2026-06-21","acq_time":"1316","satellite":"N21","instrument":"VIIRS","confidence":"n","version":"2.0NRT","bright_ti5":"306.62","frp":"12.91","daynight":"D","commune":"Fos-sur-Mer","code_insee":"13039","departement":"Bouches-du-Rhône","region":"Provence-Alpes-Côte d'Azur"}},{"type":"Feature","geometry":{"type":"Point","coordinates":[5.09807,43.70059]},"properties":{"latitude":"43.70059","longitude":"5.09807","bright_ti4":"333.76","scan":"0.32","track":"0.55","acq_date":"2026-06-21","acq_time":"1316","satellite":"N21","instrument":"VIIRS","confidence":"n","version":"2.0NRT","bright_ti5":"305.75","frp":"1.9","daynight":"D","commune":"Lamanon","code_insee":"13049","departement":"Bouches-du-Rhône","region":"Provence-Alpes-Côte d'Azur"}},{"type":"Feature","geometry":{"type":"Point","coordinates":[2.22732,46.71629]},"properties":{"latitude":"46.71629","longitude":"2.22732","bright_ti4":"332.7","scan":"0.5","track":"0.49","acq_date":"2026-06-21","acq_time":"1318","satellite":"N21","instrument":"VIIRS","confidence":"l","version":"2.0NRT","bright_ti5":"304.28","frp":"3.58","daynight":"D","commune":"Touchay","code_insee":"18266","departement":"Cher","region":"Centre-Val de Loire"}},{"type":"Feature","geometry":{"type":"Point","coordinates":[2.23391,46.71674]},"properties":{"latitude":"46.71674","longitude":"2.23391","bright_ti4":"341.18","scan":"0.5","track":"0.49","acq_date":"2026-06-21","acq_time":"1318","satellite":"N21","instrument":"VIIRS","confidence":"n","version":"2.0NRT","bright_ti5":"305.85","frp":"3.58","daynight":"D","commune":"Touchay","code_insee":"18266","departement":"Cher","region":"Centre-Val de Loire"}},{"type":"Feature","geometry":{"type":"Point","coordinates":[2.62395,47.0292]},"properties":{"latitude":"47.0292","longitude":"2.62395","bright_ti4":"334.62","scan":"0.53","track":"0.5","acq_date":"2026-06-21","acq_time":"1318","satellite":"N21","instrument":"VIIRS","confidence":"l","version":"2.0NRT","bright_ti5":"305.26","frp":"2.91","daynight":"D","commune":"Avord","code_insee":"18018","departement":"Cher","region":"Centre-Val de Loire"}},{"type":"Feature","geometry":{"type":"Point","coordinates":[-4.15074,47.95608]},"properties":{"latitude":"47.95608","longitude":"-4.15074","bright_ti4":"330.75","scan":"0.43","track":"0.38","acq_date":"2026-06-21","acq_time":"1318","satellite":"N21","instrument":"VIIRS","confidence":"n","version":"2.0NRT","bright_ti5":"297.41","frp":"1.18","daynight":"D","commune":"Plomelin","code_insee":"29170","departement":"Finistère","region":"Bretagne"}},{"type":"Feature","geometry":{"type":"Point","coordinates":[-4.40257,48.39242]},"properties":{"latitude":"48.39242","longitude":"-4.40257","bright_ti4":"336.17","scan":"0.43","track":"0.38","acq_date":"2026-06-21","acq_time":"1318","satellite":"N21","instrument":"VIIRS","confidence":"n","version":"2.0NRT","bright_ti5":"301.1","frp":"7.63","daynight":"D","commune":"Le Relecq-Kerhuon","code_insee":"29235","departement":"Finistère","region":"Bretagne"}},{"type":"Feature","geometry":{"type":"Point","coordinates":[-4.30073,48.39671]},"properties":{"latitude":"48.39671","longitude":"-4.30073","bright_ti4":"330.08","scan":"0.43","track":"0.38","acq_date":"2026-06-21","acq_time":"1318","satellite":"N21","instrument":"VIIRS","confidence":"n","version":"2.0NRT","bright_ti5":"297.59","frp":"2.53","daynight":"D","commune":"Loperhet","code_insee":"29140","departement":"Finistère","region":"Bretagne"}},{"type":"Feature","geometry":{"type":"Point","coordinates":[-4.3026,48.39719]},"properties":{"latitude":"48.39719","longitude":"-4.3026","bright_ti4":"343.54","scan":"0.43","track":"0.38","acq_date":"2026-06-21","acq_time":"1318","satellite":"N21","instrument":"VIIRS","confidence":"n","version":"2.0NRT","bright_ti5":"298.47","frp":"9.21","daynight":"D","commune":"Loperhet","code_insee":"29140","departement":"Finistère","region":"Bretagne"}},{"type":"Feature","geometry":{"type":"Point","coordinates":[1.76265,48.9813]},"properties":{"latitude":"48.9813","longitude":"1.76265","bright_ti4":"334.3","scan":"0.5","track":"0.49","acq_date":"2026-06-21","acq_time":"1318","satellite":"N21","instrument":"VIIRS","confidence":"n","version":"2.0NRT","bright_ti5":"303.23","frp":"6.35","daynight":"D","commune":"Porcheville","code_insee":"78501","departement":"Yvelines","region":"Île-de-France"}},{"type":"Feature","geometry":{"type":"Point","coordinates":[-0.807,49.0998]},"properties":{"latitude":"49.0998","longitude":"-0.807","bright_ti4":"339.95","scan":"0.39","track":"0.44","acq_date":"2026-06-21","acq_time":"1318","satellite":"N21","instrument":"VIIRS","confidence":"n","version":"2.0NRT","bright_ti5":"298.9","frp":"9.11","daynight":"D","commune":"Caumont-sur-Aure","code_insee":"14143","departement":"Calvados","region":"Normandie"}},{"type":"Feature","geometry":{"type":"Point","coordinates":[2.28595,51.03518]},"properties":{"latitude":"51.03518","longitude":"2.28595","bright_ti4":"330.87","scan":"0.55","track":"0.51","acq_date":"2026-06-21","acq_time":"1321","satellite":"N21","instrument":"VIIRS","confidence":"n","version":"2.0NRT","bright_ti5":"290.49","frp":"6.4","daynight":"D","commune":"Grande-Synthe","code_insee":"59271","departement":"Nord","region":"Hauts-de-France"}}]}