{"type":"FeatureCollection","features":[{"type":"Feature","geometry":{"type":"Point","coordinates":[1.85399,46.34374]},"properties":{"latitude":"46.34374","longitude":"1.85399","bright_ti4":"302.04","scan":"0.78","track":"0.78","acq_date":"2026-08-12","acq_time":"35","satellite":"N21","instrument":"VIIRS","confidence":"n","version":"2.0NRT","bright_ti5":"286.68","frp":"0.98","daynight":"N","commune":"Chéniers","code_insee":"23062","departement":"Creuse","region":"Nouvelle-Aquitaine"}},{"type":"Feature","geometry":{"type":"Point","coordinates":[7.56838,48.04872]},"properties":{"latitude":"48.04872","longitude":"7.56838","bright_ti4":"304.03","scan":"0.42","track":"0.61","acq_date":"2026-08-12","acq_time":"35","satellite":"N21","instrument":"VIIRS","confidence":"n","version":"2.0NRT","bright_ti5":"289.78","frp":"0.89","daynight":"N","commune":"Biesheim","code_insee":"68036","departement":"Haut-Rhin","region":"Grand Est"}},{"type":"Feature","geometry":{"type":"Point","coordinates":[2.28396,51.03123]},"properties":{"latitude":"51.03123","longitude":"2.28396","bright_ti4":"301.21","scan":"0.75","track":"0.77","acq_date":"2026-08-12","acq_time":"35","satellite":"N21","instrument":"VIIRS","confidence":"n","version":"2.0NRT","bright_ti5":"287.15","frp":"3.5","daynight":"N","commune":"Grande-Synthe","code_insee":"59271","departement":"Nord","region":"Hauts-de-France"}},{"type":"Feature","geometry":{"type":"Point","coordinates":[2.29466,51.03153]},"properties":{"latitude":"51.03153","longitude":"2.29466","bright_ti4":"297.09","scan":"0.75","track":"0.77","acq_date":"2026-08-12","acq_time":"35","satellite":"N21","instrument":"VIIRS","confidence":"n","version":"2.0NRT","bright_ti5":"286.35","frp":"4.21","daynight":"N","commune":"Grande-Synthe","code_insee":"59271","departement":"Nord","region":"Hauts-de-France"}},{"type":"Feature","geometry":{"type":"Point","coordinates":[2.28395,51.03437]},"properties":{"latitude":"51.03437","longitude":"2.28395","bright_ti4":"313.14","scan":"0.75","track":"0.77","acq_date":"2026-08-12","acq_time":"35","satellite":"N21","instrument":"VIIRS","confidence":"n","version":"2.0NRT","bright_ti5":"287.86","frp":"2.32","daynight":"N","commune":"Grande-Synthe","code_insee":"59271","departement":"Nord","region":"Hauts-de-France"}},{"type":"Feature","geometry":{"type":"Point","coordinates":[2.29464,51.03463]},"properties":{"latitude":"51.03463","longitude":"2.29464","bright_ti4":"298.46","scan":"0.74","track":"0.76","acq_date":"2026-08-12","acq_time":"35","satellite":"N21","instrument":"VIIRS","confidence":"n","version":"2.0NRT","bright_ti5":"286.47","frp":"2.32","daynight":"N","commune":"Grande-Synthe","code_insee":"59271","departement":"Nord","region":"Hauts-de-France"}},{"type":"Feature","geometry":{"type":"Point","coordinates":[2.28339,51.03829]},"properties":{"latitude":"51.03829","longitude":"2.28339","bright_ti4":"306.91","scan":"0.75","track":"0.77","acq_date":"2026-08-12","acq_time":"35","satellite":"N21","instrument":"VIIRS","confidence":"n","version":"2.0NRT","bright_ti5":"287.26","frp":"3.5","daynight":"N","commune":"Grande-Synthe","code_insee":"59271","departement":"Nord","region":"Hauts-de-France"}},{"type":"Feature","geometry":{"type":"Point","coordinates":[2.29413,51.03859]},"properties":{"latitude":"51.03859","longitude":"2.29413","bright_ti4":"317.77","scan":"0.75","track":"0.77","acq_date":"2026-08-12","acq_time":"35","satellite":"N21","instrument":"VIIRS","confidence":"n","version":"2.0NRT","bright_ti5":"287.91","frp":"4.21","daynight":"N","commune":"Grande-Synthe","code_insee":"59271","departement":"Nord","region":"Hauts-de-France"}},{"type":"Feature","geometry":{"type":"Point","coordinates":[2.29409,51.04169]},"properties":{"latitude":"51.04169","longitude":"2.29409","bright_ti4":"349","scan":"0.74","track":"0.76","acq_date":"2026-08-12","acq_time":"35","satellite":"N21","instrument":"VIIRS","confidence":"n","version":"2.0NRT","bright_ti5":"289.75","frp":"14.54","daynight":"N","commune":"Grande-Synthe","code_insee":"59271","departement":"Nord","region":"Hauts-de-France"}},{"type":"Feature","geometry":{"type":"Point","coordinates":[2.29359,51.04565]},"properties":{"latitude":"51.04565","longitude":"2.29359","bright_ti4":"340.65","scan":"0.75","track":"0.77","acq_date":"2026-08-12","acq_time":"35","satellite":"N21","instrument":"VIIRS","confidence":"n","version":"2.0NRT","bright_ti5":"288.44","frp":"11.07","daynight":"N","commune":"Grande-Synthe","code_insee":"59271","departement":"Nord","region":"Hauts-de-France"}},{"type":"Feature","geometry":{"type":"Point","coordinates":[4.8932,43.44008]},"properties":{"latitude":"43.44008","longitude":"4.8932","bright_ti4":"304.59","scan":"0.53","track":"0.67","acq_date":"2026-08-12","acq_time":"37","satellite":"N21","instrument":"VIIRS","confidence":"n","version":"2.0NRT","bright_ti5":"290.53","frp":"2.34","daynight":"N","commune":"Fos-sur-Mer","code_insee":"13039","departement":"Bouches-du-Rhône","region":"Provence-Alpes-Côte d'Azur"}},{"type":"Feature","geometry":{"type":"Point","coordinates":[4.88651,43.44021]},"properties":{"latitude":"43.44021","longitude":"4.88651","bright_ti4":"304.61","scan":"0.53","track":"0.67","acq_date":"2026-08-12","acq_time":"37","satellite":"N21","instrument":"VIIRS","confidence":"n","version":"2.0NRT","bright_ti5":"290.27","frp":"2.14","daynight":"N","commune":"Fos-sur-Mer","code_insee":"13039","departement":"Bouches-du-Rhône","region":"Provence-Alpes-Côte d'Azur"}},{"type":"Feature","geometry":{"type":"Point","coordinates":[4.87986,43.44034]},"properties":{"latitude":"43.44034","longitude":"4.87986","bright_ti4":"318.64","scan":"0.53","track":"0.67","acq_date":"2026-08-12","acq_time":"37","satellite":"N21","instrument":"VIIRS","confidence":"n","version":"2.0NRT","bright_ti5":"290.35","frp":"2.14","daynight":"N","commune":"Fos-sur-Mer","code_insee":"13039","departement":"Bouches-du-Rhône","region":"Provence-Alpes-Côte d'Azur"}},{"type":"Feature","geometry":{"type":"Point","coordinates":[4.90003,43.44617]},"properties":{"latitude":"43.44617","longitude":"4.90003","bright_ti4":"316.68","scan":"0.53","track":"0.67","acq_date":"2026-08-12","acq_time":"37","satellite":"N21","instrument":"VIIRS","confidence":"n","version":"2.0NRT","bright_ti5":"290.36","frp":"2.34","daynight":"N","commune":"Fos-sur-Mer","code_insee":"13039","departement":"Bouches-du-Rhône","region":"Provence-Alpes-Côte d'Azur"}},{"type":"Feature","geometry":{"type":"Point","coordinates":[4.89338,43.4463]},"properties":{"latitude":"43.4463","longitude":"4.89338","bright_ti4":"304.02","scan":"0.53","track":"0.67","acq_date":"2026-08-12","acq_time":"37","satellite":"N21","instrument":"VIIRS","confidence":"n","version":"2.0NRT","bright_ti5":"290.33","frp":"2.34","daynight":"N","commune":"Fos-sur-Mer","code_insee":"13039","departement":"Bouches-du-Rhône","region":"Provence-Alpes-Côte d'Azur"}},{"type":"Feature","geometry":{"type":"Point","coordinates":[7.37311,43.79528]},"properties":{"latitude":"43.79528","longitude":"7.37311","bright_ti4":"305","scan":"0.4","track":"0.6","acq_date":"2026-08-12","acq_time":"37","satellite":"N21","instrument":"VIIRS","confidence":"n","version":"2.0NRT","bright_ti5":"291.26","frp":"1.06","daynight":"N","commune":"Blausasc","code_insee":"06019","departement":"Alpes-Maritimes","region":"Provence-Alpes-Côte d'Azur"}},{"type":"Feature","geometry":{"type":"Point","coordinates":[5.50048,44.54365]},"properties":{"latitude":"44.54365","longitude":"5.50048","bright_ti4":"302.4","scan":"0.51","track":"0.66","acq_date":"2026-08-12","acq_time":"37","satellite":"N21","instrument":"VIIRS","confidence":"n","version":"2.0NRT","bright_ti5":"287.17","frp":"1.19","daynight":"N","commune":"Charens","code_insee":"26076","departement":"Drôme","region":"Auvergne-Rhône-Alpes"}},{"type":"Feature","geometry":{"type":"Point","coordinates":[2.11084,50.69677]},"properties":{"latitude":"50.69677","longitude":"2.11084","bright_ti4":"301.63","scan":"0.41","track":"0.45","acq_date":"2026-08-12","acq_time":"130","satellite":"N20","instrument":"VIIRS","confidence":"n","version":"2.0NRT","bright_ti5":"286.55","frp":"0.93","daynight":"N","commune":"Lumbres","code_insee":"62534","departement":"Pas-de-Calais","region":"Hauts-de-France"}},{"type":"Feature","geometry":{"type":"Point","coordinates":[2.11139,50.69818]},"properties":{"latitude":"50.69818","longitude":"2.11139","bright_ti4":"301.91","scan":"0.41","track":"0.45","acq_date":"2026-08-12","acq_time":"130","satellite":"N20","instrument":"VIIRS","confidence":"n","version":"2.0NRT","bright_ti5":"287.19","frp":"0.97","daynight":"N","commune":"Lumbres","code_insee":"62534","departement":"Pas-de-Calais","region":"Hauts-de-France"}},{"type":"Feature","geometry":{"type":"Point","coordinates":[2.29131,51.03309]},"properties":{"latitude":"51.03309","longitude":"2.29131","bright_ti4":"301.67","scan":"0.41","track":"0.45","acq_date":"2026-08-12","acq_time":"130","satellite":"N20","instrument":"VIIRS","confidence":"n","version":"2.0NRT","bright_ti5":"287.42","frp":"1.32","daynight":"N","commune":"Grande-Synthe","code_insee":"59271","departement":"Nord","region":"Hauts-de-France"}},{"type":"Feature","geometry":{"type":"Point","coordinates":[2.28543,51.03357]},"properties":{"latitude":"51.03357","longitude":"2.28543","bright_ti4":"329.08","scan":"0.41","track":"0.45","acq_date":"2026-08-12","acq_time":"130","satellite":"N20","instrument":"VIIRS","confidence":"n","version":"2.0NRT","bright_ti5":"288.46","frp":"1.32","daynight":"N","commune":"Grande-Synthe","code_insee":"59271","departement":"Nord","region":"Hauts-de-France"}},{"type":"Feature","geometry":{"type":"Point","coordinates":[2.25589,51.03601]},"properties":{"latitude":"51.03601","longitude":"2.25589","bright_ti4":"306.6","scan":"0.41","track":"0.45","acq_date":"2026-08-12","acq_time":"130","satellite":"N20","instrument":"VIIRS","confidence":"n","version":"2.0NRT","bright_ti5":"289.09","frp":"0.91","daynight":"N","commune":"Dunkerque","code_insee":"59183","departement":"Nord","region":"Hauts-de-France"}},{"type":"Feature","geometry":{"type":"Point","coordinates":[2.29219,51.03721]},"properties":{"latitude":"51.03721","longitude":"2.29219","bright_ti4":"299.4","scan":"0.41","track":"0.45","acq_date":"2026-08-12","acq_time":"130","satellite":"N20","instrument":"VIIRS","confidence":"n","version":"2.0NRT","bright_ti5":"287.94","frp":"1.32","daynight":"N","commune":"Grande-Synthe","code_insee":"59271","departement":"Nord","region":"Hauts-de-France"}},{"type":"Feature","geometry":{"type":"Point","coordinates":[2.2863,51.0377]},"properties":{"latitude":"51.0377","longitude":"2.2863","bright_ti4":"313.14","scan":"0.41","track":"0.45","acq_date":"2026-08-12","acq_time":"130","satellite":"N20","instrument":"VIIRS","confidence":"n","version":"2.0NRT","bright_ti5":"288.47","frp":"1.32","daynight":"N","commune":"Grande-Synthe","code_insee":"59271","departement":"Nord","region":"Hauts-de-France"}},{"type":"Feature","geometry":{"type":"Point","coordinates":[2.2804,51.03819]},"properties":{"latitude":"51.03819","longitude":"2.2804","bright_ti4":"324.57","scan":"0.41","track":"0.45","acq_date":"2026-08-12","acq_time":"130","satellite":"N20","instrument":"VIIRS","confidence":"n","version":"2.0NRT","bright_ti5":"288.51","frp":"1.6","daynight":"N","commune":"Grande-Synthe","code_insee":"59271","departement":"Nord","region":"Hauts-de-France"}},{"type":"Feature","geometry":{"type":"Point","coordinates":[2.29897,51.04084]},"properties":{"latitude":"51.04084","longitude":"2.29897","bright_ti4":"337.22","scan":"0.41","track":"0.45","acq_date":"2026-08-12","acq_time":"130","satellite":"N20","instrument":"VIIRS","confidence":"n","version":"2.0NRT","bright_ti5":"290.46","frp":"3.95","daynight":"N","commune":"Grande-Synthe","code_insee":"59271","departement":"Nord","region":"Hauts-de-France"}},{"type":"Feature","geometry":{"type":"Point","coordinates":[2.29308,51.04133]},"properties":{"latitude":"51.04133","longitude":"2.29308","bright_ti4":"304.6","scan":"0.41","track":"0.45","acq_date":"2026-08-12","acq_time":"130","satellite":"N20","instrument":"VIIRS","confidence":"n","version":"2.0NRT","bright_ti5":"290.2","frp":"3.25","daynight":"N","commune":"Grande-Synthe","code_insee":"59271","departement":"Nord","region":"Hauts-de-France"}},{"type":"Feature","geometry":{"type":"Point","coordinates":[2.29986,51.04496]},"properties":{"latitude":"51.04496","longitude":"2.29986","bright_ti4":"306.58","scan":"0.41","track":"0.45","acq_date":"2026-08-12","acq_time":"130","satellite":"N20","instrument":"VIIRS","confidence":"n","version":"2.0NRT","bright_ti5":"289.32","frp":"3.95","daynight":"N","commune":"Grande-Synthe","code_insee":"59271","departement":"Nord","region":"Hauts-de-France"}},{"type":"Feature","geometry":{"type":"Point","coordinates":[2.29396,51.04545]},"properties":{"latitude":"51.04545","longitude":"2.29396","bright_ti4":"337.63","scan":"0.41","track":"0.45","acq_date":"2026-08-12","acq_time":"130","satellite":"N20","instrument":"VIIRS","confidence":"n","version":"2.0NRT","bright_ti5":"290.31","frp":"3.25","daynight":"N","commune":"Grande-Synthe","code_insee":"59271","departement":"Nord","region":"Hauts-de-France"}},{"type":"Feature","geometry":{"type":"Point","coordinates":[5.11013,43.3913]},"properties":{"latitude":"43.3913","longitude":"5.11013","bright_ti4":"324.67","scan":"0.41","track":"0.37","acq_date":"2026-08-12","acq_time":"132","satellite":"N20","instrument":"VIIRS","confidence":"n","version":"2.0NRT","bright_ti5":"294.38","frp":"2.15","daynight":"N","commune":"Châteauneuf-les-Martigues","code_insee":"13026","departement":"Bouches-du-Rhône","region":"Provence-Alpes-Côte d'Azur"}},{"type":"Feature","geometry":{"type":"Point","coordinates":[4.89105,43.43811]},"properties":{"latitude":"43.43811","longitude":"4.89105","bright_ti4":"313.11","scan":"0.42","track":"0.37","acq_date":"2026-08-12","acq_time":"132","satellite":"N20","instrument":"VIIRS","confidence":"n","version":"2.0NRT","bright_ti5":"293.71","frp":"1.71","daynight":"N","commune":"Fos-sur-Mer","code_insee":"13039","departement":"Bouches-du-Rhône","region":"Provence-Alpes-Côte d'Azur"}},{"type":"Feature","geometry":{"type":"Point","coordinates":[4.88593,43.43879]},"properties":{"latitude":"43.43879","longitude":"4.88593","bright_ti4":"307.91","scan":"0.42","track":"0.37","acq_date":"2026-08-12","acq_time":"132","satellite":"N20","instrument":"VIIRS","confidence":"n","version":"2.0NRT","bright_ti5":"293.15","frp":"1.71","daynight":"N","commune":"Fos-sur-Mer","code_insee":"13039","departement":"Bouches-du-Rhône","region":"Provence-Alpes-Côte d'Azur"}},{"type":"Feature","geometry":{"type":"Point","coordinates":[4.88168,43.44287]},"properties":{"latitude":"43.44287","longitude":"4.88168","bright_ti4":"320.06","scan":"0.42","track":"0.37","acq_date":"2026-08-12","acq_time":"132","satellite":"N20","instrument":"VIIRS","confidence":"n","version":"2.0NRT","bright_ti5":"294.02","frp":"1.47","daynight":"N","commune":"Fos-sur-Mer","code_insee":"13039","departement":"Bouches-du-Rhône","region":"Provence-Alpes-Côte d'Azur"}},{"type":"Feature","geometry":{"type":"Point","coordinates":[4.89787,43.44425]},"properties":{"latitude":"43.44425","longitude":"4.89787","bright_ti4":"339.97","scan":"0.42","track":"0.37","acq_date":"2026-08-12","acq_time":"132","satellite":"N20","instrument":"VIIRS","confidence":"n","version":"2.0NRT","bright_ti5":"295.35","frp":"6.47","daynight":"N","commune":"Fos-sur-Mer","code_insee":"13039","departement":"Bouches-du-Rhône","region":"Provence-Alpes-Côte d'Azur"}},{"type":"Feature","geometry":{"type":"Point","coordinates":[4.89872,43.44765]},"properties":{"latitude":"43.44765","longitude":"4.89872","bright_ti4":"317.09","scan":"0.42","track":"0.37","acq_date":"2026-08-12","acq_time":"132","satellite":"N20","instrument":"VIIRS","confidence":"n","version":"2.0NRT","bright_ti5":"295.57","frp":"1.76","daynight":"N","commune":"Fos-sur-Mer","code_insee":"13039","departement":"Bouches-du-Rhône","region":"Provence-Alpes-Côte d'Azur"}},{"type":"Feature","geometry":{"type":"Point","coordinates":[4.8527,43.45377]},"properties":{"latitude":"43.45377","longitude":"4.8527","bright_ti4":"303","scan":"0.42","track":"0.37","acq_date":"2026-08-12","acq_time":"132","satellite":"N20","instrument":"VIIRS","confidence":"n","version":"2.0NRT","bright_ti5":"291.48","frp":"0.69","daynight":"N","commune":"Fos-sur-Mer","code_insee":"13039","departement":"Bouches-du-Rhône","region":"Provence-Alpes-Côte d'Azur"}},{"type":"Feature","geometry":{"type":"Point","coordinates":[7.37475,43.79311]},"properties":{"latitude":"43.79311","longitude":"7.37475","bright_ti4":"314.79","scan":"0.38","track":"0.36","acq_date":"2026-08-12","acq_time":"132","satellite":"N20","instrument":"VIIRS","confidence":"n","version":"2.0NRT","bright_ti5":"294.02","frp":"1.54","daynight":"N","commune":"Blausasc","code_insee":"06019","departement":"Alpes-Maritimes","region":"Provence-Alpes-Côte d'Azur"}},{"type":"Feature","geometry":{"type":"Point","coordinates":[-0.05765,47.44949]},"properties":{"latitude":"47.44949","longitude":"-0.05765","bright_ti4":"341.34","scan":"0.47","track":"0.48","acq_date":"2026-08-12","acq_time":"132","satellite":"N20","instrument":"VIIRS","confidence":"n","version":"2.0NRT","bright_ti5":"293.24","frp":"5.88","daynight":"N","commune":"Longué-Jumelles","code_insee":"49180","departement":"Maine-et-Loire","region":"Pays de la Loire"}},{"type":"Feature","geometry":{"type":"Point","coordinates":[-0.05083,47.45265]},"properties":{"latitude":"47.45265","longitude":"-0.05083","bright_ti4":"304.52","scan":"0.47","track":"0.48","acq_date":"2026-08-12","acq_time":"132","satellite":"N20","instrument":"VIIRS","confidence":"n","version":"2.0NRT","bright_ti5":"291.76","frp":"7.7","daynight":"N","commune":"Longué-Jumelles","code_insee":"49180","departement":"Maine-et-Loire","region":"Pays de la Loire"}},{"type":"Feature","geometry":{"type":"Point","coordinates":[-0.0572,47.45311]},"properties":{"latitude":"47.45311","longitude":"-0.0572","bright_ti4":"353.03","scan":"0.47","track":"0.48","acq_date":"2026-08-12","acq_time":"132","satellite":"N20","instrument":"VIIRS","confidence":"n","version":"2.0NRT","bright_ti5":"295.74","frp":"7.7","daynight":"N","commune":"Longué-Jumelles","code_insee":"49180","departement":"Maine-et-Loire","region":"Pays de la Loire"}},{"type":"Feature","geometry":{"type":"Point","coordinates":[-0.0505,47.45339]},"properties":{"latitude":"47.45339","longitude":"-0.0505","bright_ti4":"306.28","scan":"0.47","track":"0.48","acq_date":"2026-08-12","acq_time":"132","satellite":"N20","instrument":"VIIRS","confidence":"n","version":"2.0NRT","bright_ti5":"291.84","frp":"1.85","daynight":"N","commune":"Longué-Jumelles","code_insee":"49180","departement":"Maine-et-Loire","region":"Pays de la Loire"}},{"type":"Feature","geometry":{"type":"Point","coordinates":[-0.05686,47.45389]},"properties":{"latitude":"47.45389","longitude":"-0.05686","bright_ti4":"355.07","scan":"0.47","track":"0.48","acq_date":"2026-08-12","acq_time":"132","satellite":"N20","instrument":"VIIRS","confidence":"n","version":"2.0NRT","bright_ti5":"294.39","frp":"13.98","daynight":"N","commune":"La Lande-Chasles","code_insee":"49171","departement":"Maine-et-Loire","region":"Pays de la Loire"}},{"type":"Feature","geometry":{"type":"Point","coordinates":[7.23488,47.62856]},"properties":{"latitude":"47.62856","longitude":"7.23488","bright_ti4":"301.93","scan":"0.4","track":"0.37","acq_date":"2026-08-12","acq_time":"132","satellite":"N20","instrument":"VIIRS","confidence":"n","version":"2.0NRT","bright_ti5":"291.79","frp":"0.69","daynight":"N","commune":"Altkirch","code_insee":"68004","departement":"Haut-Rhin","region":"Grand Est"}},{"type":"Feature","geometry":{"type":"Point","coordinates":[6.96736,48.69127]},"properties":{"latitude":"48.69127","longitude":"6.96736","bright_ti4":"304.49","scan":"0.41","track":"0.37","acq_date":"2026-08-12","acq_time":"132","satellite":"N20","instrument":"VIIRS","confidence":"n","version":"2.0NRT","bright_ti5":"290.82","frp":"0.7","daynight":"N","commune":"Héming","code_insee":"57314","departement":"Moselle","region":"Grand Est"}},{"type":"Feature","geometry":{"type":"Point","coordinates":[5.68433,48.71689]},"properties":{"latitude":"48.71689","longitude":"5.68433","bright_ti4":"304.16","scan":"0.44","track":"0.38","acq_date":"2026-08-12","acq_time":"132","satellite":"N20","instrument":"VIIRS","confidence":"n","version":"2.0NRT","bright_ti5":"288.57","frp":"1.16","daynight":"N","commune":"Sorcy-Saint-Martin","code_insee":"55496","departement":"Meuse","region":"Grand Est"}},{"type":"Feature","geometry":{"type":"Point","coordinates":[5.67942,48.71724]},"properties":{"latitude":"48.71724","longitude":"5.67942","bright_ti4":"299.09","scan":"0.44","track":"0.38","acq_date":"2026-08-12","acq_time":"132","satellite":"N20","instrument":"VIIRS","confidence":"n","version":"2.0NRT","bright_ti5":"288.51","frp":"0.78","daynight":"N","commune":"Sorcy-Saint-Martin","code_insee":"55496","departement":"Meuse","region":"Grand Est"}},{"type":"Feature","geometry":{"type":"Point","coordinates":[7.69489,48.84834]},"properties":{"latitude":"48.84834","longitude":"7.69489","bright_ti4":"302.95","scan":"0.4","track":"0.37","acq_date":"2026-08-12","acq_time":"132","satellite":"N20","instrument":"VIIRS","confidence":"n","version":"2.0NRT","bright_ti5":"290.66","frp":"0.55","daynight":"N","commune":"Haguenau","code_insee":"67180","departement":"Bas-Rhin","region":"Grand Est"}},{"type":"Feature","geometry":{"type":"Point","coordinates":[7.69595,48.85167]},"properties":{"latitude":"48.85167","longitude":"7.69595","bright_ti4":"309.21","scan":"0.4","track":"0.37","acq_date":"2026-08-12","acq_time":"132","satellite":"N20","instrument":"VIIRS","confidence":"n","version":"2.0NRT","bright_ti5":"290.76","frp":"0.34","daynight":"N","commune":"Mertzwiller","code_insee":"67291","departement":"Bas-Rhin","region":"Grand Est"}},{"type":"Feature","geometry":{"type":"Point","coordinates":[1.75829,48.98434]},"properties":{"latitude":"48.98434","longitude":"1.75829","bright_ti4":"327","scan":"0.41","track":"0.45","acq_date":"2026-08-12","acq_time":"132","satellite":"N20","instrument":"VIIRS","confidence":"n","version":"2.0NRT","bright_ti5":"292.09","frp":"1.79","daynight":"N","commune":"Limay","code_insee":"78335","departement":"Yvelines","region":"Île-de-France"}},{"type":"Feature","geometry":{"type":"Point","coordinates":[2.49627,49.04498]},"properties":{"latitude":"49.04498","longitude":"2.49627","bright_ti4":"300.03","scan":"0.38","track":"0.43","acq_date":"2026-08-12","acq_time":"132","satellite":"N20","instrument":"VIIRS","confidence":"n","version":"2.0NRT","bright_ti5":"289.28","frp":"0.56","daynight":"N","commune":"Louvres","code_insee":"95351","departement":"Val-d'Oise","region":"Île-de-France"}},{"type":"Feature","geometry":{"type":"Point","coordinates":[2.47533,49.04695]},"properties":{"latitude":"49.04695","longitude":"2.47533","bright_ti4":"307.51","scan":"0.38","track":"0.43","acq_date":"2026-08-12","acq_time":"132","satellite":"N20","instrument":"VIIRS","confidence":"n","version":"2.0NRT","bright_ti5":"287.83","frp":"0.37","daynight":"N","commune":"Fontenay-en-Parisis","code_insee":"95241","departement":"Val-d'Oise","region":"Île-de-France"}},{"type":"Feature","geometry":{"type":"Point","coordinates":[2.49721,49.04896]},"properties":{"latitude":"49.04896","longitude":"2.49721","bright_ti4":"315.98","scan":"0.38","track":"0.43","acq_date":"2026-08-12","acq_time":"132","satellite":"N20","instrument":"VIIRS","confidence":"n","version":"2.0NRT","bright_ti5":"289.68","frp":"1.75","daynight":"N","commune":"Louvres","code_insee":"95351","departement":"Val-d'Oise","region":"Île-de-France"}},{"type":"Feature","geometry":{"type":"Point","coordinates":[0.97946,49.35157]},"properties":{"latitude":"49.35157","longitude":"0.97946","bright_ti4":"302.3","scan":"0.45","track":"0.47","acq_date":"2026-08-12","acq_time":"132","satellite":"N20","instrument":"VIIRS","confidence":"n","version":"2.0NRT","bright_ti5":"291.11","frp":"1.06","daynight":"N","commune":"Grand-Couronne","code_insee":"76319","departement":"Seine-Maritime","region":"Normandie"}},{"type":"Feature","geometry":{"type":"Point","coordinates":[0.53379,49.47863]},"properties":{"latitude":"49.47863","longitude":"0.53379","bright_ti4":"303.45","scan":"0.47","track":"0.48","acq_date":"2026-08-12","acq_time":"132","satellite":"N20","instrument":"VIIRS","confidence":"n","version":"2.0NRT","bright_ti5":"291.49","frp":"1.83","daynight":"N","commune":"Port-Jérôme-sur-Seine","code_insee":"76476","departement":"Seine-Maritime","region":"Normandie"}},{"type":"Feature","geometry":{"type":"Point","coordinates":[2.11092,50.69862]},"properties":{"latitude":"50.69862","longitude":"2.11092","bright_ti4":"299.63","scan":"0.43","track":"0.62","acq_date":"2026-08-12","acq_time":"310","satellite":"N20","instrument":"VIIRS","confidence":"n","version":"2.0NRT","bright_ti5":"285.14","frp":"0.73","daynight":"N","commune":"Lumbres","code_insee":"62534","departement":"Pas-de-Calais","region":"Hauts-de-France"}},{"type":"Feature","geometry":{"type":"Point","coordinates":[2.11246,50.70115]},"properties":{"latitude":"50.70115","longitude":"2.11246","bright_ti4":"296.27","scan":"0.43","track":"0.62","acq_date":"2026-08-12","acq_time":"310","satellite":"N20","instrument":"VIIRS","confidence":"n","version":"2.0NRT","bright_ti5":"284.21","frp":"0.67","daynight":"N","commune":"Lumbres","code_insee":"62534","departement":"Pas-de-Calais","region":"Hauts-de-France"}},{"type":"Feature","geometry":{"type":"Point","coordinates":[2.29276,51.03706]},"properties":{"latitude":"51.03706","longitude":"2.29276","bright_ti4":"304.96","scan":"0.43","track":"0.62","acq_date":"2026-08-12","acq_time":"310","satellite":"N20","instrument":"VIIRS","confidence":"n","version":"2.0NRT","bright_ti5":"285.04","frp":"1.58","daynight":"N","commune":"Grande-Synthe","code_insee":"59271","departement":"Nord","region":"Hauts-de-France"}},{"type":"Feature","geometry":{"type":"Point","coordinates":[2.28733,51.03884]},"properties":{"latitude":"51.03884","longitude":"2.28733","bright_ti4":"310.41","scan":"0.43","track":"0.62","acq_date":"2026-08-12","acq_time":"310","satellite":"N20","instrument":"VIIRS","confidence":"n","version":"2.0NRT","bright_ti5":"285.75","frp":"1.58","daynight":"N","commune":"Grande-Synthe","code_insee":"59271","departement":"Nord","region":"Hauts-de-France"}},{"type":"Feature","geometry":{"type":"Point","coordinates":[2.30236,51.04034]},"properties":{"latitude":"51.04034","longitude":"2.30236","bright_ti4":"307.93","scan":"0.43","track":"0.62","acq_date":"2026-08-12","acq_time":"310","satellite":"N20","instrument":"VIIRS","confidence":"n","version":"2.0NRT","bright_ti5":"286.15","frp":"2.51","daynight":"N","commune":"Grande-Synthe","code_insee":"59271","departement":"Nord","region":"Hauts-de-France"}},{"type":"Feature","geometry":{"type":"Point","coordinates":[2.28191,51.04062]},"properties":{"latitude":"51.04062","longitude":"2.28191","bright_ti4":"304.73","scan":"0.43","track":"0.62","acq_date":"2026-08-12","acq_time":"310","satellite":"N20","instrument":"VIIRS","confidence":"n","version":"2.0NRT","bright_ti5":"285.18","frp":"1.54","daynight":"N","commune":"Grande-Synthe","code_insee":"59271","departement":"Nord","region":"Hauts-de-France"}},{"type":"Feature","geometry":{"type":"Point","coordinates":[2.29691,51.04213]},"properties":{"latitude":"51.04213","longitude":"2.29691","bright_ti4":"320.43","scan":"0.43","track":"0.62","acq_date":"2026-08-12","acq_time":"310","satellite":"N20","instrument":"VIIRS","confidence":"n","version":"2.0NRT","bright_ti5":"288.59","frp":"1.58","daynight":"N","commune":"Grande-Synthe","code_insee":"59271","departement":"Nord","region":"Hauts-de-France"}},{"type":"Feature","geometry":{"type":"Point","coordinates":[2.29147,51.04391]},"properties":{"latitude":"51.04391","longitude":"2.29147","bright_ti4":"305.53","scan":"0.43","track":"0.62","acq_date":"2026-08-12","acq_time":"310","satellite":"N20","instrument":"VIIRS","confidence":"n","version":"2.0NRT","bright_ti5":"286.34","frp":"1.58","daynight":"N","commune":"Grande-Synthe","code_insee":"59271","departement":"Nord","region":"Hauts-de-France"}},{"type":"Feature","geometry":{"type":"Point","coordinates":[2.30108,51.04719]},"properties":{"latitude":"51.04719","longitude":"2.30108","bright_ti4":"308.68","scan":"0.43","track":"0.62","acq_date":"2026-08-12","acq_time":"310","satellite":"N20","instrument":"VIIRS","confidence":"n","version":"2.0NRT","bright_ti5":"287.3","frp":"1.92","daynight":"N","commune":"Grande-Synthe","code_insee":"59271","departement":"Nord","region":"Hauts-de-France"}},{"type":"Feature","geometry":{"type":"Point","coordinates":[2.29566,51.04897]},"properties":{"latitude":"51.04897","longitude":"2.29566","bright_ti4":"318.11","scan":"0.43","track":"0.62","acq_date":"2026-08-12","acq_time":"310","satellite":"N20","instrument":"VIIRS","confidence":"n","version":"2.0NRT","bright_ti5":"287.72","frp":"1.92","daynight":"N","commune":"Grande-Synthe","code_insee":"59271","departement":"Nord","region":"Hauts-de-France"}},{"type":"Feature","geometry":{"type":"Point","coordinates":[-1.44256,47.36776]},"properties":{"latitude":"47.36776","longitude":"-1.44256","bright_ti4":"313.73","scan":"0.4","track":"0.6","acq_date":"2026-08-12","acq_time":"313","satellite":"N20","instrument":"VIIRS","confidence":"n","version":"2.0NRT","bright_ti5":"290.48","frp":"1.25","daynight":"N","commune":"Saint-Mars-du-Désert","code_insee":"44179","departement":"Loire-Atlantique","region":"Pays de la Loire"}},{"type":"Feature","geometry":{"type":"Point","coordinates":[-0.05463,47.45413]},"properties":{"latitude":"47.45413","longitude":"-0.05463","bright_ti4":"339.53","scan":"0.45","track":"0.63","acq_date":"2026-08-12","acq_time":"313","satellite":"N20","instrument":"VIIRS","confidence":"n","version":"2.0NRT","bright_ti5":"291.98","frp":"6.48","daynight":"N","commune":"La Lande-Chasles","code_insee":"49171","departement":"Maine-et-Loire","region":"Pays de la Loire"}},{"type":"Feature","geometry":{"type":"Point","coordinates":[-0.06014,47.45588]},"properties":{"latitude":"47.45588","longitude":"-0.06014","bright_ti4":"305.96","scan":"0.45","track":"0.63","acq_date":"2026-08-12","acq_time":"313","satellite":"N20","instrument":"VIIRS","confidence":"n","version":"2.0NRT","bright_ti5":"288.79","frp":"4.21","daynight":"N","commune":"La Lande-Chasles","code_insee":"49171","departement":"Maine-et-Loire","region":"Pays de la Loire"}},{"type":"Feature","geometry":{"type":"Point","coordinates":[1.75812,48.98521]},"properties":{"latitude":"48.98521","longitude":"1.75812","bright_ti4":"312.13","scan":"0.48","track":"0.65","acq_date":"2026-08-12","acq_time":"313","satellite":"N20","instrument":"VIIRS","confidence":"n","version":"2.0NRT","bright_ti5":"288.95","frp":"1.98","daynight":"N","commune":"Limay","code_insee":"78335","departement":"Yvelines","region":"Île-de-France"}},{"type":"Feature","geometry":{"type":"Point","coordinates":[2.49789,49.0446]},"properties":{"latitude":"49.0446","longitude":"2.49789","bright_ti4":"301.83","scan":"0.51","track":"0.66","acq_date":"2026-08-12","acq_time":"313","satellite":"N20","instrument":"VIIRS","confidence":"n","version":"2.0NRT","bright_ti5":"287.71","frp":"1.03","daynight":"N","commune":"Louvres","code_insee":"95351","departement":"Val-d'Oise","region":"Île-de-France"}},{"type":"Feature","geometry":{"type":"Point","coordinates":[2.4915,49.04675]},"properties":{"latitude":"49.04675","longitude":"2.4915","bright_ti4":"297.02","scan":"0.51","track":"0.66","acq_date":"2026-08-12","acq_time":"313","satellite":"N20","instrument":"VIIRS","confidence":"n","version":"2.0NRT","bright_ti5":"286.24","frp":"1.03","daynight":"N","commune":"Louvres","code_insee":"95351","departement":"Val-d'Oise","region":"Île-de-France"}},{"type":"Feature","geometry":{"type":"Point","coordinates":[2.49397,49.04819]},"properties":{"latitude":"49.04819","longitude":"2.49397","bright_ti4":"307.02","scan":"0.51","track":"0.66","acq_date":"2026-08-12","acq_time":"313","satellite":"N20","instrument":"VIIRS","confidence":"n","version":"2.0NRT","bright_ti5":"286.99","frp":"1.17","daynight":"N","commune":"Louvres","code_insee":"95351","departement":"Val-d'Oise","region":"Île-de-France"}},{"type":"Feature","geometry":{"type":"Point","coordinates":[0.9807,49.35683]},"properties":{"latitude":"49.35683","longitude":"0.9807","bright_ti4":"311.82","scan":"0.43","track":"0.62","acq_date":"2026-08-12","acq_time":"313","satellite":"N20","instrument":"VIIRS","confidence":"n","version":"2.0NRT","bright_ti5":"289.14","frp":"1.77","daynight":"N","commune":"Hautot-sur-Seine","code_insee":"76350","departement":"Seine-Maritime","region":"Normandie"}},{"type":"Feature","geometry":{"type":"Point","coordinates":[1.08045,49.35693]},"properties":{"latitude":"49.35693","longitude":"1.08045","bright_ti4":"298.78","scan":"0.44","track":"0.62","acq_date":"2026-08-12","acq_time":"313","satellite":"N20","instrument":"VIIRS","confidence":"n","version":"2.0NRT","bright_ti5":"288.22","frp":"0.91","daynight":"N","commune":"Oissel-sur-Seine","code_insee":"76484","departement":"Seine-Maritime","region":"Normandie"}},{"type":"Feature","geometry":{"type":"Point","coordinates":[0.53694,49.47887]},"properties":{"latitude":"49.47887","longitude":"0.53694","bright_ti4":"300.25","scan":"0.41","track":"0.61","acq_date":"2026-08-12","acq_time":"313","satellite":"N20","instrument":"VIIRS","confidence":"n","version":"2.0NRT","bright_ti5":"289.45","frp":"0.99","daynight":"N","commune":"Port-Jérôme-sur-Seine","code_insee":"76476","departement":"Seine-Maritime","region":"Normandie"}},{"type":"Feature","geometry":{"type":"Point","coordinates":[-0.05786,47.44862]},"properties":{"latitude":"47.44862","longitude":"-0.05786","bright_ti4":"336.2","scan":"0.42","track":"0.38","acq_date":"2026-08-12","acq_time":"215","satellite":"N21","instrument":"VIIRS","confidence":"n","version":"2.0NRT","bright_ti5":"295.01","frp":"14.9","daynight":"N","commune":"Longué-Jumelles","code_insee":"49180","departement":"Maine-et-Loire","region":"Pays de la Loire"}},{"type":"Feature","geometry":{"type":"Point","coordinates":[-0.0565,47.45199]},"properties":{"latitude":"47.45199","longitude":"-0.0565","bright_ti4":"350.48","scan":"0.42","track":"0.38","acq_date":"2026-08-12","acq_time":"215","satellite":"N21","instrument":"VIIRS","confidence":"n","version":"2.0NRT","bright_ti5":"300.74","frp":"14.9","daynight":"N","commune":"Longué-Jumelles","code_insee":"49180","departement":"Maine-et-Loire","region":"Pays de la Loire"}},{"type":"Feature","geometry":{"type":"Point","coordinates":[-0.04427,47.48229]},"properties":{"latitude":"47.48229","longitude":"-0.04427","bright_ti4":"310.37","scan":"0.42","track":"0.38","acq_date":"2026-08-12","acq_time":"215","satellite":"N21","instrument":"VIIRS","confidence":"n","version":"2.0NRT","bright_ti5":"295.23","frp":"1.61","daynight":"N","commune":"Baugé-en-Anjou","code_insee":"49018","departement":"Maine-et-Loire","region":"Pays de la Loire"}},{"type":"Feature","geometry":{"type":"Point","coordinates":[-0.04287,47.48565]},"properties":{"latitude":"47.48565","longitude":"-0.04287","bright_ti4":"310.84","scan":"0.42","track":"0.38","acq_date":"2026-08-12","acq_time":"215","satellite":"N21","instrument":"VIIRS","confidence":"n","version":"2.0NRT","bright_ti5":"295.87","frp":"1.61","daynight":"N","commune":"Baugé-en-Anjou","code_insee":"49018","departement":"Maine-et-Loire","region":"Pays de la Loire"}},{"type":"Feature","geometry":{"type":"Point","coordinates":[-1.0373,48.1059]},"properties":{"latitude":"48.1059","longitude":"-1.0373","bright_ti4":"307.68","scan":"0.4","track":"0.37","acq_date":"2026-08-12","acq_time":"215","satellite":"N21","instrument":"VIIRS","confidence":"n","version":"2.0NRT","bright_ti5":"293.53","frp":"1.14","daynight":"N","commune":"Saint-Pierre-la-Cour","code_insee":"53247","departement":"Mayenne","region":"Pays de la Loire"}},{"type":"Feature","geometry":{"type":"Point","coordinates":[6.9677,48.69115]},"properties":{"latitude":"48.69115","longitude":"6.9677","bright_ti4":"302.09","scan":"0.48","track":"0.48","acq_date":"2026-08-12","acq_time":"215","satellite":"N21","instrument":"VIIRS","confidence":"n","version":"2.0NRT","bright_ti5":"289.82","frp":"0.82","daynight":"N","commune":"Héming","code_insee":"57314","departement":"Moselle","region":"Grand Est"}},{"type":"Feature","geometry":{"type":"Point","coordinates":[5.68194,48.71812]},"properties":{"latitude":"48.71812","longitude":"5.68194","bright_ti4":"298.34","scan":"0.42","track":"0.45","acq_date":"2026-08-12","acq_time":"215","satellite":"N21","instrument":"VIIRS","confidence":"n","version":"2.0NRT","bright_ti5":"287.91","frp":"1.01","daynight":"N","commune":"Sorcy-Saint-Martin","code_insee":"55496","departement":"Meuse","region":"Grand Est"}},{"type":"Feature","geometry":{"type":"Point","coordinates":[7.69554,48.84939]},"properties":{"latitude":"48.84939","longitude":"7.69554","bright_ti4":"313.36","scan":"0.51","track":"0.49","acq_date":"2026-08-12","acq_time":"215","satellite":"N21","instrument":"VIIRS","confidence":"n","version":"2.0NRT","bright_ti5":"290.76","frp":"1.9","daynight":"N","commune":"Haguenau","code_insee":"67180","departement":"Bas-Rhin","region":"Grand Est"}},{"type":"Feature","geometry":{"type":"Point","coordinates":[7.69598,48.85167]},"properties":{"latitude":"48.85167","longitude":"7.69598","bright_ti4":"307.32","scan":"0.51","track":"0.49","acq_date":"2026-08-12","acq_time":"215","satellite":"N21","instrument":"VIIRS","confidence":"n","version":"2.0NRT","bright_ti5":"290.37","frp":"2.28","daynight":"N","commune":"Mertzwiller","code_insee":"67291","departement":"Bas-Rhin","region":"Grand Est"}},{"type":"Feature","geometry":{"type":"Point","coordinates":[2.73497,48.9473]},"properties":{"latitude":"48.9473","longitude":"2.73497","bright_ti4":"299.99","scan":"0.49","track":"0.4","acq_date":"2026-08-12","acq_time":"215","satellite":"N21","instrument":"VIIRS","confidence":"n","version":"2.0NRT","bright_ti5":"289.4","frp":"0.99","daynight":"N","commune":"Fresnes-sur-Marne","code_insee":"77196","departement":"Seine-et-Marne","region":"Île-de-France"}},{"type":"Feature","geometry":{"type":"Point","coordinates":[1.76046,48.983]},"properties":{"latitude":"48.983","longitude":"1.76046","bright_ti4":"331.01","scan":"0.45","track":"0.39","acq_date":"2026-08-12","acq_time":"215","satellite":"N21","instrument":"VIIRS","confidence":"n","version":"2.0NRT","bright_ti5":"293.59","frp":"5.21","daynight":"N","commune":"Porcheville","code_insee":"78501","departement":"Yvelines","region":"Île-de-France"}},{"type":"Feature","geometry":{"type":"Point","coordinates":[2.49872,49.04634]},"properties":{"latitude":"49.04634","longitude":"2.49872","bright_ti4":"326.86","scan":"0.47","track":"0.4","acq_date":"2026-08-12","acq_time":"215","satellite":"N21","instrument":"VIIRS","confidence":"n","version":"2.0NRT","bright_ti5":"290.86","frp":"3.33","daynight":"N","commune":"Louvres","code_insee":"95351","departement":"Val-d'Oise","region":"Île-de-France"}},{"type":"Feature","geometry":{"type":"Point","coordinates":[0.98056,49.35103]},"properties":{"latitude":"49.35103","longitude":"0.98056","bright_ti4":"317.9","scan":"0.43","track":"0.38","acq_date":"2026-08-12","acq_time":"215","satellite":"N21","instrument":"VIIRS","confidence":"n","version":"2.0NRT","bright_ti5":"292.03","frp":"2.49","daynight":"N","commune":"Grand-Couronne","code_insee":"76319","departement":"Seine-Maritime","region":"Normandie"}},{"type":"Feature","geometry":{"type":"Point","coordinates":[1.07472,49.35499]},"properties":{"latitude":"49.35499","longitude":"1.07472","bright_ti4":"311.54","scan":"0.43","track":"0.38","acq_date":"2026-08-12","acq_time":"215","satellite":"N21","instrument":"VIIRS","confidence":"n","version":"2.0NRT","bright_ti5":"290.22","frp":"1.31","daynight":"N","commune":"Oissel-sur-Seine","code_insee":"76484","departement":"Seine-Maritime","region":"Normandie"}},{"type":"Feature","geometry":{"type":"Point","coordinates":[0.53755,49.47751]},"properties":{"latitude":"49.47751","longitude":"0.53755","bright_ti4":"302.89","scan":"0.42","track":"0.37","acq_date":"2026-08-12","acq_time":"215","satellite":"N21","instrument":"VIIRS","confidence":"n","version":"2.0NRT","bright_ti5":"291.47","frp":"1.54","daynight":"N","commune":"Port-Jérôme-sur-Seine","code_insee":"76476","departement":"Seine-Maritime","region":"Normandie"}},{"type":"Feature","geometry":{"type":"Point","coordinates":[2.29058,51.03374]},"properties":{"latitude":"51.03374","longitude":"2.29058","bright_ti4":"324.05","scan":"0.44","track":"0.38","acq_date":"2026-08-12","acq_time":"215","satellite":"N21","instrument":"VIIRS","confidence":"n","version":"2.0NRT","bright_ti5":"288.72","frp":"2.54","daynight":"N","commune":"Grande-Synthe","code_insee":"59271","departement":"Nord","region":"Hauts-de-France"}},{"type":"Feature","geometry":{"type":"Point","coordinates":[2.28459,51.0349]},"properties":{"latitude":"51.0349","longitude":"2.28459","bright_ti4":"310.25","scan":"0.44","track":"0.38","acq_date":"2026-08-12","acq_time":"215","satellite":"N21","instrument":"VIIRS","confidence":"n","version":"2.0NRT","bright_ti5":"287.36","frp":"1.89","daynight":"N","commune":"Grande-Synthe","code_insee":"59271","departement":"Nord","region":"Hauts-de-France"}},{"type":"Feature","geometry":{"type":"Point","coordinates":[2.29991,51.03933]},"properties":{"latitude":"51.03933","longitude":"2.29991","bright_ti4":"329.79","scan":"0.44","track":"0.38","acq_date":"2026-08-12","acq_time":"215","satellite":"N21","instrument":"VIIRS","confidence":"n","version":"2.0NRT","bright_ti5":"288.41","frp":"6.06","daynight":"N","commune":"Grande-Synthe","code_insee":"59271","departement":"Nord","region":"Hauts-de-France"}},{"type":"Feature","geometry":{"type":"Point","coordinates":[2.29391,51.04049]},"properties":{"latitude":"51.04049","longitude":"2.29391","bright_ti4":"305.19","scan":"0.44","track":"0.38","acq_date":"2026-08-12","acq_time":"215","satellite":"N21","instrument":"VIIRS","confidence":"n","version":"2.0NRT","bright_ti5":"288.39","frp":"6.06","daynight":"N","commune":"Grande-Synthe","code_insee":"59271","departement":"Nord","region":"Hauts-de-France"}},{"type":"Feature","geometry":{"type":"Point","coordinates":[2.30157,51.04271]},"properties":{"latitude":"51.04271","longitude":"2.30157","bright_ti4":"301.34","scan":"0.44","track":"0.38","acq_date":"2026-08-12","acq_time":"215","satellite":"N21","instrument":"VIIRS","confidence":"n","version":"2.0NRT","bright_ti5":"286.13","frp":"6.06","daynight":"N","commune":"Grande-Synthe","code_insee":"59271","departement":"Nord","region":"Hauts-de-France"}},{"type":"Feature","geometry":{"type":"Point","coordinates":[2.29558,51.04387]},"properties":{"latitude":"51.04387","longitude":"2.29558","bright_ti4":"334.5","scan":"0.44","track":"0.38","acq_date":"2026-08-12","acq_time":"215","satellite":"N21","instrument":"VIIRS","confidence":"n","version":"2.0NRT","bright_ti5":"292.43","frp":"6.06","daynight":"N","commune":"Grande-Synthe","code_insee":"59271","departement":"Nord","region":"Hauts-de-France"}},{"type":"Feature","geometry":{"type":"Point","coordinates":[2.3229,51.04597]},"properties":{"latitude":"51.04597","longitude":"2.3229","bright_ti4":"304.96","scan":"0.44","track":"0.38","acq_date":"2026-08-12","acq_time":"215","satellite":"N21","instrument":"VIIRS","confidence":"n","version":"2.0NRT","bright_ti5":"290.2","frp":"0.72","daynight":"N","commune":"Dunkerque","code_insee":"59183","departement":"Nord","region":"Hauts-de-France"}},{"type":"Feature","geometry":{"type":"Point","coordinates":[2.3169,51.04714]},"properties":{"latitude":"51.04714","longitude":"2.3169","bright_ti4":"301.36","scan":"0.44","track":"0.38","acq_date":"2026-08-12","acq_time":"215","satellite":"N21","instrument":"VIIRS","confidence":"n","version":"2.0NRT","bright_ti5":"288.4","frp":"0.96","daynight":"N","commune":"Dunkerque","code_insee":"59183","departement":"Nord","region":"Hauts-de-France"}},{"type":"Feature","geometry":{"type":"Point","coordinates":[4.89636,43.43624]},"properties":{"latitude":"43.43624","longitude":"4.89636","bright_ti4":"307.2","scan":"0.53","track":"0.5","acq_date":"2026-08-12","acq_time":"217","satellite":"N21","instrument":"VIIRS","confidence":"n","version":"2.0NRT","bright_ti5":"291.16","frp":"2.25","daynight":"N","commune":"Fos-sur-Mer","code_insee":"13039","departement":"Bouches-du-Rhône","region":"Provence-Alpes-Côte d'Azur"}},{"type":"Feature","geometry":{"type":"Point","coordinates":[4.89015,43.4378]},"properties":{"latitude":"43.4378","longitude":"4.89015","bright_ti4":"316.86","scan":"0.53","track":"0.5","acq_date":"2026-08-12","acq_time":"217","satellite":"N21","instrument":"VIIRS","confidence":"n","version":"2.0NRT","bright_ti5":"292.86","frp":"3.63","daynight":"N","commune":"Fos-sur-Mer","code_insee":"13039","departement":"Bouches-du-Rhône","region":"Provence-Alpes-Côte d'Azur"}},{"type":"Feature","geometry":{"type":"Point","coordinates":[4.88396,43.43934]},"properties":{"latitude":"43.43934","longitude":"4.88396","bright_ti4":"320.69","scan":"0.53","track":"0.5","acq_date":"2026-08-12","acq_time":"217","satellite":"N21","instrument":"VIIRS","confidence":"n","version":"2.0NRT","bright_ti5":"291.95","frp":"3.63","daynight":"N","commune":"Fos-sur-Mer","code_insee":"13039","departement":"Bouches-du-Rhône","region":"Provence-Alpes-Côte d'Azur"}},{"type":"Feature","geometry":{"type":"Point","coordinates":[4.90056,43.44501]},"properties":{"latitude":"43.44501","longitude":"4.90056","bright_ti4":"336.48","scan":"0.53","track":"0.5","acq_date":"2026-08-12","acq_time":"217","satellite":"N21","instrument":"VIIRS","confidence":"n","version":"2.0NRT","bright_ti5":"292.86","frp":"6.53","daynight":"N","commune":"Fos-sur-Mer","code_insee":"13039","departement":"Bouches-du-Rhône","region":"Provence-Alpes-Côte d'Azur"}},{"type":"Feature","geometry":{"type":"Point","coordinates":[4.89433,43.44657]},"properties":{"latitude":"43.44657","longitude":"4.89433","bright_ti4":"318.69","scan":"0.53","track":"0.5","acq_date":"2026-08-12","acq_time":"217","satellite":"N21","instrument":"VIIRS","confidence":"n","version":"2.0NRT","bright_ti5":"292.52","frp":"5.59","daynight":"N","commune":"Fos-sur-Mer","code_insee":"13039","departement":"Bouches-du-Rhône","region":"Provence-Alpes-Côte d'Azur"}},{"type":"Feature","geometry":{"type":"Point","coordinates":[-1.43778,47.36948]},"properties":{"latitude":"47.36948","longitude":"-1.43778","bright_ti4":"329.24","scan":"0.4","track":"0.37","acq_date":"2026-08-12","acq_time":"217","satellite":"N21","instrument":"VIIRS","confidence":"n","version":"2.0NRT","bright_ti5":"293.47","frp":"3.74","daynight":"N","commune":"Saint-Mars-du-Désert","code_insee":"44179","departement":"Loire-Atlantique","region":"Pays de la Loire"}},{"type":"Feature","geometry":{"type":"Point","coordinates":[-1.44292,47.37038]},"properties":{"latitude":"47.37038","longitude":"-1.44292","bright_ti4":"328.01","scan":"0.4","track":"0.37","acq_date":"2026-08-12","acq_time":"217","satellite":"N21","instrument":"VIIRS","confidence":"n","version":"2.0NRT","bright_ti5":"293.84","frp":"3.45","daynight":"N","commune":"Saint-Mars-du-Désert","code_insee":"44179","departement":"Loire-Atlantique","region":"Pays de la Loire"}}]}