{"type":"FeatureCollection","features":[{"type":"Feature","geometry":{"type":"Point","coordinates":[3.4308,46.18892]},"properties":{"latitude":"46.18892","longitude":"3.4308","bright_ti4":"318.07","scan":"0.39","track":"0.36","acq_date":"2026-08-15","acq_time":"156","satellite":"N","instrument":"VIIRS","confidence":"n","version":"2.0NRT","bright_ti5":"292.18","frp":"1.77","daynight":"N","commune":"Saint-Germain-des-Fossés","code_insee":"03236","departement":"Allier","region":"Auvergne-Rhône-Alpes"}},{"type":"Feature","geometry":{"type":"Point","coordinates":[2.17603,47.25217]},"properties":{"latitude":"47.25217","longitude":"2.17603","bright_ti4":"301.63","scan":"0.4","track":"0.37","acq_date":"2026-08-15","acq_time":"156","satellite":"N","instrument":"VIIRS","confidence":"n","version":"2.0NRT","bright_ti5":"289.99","frp":"1.13","daynight":"N","commune":"Saint-Laurent","code_insee":"18219","departement":"Cher","region":"Centre-Val de Loire"}},{"type":"Feature","geometry":{"type":"Point","coordinates":[2.17072,47.2529]},"properties":{"latitude":"47.2529","longitude":"2.17072","bright_ti4":"302.75","scan":"0.4","track":"0.37","acq_date":"2026-08-15","acq_time":"156","satellite":"N","instrument":"VIIRS","confidence":"n","version":"2.0NRT","bright_ti5":"289.86","frp":"0.8","daynight":"N","commune":"Saint-Laurent","code_insee":"18219","departement":"Cher","region":"Centre-Val de Loire"}},{"type":"Feature","geometry":{"type":"Point","coordinates":[2.16543,47.25364]},"properties":{"latitude":"47.25364","longitude":"2.16543","bright_ti4":"307.3","scan":"0.4","track":"0.37","acq_date":"2026-08-15","acq_time":"156","satellite":"N","instrument":"VIIRS","confidence":"n","version":"2.0NRT","bright_ti5":"290.71","frp":"0.8","daynight":"N","commune":"Saint-Laurent","code_insee":"18219","departement":"Cher","region":"Centre-Val de Loire"}},{"type":"Feature","geometry":{"type":"Point","coordinates":[2.17704,47.25552]},"properties":{"latitude":"47.25552","longitude":"2.17704","bright_ti4":"319.11","scan":"0.4","track":"0.37","acq_date":"2026-08-15","acq_time":"156","satellite":"N","instrument":"VIIRS","confidence":"n","version":"2.0NRT","bright_ti5":"293.87","frp":"1.13","daynight":"N","commune":"Saint-Laurent","code_insee":"18219","departement":"Cher","region":"Centre-Val de Loire"}},{"type":"Feature","geometry":{"type":"Point","coordinates":[2.16643,47.257]},"properties":{"latitude":"47.257","longitude":"2.16643","bright_ti4":"300.96","scan":"0.4","track":"0.37","acq_date":"2026-08-15","acq_time":"156","satellite":"N","instrument":"VIIRS","confidence":"n","version":"2.0NRT","bright_ti5":"289.99","frp":"0.8","daynight":"N","commune":"Saint-Laurent","code_insee":"18219","departement":"Cher","region":"Centre-Val de Loire"}},{"type":"Feature","geometry":{"type":"Point","coordinates":[4.17734,47.45762]},"properties":{"latitude":"47.45762","longitude":"4.17734","bright_ti4":"295.92","scan":"0.38","track":"0.36","acq_date":"2026-08-15","acq_time":"156","satellite":"N","instrument":"VIIRS","confidence":"n","version":"2.0NRT","bright_ti5":"280.17","frp":"0.31","daynight":"N","commune":"Courcelles-Frémoy","code_insee":"21203","departement":"Côte-d'Or","region":"Bourgogne-Franche-Comté"}},{"type":"Feature","geometry":{"type":"Point","coordinates":[5.6845,48.71559]},"properties":{"latitude":"48.71559","longitude":"5.6845","bright_ti4":"302.41","scan":"0.39","track":"0.36","acq_date":"2026-08-15","acq_time":"156","satellite":"N","instrument":"VIIRS","confidence":"n","version":"2.0NRT","bright_ti5":"283.03","frp":"0.49","daynight":"N","commune":"Sorcy-Saint-Martin","code_insee":"55496","departement":"Meuse","region":"Grand Est"}},{"type":"Feature","geometry":{"type":"Point","coordinates":[4.56426,48.77045]},"properties":{"latitude":"48.77045","longitude":"4.56426","bright_ti4":"304.71","scan":"0.38","track":"0.36","acq_date":"2026-08-15","acq_time":"156","satellite":"N","instrument":"VIIRS","confidence":"n","version":"2.0NRT","bright_ti5":"292.82","frp":"1.15","daynight":"N","commune":"Couvrot","code_insee":"51195","departement":"Marne","region":"Grand Est"}},{"type":"Feature","geometry":{"type":"Point","coordinates":[4.89596,43.43534]},"properties":{"latitude":"43.43534","longitude":"4.89596","bright_ti4":"304.85","scan":"0.4","track":"0.37","acq_date":"2026-08-15","acq_time":"158","satellite":"N","instrument":"VIIRS","confidence":"n","version":"2.0NRT","bright_ti5":"293.71","frp":"1.24","daynight":"N","commune":"Fos-sur-Mer","code_insee":"13039","departement":"Bouches-du-Rhône","region":"Provence-Alpes-Côte d'Azur"}},{"type":"Feature","geometry":{"type":"Point","coordinates":[4.89111,43.43619]},"properties":{"latitude":"43.43619","longitude":"4.89111","bright_ti4":"311.43","scan":"0.4","track":"0.37","acq_date":"2026-08-15","acq_time":"158","satellite":"N","instrument":"VIIRS","confidence":"n","version":"2.0NRT","bright_ti5":"294.8","frp":"1.24","daynight":"N","commune":"Fos-sur-Mer","code_insee":"13039","departement":"Bouches-du-Rhône","region":"Provence-Alpes-Côte d'Azur"}},{"type":"Feature","geometry":{"type":"Point","coordinates":[4.88142,43.43789]},"properties":{"latitude":"43.43789","longitude":"4.88142","bright_ti4":"306.39","scan":"0.4","track":"0.37","acq_date":"2026-08-15","acq_time":"158","satellite":"N","instrument":"VIIRS","confidence":"n","version":"2.0NRT","bright_ti5":"295.28","frp":"1.8","daynight":"N","commune":"Fos-sur-Mer","code_insee":"13039","departement":"Bouches-du-Rhône","region":"Provence-Alpes-Côte d'Azur"}},{"type":"Feature","geometry":{"type":"Point","coordinates":[4.89221,43.43951]},"properties":{"latitude":"43.43951","longitude":"4.89221","bright_ti4":"321.69","scan":"0.4","track":"0.37","acq_date":"2026-08-15","acq_time":"158","satellite":"N","instrument":"VIIRS","confidence":"n","version":"2.0NRT","bright_ti5":"295.83","frp":"1.24","daynight":"N","commune":"Fos-sur-Mer","code_insee":"13039","departement":"Bouches-du-Rhône","region":"Provence-Alpes-Côte d'Azur"}},{"type":"Feature","geometry":{"type":"Point","coordinates":[4.89926,43.44528]},"properties":{"latitude":"43.44528","longitude":"4.89926","bright_ti4":"307.12","scan":"0.4","track":"0.37","acq_date":"2026-08-15","acq_time":"158","satellite":"N","instrument":"VIIRS","confidence":"n","version":"2.0NRT","bright_ti5":"294.67","frp":"0.9","daynight":"N","commune":"Fos-sur-Mer","code_insee":"13039","departement":"Bouches-du-Rhône","region":"Provence-Alpes-Côte d'Azur"}},{"type":"Feature","geometry":{"type":"Point","coordinates":[4.89441,43.44614]},"properties":{"latitude":"43.44614","longitude":"4.89441","bright_ti4":"305.02","scan":"0.4","track":"0.37","acq_date":"2026-08-15","acq_time":"158","satellite":"N","instrument":"VIIRS","confidence":"n","version":"2.0NRT","bright_ti5":"294.25","frp":"0.9","daynight":"N","commune":"Fos-sur-Mer","code_insee":"13039","departement":"Bouches-du-Rhône","region":"Provence-Alpes-Côte d'Azur"}},{"type":"Feature","geometry":{"type":"Point","coordinates":[4.89551,43.44945]},"properties":{"latitude":"43.44945","longitude":"4.89551","bright_ti4":"314.62","scan":"0.4","track":"0.37","acq_date":"2026-08-15","acq_time":"158","satellite":"N","instrument":"VIIRS","confidence":"n","version":"2.0NRT","bright_ti5":"293.19","frp":"1.23","daynight":"N","commune":"Fos-sur-Mer","code_insee":"13039","departement":"Bouches-du-Rhône","region":"Provence-Alpes-Côte d'Azur"}},{"type":"Feature","geometry":{"type":"Point","coordinates":[7.37224,43.79503]},"properties":{"latitude":"43.79503","longitude":"7.37224","bright_ti4":"303.84","scan":"0.46","track":"0.39","acq_date":"2026-08-15","acq_time":"158","satellite":"N","instrument":"VIIRS","confidence":"n","version":"2.0NRT","bright_ti5":"289.33","frp":"0.83","daynight":"N","commune":"Blausasc","code_insee":"06019","departement":"Alpes-Maritimes","region":"Provence-Alpes-Côte d'Azur"}},{"type":"Feature","geometry":{"type":"Point","coordinates":[-0.7044,44.04829]},"properties":{"latitude":"44.04829","longitude":"-0.7044","bright_ti4":"321.47","scan":"0.45","track":"0.39","acq_date":"2026-08-15","acq_time":"158","satellite":"N","instrument":"VIIRS","confidence":"n","version":"2.0NRT","bright_ti5":"290.64","frp":"2.09","daynight":"N","commune":"Garein","code_insee":"40105","departement":"Landes","region":"Nouvelle-Aquitaine"}},{"type":"Feature","geometry":{"type":"Point","coordinates":[-0.70998,44.04898]},"properties":{"latitude":"44.04898","longitude":"-0.70998","bright_ti4":"335.26","scan":"0.45","track":"0.39","acq_date":"2026-08-15","acq_time":"158","satellite":"N","instrument":"VIIRS","confidence":"n","version":"2.0NRT","bright_ti5":"295.35","frp":"3.26","daynight":"N","commune":"Luglon","code_insee":"40165","departement":"Landes","region":"Nouvelle-Aquitaine"}},{"type":"Feature","geometry":{"type":"Point","coordinates":[-0.68135,44.04908]},"properties":{"latitude":"44.04908","longitude":"-0.68135","bright_ti4":"314.95","scan":"0.45","track":"0.39","acq_date":"2026-08-15","acq_time":"158","satellite":"N","instrument":"VIIRS","confidence":"n","version":"2.0NRT","bright_ti5":"287.9","frp":"2.48","daynight":"N","commune":"Garein","code_insee":"40105","departement":"Landes","region":"Nouvelle-Aquitaine"}},{"type":"Feature","geometry":{"type":"Point","coordinates":[-0.71555,44.04966]},"properties":{"latitude":"44.04966","longitude":"-0.71555","bright_ti4":"319.21","scan":"0.45","track":"0.39","acq_date":"2026-08-15","acq_time":"158","satellite":"N","instrument":"VIIRS","confidence":"n","version":"2.0NRT","bright_ti5":"291.6","frp":"3.26","daynight":"N","commune":"Luglon","code_insee":"40165","departement":"Landes","region":"Nouvelle-Aquitaine"}},{"type":"Feature","geometry":{"type":"Point","coordinates":[-0.68689,44.04977]},"properties":{"latitude":"44.04977","longitude":"-0.68689","bright_ti4":"311.88","scan":"0.45","track":"0.39","acq_date":"2026-08-15","acq_time":"158","satellite":"N","instrument":"VIIRS","confidence":"n","version":"2.0NRT","bright_ti5":"286.54","frp":"2.27","daynight":"N","commune":"Garein","code_insee":"40105","departement":"Landes","region":"Nouvelle-Aquitaine"}},{"type":"Feature","geometry":{"type":"Point","coordinates":[-0.72113,44.05035]},"properties":{"latitude":"44.05035","longitude":"-0.72113","bright_ti4":"312.92","scan":"0.45","track":"0.39","acq_date":"2026-08-15","acq_time":"158","satellite":"N","instrument":"VIIRS","confidence":"n","version":"2.0NRT","bright_ti5":"289.61","frp":"2.14","daynight":"N","commune":"Luglon","code_insee":"40165","departement":"Landes","region":"Nouvelle-Aquitaine"}},{"type":"Feature","geometry":{"type":"Point","coordinates":[-0.69244,44.05045]},"properties":{"latitude":"44.05045","longitude":"-0.69244","bright_ti4":"318.15","scan":"0.45","track":"0.39","acq_date":"2026-08-15","acq_time":"158","satellite":"N","instrument":"VIIRS","confidence":"n","version":"2.0NRT","bright_ti5":"288.67","frp":"2.27","daynight":"N","commune":"Garein","code_insee":"40105","departement":"Landes","region":"Nouvelle-Aquitaine"}},{"type":"Feature","geometry":{"type":"Point","coordinates":[-0.698,44.05114]},"properties":{"latitude":"44.05114","longitude":"-0.698","bright_ti4":"314.23","scan":"0.45","track":"0.39","acq_date":"2026-08-15","acq_time":"158","satellite":"N","instrument":"VIIRS","confidence":"n","version":"2.0NRT","bright_ti5":"288.03","frp":"2.09","daynight":"N","commune":"Garein","code_insee":"40105","departement":"Landes","region":"Nouvelle-Aquitaine"}},{"type":"Feature","geometry":{"type":"Point","coordinates":[-0.70356,44.05183]},"properties":{"latitude":"44.05183","longitude":"-0.70356","bright_ti4":"308.61","scan":"0.45","track":"0.39","acq_date":"2026-08-15","acq_time":"158","satellite":"N","instrument":"VIIRS","confidence":"n","version":"2.0NRT","bright_ti5":"289.32","frp":"2.09","daynight":"N","commune":"Luglon","code_insee":"40165","departement":"Landes","region":"Nouvelle-Aquitaine"}},{"type":"Feature","geometry":{"type":"Point","coordinates":[-0.67497,44.05193]},"properties":{"latitude":"44.05193","longitude":"-0.67497","bright_ti4":"311.13","scan":"0.45","track":"0.39","acq_date":"2026-08-15","acq_time":"158","satellite":"N","instrument":"VIIRS","confidence":"n","version":"2.0NRT","bright_ti5":"288.55","frp":"1.94","daynight":"N","commune":"Garein","code_insee":"40105","departement":"Landes","region":"Nouvelle-Aquitaine"}},{"type":"Feature","geometry":{"type":"Point","coordinates":[-0.70914,44.05252]},"properties":{"latitude":"44.05252","longitude":"-0.70914","bright_ti4":"319.29","scan":"0.45","track":"0.39","acq_date":"2026-08-15","acq_time":"158","satellite":"N","instrument":"VIIRS","confidence":"n","version":"2.0NRT","bright_ti5":"292.99","frp":"3.26","daynight":"N","commune":"Luglon","code_insee":"40165","departement":"Landes","region":"Nouvelle-Aquitaine"}},{"type":"Feature","geometry":{"type":"Point","coordinates":[-0.6805,44.05262]},"properties":{"latitude":"44.05262","longitude":"-0.6805","bright_ti4":"313.79","scan":"0.45","track":"0.39","acq_date":"2026-08-15","acq_time":"158","satellite":"N","instrument":"VIIRS","confidence":"n","version":"2.0NRT","bright_ti5":"289.29","frp":"1.94","daynight":"N","commune":"Garein","code_insee":"40105","departement":"Landes","region":"Nouvelle-Aquitaine"}},{"type":"Feature","geometry":{"type":"Point","coordinates":[-0.71472,44.05321]},"properties":{"latitude":"44.05321","longitude":"-0.71472","bright_ti4":"320.6","scan":"0.45","track":"0.39","acq_date":"2026-08-15","acq_time":"158","satellite":"N","instrument":"VIIRS","confidence":"n","version":"2.0NRT","bright_ti5":"292.76","frp":"3.26","daynight":"N","commune":"Luglon","code_insee":"40165","departement":"Landes","region":"Nouvelle-Aquitaine"}},{"type":"Feature","geometry":{"type":"Point","coordinates":[-0.68604,44.05331]},"properties":{"latitude":"44.05331","longitude":"-0.68604","bright_ti4":"310.14","scan":"0.45","track":"0.39","acq_date":"2026-08-15","acq_time":"158","satellite":"N","instrument":"VIIRS","confidence":"n","version":"2.0NRT","bright_ti5":"288.09","frp":"1.89","daynight":"N","commune":"Garein","code_insee":"40105","departement":"Landes","region":"Nouvelle-Aquitaine"}},{"type":"Feature","geometry":{"type":"Point","coordinates":[-0.72029,44.0539]},"properties":{"latitude":"44.0539","longitude":"-0.72029","bright_ti4":"314.68","scan":"0.45","track":"0.39","acq_date":"2026-08-15","acq_time":"158","satellite":"N","instrument":"VIIRS","confidence":"n","version":"2.0NRT","bright_ti5":"291.72","frp":"2.14","daynight":"N","commune":"Luglon","code_insee":"40165","departement":"Landes","region":"Nouvelle-Aquitaine"}},{"type":"Feature","geometry":{"type":"Point","coordinates":[-0.69159,44.054]},"properties":{"latitude":"44.054","longitude":"-0.69159","bright_ti4":"315.07","scan":"0.45","track":"0.39","acq_date":"2026-08-15","acq_time":"158","satellite":"N","instrument":"VIIRS","confidence":"n","version":"2.0NRT","bright_ti5":"288.27","frp":"1.89","daynight":"N","commune":"Garein","code_insee":"40105","departement":"Landes","region":"Nouvelle-Aquitaine"}},{"type":"Feature","geometry":{"type":"Point","coordinates":[-0.69715,44.05468]},"properties":{"latitude":"44.05468","longitude":"-0.69715","bright_ti4":"307.49","scan":"0.45","track":"0.39","acq_date":"2026-08-15","acq_time":"158","satellite":"N","instrument":"VIIRS","confidence":"n","version":"2.0NRT","bright_ti5":"288.45","frp":"1.32","daynight":"N","commune":"Garein","code_insee":"40105","departement":"Landes","region":"Nouvelle-Aquitaine"}},{"type":"Feature","geometry":{"type":"Point","coordinates":[-0.73146,44.05527]},"properties":{"latitude":"44.05527","longitude":"-0.73146","bright_ti4":"307.1","scan":"0.45","track":"0.39","acq_date":"2026-08-15","acq_time":"158","satellite":"N","instrument":"VIIRS","confidence":"n","version":"2.0NRT","bright_ti5":"290.11","frp":"4.1","daynight":"N","commune":"Luglon","code_insee":"40165","departement":"Landes","region":"Nouvelle-Aquitaine"}},{"type":"Feature","geometry":{"type":"Point","coordinates":[-0.70272,44.05537]},"properties":{"latitude":"44.05537","longitude":"-0.70272","bright_ti4":"308.59","scan":"0.45","track":"0.39","acq_date":"2026-08-15","acq_time":"158","satellite":"N","instrument":"VIIRS","confidence":"n","version":"2.0NRT","bright_ti5":"290.01","frp":"1.32","daynight":"N","commune":"Luglon","code_insee":"40165","departement":"Landes","region":"Nouvelle-Aquitaine"}},{"type":"Feature","geometry":{"type":"Point","coordinates":[-0.73704,44.05597]},"properties":{"latitude":"44.05597","longitude":"-0.73704","bright_ti4":"342.04","scan":"0.45","track":"0.39","acq_date":"2026-08-15","acq_time":"158","satellite":"N","instrument":"VIIRS","confidence":"n","version":"2.0NRT","bright_ti5":"296.67","frp":"4.1","daynight":"N","commune":"Luglon","code_insee":"40165","departement":"Landes","region":"Nouvelle-Aquitaine"}},{"type":"Feature","geometry":{"type":"Point","coordinates":[-0.7083,44.05606]},"properties":{"latitude":"44.05606","longitude":"-0.7083","bright_ti4":"308.09","scan":"0.45","track":"0.39","acq_date":"2026-08-15","acq_time":"158","satellite":"N","instrument":"VIIRS","confidence":"n","version":"2.0NRT","bright_ti5":"291.61","frp":"1.88","daynight":"N","commune":"Luglon","code_insee":"40165","departement":"Landes","region":"Nouvelle-Aquitaine"}},{"type":"Feature","geometry":{"type":"Point","coordinates":[-0.74263,44.05665]},"properties":{"latitude":"44.05665","longitude":"-0.74263","bright_ti4":"326.31","scan":"0.45","track":"0.39","acq_date":"2026-08-15","acq_time":"158","satellite":"N","instrument":"VIIRS","confidence":"n","version":"2.0NRT","bright_ti5":"291.98","frp":"3.27","daynight":"N","commune":"Arengosse","code_insee":"40006","departement":"Landes","region":"Nouvelle-Aquitaine"}},{"type":"Feature","geometry":{"type":"Point","coordinates":[-0.71388,44.05676]},"properties":{"latitude":"44.05676","longitude":"-0.71388","bright_ti4":"309.86","scan":"0.45","track":"0.39","acq_date":"2026-08-15","acq_time":"158","satellite":"N","instrument":"VIIRS","confidence":"n","version":"2.0NRT","bright_ti5":"291.52","frp":"1.88","daynight":"N","commune":"Luglon","code_insee":"40165","departement":"Landes","region":"Nouvelle-Aquitaine"}},{"type":"Feature","geometry":{"type":"Point","coordinates":[-0.68519,44.05685]},"properties":{"latitude":"44.05685","longitude":"-0.68519","bright_ti4":"307.94","scan":"0.45","track":"0.39","acq_date":"2026-08-15","acq_time":"158","satellite":"N","instrument":"VIIRS","confidence":"n","version":"2.0NRT","bright_ti5":"288","frp":"1.89","daynight":"N","commune":"Garein","code_insee":"40105","departement":"Landes","region":"Nouvelle-Aquitaine"}},{"type":"Feature","geometry":{"type":"Point","coordinates":[-0.74822,44.05734]},"properties":{"latitude":"44.05734","longitude":"-0.74822","bright_ti4":"317.83","scan":"0.45","track":"0.39","acq_date":"2026-08-15","acq_time":"158","satellite":"N","instrument":"VIIRS","confidence":"n","version":"2.0NRT","bright_ti5":"289.43","frp":"3.27","daynight":"N","commune":"Arengosse","code_insee":"40006","departement":"Landes","region":"Nouvelle-Aquitaine"}},{"type":"Feature","geometry":{"type":"Point","coordinates":[-0.71946,44.05745]},"properties":{"latitude":"44.05745","longitude":"-0.71946","bright_ti4":"310.75","scan":"0.45","track":"0.39","acq_date":"2026-08-15","acq_time":"158","satellite":"N","instrument":"VIIRS","confidence":"n","version":"2.0NRT","bright_ti5":"290.75","frp":"2.44","daynight":"N","commune":"Luglon","code_insee":"40165","departement":"Landes","region":"Nouvelle-Aquitaine"}},{"type":"Feature","geometry":{"type":"Point","coordinates":[-0.69075,44.05754]},"properties":{"latitude":"44.05754","longitude":"-0.69075","bright_ti4":"323.73","scan":"0.45","track":"0.39","acq_date":"2026-08-15","acq_time":"158","satellite":"N","instrument":"VIIRS","confidence":"n","version":"2.0NRT","bright_ti5":"292.18","frp":"1.89","daynight":"N","commune":"Garein","code_insee":"40105","departement":"Landes","region":"Nouvelle-Aquitaine"}},{"type":"Feature","geometry":{"type":"Point","coordinates":[-0.72503,44.05813]},"properties":{"latitude":"44.05813","longitude":"-0.72503","bright_ti4":"313.77","scan":"0.45","track":"0.39","acq_date":"2026-08-15","acq_time":"158","satellite":"N","instrument":"VIIRS","confidence":"n","version":"2.0NRT","bright_ti5":"290.26","frp":"2.44","daynight":"N","commune":"Luglon","code_insee":"40165","departement":"Landes","region":"Nouvelle-Aquitaine"}},{"type":"Feature","geometry":{"type":"Point","coordinates":[-0.69631,44.05823]},"properties":{"latitude":"44.05823","longitude":"-0.69631","bright_ti4":"307.49","scan":"0.45","track":"0.39","acq_date":"2026-08-15","acq_time":"158","satellite":"N","instrument":"VIIRS","confidence":"n","version":"2.0NRT","bright_ti5":"289.51","frp":"1.32","daynight":"N","commune":"Garein","code_insee":"40105","departement":"Landes","region":"Nouvelle-Aquitaine"}},{"type":"Feature","geometry":{"type":"Point","coordinates":[-0.73062,44.05883]},"properties":{"latitude":"44.05883","longitude":"-0.73062","bright_ti4":"308.61","scan":"0.45","track":"0.39","acq_date":"2026-08-15","acq_time":"158","satellite":"N","instrument":"VIIRS","confidence":"n","version":"2.0NRT","bright_ti5":"290.4","frp":"3.09","daynight":"N","commune":"Luglon","code_insee":"40165","departement":"Landes","region":"Nouvelle-Aquitaine"}},{"type":"Feature","geometry":{"type":"Point","coordinates":[-0.70188,44.05892]},"properties":{"latitude":"44.05892","longitude":"-0.70188","bright_ti4":"306.19","scan":"0.45","track":"0.39","acq_date":"2026-08-15","acq_time":"158","satellite":"N","instrument":"VIIRS","confidence":"n","version":"2.0NRT","bright_ti5":"290.33","frp":"1.32","daynight":"N","commune":"Luglon","code_insee":"40165","departement":"Landes","region":"Nouvelle-Aquitaine"}},{"type":"Feature","geometry":{"type":"Point","coordinates":[-0.7362,44.05951]},"properties":{"latitude":"44.05951","longitude":"-0.7362","bright_ti4":"338.49","scan":"0.45","track":"0.39","acq_date":"2026-08-15","acq_time":"158","satellite":"N","instrument":"VIIRS","confidence":"n","version":"2.0NRT","bright_ti5":"296.63","frp":"3.09","daynight":"N","commune":"Arengosse","code_insee":"40006","departement":"Landes","region":"Nouvelle-Aquitaine"}},{"type":"Feature","geometry":{"type":"Point","coordinates":[-0.74179,44.0602]},"properties":{"latitude":"44.0602","longitude":"-0.74179","bright_ti4":"327.06","scan":"0.45","track":"0.39","acq_date":"2026-08-15","acq_time":"158","satellite":"N","instrument":"VIIRS","confidence":"n","version":"2.0NRT","bright_ti5":"293.7","frp":"3.03","daynight":"N","commune":"Arengosse","code_insee":"40006","departement":"Landes","region":"Nouvelle-Aquitaine"}},{"type":"Feature","geometry":{"type":"Point","coordinates":[-0.71303,44.0603]},"properties":{"latitude":"44.0603","longitude":"-0.71303","bright_ti4":"311.44","scan":"0.45","track":"0.39","acq_date":"2026-08-15","acq_time":"158","satellite":"N","instrument":"VIIRS","confidence":"n","version":"2.0NRT","bright_ti5":"291.82","frp":"1.88","daynight":"N","commune":"Luglon","code_insee":"40165","departement":"Landes","region":"Nouvelle-Aquitaine"}},{"type":"Feature","geometry":{"type":"Point","coordinates":[-0.74738,44.06089]},"properties":{"latitude":"44.06089","longitude":"-0.74738","bright_ti4":"309.73","scan":"0.45","track":"0.39","acq_date":"2026-08-15","acq_time":"158","satellite":"N","instrument":"VIIRS","confidence":"n","version":"2.0NRT","bright_ti5":"290.26","frp":"3.03","daynight":"N","commune":"Arengosse","code_insee":"40006","departement":"Landes","region":"Nouvelle-Aquitaine"}},{"type":"Feature","geometry":{"type":"Point","coordinates":[-0.71861,44.06099]},"properties":{"latitude":"44.06099","longitude":"-0.71861","bright_ti4":"309.45","scan":"0.45","track":"0.39","acq_date":"2026-08-15","acq_time":"158","satellite":"N","instrument":"VIIRS","confidence":"n","version":"2.0NRT","bright_ti5":"289.94","frp":"2.44","daynight":"N","commune":"Luglon","code_insee":"40165","departement":"Landes","region":"Nouvelle-Aquitaine"}},{"type":"Feature","geometry":{"type":"Point","coordinates":[-0.6899,44.06108]},"properties":{"latitude":"44.06108","longitude":"-0.6899","bright_ti4":"305.36","scan":"0.45","track":"0.39","acq_date":"2026-08-15","acq_time":"158","satellite":"N","instrument":"VIIRS","confidence":"n","version":"2.0NRT","bright_ti5":"288.76","frp":"1.76","daynight":"N","commune":"Garein","code_insee":"40105","departement":"Landes","region":"Nouvelle-Aquitaine"}},{"type":"Feature","geometry":{"type":"Point","coordinates":[-0.72419,44.06168]},"properties":{"latitude":"44.06168","longitude":"-0.72419","bright_ti4":"332.2","scan":"0.45","track":"0.39","acq_date":"2026-08-15","acq_time":"158","satellite":"N","instrument":"VIIRS","confidence":"n","version":"2.0NRT","bright_ti5":"296.38","frp":"2.44","daynight":"N","commune":"Luglon","code_insee":"40165","departement":"Landes","region":"Nouvelle-Aquitaine"}},{"type":"Feature","geometry":{"type":"Point","coordinates":[-0.69547,44.06177]},"properties":{"latitude":"44.06177","longitude":"-0.69547","bright_ti4":"299.63","scan":"0.45","track":"0.39","acq_date":"2026-08-15","acq_time":"158","satellite":"N","instrument":"VIIRS","confidence":"n","version":"2.0NRT","bright_ti5":"285.85","frp":"1.6","daynight":"N","commune":"Garein","code_insee":"40105","departement":"Landes","region":"Nouvelle-Aquitaine"}},{"type":"Feature","geometry":{"type":"Point","coordinates":[-0.72978,44.06237]},"properties":{"latitude":"44.06237","longitude":"-0.72978","bright_ti4":"321.5","scan":"0.45","track":"0.39","acq_date":"2026-08-15","acq_time":"158","satellite":"N","instrument":"VIIRS","confidence":"n","version":"2.0NRT","bright_ti5":"292.9","frp":"3.09","daynight":"N","commune":"Luglon","code_insee":"40165","departement":"Landes","region":"Nouvelle-Aquitaine"}},{"type":"Feature","geometry":{"type":"Point","coordinates":[-0.73536,44.06306]},"properties":{"latitude":"44.06306","longitude":"-0.73536","bright_ti4":"315.51","scan":"0.45","track":"0.39","acq_date":"2026-08-15","acq_time":"158","satellite":"N","instrument":"VIIRS","confidence":"n","version":"2.0NRT","bright_ti5":"291.13","frp":"3.09","daynight":"N","commune":"Luglon","code_insee":"40165","departement":"Landes","region":"Nouvelle-Aquitaine"}},{"type":"Feature","geometry":{"type":"Point","coordinates":[-0.70661,44.06315]},"properties":{"latitude":"44.06315","longitude":"-0.70661","bright_ti4":"307","scan":"0.45","track":"0.39","acq_date":"2026-08-15","acq_time":"158","satellite":"N","instrument":"VIIRS","confidence":"n","version":"2.0NRT","bright_ti5":"289.7","frp":"1.38","daynight":"N","commune":"Luglon","code_insee":"40165","departement":"Landes","region":"Nouvelle-Aquitaine"}},{"type":"Feature","geometry":{"type":"Point","coordinates":[-0.71219,44.06385]},"properties":{"latitude":"44.06385","longitude":"-0.71219","bright_ti4":"311.94","scan":"0.45","track":"0.39","acq_date":"2026-08-15","acq_time":"158","satellite":"N","instrument":"VIIRS","confidence":"n","version":"2.0NRT","bright_ti5":"291.04","frp":"1.38","daynight":"N","commune":"Luglon","code_insee":"40165","departement":"Landes","region":"Nouvelle-Aquitaine"}},{"type":"Feature","geometry":{"type":"Point","coordinates":[-0.71777,44.06454]},"properties":{"latitude":"44.06454","longitude":"-0.71777","bright_ti4":"310.1","scan":"0.45","track":"0.39","acq_date":"2026-08-15","acq_time":"158","satellite":"N","instrument":"VIIRS","confidence":"n","version":"2.0NRT","bright_ti5":"288.5","frp":"1.96","daynight":"N","commune":"Luglon","code_insee":"40165","departement":"Landes","region":"Nouvelle-Aquitaine"}},{"type":"Feature","geometry":{"type":"Point","coordinates":[-0.72335,44.06523]},"properties":{"latitude":"44.06523","longitude":"-0.72335","bright_ti4":"304.01","scan":"0.45","track":"0.39","acq_date":"2026-08-15","acq_time":"158","satellite":"N","instrument":"VIIRS","confidence":"n","version":"2.0NRT","bright_ti5":"287.72","frp":"1.96","daynight":"N","commune":"Luglon","code_insee":"40165","departement":"Landes","region":"Nouvelle-Aquitaine"}},{"type":"Feature","geometry":{"type":"Point","coordinates":[-0.71135,44.06739]},"properties":{"latitude":"44.06739","longitude":"-0.71135","bright_ti4":"304.56","scan":"0.45","track":"0.39","acq_date":"2026-08-15","acq_time":"158","satellite":"N","instrument":"VIIRS","confidence":"n","version":"2.0NRT","bright_ti5":"285.03","frp":"1.38","daynight":"N","commune":"Luglon","code_insee":"40165","departement":"Landes","region":"Nouvelle-Aquitaine"}},{"type":"Feature","geometry":{"type":"Point","coordinates":[-0.73285,44.07371]},"properties":{"latitude":"44.07371","longitude":"-0.73285","bright_ti4":"301.47","scan":"0.45","track":"0.39","acq_date":"2026-08-15","acq_time":"158","satellite":"N","instrument":"VIIRS","confidence":"n","version":"2.0NRT","bright_ti5":"287.37","frp":"1.6","daynight":"N","commune":"Luglon","code_insee":"40165","departement":"Landes","region":"Nouvelle-Aquitaine"}},{"type":"Feature","geometry":{"type":"Point","coordinates":[4.6955,44.08981]},"properties":{"latitude":"44.08981","longitude":"4.6955","bright_ti4":"304.7","scan":"0.39","track":"0.36","acq_date":"2026-08-15","acq_time":"158","satellite":"N","instrument":"VIIRS","confidence":"n","version":"2.0NRT","bright_ti5":"293.5","frp":"0.61","daynight":"N","commune":"Laudun-l'Ardoise","code_insee":"30141","departement":"Gard","region":"Occitanie"}},{"type":"Feature","geometry":{"type":"Point","coordinates":[4.89286,43.43968]},"properties":{"latitude":"43.43968","longitude":"4.89286","bright_ti4":"303.79","scan":"0.63","track":"0.72","acq_date":"2026-08-15","acq_time":"35","satellite":"N20","instrument":"VIIRS","confidence":"n","version":"2.0NRT","bright_ti5":"290.51","frp":"1.88","daynight":"N","commune":"Fos-sur-Mer","code_insee":"13039","departement":"Bouches-du-Rhône","region":"Provence-Alpes-Côte d'Azur"}},{"type":"Feature","geometry":{"type":"Point","coordinates":[4.88481,43.43975]},"properties":{"latitude":"43.43975","longitude":"4.88481","bright_ti4":"306.43","scan":"0.63","track":"0.72","acq_date":"2026-08-15","acq_time":"35","satellite":"N20","instrument":"VIIRS","confidence":"n","version":"2.0NRT","bright_ti5":"290.66","frp":"1.88","daynight":"N","commune":"Fos-sur-Mer","code_insee":"13039","departement":"Bouches-du-Rhône","region":"Provence-Alpes-Côte d'Azur"}},{"type":"Feature","geometry":{"type":"Point","coordinates":[2.26872,51.02695]},"properties":{"latitude":"51.02695","longitude":"2.26872","bright_ti4":"317.88","scan":"0.4","track":"0.37","acq_date":"2026-08-15","acq_time":"213","satellite":"N20","instrument":"VIIRS","confidence":"n","version":"2.0NRT","bright_ti5":"276.39","frp":"0.91","daynight":"N","commune":"Grande-Synthe","code_insee":"59271","departement":"Nord","region":"Hauts-de-France"}},{"type":"Feature","geometry":{"type":"Point","coordinates":[2.29001,51.03374]},"properties":{"latitude":"51.03374","longitude":"2.29001","bright_ti4":"312.76","scan":"0.4","track":"0.37","acq_date":"2026-08-15","acq_time":"213","satellite":"N20","instrument":"VIIRS","confidence":"n","version":"2.0NRT","bright_ti5":"279.81","frp":"1.48","daynight":"N","commune":"Grande-Synthe","code_insee":"59271","departement":"Nord","region":"Hauts-de-France"}},{"type":"Feature","geometry":{"type":"Point","coordinates":[2.28593,51.03805]},"properties":{"latitude":"51.03805","longitude":"2.28593","bright_ti4":"299.42","scan":"0.4","track":"0.37","acq_date":"2026-08-15","acq_time":"213","satellite":"N20","instrument":"VIIRS","confidence":"n","version":"2.0NRT","bright_ti5":"278.49","frp":"1.73","daynight":"N","commune":"Grande-Synthe","code_insee":"59271","departement":"Nord","region":"Hauts-de-France"}},{"type":"Feature","geometry":{"type":"Point","coordinates":[2.29862,51.0393]},"properties":{"latitude":"51.0393","longitude":"2.29862","bright_ti4":"295.77","scan":"0.4","track":"0.37","acq_date":"2026-08-15","acq_time":"213","satellite":"N20","instrument":"VIIRS","confidence":"n","version":"2.0NRT","bright_ti5":"275.13","frp":"0.46","daynight":"N","commune":"Grande-Synthe","code_insee":"59271","departement":"Nord","region":"Hauts-de-France"}},{"type":"Feature","geometry":{"type":"Point","coordinates":[2.29303,51.04032]},"properties":{"latitude":"51.04032","longitude":"2.29303","bright_ti4":"297.79","scan":"0.4","track":"0.37","acq_date":"2026-08-15","acq_time":"213","satellite":"N20","instrument":"VIIRS","confidence":"n","version":"2.0NRT","bright_ti5":"278.67","frp":"0.46","daynight":"N","commune":"Grande-Synthe","code_insee":"59271","departement":"Nord","region":"Hauts-de-France"}},{"type":"Feature","geometry":{"type":"Point","coordinates":[2.30013,51.04258]},"properties":{"latitude":"51.04258","longitude":"2.30013","bright_ti4":"300.02","scan":"0.4","track":"0.37","acq_date":"2026-08-15","acq_time":"213","satellite":"N20","instrument":"VIIRS","confidence":"n","version":"2.0NRT","bright_ti5":"278.58","frp":"0.46","daynight":"N","commune":"Grande-Synthe","code_insee":"59271","departement":"Nord","region":"Hauts-de-France"}},{"type":"Feature","geometry":{"type":"Point","coordinates":[2.29453,51.0436]},"properties":{"latitude":"51.0436","longitude":"2.29453","bright_ti4":"298.82","scan":"0.4","track":"0.37","acq_date":"2026-08-15","acq_time":"213","satellite":"N20","instrument":"VIIRS","confidence":"n","version":"2.0NRT","bright_ti5":"279.59","frp":"0.46","daynight":"N","commune":"Grande-Synthe","code_insee":"59271","departement":"Nord","region":"Hauts-de-France"}},{"type":"Feature","geometry":{"type":"Point","coordinates":[4.89617,43.43449]},"properties":{"latitude":"43.43449","longitude":"4.89617","bright_ti4":"310.34","scan":"0.45","track":"0.47","acq_date":"2026-08-15","acq_time":"215","satellite":"N20","instrument":"VIIRS","confidence":"n","version":"2.0NRT","bright_ti5":"293.07","frp":"2.89","daynight":"N","commune":"Fos-sur-Mer","code_insee":"13039","departement":"Bouches-du-Rhône","region":"Provence-Alpes-Côte d'Azur"}},{"type":"Feature","geometry":{"type":"Point","coordinates":[4.89269,43.43985]},"properties":{"latitude":"43.43985","longitude":"4.89269","bright_ti4":"317.18","scan":"0.45","track":"0.47","acq_date":"2026-08-15","acq_time":"215","satellite":"N20","instrument":"VIIRS","confidence":"n","version":"2.0NRT","bright_ti5":"294.26","frp":"2.51","daynight":"N","commune":"Fos-sur-Mer","code_insee":"13039","departement":"Bouches-du-Rhône","region":"Provence-Alpes-Côte d'Azur"}},{"type":"Feature","geometry":{"type":"Point","coordinates":[4.89635,43.44806]},"properties":{"latitude":"43.44806","longitude":"4.89635","bright_ti4":"349.82","scan":"0.45","track":"0.47","acq_date":"2026-08-15","acq_time":"215","satellite":"N20","instrument":"VIIRS","confidence":"n","version":"2.0NRT","bright_ti5":"294.21","frp":"11.27","daynight":"N","commune":"Fos-sur-Mer","code_insee":"13039","departement":"Bouches-du-Rhône","region":"Provence-Alpes-Côte d'Azur"}},{"type":"Feature","geometry":{"type":"Point","coordinates":[-0.70927,44.04673]},"properties":{"latitude":"44.04673","longitude":"-0.70927","bright_ti4":"324.29","scan":"0.41","track":"0.37","acq_date":"2026-08-15","acq_time":"215","satellite":"N20","instrument":"VIIRS","confidence":"n","version":"2.0NRT","bright_ti5":"293.39","frp":"3.45","daynight":"N","commune":"Luglon","code_insee":"40165","departement":"Landes","region":"Nouvelle-Aquitaine"}},{"type":"Feature","geometry":{"type":"Point","coordinates":[-0.71426,44.04763]},"properties":{"latitude":"44.04763","longitude":"-0.71426","bright_ti4":"316.47","scan":"0.41","track":"0.37","acq_date":"2026-08-15","acq_time":"215","satellite":"N20","instrument":"VIIRS","confidence":"n","version":"2.0NRT","bright_ti5":"291.85","frp":"1.98","daynight":"N","commune":"Luglon","code_insee":"40165","departement":"Landes","region":"Nouvelle-Aquitaine"}},{"type":"Feature","geometry":{"type":"Point","coordinates":[-0.67693,44.04797]},"properties":{"latitude":"44.04797","longitude":"-0.67693","bright_ti4":"298.7","scan":"0.41","track":"0.37","acq_date":"2026-08-15","acq_time":"215","satellite":"N20","instrument":"VIIRS","confidence":"n","version":"2.0NRT","bright_ti5":"287.06","frp":"0.8","daynight":"N","commune":"Garein","code_insee":"40105","departement":"Landes","region":"Nouvelle-Aquitaine"}},{"type":"Feature","geometry":{"type":"Point","coordinates":[-0.71925,44.04853]},"properties":{"latitude":"44.04853","longitude":"-0.71925","bright_ti4":"316.65","scan":"0.41","track":"0.37","acq_date":"2026-08-15","acq_time":"215","satellite":"N20","instrument":"VIIRS","confidence":"n","version":"2.0NRT","bright_ti5":"292.12","frp":"1.98","daynight":"N","commune":"Luglon","code_insee":"40165","departement":"Landes","region":"Nouvelle-Aquitaine"}},{"type":"Feature","geometry":{"type":"Point","coordinates":[-0.68194,44.04888]},"properties":{"latitude":"44.04888","longitude":"-0.68194","bright_ti4":"300.91","scan":"0.41","track":"0.37","acq_date":"2026-08-15","acq_time":"215","satellite":"N20","instrument":"VIIRS","confidence":"n","version":"2.0NRT","bright_ti5":"287.94","frp":"3.72","daynight":"N","commune":"Garein","code_insee":"40105","departement":"Landes","region":"Nouvelle-Aquitaine"}},{"type":"Feature","geometry":{"type":"Point","coordinates":[-0.70311,44.04916]},"properties":{"latitude":"44.04916","longitude":"-0.70311","bright_ti4":"326.55","scan":"0.41","track":"0.37","acq_date":"2026-08-15","acq_time":"215","satellite":"N20","instrument":"VIIRS","confidence":"n","version":"2.0NRT","bright_ti5":"295.03","frp":"2.8","daynight":"N","commune":"Garein","code_insee":"40105","departement":"Landes","region":"Nouvelle-Aquitaine"}},{"type":"Feature","geometry":{"type":"Point","coordinates":[-0.68695,44.04979]},"properties":{"latitude":"44.04979","longitude":"-0.68695","bright_ti4":"338.52","scan":"0.41","track":"0.37","acq_date":"2026-08-15","acq_time":"215","satellite":"N20","instrument":"VIIRS","confidence":"n","version":"2.0NRT","bright_ti5":"295.36","frp":"3.72","daynight":"N","commune":"Garein","code_insee":"40105","departement":"Landes","region":"Nouvelle-Aquitaine"}},{"type":"Feature","geometry":{"type":"Point","coordinates":[-0.70811,44.05006]},"properties":{"latitude":"44.05006","longitude":"-0.70811","bright_ti4":"335.95","scan":"0.41","track":"0.37","acq_date":"2026-08-15","acq_time":"215","satellite":"N20","instrument":"VIIRS","confidence":"n","version":"2.0NRT","bright_ti5":"297.13","frp":"2.8","daynight":"N","commune":"Luglon","code_insee":"40165","departement":"Landes","region":"Nouvelle-Aquitaine"}},{"type":"Feature","geometry":{"type":"Point","coordinates":[-0.69196,44.05069]},"properties":{"latitude":"44.05069","longitude":"-0.69196","bright_ti4":"338.96","scan":"0.41","track":"0.37","acq_date":"2026-08-15","acq_time":"215","satellite":"N20","instrument":"VIIRS","confidence":"n","version":"2.0NRT","bright_ti5":"294.3","frp":"5.45","daynight":"N","commune":"Garein","code_insee":"40105","departement":"Landes","region":"Nouvelle-Aquitaine"}},{"type":"Feature","geometry":{"type":"Point","coordinates":[-0.71309,44.05096]},"properties":{"latitude":"44.05096","longitude":"-0.71309","bright_ti4":"317.53","scan":"0.41","track":"0.37","acq_date":"2026-08-15","acq_time":"215","satellite":"N20","instrument":"VIIRS","confidence":"n","version":"2.0NRT","bright_ti5":"292.46","frp":"1.55","daynight":"N","commune":"Luglon","code_insee":"40165","departement":"Landes","region":"Nouvelle-Aquitaine"}},{"type":"Feature","geometry":{"type":"Point","coordinates":[-0.69696,44.05159]},"properties":{"latitude":"44.05159","longitude":"-0.69696","bright_ti4":"331.84","scan":"0.41","track":"0.37","acq_date":"2026-08-15","acq_time":"215","satellite":"N20","instrument":"VIIRS","confidence":"n","version":"2.0NRT","bright_ti5":"294.98","frp":"5.45","daynight":"N","commune":"Garein","code_insee":"40105","departement":"Landes","region":"Nouvelle-Aquitaine"}},{"type":"Feature","geometry":{"type":"Point","coordinates":[-0.71808,44.05186]},"properties":{"latitude":"44.05186","longitude":"-0.71808","bright_ti4":"313.45","scan":"0.41","track":"0.37","acq_date":"2026-08-15","acq_time":"215","satellite":"N20","instrument":"VIIRS","confidence":"n","version":"2.0NRT","bright_ti5":"292.9","frp":"1.55","daynight":"N","commune":"Luglon","code_insee":"40165","departement":"Landes","region":"Nouvelle-Aquitaine"}},{"type":"Feature","geometry":{"type":"Point","coordinates":[-0.70195,44.05249]},"properties":{"latitude":"44.05249","longitude":"-0.70195","bright_ti4":"306.9","scan":"0.41","track":"0.37","acq_date":"2026-08-15","acq_time":"215","satellite":"N20","instrument":"VIIRS","confidence":"n","version":"2.0NRT","bright_ti5":"291.68","frp":"2.8","daynight":"N","commune":"Garein","code_insee":"40105","departement":"Landes","region":"Nouvelle-Aquitaine"}},{"type":"Feature","geometry":{"type":"Point","coordinates":[-0.72307,44.05276]},"properties":{"latitude":"44.05276","longitude":"-0.72307","bright_ti4":"301.35","scan":"0.41","track":"0.37","acq_date":"2026-08-15","acq_time":"215","satellite":"N20","instrument":"VIIRS","confidence":"n","version":"2.0NRT","bright_ti5":"290.03","frp":"1.41","daynight":"N","commune":"Luglon","code_insee":"40165","departement":"Landes","region":"Nouvelle-Aquitaine"}},{"type":"Feature","geometry":{"type":"Point","coordinates":[-0.70695,44.05339]},"properties":{"latitude":"44.05339","longitude":"-0.70695","bright_ti4":"312.15","scan":"0.41","track":"0.37","acq_date":"2026-08-15","acq_time":"215","satellite":"N20","instrument":"VIIRS","confidence":"n","version":"2.0NRT","bright_ti5":"293.14","frp":"2.8","daynight":"N","commune":"Luglon","code_insee":"40165","departement":"Landes","region":"Nouvelle-Aquitaine"}},{"type":"Feature","geometry":{"type":"Point","coordinates":[-0.6908,44.05402]},"properties":{"latitude":"44.05402","longitude":"-0.6908","bright_ti4":"300.15","scan":"0.41","track":"0.37","acq_date":"2026-08-15","acq_time":"215","satellite":"N20","instrument":"VIIRS","confidence":"n","version":"2.0NRT","bright_ti5":"288.26","frp":"1.27","daynight":"N","commune":"Garein","code_insee":"40105","departement":"Landes","region":"Nouvelle-Aquitaine"}},{"type":"Feature","geometry":{"type":"Point","coordinates":[-0.71193,44.05429]},"properties":{"latitude":"44.05429","longitude":"-0.71193","bright_ti4":"309.91","scan":"0.41","track":"0.37","acq_date":"2026-08-15","acq_time":"215","satellite":"N20","instrument":"VIIRS","confidence":"n","version":"2.0NRT","bright_ti5":"292.37","frp":"1.55","daynight":"N","commune":"Luglon","code_insee":"40165","departement":"Landes","region":"Nouvelle-Aquitaine"}},{"type":"Feature","geometry":{"type":"Point","coordinates":[-0.73304,44.05456]},"properties":{"latitude":"44.05456","longitude":"-0.73304","bright_ti4":"311.7","scan":"0.41","track":"0.37","acq_date":"2026-08-15","acq_time":"215","satellite":"N20","instrument":"VIIRS","confidence":"n","version":"2.0NRT","bright_ti5":"292.23","frp":"4.01","daynight":"N","commune":"Luglon","code_insee":"40165","departement":"Landes","region":"Nouvelle-Aquitaine"}},{"type":"Feature","geometry":{"type":"Point","coordinates":[-0.6958,44.05492]},"properties":{"latitude":"44.05492","longitude":"-0.6958","bright_ti4":"311.07","scan":"0.41","track":"0.37","acq_date":"2026-08-15","acq_time":"215","satellite":"N20","instrument":"VIIRS","confidence":"n","version":"2.0NRT","bright_ti5":"292.26","frp":"1.27","daynight":"N","commune":"Garein","code_insee":"40105","departement":"Landes","region":"Nouvelle-Aquitaine"}},{"type":"Feature","geometry":{"type":"Point","coordinates":[-0.71692,44.05519]},"properties":{"latitude":"44.05519","longitude":"-0.71692","bright_ti4":"308.7","scan":"0.41","track":"0.37","acq_date":"2026-08-15","acq_time":"215","satellite":"N20","instrument":"VIIRS","confidence":"n","version":"2.0NRT","bright_ti5":"291.97","frp":"1.55","daynight":"N","commune":"Luglon","code_insee":"40165","departement":"Landes","region":"Nouvelle-Aquitaine"}},{"type":"Feature","geometry":{"type":"Point","coordinates":[-0.73803,44.05545]},"properties":{"latitude":"44.05545","longitude":"-0.73803","bright_ti4":"340.99","scan":"0.41","track":"0.37","acq_date":"2026-08-15","acq_time":"215","satellite":"N20","instrument":"VIIRS","confidence":"n","version":"2.0NRT","bright_ti5":"296.86","frp":"4.01","daynight":"N","commune":"Luglon","code_insee":"40165","departement":"Landes","region":"Nouvelle-Aquitaine"}},{"type":"Feature","geometry":{"type":"Point","coordinates":[-0.70079,44.05582]},"properties":{"latitude":"44.05582","longitude":"-0.70079","bright_ti4":"304.81","scan":"0.41","track":"0.37","acq_date":"2026-08-15","acq_time":"215","satellite":"N20","instrument":"VIIRS","confidence":"n","version":"2.0NRT","bright_ti5":"291.69","frp":"1.6","daynight":"N","commune":"Garein","code_insee":"40105","departement":"Landes","region":"Nouvelle-Aquitaine"}},{"type":"Feature","geometry":{"type":"Point","coordinates":[-0.74301,44.05635]},"properties":{"latitude":"44.05635","longitude":"-0.74301","bright_ti4":"328.56","scan":"0.41","track":"0.37","acq_date":"2026-08-15","acq_time":"215","satellite":"N20","instrument":"VIIRS","confidence":"n","version":"2.0NRT","bright_ti5":"293.59","frp":"2.8","daynight":"N","commune":"Arengosse","code_insee":"40006","departement":"Landes","region":"Nouvelle-Aquitaine"}},{"type":"Feature","geometry":{"type":"Point","coordinates":[-0.70579,44.05672]},"properties":{"latitude":"44.05672","longitude":"-0.70579","bright_ti4":"308.49","scan":"0.41","track":"0.37","acq_date":"2026-08-15","acq_time":"215","satellite":"N20","instrument":"VIIRS","confidence":"n","version":"2.0NRT","bright_ti5":"292.82","frp":"1.6","daynight":"N","commune":"Luglon","code_insee":"40165","departement":"Landes","region":"Nouvelle-Aquitaine"}},{"type":"Feature","geometry":{"type":"Point","coordinates":[-0.74799,44.05725]},"properties":{"latitude":"44.05725","longitude":"-0.74799","bright_ti4":"319.66","scan":"0.41","track":"0.37","acq_date":"2026-08-15","acq_time":"215","satellite":"N20","instrument":"VIIRS","confidence":"n","version":"2.0NRT","bright_ti5":"291.39","frp":"2.8","daynight":"N","commune":"Arengosse","code_insee":"40006","departement":"Landes","region":"Nouvelle-Aquitaine"}},{"type":"Feature","geometry":{"type":"Point","coordinates":[-0.71077,44.05762]},"properties":{"latitude":"44.05762","longitude":"-0.71077","bright_ti4":"306.73","scan":"0.41","track":"0.37","acq_date":"2026-08-15","acq_time":"215","satellite":"N20","instrument":"VIIRS","confidence":"n","version":"2.0NRT","bright_ti5":"292.49","frp":"1.35","daynight":"N","commune":"Luglon","code_insee":"40165","departement":"Landes","region":"Nouvelle-Aquitaine"}},{"type":"Feature","geometry":{"type":"Point","coordinates":[-0.73188,44.05788]},"properties":{"latitude":"44.05788","longitude":"-0.73188","bright_ti4":"319.22","scan":"0.41","track":"0.37","acq_date":"2026-08-15","acq_time":"215","satellite":"N20","instrument":"VIIRS","confidence":"n","version":"2.0NRT","bright_ti5":"294.11","frp":"4.01","daynight":"N","commune":"Luglon","code_insee":"40165","departement":"Landes","region":"Nouvelle-Aquitaine"}},{"type":"Feature","geometry":{"type":"Point","coordinates":[-0.71576,44.05852]},"properties":{"latitude":"44.05852","longitude":"-0.71576","bright_ti4":"302.83","scan":"0.41","track":"0.37","acq_date":"2026-08-15","acq_time":"215","satellite":"N20","instrument":"VIIRS","confidence":"n","version":"2.0NRT","bright_ti5":"290.76","frp":"1.35","daynight":"N","commune":"Luglon","code_insee":"40165","departement":"Landes","region":"Nouvelle-Aquitaine"}},{"type":"Feature","geometry":{"type":"Point","coordinates":[-0.73687,44.05878]},"properties":{"latitude":"44.05878","longitude":"-0.73687","bright_ti4":"343.95","scan":"0.41","track":"0.37","acq_date":"2026-08-15","acq_time":"215","satellite":"N20","instrument":"VIIRS","confidence":"n","version":"2.0NRT","bright_ti5":"299.17","frp":"4.01","daynight":"N","commune":"Arengosse","code_insee":"40006","departement":"Landes","region":"Nouvelle-Aquitaine"}},{"type":"Feature","geometry":{"type":"Point","coordinates":[-0.74185,44.05968]},"properties":{"latitude":"44.05968","longitude":"-0.74185","bright_ti4":"332.24","scan":"0.41","track":"0.37","acq_date":"2026-08-15","acq_time":"215","satellite":"N20","instrument":"VIIRS","confidence":"n","version":"2.0NRT","bright_ti5":"295.74","frp":"2.8","daynight":"N","commune":"Arengosse","code_insee":"40006","departement":"Landes","region":"Nouvelle-Aquitaine"}},{"type":"Feature","geometry":{"type":"Point","coordinates":[-0.74683,44.06058]},"properties":{"latitude":"44.06058","longitude":"-0.74683","bright_ti4":"315.46","scan":"0.41","track":"0.37","acq_date":"2026-08-15","acq_time":"215","satellite":"N20","instrument":"VIIRS","confidence":"n","version":"2.0NRT","bright_ti5":"292.9","frp":"2.8","daynight":"N","commune":"Arengosse","code_insee":"40006","departement":"Landes","region":"Nouvelle-Aquitaine"}},{"type":"Feature","geometry":{"type":"Point","coordinates":[-0.7146,44.06186]},"properties":{"latitude":"44.06186","longitude":"-0.7146","bright_ti4":"311.94","scan":"0.41","track":"0.37","acq_date":"2026-08-15","acq_time":"215","satellite":"N20","instrument":"VIIRS","confidence":"n","version":"2.0NRT","bright_ti5":"292.25","frp":"1.35","daynight":"N","commune":"Luglon","code_insee":"40165","departement":"Landes","region":"Nouvelle-Aquitaine"}},{"type":"Feature","geometry":{"type":"Point","coordinates":[-0.73571,44.06211]},"properties":{"latitude":"44.06211","longitude":"-0.73571","bright_ti4":"310.69","scan":"0.41","track":"0.37","acq_date":"2026-08-15","acq_time":"215","satellite":"N20","instrument":"VIIRS","confidence":"n","version":"2.0NRT","bright_ti5":"292.03","frp":"2.2","daynight":"N","commune":"Luglon","code_insee":"40165","departement":"Landes","region":"Nouvelle-Aquitaine"}},{"type":"Feature","geometry":{"type":"Point","coordinates":[-0.74069,44.06301]},"properties":{"latitude":"44.06301","longitude":"-0.74069","bright_ti4":"305.38","scan":"0.41","track":"0.37","acq_date":"2026-08-15","acq_time":"215","satellite":"N20","instrument":"VIIRS","confidence":"n","version":"2.0NRT","bright_ti5":"291.46","frp":"1.42","daynight":"N","commune":"Arengosse","code_insee":"40006","departement":"Landes","region":"Nouvelle-Aquitaine"}},{"type":"Feature","geometry":{"type":"Point","coordinates":[-0.70845,44.06429]},"properties":{"latitude":"44.06429","longitude":"-0.70845","bright_ti4":"307.28","scan":"0.41","track":"0.37","acq_date":"2026-08-15","acq_time":"215","satellite":"N20","instrument":"VIIRS","confidence":"n","version":"2.0NRT","bright_ti5":"291.36","frp":"2.41","daynight":"N","commune":"Luglon","code_insee":"40165","departement":"Landes","region":"Nouvelle-Aquitaine"}},{"type":"Feature","geometry":{"type":"Point","coordinates":[-0.71344,44.06519]},"properties":{"latitude":"44.06519","longitude":"-0.71344","bright_ti4":"313.56","scan":"0.41","track":"0.37","acq_date":"2026-08-15","acq_time":"215","satellite":"N20","instrument":"VIIRS","confidence":"n","version":"2.0NRT","bright_ti5":"291.59","frp":"2.41","daynight":"N","commune":"Luglon","code_insee":"40165","departement":"Landes","region":"Nouvelle-Aquitaine"}},{"type":"Feature","geometry":{"type":"Point","coordinates":[-0.71228,44.06852]},"properties":{"latitude":"44.06852","longitude":"-0.71228","bright_ti4":"335.58","scan":"0.41","track":"0.37","acq_date":"2026-08-15","acq_time":"215","satellite":"N20","instrument":"VIIRS","confidence":"n","version":"2.0NRT","bright_ti5":"291.72","frp":"2.41","daynight":"N","commune":"Luglon","code_insee":"40165","departement":"Landes","region":"Nouvelle-Aquitaine"}},{"type":"Feature","geometry":{"type":"Point","coordinates":[-0.73074,44.08657]},"properties":{"latitude":"44.08657","longitude":"-0.73074","bright_ti4":"302.44","scan":"0.41","track":"0.37","acq_date":"2026-08-15","acq_time":"215","satellite":"N20","instrument":"VIIRS","confidence":"n","version":"2.0NRT","bright_ti5":"290.76","frp":"1.06","daynight":"N","commune":"Luglon","code_insee":"40165","departement":"Landes","region":"Nouvelle-Aquitaine"}},{"type":"Feature","geometry":{"type":"Point","coordinates":[-0.73572,44.08748]},"properties":{"latitude":"44.08748","longitude":"-0.73572","bright_ti4":"304.73","scan":"0.41","track":"0.37","acq_date":"2026-08-15","acq_time":"215","satellite":"N20","instrument":"VIIRS","confidence":"n","version":"2.0NRT","bright_ti5":"291.69","frp":"1.18","daynight":"N","commune":"Luglon","code_insee":"40165","departement":"Landes","region":"Nouvelle-Aquitaine"}},{"type":"Feature","geometry":{"type":"Point","coordinates":[-0.7407,44.08839]},"properties":{"latitude":"44.08839","longitude":"-0.7407","bright_ti4":"304.55","scan":"0.41","track":"0.37","acq_date":"2026-08-15","acq_time":"215","satellite":"N20","instrument":"VIIRS","confidence":"n","version":"2.0NRT","bright_ti5":"291.7","frp":"1.18","daynight":"N","commune":"Luglon","code_insee":"40165","departement":"Landes","region":"Nouvelle-Aquitaine"}},{"type":"Feature","geometry":{"type":"Point","coordinates":[5.82169,45.91066]},"properties":{"latitude":"45.91066","longitude":"5.82169","bright_ti4":"305.11","scan":"0.43","track":"0.46","acq_date":"2026-08-15","acq_time":"215","satellite":"N20","instrument":"VIIRS","confidence":"n","version":"2.0NRT","bright_ti5":"291.21","frp":"0.92","daynight":"N","commune":"Anglefort","code_insee":"01010","departement":"Ain","region":"Auvergne-Rhône-Alpes"}},{"type":"Feature","geometry":{"type":"Point","coordinates":[2.16799,47.25221]},"properties":{"latitude":"47.25221","longitude":"2.16799","bright_ti4":"302.03","scan":"0.44","track":"0.39","acq_date":"2026-08-15","acq_time":"215","satellite":"N20","instrument":"VIIRS","confidence":"n","version":"2.0NRT","bright_ti5":"290.46","frp":"0.35","daynight":"N","commune":"Saint-Laurent","code_insee":"18219","departement":"Cher","region":"Centre-Val de Loire"}},{"type":"Feature","geometry":{"type":"Point","coordinates":[2.1751,47.25453]},"properties":{"latitude":"47.25453","longitude":"2.1751","bright_ti4":"313.56","scan":"0.44","track":"0.39","acq_date":"2026-08-15","acq_time":"215","satellite":"N20","instrument":"VIIRS","confidence":"n","version":"2.0NRT","bright_ti5":"291.1","frp":"1.17","daynight":"N","commune":"Saint-Laurent","code_insee":"18219","departement":"Cher","region":"Centre-Val de Loire"}},{"type":"Feature","geometry":{"type":"Point","coordinates":[2.16945,47.25564]},"properties":{"latitude":"47.25564","longitude":"2.16945","bright_ti4":"310.76","scan":"0.44","track":"0.39","acq_date":"2026-08-15","acq_time":"215","satellite":"N20","instrument":"VIIRS","confidence":"n","version":"2.0NRT","bright_ti5":"290.69","frp":"1.17","daynight":"N","commune":"Saint-Laurent","code_insee":"18219","departement":"Cher","region":"Centre-Val de Loire"}},{"type":"Feature","geometry":{"type":"Point","coordinates":[2.17654,47.25797]},"properties":{"latitude":"47.25797","longitude":"2.17654","bright_ti4":"309.52","scan":"0.44","track":"0.39","acq_date":"2026-08-15","acq_time":"215","satellite":"N20","instrument":"VIIRS","confidence":"n","version":"2.0NRT","bright_ti5":"291.2","frp":"1.17","daynight":"N","commune":"Saint-Laurent","code_insee":"18219","departement":"Cher","region":"Centre-Val de Loire"}},{"type":"Feature","geometry":{"type":"Point","coordinates":[4.56099,48.76897]},"properties":{"latitude":"48.76897","longitude":"4.56099","bright_ti4":"301.94","scan":"0.5","track":"0.41","acq_date":"2026-08-15","acq_time":"215","satellite":"N20","instrument":"VIIRS","confidence":"n","version":"2.0NRT","bright_ti5":"291","frp":"1.06","daynight":"N","commune":"Couvrot","code_insee":"51195","departement":"Marne","region":"Grand Est"}},{"type":"Feature","geometry":{"type":"Point","coordinates":[5.82116,45.91108]},"properties":{"latitude":"45.91108","longitude":"5.82116","bright_ti4":"303.97","scan":"0.46","track":"0.39","acq_date":"2026-08-15","acq_time":"120","satellite":"N21","instrument":"VIIRS","confidence":"n","version":"2.0NRT","bright_ti5":"292.77","frp":"1.17","daynight":"N","commune":"Anglefort","code_insee":"01010","departement":"Ain","region":"Auvergne-Rhône-Alpes"}},{"type":"Feature","geometry":{"type":"Point","coordinates":[2.17469,47.25397]},"properties":{"latitude":"47.25397","longitude":"2.17469","bright_ti4":"301.36","scan":"0.44","track":"0.46","acq_date":"2026-08-15","acq_time":"120","satellite":"N21","instrument":"VIIRS","confidence":"n","version":"2.0NRT","bright_ti5":"286.54","frp":"1.11","daynight":"N","commune":"Saint-Laurent","code_insee":"18219","departement":"Cher","region":"Centre-Val de Loire"}},{"type":"Feature","geometry":{"type":"Point","coordinates":[2.16874,47.25444]},"properties":{"latitude":"47.25444","longitude":"2.16874","bright_ti4":"301.07","scan":"0.44","track":"0.46","acq_date":"2026-08-15","acq_time":"120","satellite":"N21","instrument":"VIIRS","confidence":"n","version":"2.0NRT","bright_ti5":"285.75","frp":"0.9","daynight":"N","commune":"Saint-Laurent","code_insee":"18219","departement":"Cher","region":"Centre-Val de Loire"}},{"type":"Feature","geometry":{"type":"Point","coordinates":[4.17995,47.45544]},"properties":{"latitude":"47.45544","longitude":"4.17995","bright_ti4":"309.56","scan":"0.55","track":"0.43","acq_date":"2026-08-15","acq_time":"120","satellite":"N21","instrument":"VIIRS","confidence":"n","version":"2.0NRT","bright_ti5":"289.19","frp":"1.37","daynight":"N","commune":"Courcelles-Frémoy","code_insee":"21203","departement":"Côte-d'Or","region":"Bourgogne-Franche-Comté"}},{"type":"Feature","geometry":{"type":"Point","coordinates":[6.11566,48.60814]},"properties":{"latitude":"48.60814","longitude":"6.11566","bright_ti4":"304.07","scan":"0.48","track":"0.4","acq_date":"2026-08-15","acq_time":"120","satellite":"N21","instrument":"VIIRS","confidence":"n","version":"2.0NRT","bright_ti5":"292.24","frp":"1.05","daynight":"N","commune":"Neuves-Maisons","code_insee":"54397","departement":"Meurthe-et-Moselle","region":"Grand Est"}},{"type":"Feature","geometry":{"type":"Point","coordinates":[6.1092,48.60885]},"properties":{"latitude":"48.60885","longitude":"6.1092","bright_ti4":"309.24","scan":"0.48","track":"0.4","acq_date":"2026-08-15","acq_time":"120","satellite":"N21","instrument":"VIIRS","confidence":"n","version":"2.0NRT","bright_ti5":"292.57","frp":"1.68","daynight":"N","commune":"Neuves-Maisons","code_insee":"54397","departement":"Meurthe-et-Moselle","region":"Grand Est"}},{"type":"Feature","geometry":{"type":"Point","coordinates":[6.9688,48.68893]},"properties":{"latitude":"48.68893","longitude":"6.9688","bright_ti4":"300.28","scan":"0.45","track":"0.39","acq_date":"2026-08-15","acq_time":"120","satellite":"N21","instrument":"VIIRS","confidence":"n","version":"2.0NRT","bright_ti5":"290.28","frp":"0.51","daynight":"N","commune":"Héming","code_insee":"57314","departement":"Moselle","region":"Grand Est"}},{"type":"Feature","geometry":{"type":"Point","coordinates":[6.96419,48.69195]},"properties":{"latitude":"48.69195","longitude":"6.96419","bright_ti4":"305.59","scan":"0.45","track":"0.39","acq_date":"2026-08-15","acq_time":"120","satellite":"N21","instrument":"VIIRS","confidence":"n","version":"2.0NRT","bright_ti5":"290.96","frp":"1.47","daynight":"N","commune":"Héming","code_insee":"57314","departement":"Moselle","region":"Grand Est"}},{"type":"Feature","geometry":{"type":"Point","coordinates":[5.68279,48.71552]},"properties":{"latitude":"48.71552","longitude":"5.68279","bright_ti4":"301.04","scan":"0.5","track":"0.41","acq_date":"2026-08-15","acq_time":"120","satellite":"N21","instrument":"VIIRS","confidence":"n","version":"2.0NRT","bright_ti5":"289.64","frp":"0.64","daynight":"N","commune":"Sorcy-Saint-Martin","code_insee":"55496","departement":"Meuse","region":"Grand Est"}},{"type":"Feature","geometry":{"type":"Point","coordinates":[2.28335,51.03608]},"properties":{"latitude":"51.03608","longitude":"2.28335","bright_ti4":"306.07","scan":"0.48","track":"0.48","acq_date":"2026-08-15","acq_time":"120","satellite":"N21","instrument":"VIIRS","confidence":"n","version":"2.0NRT","bright_ti5":"276.86","frp":"1.84","daynight":"N","commune":"Grande-Synthe","code_insee":"59271","departement":"Nord","region":"Hauts-de-France"}},{"type":"Feature","geometry":{"type":"Point","coordinates":[4.83873,43.42295]},"properties":{"latitude":"43.42295","longitude":"4.83873","bright_ti4":"307.38","scan":"0.47","track":"0.39","acq_date":"2026-08-15","acq_time":"122","satellite":"N21","instrument":"VIIRS","confidence":"n","version":"2.0NRT","bright_ti5":"294.44","frp":"1.16","daynight":"N","commune":"Fos-sur-Mer","code_insee":"13039","departement":"Bouches-du-Rhône","region":"Provence-Alpes-Côte d'Azur"}},{"type":"Feature","geometry":{"type":"Point","coordinates":[4.89479,43.43214]},"properties":{"latitude":"43.43214","longitude":"4.89479","bright_ti4":"307.87","scan":"0.47","track":"0.39","acq_date":"2026-08-15","acq_time":"122","satellite":"N21","instrument":"VIIRS","confidence":"n","version":"2.0NRT","bright_ti5":"294.36","frp":"3.01","daynight":"N","commune":"Fos-sur-Mer","code_insee":"13039","departement":"Bouches-du-Rhône","region":"Provence-Alpes-Côte d'Azur"}},{"type":"Feature","geometry":{"type":"Point","coordinates":[4.89558,43.43573]},"properties":{"latitude":"43.43573","longitude":"4.89558","bright_ti4":"313.75","scan":"0.47","track":"0.39","acq_date":"2026-08-15","acq_time":"122","satellite":"N21","instrument":"VIIRS","confidence":"n","version":"2.0NRT","bright_ti5":"293.81","frp":"2.94","daynight":"N","commune":"Fos-sur-Mer","code_insee":"13039","departement":"Bouches-du-Rhône","region":"Provence-Alpes-Côte d'Azur"}},{"type":"Feature","geometry":{"type":"Point","coordinates":[4.89064,43.43999]},"properties":{"latitude":"43.43999","longitude":"4.89064","bright_ti4":"324.15","scan":"0.47","track":"0.39","acq_date":"2026-08-15","acq_time":"122","satellite":"N21","instrument":"VIIRS","confidence":"n","version":"2.0NRT","bright_ti5":"295.34","frp":"2.94","daynight":"N","commune":"Fos-sur-Mer","code_insee":"13039","departement":"Bouches-du-Rhône","region":"Provence-Alpes-Côte d'Azur"}},{"type":"Feature","geometry":{"type":"Point","coordinates":[4.87918,43.44133]},"properties":{"latitude":"43.44133","longitude":"4.87918","bright_ti4":"304.47","scan":"0.47","track":"0.39","acq_date":"2026-08-15","acq_time":"122","satellite":"N21","instrument":"VIIRS","confidence":"n","version":"2.0NRT","bright_ti5":"293.72","frp":"2.53","daynight":"N","commune":"Fos-sur-Mer","code_insee":"13039","departement":"Bouches-du-Rhône","region":"Provence-Alpes-Côte d'Azur"}},{"type":"Feature","geometry":{"type":"Point","coordinates":[4.89794,43.44654]},"properties":{"latitude":"43.44654","longitude":"4.89794","bright_ti4":"319.82","scan":"0.47","track":"0.39","acq_date":"2026-08-15","acq_time":"122","satellite":"N21","instrument":"VIIRS","confidence":"n","version":"2.0NRT","bright_ti5":"295.18","frp":"3.59","daynight":"N","commune":"Fos-sur-Mer","code_insee":"13039","departement":"Bouches-du-Rhône","region":"Provence-Alpes-Côte d'Azur"}},{"type":"Feature","geometry":{"type":"Point","coordinates":[5.20404,43.50768]},"properties":{"latitude":"43.50768","longitude":"5.20404","bright_ti4":"313.76","scan":"0.45","track":"0.39","acq_date":"2026-08-15","acq_time":"122","satellite":"N21","instrument":"VIIRS","confidence":"n","version":"2.0NRT","bright_ti5":"294.43","frp":"1.92","daynight":"N","commune":"Rognac","code_insee":"13081","departement":"Bouches-du-Rhône","region":"Provence-Alpes-Côte d'Azur"}},{"type":"Feature","geometry":{"type":"Point","coordinates":[7.37208,43.79427]},"properties":{"latitude":"43.79427","longitude":"7.37208","bright_ti4":"315.49","scan":"0.4","track":"0.37","acq_date":"2026-08-15","acq_time":"122","satellite":"N21","instrument":"VIIRS","confidence":"n","version":"2.0NRT","bright_ti5":"292.14","frp":"1.4","daynight":"N","commune":"Blausasc","code_insee":"06019","departement":"Alpes-Maritimes","region":"Provence-Alpes-Côte d'Azur"}},{"type":"Feature","geometry":{"type":"Point","coordinates":[-0.70463,44.04581]},"properties":{"latitude":"44.04581","longitude":"-0.70463","bright_ti4":"309.81","scan":"0.56","track":"0.52","acq_date":"2026-08-15","acq_time":"122","satellite":"N21","instrument":"VIIRS","confidence":"n","version":"2.0NRT","bright_ti5":"289.16","frp":"3.23","daynight":"N","commune":"Garein","code_insee":"40105","departement":"Landes","region":"Nouvelle-Aquitaine"}},{"type":"Feature","geometry":{"type":"Point","coordinates":[-0.7032,44.04625]},"properties":{"latitude":"44.04625","longitude":"-0.7032","bright_ti4":"306.48","scan":"0.56","track":"0.52","acq_date":"2026-08-15","acq_time":"122","satellite":"N21","instrument":"VIIRS","confidence":"n","version":"2.0NRT","bright_ti5":"288.74","frp":"2.74","daynight":"N","commune":"Garein","code_insee":"40105","departement":"Landes","region":"Nouvelle-Aquitaine"}},{"type":"Feature","geometry":{"type":"Point","coordinates":[-0.71169,44.04629]},"properties":{"latitude":"44.04629","longitude":"-0.71169","bright_ti4":"316.38","scan":"0.56","track":"0.52","acq_date":"2026-08-15","acq_time":"122","satellite":"N21","instrument":"VIIRS","confidence":"n","version":"2.0NRT","bright_ti5":"289.39","frp":"3.23","daynight":"N","commune":"Luglon","code_insee":"40165","departement":"Landes","region":"Nouvelle-Aquitaine"}},{"type":"Feature","geometry":{"type":"Point","coordinates":[-0.71026,44.04669]},"properties":{"latitude":"44.04669","longitude":"-0.71026","bright_ti4":"322.07","scan":"0.56","track":"0.52","acq_date":"2026-08-15","acq_time":"122","satellite":"N21","instrument":"VIIRS","confidence":"n","version":"2.0NRT","bright_ti5":"290.22","frp":"3.34","daynight":"N","commune":"Luglon","code_insee":"40165","departement":"Landes","region":"Nouvelle-Aquitaine"}},{"type":"Feature","geometry":{"type":"Point","coordinates":[-0.71875,44.04678]},"properties":{"latitude":"44.04678","longitude":"-0.71875","bright_ti4":"299.93","scan":"0.56","track":"0.52","acq_date":"2026-08-15","acq_time":"122","satellite":"N21","instrument":"VIIRS","confidence":"n","version":"2.0NRT","bright_ti5":"286.82","frp":"1.57","daynight":"N","commune":"Luglon","code_insee":"40165","departement":"Landes","region":"Nouvelle-Aquitaine"}},{"type":"Feature","geometry":{"type":"Point","coordinates":[-0.71733,44.04714]},"properties":{"latitude":"44.04714","longitude":"-0.71733","bright_ti4":"305.21","scan":"0.56","track":"0.52","acq_date":"2026-08-15","acq_time":"122","satellite":"N21","instrument":"VIIRS","confidence":"n","version":"2.0NRT","bright_ti5":"287.23","frp":"3.34","daynight":"N","commune":"Luglon","code_insee":"40165","departement":"Landes","region":"Nouvelle-Aquitaine"}},{"type":"Feature","geometry":{"type":"Point","coordinates":[-0.68155,44.04965]},"properties":{"latitude":"44.04965","longitude":"-0.68155","bright_ti4":"297.09","scan":"0.56","track":"0.52","acq_date":"2026-08-15","acq_time":"122","satellite":"N21","instrument":"VIIRS","confidence":"n","version":"2.0NRT","bright_ti5":"281.16","frp":"2.23","daynight":"N","commune":"Garein","code_insee":"40105","departement":"Landes","region":"Nouvelle-Aquitaine"}},{"type":"Feature","geometry":{"type":"Point","coordinates":[-0.68854,44.0501]},"properties":{"latitude":"44.0501","longitude":"-0.68854","bright_ti4":"317.53","scan":"0.56","track":"0.52","acq_date":"2026-08-15","acq_time":"122","satellite":"N21","instrument":"VIIRS","confidence":"n","version":"2.0NRT","bright_ti5":"282.33","frp":"2.23","daynight":"N","commune":"Garein","code_insee":"40105","departement":"Landes","region":"Nouvelle-Aquitaine"}},{"type":"Feature","geometry":{"type":"Point","coordinates":[-0.69557,44.05055]},"properties":{"latitude":"44.05055","longitude":"-0.69557","bright_ti4":"318.12","scan":"0.56","track":"0.52","acq_date":"2026-08-15","acq_time":"122","satellite":"N21","instrument":"VIIRS","confidence":"n","version":"2.0NRT","bright_ti5":"288.82","frp":"4","daynight":"N","commune":"Garein","code_insee":"40105","departement":"Landes","region":"Nouvelle-Aquitaine"}},{"type":"Feature","geometry":{"type":"Point","coordinates":[-0.70262,44.051]},"properties":{"latitude":"44.051","longitude":"-0.70262","bright_ti4":"304.84","scan":"0.56","track":"0.52","acq_date":"2026-08-15","acq_time":"122","satellite":"N21","instrument":"VIIRS","confidence":"n","version":"2.0NRT","bright_ti5":"287.57","frp":"4","daynight":"N","commune":"Garein","code_insee":"40105","departement":"Landes","region":"Nouvelle-Aquitaine"}},{"type":"Feature","geometry":{"type":"Point","coordinates":[-0.7097,44.05145]},"properties":{"latitude":"44.05145","longitude":"-0.7097","bright_ti4":"312.29","scan":"0.56","track":"0.52","acq_date":"2026-08-15","acq_time":"122","satellite":"N21","instrument":"VIIRS","confidence":"n","version":"2.0NRT","bright_ti5":"288.4","frp":"2.84","daynight":"N","commune":"Luglon","code_insee":"40165","departement":"Landes","region":"Nouvelle-Aquitaine"}},{"type":"Feature","geometry":{"type":"Point","coordinates":[-0.71679,44.0519]},"properties":{"latitude":"44.0519","longitude":"-0.71679","bright_ti4":"311.28","scan":"0.56","track":"0.52","acq_date":"2026-08-15","acq_time":"122","satellite":"N21","instrument":"VIIRS","confidence":"n","version":"2.0NRT","bright_ti5":"287.9","frp":"2.84","daynight":"N","commune":"Luglon","code_insee":"40165","departement":"Landes","region":"Nouvelle-Aquitaine"}},{"type":"Feature","geometry":{"type":"Point","coordinates":[-0.73807,44.05325]},"properties":{"latitude":"44.05325","longitude":"-0.73807","bright_ti4":"307.39","scan":"0.57","track":"0.52","acq_date":"2026-08-15","acq_time":"122","satellite":"N21","instrument":"VIIRS","confidence":"n","version":"2.0NRT","bright_ti5":"283.3","frp":"4.15","daynight":"N","commune":"Luglon","code_insee":"40165","departement":"Landes","region":"Nouvelle-Aquitaine"}},{"type":"Feature","geometry":{"type":"Point","coordinates":[-0.67399,44.05396]},"properties":{"latitude":"44.05396","longitude":"-0.67399","bright_ti4":"306.47","scan":"0.56","track":"0.52","acq_date":"2026-08-15","acq_time":"122","satellite":"N21","instrument":"VIIRS","confidence":"n","version":"2.0NRT","bright_ti5":"283.7","frp":"2.02","daynight":"N","commune":"Garein","code_insee":"40105","departement":"Landes","region":"Nouvelle-Aquitaine"}},{"type":"Feature","geometry":{"type":"Point","coordinates":[-0.68094,44.0544]},"properties":{"latitude":"44.0544","longitude":"-0.68094","bright_ti4":"307.71","scan":"0.56","track":"0.52","acq_date":"2026-08-15","acq_time":"122","satellite":"N21","instrument":"VIIRS","confidence":"n","version":"2.0NRT","bright_ti5":"286.97","frp":"2.23","daynight":"N","commune":"Garein","code_insee":"40105","departement":"Landes","region":"Nouvelle-Aquitaine"}},{"type":"Feature","geometry":{"type":"Point","coordinates":[-0.68793,44.05485]},"properties":{"latitude":"44.05485","longitude":"-0.68793","bright_ti4":"306.33","scan":"0.56","track":"0.52","acq_date":"2026-08-15","acq_time":"122","satellite":"N21","instrument":"VIIRS","confidence":"n","version":"2.0NRT","bright_ti5":"283.7","frp":"2.23","daynight":"N","commune":"Garein","code_insee":"40105","departement":"Landes","region":"Nouvelle-Aquitaine"}},{"type":"Feature","geometry":{"type":"Point","coordinates":[-0.69497,44.0553]},"properties":{"latitude":"44.0553","longitude":"-0.69497","bright_ti4":"313.34","scan":"0.56","track":"0.52","acq_date":"2026-08-15","acq_time":"122","satellite":"N21","instrument":"VIIRS","confidence":"n","version":"2.0NRT","bright_ti5":"288.65","frp":"4","daynight":"N","commune":"Garein","code_insee":"40105","departement":"Landes","region":"Nouvelle-Aquitaine"}},{"type":"Feature","geometry":{"type":"Point","coordinates":[-0.71623,44.05666]},"properties":{"latitude":"44.05666","longitude":"-0.71623","bright_ti4":"300.01","scan":"0.56","track":"0.52","acq_date":"2026-08-15","acq_time":"122","satellite":"N21","instrument":"VIIRS","confidence":"n","version":"2.0NRT","bright_ti5":"283.75","frp":"2.84","daynight":"N","commune":"Luglon","code_insee":"40165","departement":"Landes","region":"Nouvelle-Aquitaine"}},{"type":"Feature","geometry":{"type":"Point","coordinates":[-0.72332,44.05711]},"properties":{"latitude":"44.05711","longitude":"-0.72332","bright_ti4":"302.91","scan":"0.57","track":"0.52","acq_date":"2026-08-15","acq_time":"122","satellite":"N21","instrument":"VIIRS","confidence":"n","version":"2.0NRT","bright_ti5":"281.7","frp":"2.47","daynight":"N","commune":"Luglon","code_insee":"40165","departement":"Landes","region":"Nouvelle-Aquitaine"}},{"type":"Feature","geometry":{"type":"Point","coordinates":[-0.73042,44.05756]},"properties":{"latitude":"44.05756","longitude":"-0.73042","bright_ti4":"297.71","scan":"0.57","track":"0.52","acq_date":"2026-08-15","acq_time":"122","satellite":"N21","instrument":"VIIRS","confidence":"n","version":"2.0NRT","bright_ti5":"281.75","frp":"2.47","daynight":"N","commune":"Luglon","code_insee":"40165","departement":"Landes","region":"Nouvelle-Aquitaine"}},{"type":"Feature","geometry":{"type":"Point","coordinates":[-0.73751,44.05801]},"properties":{"latitude":"44.05801","longitude":"-0.73751","bright_ti4":"322.06","scan":"0.57","track":"0.52","acq_date":"2026-08-15","acq_time":"122","satellite":"N21","instrument":"VIIRS","confidence":"n","version":"2.0NRT","bright_ti5":"284.93","frp":"4.15","daynight":"N","commune":"Arengosse","code_insee":"40006","departement":"Landes","region":"Nouvelle-Aquitaine"}},{"type":"Feature","geometry":{"type":"Point","coordinates":[-0.74462,44.05846]},"properties":{"latitude":"44.05846","longitude":"-0.74462","bright_ti4":"316.41","scan":"0.57","track":"0.52","acq_date":"2026-08-15","acq_time":"122","satellite":"N21","instrument":"VIIRS","confidence":"n","version":"2.0NRT","bright_ti5":"285.95","frp":"4.15","daynight":"N","commune":"Arengosse","code_insee":"40006","departement":"Landes","region":"Nouvelle-Aquitaine"}},{"type":"Feature","geometry":{"type":"Point","coordinates":[-0.68733,44.0596]},"properties":{"latitude":"44.0596","longitude":"-0.68733","bright_ti4":"318.81","scan":"0.56","track":"0.52","acq_date":"2026-08-15","acq_time":"122","satellite":"N21","instrument":"VIIRS","confidence":"n","version":"2.0NRT","bright_ti5":"287.25","frp":"4.66","daynight":"N","commune":"Garein","code_insee":"40105","departement":"Landes","region":"Nouvelle-Aquitaine"}},{"type":"Feature","geometry":{"type":"Point","coordinates":[-0.69439,44.06005]},"properties":{"latitude":"44.06005","longitude":"-0.69439","bright_ti4":"307.3","scan":"0.56","track":"0.52","acq_date":"2026-08-15","acq_time":"122","satellite":"N21","instrument":"VIIRS","confidence":"n","version":"2.0NRT","bright_ti5":"287.81","frp":"2.11","daynight":"N","commune":"Garein","code_insee":"40105","departement":"Landes","region":"Nouvelle-Aquitaine"}},{"type":"Feature","geometry":{"type":"Point","coordinates":[-0.70145,44.0605]},"properties":{"latitude":"44.0605","longitude":"-0.70145","bright_ti4":"303.96","scan":"0.56","track":"0.52","acq_date":"2026-08-15","acq_time":"122","satellite":"N21","instrument":"VIIRS","confidence":"n","version":"2.0NRT","bright_ti5":"287.02","frp":"2.11","daynight":"N","commune":"Luglon","code_insee":"40165","departement":"Landes","region":"Nouvelle-Aquitaine"}},{"type":"Feature","geometry":{"type":"Point","coordinates":[-0.71564,44.06141]},"properties":{"latitude":"44.06141","longitude":"-0.71564","bright_ti4":"303.73","scan":"0.56","track":"0.52","acq_date":"2026-08-15","acq_time":"122","satellite":"N21","instrument":"VIIRS","confidence":"n","version":"2.0NRT","bright_ti5":"279.4","frp":"2.28","daynight":"N","commune":"Luglon","code_insee":"40165","departement":"Landes","region":"Nouvelle-Aquitaine"}},{"type":"Feature","geometry":{"type":"Point","coordinates":[-0.72274,44.06187]},"properties":{"latitude":"44.06187","longitude":"-0.72274","bright_ti4":"306.38","scan":"0.57","track":"0.52","acq_date":"2026-08-15","acq_time":"122","satellite":"N21","instrument":"VIIRS","confidence":"n","version":"2.0NRT","bright_ti5":"277.9","frp":"2.36","daynight":"N","commune":"Luglon","code_insee":"40165","departement":"Landes","region":"Nouvelle-Aquitaine"}},{"type":"Feature","geometry":{"type":"Point","coordinates":[-0.72984,44.06232]},"properties":{"latitude":"44.06232","longitude":"-0.72984","bright_ti4":"304.95","scan":"0.57","track":"0.52","acq_date":"2026-08-15","acq_time":"122","satellite":"N21","instrument":"VIIRS","confidence":"n","version":"2.0NRT","bright_ti5":"278.76","frp":"2.36","daynight":"N","commune":"Luglon","code_insee":"40165","departement":"Landes","region":"Nouvelle-Aquitaine"}},{"type":"Feature","geometry":{"type":"Point","coordinates":[-0.73694,44.06277]},"properties":{"latitude":"44.06277","longitude":"-0.73694","bright_ti4":"299.25","scan":"0.57","track":"0.52","acq_date":"2026-08-15","acq_time":"122","satellite":"N21","instrument":"VIIRS","confidence":"n","version":"2.0NRT","bright_ti5":"279.85","frp":"2.33","daynight":"N","commune":"Luglon","code_insee":"40165","departement":"Landes","region":"Nouvelle-Aquitaine"}},{"type":"Feature","geometry":{"type":"Point","coordinates":[-0.70088,44.06525]},"properties":{"latitude":"44.06525","longitude":"-0.70088","bright_ti4":"303.28","scan":"0.56","track":"0.52","acq_date":"2026-08-15","acq_time":"122","satellite":"N21","instrument":"VIIRS","confidence":"n","version":"2.0NRT","bright_ti5":"284.97","frp":"2.11","daynight":"N","commune":"Luglon","code_insee":"40165","departement":"Landes","region":"Nouvelle-Aquitaine"}},{"type":"Feature","geometry":{"type":"Point","coordinates":[-0.70797,44.06571]},"properties":{"latitude":"44.06571","longitude":"-0.70797","bright_ti4":"309.39","scan":"0.56","track":"0.52","acq_date":"2026-08-15","acq_time":"122","satellite":"N21","instrument":"VIIRS","confidence":"n","version":"2.0NRT","bright_ti5":"281.67","frp":"2.28","daynight":"N","commune":"Luglon","code_insee":"40165","departement":"Landes","region":"Nouvelle-Aquitaine"}},{"type":"Feature","geometry":{"type":"Point","coordinates":[-0.71507,44.06617]},"properties":{"latitude":"44.06617","longitude":"-0.71507","bright_ti4":"301.48","scan":"0.56","track":"0.52","acq_date":"2026-08-15","acq_time":"122","satellite":"N21","instrument":"VIIRS","confidence":"n","version":"2.0NRT","bright_ti5":"278.01","frp":"2.28","daynight":"N","commune":"Luglon","code_insee":"40165","departement":"Landes","region":"Nouvelle-Aquitaine"}},{"type":"Feature","geometry":{"type":"Point","coordinates":[2.17374,47.25261]},"properties":{"latitude":"47.25261","longitude":"2.17374","bright_ti4":"300.99","scan":"0.49","track":"0.65","acq_date":"2026-08-15","acq_time":"300","satellite":"N21","instrument":"VIIRS","confidence":"n","version":"2.0NRT","bright_ti5":"288.9","frp":"0.63","daynight":"N","commune":"Saint-Laurent","code_insee":"18219","departement":"Cher","region":"Centre-Val de Loire"}},{"type":"Feature","geometry":{"type":"Point","coordinates":[2.17484,47.25646]},"properties":{"latitude":"47.25646","longitude":"2.17484","bright_ti4":"302.6","scan":"0.49","track":"0.65","acq_date":"2026-08-15","acq_time":"300","satellite":"N21","instrument":"VIIRS","confidence":"n","version":"2.0NRT","bright_ti5":"288.9","frp":"1.25","daynight":"N","commune":"Saint-Laurent","code_insee":"18219","departement":"Cher","region":"Centre-Val de Loire"}},{"type":"Feature","geometry":{"type":"Point","coordinates":[0.59684,47.38668]},"properties":{"latitude":"47.38668","longitude":"0.59684","bright_ti4":"302.84","scan":"0.42","track":"0.61","acq_date":"2026-08-15","acq_time":"300","satellite":"N21","instrument":"VIIRS","confidence":"n","version":"2.0NRT","bright_ti5":"286.13","frp":"1.51","daynight":"N","commune":"Fondettes","code_insee":"37109","departement":"Indre-et-Loire","region":"Centre-Val de Loire"}}]}