{"type":"FeatureCollection","features":[{"type":"Feature","geometry":{"type":"Point","coordinates":[2.26753,51.02565]},"properties":{"latitude":"51.02565","longitude":"2.26753","bright_ti4":"305.7","scan":"0.72","track":"0.75","acq_date":"2026-06-05","acq_time":"43","satellite":"N","instrument":"VIIRS","confidence":"n","version":"2.0NRT","bright_ti5":"277.49","frp":"2.11","daynight":"N","commune":"Grande-Synthe","code_insee":"59271","departement":"Nord","region":"Hauts-de-France"}},{"type":"Feature","geometry":{"type":"Point","coordinates":[2.26711,51.03276]},"properties":{"latitude":"51.03276","longitude":"2.26711","bright_ti4":"300.03","scan":"0.72","track":"0.75","acq_date":"2026-06-05","acq_time":"43","satellite":"N","instrument":"VIIRS","confidence":"n","version":"2.0NRT","bright_ti5":"279.25","frp":"2.11","daynight":"N","commune":"Grande-Synthe","code_insee":"59271","departement":"Nord","region":"Hauts-de-France"}},{"type":"Feature","geometry":{"type":"Point","coordinates":[2.28874,51.03331]},"properties":{"latitude":"51.03331","longitude":"2.28874","bright_ti4":"298.53","scan":"0.71","track":"0.75","acq_date":"2026-06-05","acq_time":"43","satellite":"N","instrument":"VIIRS","confidence":"n","version":"2.0NRT","bright_ti5":"279.32","frp":"1.39","daynight":"N","commune":"Grande-Synthe","code_insee":"59271","departement":"Nord","region":"Hauts-de-France"}},{"type":"Feature","geometry":{"type":"Point","coordinates":[2.28832,51.04041]},"properties":{"latitude":"51.04041","longitude":"2.28832","bright_ti4":"296.54","scan":"0.71","track":"0.75","acq_date":"2026-06-05","acq_time":"43","satellite":"N","instrument":"VIIRS","confidence":"n","version":"2.0NRT","bright_ti5":"280.18","frp":"1.6","daynight":"N","commune":"Grande-Synthe","code_insee":"59271","departement":"Nord","region":"Hauts-de-France"}},{"type":"Feature","geometry":{"type":"Point","coordinates":[2.29911,51.04068]},"properties":{"latitude":"51.04068","longitude":"2.29911","bright_ti4":"296.56","scan":"0.71","track":"0.75","acq_date":"2026-06-05","acq_time":"43","satellite":"N","instrument":"VIIRS","confidence":"n","version":"2.0NRT","bright_ti5":"279.07","frp":"1.6","daynight":"N","commune":"Grande-Synthe","code_insee":"59271","departement":"Nord","region":"Hauts-de-France"}},{"type":"Feature","geometry":{"type":"Point","coordinates":[2.28786,51.04751]},"properties":{"latitude":"51.04751","longitude":"2.28786","bright_ti4":"306.48","scan":"0.71","track":"0.75","acq_date":"2026-06-05","acq_time":"43","satellite":"N","instrument":"VIIRS","confidence":"n","version":"2.0NRT","bright_ti5":"280.56","frp":"1.6","daynight":"N","commune":"Grande-Synthe","code_insee":"59271","departement":"Nord","region":"Hauts-de-France"}},{"type":"Feature","geometry":{"type":"Point","coordinates":[2.29871,51.04778]},"properties":{"latitude":"51.04778","longitude":"2.29871","bright_ti4":"304.55","scan":"0.71","track":"0.75","acq_date":"2026-06-05","acq_time":"43","satellite":"N","instrument":"VIIRS","confidence":"n","version":"2.0NRT","bright_ti5":"280.04","frp":"1.6","daynight":"N","commune":"Grande-Synthe","code_insee":"59271","departement":"Nord","region":"Hauts-de-France"}},{"type":"Feature","geometry":{"type":"Point","coordinates":[5.00995,43.37962]},"properties":{"latitude":"43.37962","longitude":"5.00995","bright_ti4":"306.11","scan":"0.51","track":"0.66","acq_date":"2026-06-05","acq_time":"45","satellite":"N","instrument":"VIIRS","confidence":"n","version":"2.0NRT","bright_ti5":"285.11","frp":"1.06","daynight":"N","commune":"Martigues","code_insee":"13056","departement":"Bouches-du-Rhône","region":"Provence-Alpes-Côte d'Azur"}},{"type":"Feature","geometry":{"type":"Point","coordinates":[5.01087,43.3815]},"properties":{"latitude":"43.3815","longitude":"5.01087","bright_ti4":"305.33","scan":"0.51","track":"0.66","acq_date":"2026-06-05","acq_time":"45","satellite":"N","instrument":"VIIRS","confidence":"n","version":"2.0NRT","bright_ti5":"285.52","frp":"1.32","daynight":"N","commune":"Martigues","code_insee":"13056","departement":"Bouches-du-Rhône","region":"Provence-Alpes-Côte d'Azur"}},{"type":"Feature","geometry":{"type":"Point","coordinates":[4.89388,43.43199]},"properties":{"latitude":"43.43199","longitude":"4.89388","bright_ti4":"296.83","scan":"0.52","track":"0.67","acq_date":"2026-06-05","acq_time":"45","satellite":"N","instrument":"VIIRS","confidence":"n","version":"2.0NRT","bright_ti5":"284.55","frp":"0.79","daynight":"N","commune":"Fos-sur-Mer","code_insee":"13039","departement":"Bouches-du-Rhône","region":"Provence-Alpes-Côte d'Azur"}},{"type":"Feature","geometry":{"type":"Point","coordinates":[4.89422,43.43824]},"properties":{"latitude":"43.43824","longitude":"4.89422","bright_ti4":"297.45","scan":"0.52","track":"0.67","acq_date":"2026-06-05","acq_time":"45","satellite":"N","instrument":"VIIRS","confidence":"n","version":"2.0NRT","bright_ti5":"284.59","frp":"0.79","daynight":"N","commune":"Fos-sur-Mer","code_insee":"13039","departement":"Bouches-du-Rhône","region":"Provence-Alpes-Côte d'Azur"}},{"type":"Feature","geometry":{"type":"Point","coordinates":[4.88754,43.43839]},"properties":{"latitude":"43.43839","longitude":"4.88754","bright_ti4":"305.94","scan":"0.52","track":"0.67","acq_date":"2026-06-05","acq_time":"45","satellite":"N","instrument":"VIIRS","confidence":"n","version":"2.0NRT","bright_ti5":"285.03","frp":"2.27","daynight":"N","commune":"Fos-sur-Mer","code_insee":"13039","departement":"Bouches-du-Rhône","region":"Provence-Alpes-Côte d'Azur"}},{"type":"Feature","geometry":{"type":"Point","coordinates":[4.90111,43.44434]},"properties":{"latitude":"43.44434","longitude":"4.90111","bright_ti4":"295.04","scan":"0.52","track":"0.66","acq_date":"2026-06-05","acq_time":"45","satellite":"N","instrument":"VIIRS","confidence":"n","version":"2.0NRT","bright_ti5":"284.18","frp":"0.59","daynight":"N","commune":"Fos-sur-Mer","code_insee":"13039","departement":"Bouches-du-Rhône","region":"Provence-Alpes-Côte d'Azur"}},{"type":"Feature","geometry":{"type":"Point","coordinates":[4.89449,43.44449]},"properties":{"latitude":"43.44449","longitude":"4.89449","bright_ti4":"295.69","scan":"0.52","track":"0.67","acq_date":"2026-06-05","acq_time":"45","satellite":"N","instrument":"VIIRS","confidence":"n","version":"2.0NRT","bright_ti5":"284.58","frp":"0.59","daynight":"N","commune":"Fos-sur-Mer","code_insee":"13039","departement":"Bouches-du-Rhône","region":"Provence-Alpes-Côte d'Azur"}},{"type":"Feature","geometry":{"type":"Point","coordinates":[5.01411,43.37883]},"properties":{"latitude":"43.37883","longitude":"5.01411","bright_ti4":"298.39","scan":"0.53","track":"0.5","acq_date":"2026-06-05","acq_time":"226","satellite":"N","instrument":"VIIRS","confidence":"n","version":"2.0NRT","bright_ti5":"285.82","frp":"0.98","daynight":"N","commune":"Martigues","code_insee":"13056","departement":"Bouches-du-Rhône","region":"Provence-Alpes-Côte d'Azur"}},{"type":"Feature","geometry":{"type":"Point","coordinates":[4.89698,43.43116]},"properties":{"latitude":"43.43116","longitude":"4.89698","bright_ti4":"304.42","scan":"0.53","track":"0.5","acq_date":"2026-06-05","acq_time":"226","satellite":"N","instrument":"VIIRS","confidence":"n","version":"2.0NRT","bright_ti5":"286.55","frp":"0.94","daynight":"N","commune":"Fos-sur-Mer","code_insee":"13039","departement":"Bouches-du-Rhône","region":"Provence-Alpes-Côte d'Azur"}},{"type":"Feature","geometry":{"type":"Point","coordinates":[4.89809,43.43265]},"properties":{"latitude":"43.43265","longitude":"4.89809","bright_ti4":"299.53","scan":"0.53","track":"0.5","acq_date":"2026-06-05","acq_time":"226","satellite":"N","instrument":"VIIRS","confidence":"n","version":"2.0NRT","bright_ti5":"285.98","frp":"1.29","daynight":"N","commune":"Fos-sur-Mer","code_insee":"13039","departement":"Bouches-du-Rhône","region":"Provence-Alpes-Côte d'Azur"}},{"type":"Feature","geometry":{"type":"Point","coordinates":[4.89278,43.43719]},"properties":{"latitude":"43.43719","longitude":"4.89278","bright_ti4":"314.61","scan":"0.53","track":"0.5","acq_date":"2026-06-05","acq_time":"226","satellite":"N","instrument":"VIIRS","confidence":"n","version":"2.0NRT","bright_ti5":"285.94","frp":"1.66","daynight":"N","commune":"Fos-sur-Mer","code_insee":"13039","departement":"Bouches-du-Rhône","region":"Provence-Alpes-Côte d'Azur"}},{"type":"Feature","geometry":{"type":"Point","coordinates":[4.8939,43.43864]},"properties":{"latitude":"43.43864","longitude":"4.8939","bright_ti4":"311.4","scan":"0.53","track":"0.5","acq_date":"2026-06-05","acq_time":"226","satellite":"N","instrument":"VIIRS","confidence":"n","version":"2.0NRT","bright_ti5":"286.07","frp":"1.29","daynight":"N","commune":"Fos-sur-Mer","code_insee":"13039","departement":"Bouches-du-Rhône","region":"Provence-Alpes-Côte d'Azur"}},{"type":"Feature","geometry":{"type":"Point","coordinates":[4.88655,43.43878]},"properties":{"latitude":"43.43878","longitude":"4.88655","bright_ti4":"308.32","scan":"0.53","track":"0.5","acq_date":"2026-06-05","acq_time":"226","satellite":"N","instrument":"VIIRS","confidence":"n","version":"2.0NRT","bright_ti5":"285.74","frp":"1.66","daynight":"N","commune":"Fos-sur-Mer","code_insee":"13039","departement":"Bouches-du-Rhône","region":"Provence-Alpes-Côte d'Azur"}},{"type":"Feature","geometry":{"type":"Point","coordinates":[4.88764,43.44019]},"properties":{"latitude":"43.44019","longitude":"4.88764","bright_ti4":"310.93","scan":"0.53","track":"0.5","acq_date":"2026-06-05","acq_time":"226","satellite":"N","instrument":"VIIRS","confidence":"n","version":"2.0NRT","bright_ti5":"285.73","frp":"2.63","daynight":"N","commune":"Fos-sur-Mer","code_insee":"13039","departement":"Bouches-du-Rhône","region":"Provence-Alpes-Côte d'Azur"}},{"type":"Feature","geometry":{"type":"Point","coordinates":[4.89488,43.44162]},"properties":{"latitude":"43.44162","longitude":"4.89488","bright_ti4":"298.84","scan":"0.53","track":"0.5","acq_date":"2026-06-05","acq_time":"226","satellite":"N","instrument":"VIIRS","confidence":"n","version":"2.0NRT","bright_ti5":"285.89","frp":"1.66","daynight":"N","commune":"Fos-sur-Mer","code_insee":"13039","departement":"Bouches-du-Rhône","region":"Provence-Alpes-Côte d'Azur"}},{"type":"Feature","geometry":{"type":"Point","coordinates":[4.89699,43.44604]},"properties":{"latitude":"43.44604","longitude":"4.89699","bright_ti4":"348.38","scan":"0.53","track":"0.5","acq_date":"2026-06-05","acq_time":"226","satellite":"N","instrument":"VIIRS","confidence":"n","version":"2.0NRT","bright_ti5":"287.77","frp":"8.7","daynight":"N","commune":"Fos-sur-Mer","code_insee":"13039","departement":"Bouches-du-Rhône","region":"Provence-Alpes-Côte d'Azur"}},{"type":"Feature","geometry":{"type":"Point","coordinates":[4.84391,43.998]},"properties":{"latitude":"43.998","longitude":"4.84391","bright_ti4":"301.69","scan":"0.51","track":"0.49","acq_date":"2026-06-05","acq_time":"226","satellite":"N","instrument":"VIIRS","confidence":"n","version":"2.0NRT","bright_ti5":"284.92","frp":"0.85","daynight":"N","commune":"Villeneuve-lès-Avignon","code_insee":"30351","departement":"Gard","region":"Occitanie"}},{"type":"Feature","geometry":{"type":"Point","coordinates":[4.84432,43.99878]},"properties":{"latitude":"43.99878","longitude":"4.84432","bright_ti4":"305.55","scan":"0.51","track":"0.49","acq_date":"2026-06-05","acq_time":"226","satellite":"N","instrument":"VIIRS","confidence":"n","version":"2.0NRT","bright_ti5":"285.39","frp":"1.33","daynight":"N","commune":"Villeneuve-lès-Avignon","code_insee":"30351","departement":"Gard","region":"Occitanie"}},{"type":"Feature","geometry":{"type":"Point","coordinates":[3.92587,44.66386]},"properties":{"latitude":"44.66386","longitude":"3.92587","bright_ti4":"298.43","scan":"0.44","track":"0.46","acq_date":"2026-06-05","acq_time":"226","satellite":"N","instrument":"VIIRS","confidence":"n","version":"2.0NRT","bright_ti5":"277.02","frp":"0.71","daynight":"N","commune":"Cellier-du-Luc","code_insee":"07047","departement":"Ardèche","region":"Auvergne-Rhône-Alpes"}},{"type":"Feature","geometry":{"type":"Point","coordinates":[2.60357,46.46431]},"properties":{"latitude":"46.46431","longitude":"2.60357","bright_ti4":"307.19","scan":"0.53","track":"0.42","acq_date":"2026-06-05","acq_time":"226","satellite":"N","instrument":"VIIRS","confidence":"n","version":"2.0NRT","bright_ti5":"279.82","frp":"0.89","daynight":"N","commune":"Audes","code_insee":"03010","departement":"Allier","region":"Auvergne-Rhône-Alpes"}},{"type":"Feature","geometry":{"type":"Point","coordinates":[1.7641,48.98292]},"properties":{"latitude":"48.98292","longitude":"1.7641","bright_ti4":"295.17","scan":"0.45","track":"0.39","acq_date":"2026-06-05","acq_time":"226","satellite":"N","instrument":"VIIRS","confidence":"n","version":"2.0NRT","bright_ti5":"282.95","frp":"1.27","daynight":"N","commune":"Porcheville","code_insee":"78501","departement":"Yvelines","region":"Île-de-France"}},{"type":"Feature","geometry":{"type":"Point","coordinates":[1.75809,48.98413]},"properties":{"latitude":"48.98413","longitude":"1.75809","bright_ti4":"323.73","scan":"0.45","track":"0.39","acq_date":"2026-06-05","acq_time":"226","satellite":"N","instrument":"VIIRS","confidence":"n","version":"2.0NRT","bright_ti5":"283.9","frp":"1.27","daynight":"N","commune":"Limay","code_insee":"78335","departement":"Yvelines","region":"Île-de-France"}},{"type":"Feature","geometry":{"type":"Point","coordinates":[4.90059,43.44313]},"properties":{"latitude":"43.44313","longitude":"4.90059","bright_ti4":"328.3","scan":"0.41","track":"0.45","acq_date":"2026-06-05","acq_time":"1210","satellite":"N","instrument":"VIIRS","confidence":"n","version":"2.0NRT","bright_ti5":"300.09","frp":"3.38","daynight":"D","commune":"Fos-sur-Mer","code_insee":"13039","departement":"Bouches-du-Rhône","region":"Provence-Alpes-Côte d'Azur"}},{"type":"Feature","geometry":{"type":"Point","coordinates":[4.8989,43.44712]},"properties":{"latitude":"43.44712","longitude":"4.8989","bright_ti4":"341.29","scan":"0.41","track":"0.45","acq_date":"2026-06-05","acq_time":"1210","satellite":"N","instrument":"VIIRS","confidence":"n","version":"2.0NRT","bright_ti5":"302.57","frp":"3.38","daynight":"D","commune":"Fos-sur-Mer","code_insee":"13039","departement":"Bouches-du-Rhône","region":"Provence-Alpes-Côte d'Azur"}},{"type":"Feature","geometry":{"type":"Point","coordinates":[7.37613,43.79597]},"properties":{"latitude":"43.79597","longitude":"7.37613","bright_ti4":"299.98","scan":"0.39","track":"0.44","acq_date":"2026-06-05","acq_time":"105","satellite":"N20","instrument":"VIIRS","confidence":"n","version":"2.0NRT","bright_ti5":"275.55","frp":"0.98","daynight":"N","commune":"Blausasc","code_insee":"06019","departement":"Alpes-Maritimes","region":"Provence-Alpes-Côte d'Azur"}},{"type":"Feature","geometry":{"type":"Point","coordinates":[4.84696,43.9994]},"properties":{"latitude":"43.9994","longitude":"4.84696","bright_ti4":"321.27","scan":"0.52","track":"0.5","acq_date":"2026-06-05","acq_time":"105","satellite":"N20","instrument":"VIIRS","confidence":"n","version":"2.0NRT","bright_ti5":"286.07","frp":"2.55","daynight":"N","commune":"Sorgues","code_insee":"84129","departement":"Vaucluse","region":"Provence-Alpes-Côte d'Azur"}},{"type":"Feature","geometry":{"type":"Point","coordinates":[4.84642,44.00022]},"properties":{"latitude":"44.00022","longitude":"4.84642","bright_ti4":"327.38","scan":"0.52","track":"0.5","acq_date":"2026-06-05","acq_time":"105","satellite":"N20","instrument":"VIIRS","confidence":"n","version":"2.0NRT","bright_ti5":"285.66","frp":"3.34","daynight":"N","commune":"Sorgues","code_insee":"84129","departement":"Vaucluse","region":"Provence-Alpes-Côte d'Azur"}},{"type":"Feature","geometry":{"type":"Point","coordinates":[3.92615,44.66717]},"properties":{"latitude":"44.66717","longitude":"3.92615","bright_ti4":"298.87","scan":"0.59","track":"0.53","acq_date":"2026-06-05","acq_time":"105","satellite":"N20","instrument":"VIIRS","confidence":"n","version":"2.0NRT","bright_ti5":"277.02","frp":"1.14","daynight":"N","commune":"Cellier-du-Luc","code_insee":"07047","departement":"Ardèche","region":"Auvergne-Rhône-Alpes"}},{"type":"Feature","geometry":{"type":"Point","coordinates":[3.42313,46.25029]},"properties":{"latitude":"46.25029","longitude":"3.42313","bright_ti4":"295.24","scan":"0.32","track":"0.55","acq_date":"2026-06-05","acq_time":"105","satellite":"N20","instrument":"VIIRS","confidence":"n","version":"2.0NRT","bright_ti5":"280.38","frp":"0.53","daynight":"N","commune":"Créchy","code_insee":"03091","departement":"Allier","region":"Auvergne-Rhône-Alpes"}},{"type":"Feature","geometry":{"type":"Point","coordinates":[6.12037,48.61009]},"properties":{"latitude":"48.61009","longitude":"6.12037","bright_ti4":"297.7","scan":"0.5","track":"0.49","acq_date":"2026-06-05","acq_time":"105","satellite":"N20","instrument":"VIIRS","confidence":"n","version":"2.0NRT","bright_ti5":"282.18","frp":"0.81","daynight":"N","commune":"Neuves-Maisons","code_insee":"54397","departement":"Meurthe-et-Moselle","region":"Grand Est"}},{"type":"Feature","geometry":{"type":"Point","coordinates":[6.11337,48.61056]},"properties":{"latitude":"48.61056","longitude":"6.11337","bright_ti4":"303.56","scan":"0.5","track":"0.49","acq_date":"2026-06-05","acq_time":"105","satellite":"N20","instrument":"VIIRS","confidence":"n","version":"2.0NRT","bright_ti5":"282.18","frp":"0.81","daynight":"N","commune":"Neuves-Maisons","code_insee":"54397","departement":"Meurthe-et-Moselle","region":"Grand Est"}},{"type":"Feature","geometry":{"type":"Point","coordinates":[2.32367,51.04546]},"properties":{"latitude":"51.04546","longitude":"2.32367","bright_ti4":"306.78","scan":"0.39","track":"0.59","acq_date":"2026-06-05","acq_time":"105","satellite":"N20","instrument":"VIIRS","confidence":"n","version":"2.0NRT","bright_ti5":"282.28","frp":"1.57","daynight":"N","commune":"Dunkerque","code_insee":"59183","departement":"Nord","region":"Hauts-de-France"}},{"type":"Feature","geometry":{"type":"Point","coordinates":[2.318,51.04562]},"properties":{"latitude":"51.04562","longitude":"2.318","bright_ti4":"302.24","scan":"0.39","track":"0.59","acq_date":"2026-06-05","acq_time":"105","satellite":"N20","instrument":"VIIRS","confidence":"n","version":"2.0NRT","bright_ti5":"280.68","frp":"1.97","daynight":"N","commune":"Dunkerque","code_insee":"59183","departement":"Nord","region":"Hauts-de-France"}},{"type":"Feature","geometry":{"type":"Point","coordinates":[2.30086,51.04612]},"properties":{"latitude":"51.04612","longitude":"2.30086","bright_ti4":"298.85","scan":"0.39","track":"0.59","acq_date":"2026-06-05","acq_time":"105","satellite":"N20","instrument":"VIIRS","confidence":"n","version":"2.0NRT","bright_ti5":"280.6","frp":"2.5","daynight":"N","commune":"Grande-Synthe","code_insee":"59271","departement":"Nord","region":"Hauts-de-France"}},{"type":"Feature","geometry":{"type":"Point","coordinates":[2.29515,51.04629]},"properties":{"latitude":"51.04629","longitude":"2.29515","bright_ti4":"314.4","scan":"0.39","track":"0.59","acq_date":"2026-06-05","acq_time":"105","satellite":"N20","instrument":"VIIRS","confidence":"n","version":"2.0NRT","bright_ti5":"281.02","frp":"3.1","daynight":"N","commune":"Grande-Synthe","code_insee":"59271","departement":"Nord","region":"Hauts-de-France"}},{"type":"Feature","geometry":{"type":"Point","coordinates":[5.00898,43.38303]},"properties":{"latitude":"43.38303","longitude":"5.00898","bright_ti4":"312.79","scan":"0.5","track":"0.49","acq_date":"2026-06-05","acq_time":"107","satellite":"N20","instrument":"VIIRS","confidence":"n","version":"2.0NRT","bright_ti5":"286.67","frp":"2","daynight":"N","commune":"Martigues","code_insee":"13056","departement":"Bouches-du-Rhône","region":"Provence-Alpes-Côte d'Azur"}},{"type":"Feature","geometry":{"type":"Point","coordinates":[4.89484,43.43311]},"properties":{"latitude":"43.43311","longitude":"4.89484","bright_ti4":"296.69","scan":"0.51","track":"0.49","acq_date":"2026-06-05","acq_time":"107","satellite":"N20","instrument":"VIIRS","confidence":"n","version":"2.0NRT","bright_ti5":"286.01","frp":"0.75","daynight":"N","commune":"Fos-sur-Mer","code_insee":"13039","departement":"Bouches-du-Rhône","region":"Provence-Alpes-Côte d'Azur"}},{"type":"Feature","geometry":{"type":"Point","coordinates":[4.89553,43.43768]},"properties":{"latitude":"43.43768","longitude":"4.89553","bright_ti4":"297.85","scan":"0.51","track":"0.49","acq_date":"2026-06-05","acq_time":"107","satellite":"N20","instrument":"VIIRS","confidence":"n","version":"2.0NRT","bright_ti5":"285.84","frp":"0.75","daynight":"N","commune":"Fos-sur-Mer","code_insee":"13039","departement":"Bouches-du-Rhône","region":"Provence-Alpes-Côte d'Azur"}},{"type":"Feature","geometry":{"type":"Point","coordinates":[4.88913,43.43817]},"properties":{"latitude":"43.43817","longitude":"4.88913","bright_ti4":"302.17","scan":"0.51","track":"0.49","acq_date":"2026-06-05","acq_time":"107","satellite":"N20","instrument":"VIIRS","confidence":"n","version":"2.0NRT","bright_ti5":"285.42","frp":"0.75","daynight":"N","commune":"Fos-sur-Mer","code_insee":"13039","departement":"Bouches-du-Rhône","region":"Provence-Alpes-Côte d'Azur"}},{"type":"Feature","geometry":{"type":"Point","coordinates":[4.88979,43.44273]},"properties":{"latitude":"43.44273","longitude":"4.88979","bright_ti4":"302.88","scan":"0.51","track":"0.49","acq_date":"2026-06-05","acq_time":"107","satellite":"N20","instrument":"VIIRS","confidence":"n","version":"2.0NRT","bright_ti5":"285.28","frp":"3.02","daynight":"N","commune":"Fos-sur-Mer","code_insee":"13039","departement":"Bouches-du-Rhône","region":"Provence-Alpes-Côte d'Azur"}},{"type":"Feature","geometry":{"type":"Point","coordinates":[4.89672,43.44678]},"properties":{"latitude":"43.44678","longitude":"4.89672","bright_ti4":"338.66","scan":"0.51","track":"0.49","acq_date":"2026-06-05","acq_time":"107","satellite":"N20","instrument":"VIIRS","confidence":"n","version":"2.0NRT","bright_ti5":"287.16","frp":"5.75","daynight":"N","commune":"Fos-sur-Mer","code_insee":"13039","departement":"Bouches-du-Rhône","region":"Provence-Alpes-Côte d'Azur"}},{"type":"Feature","geometry":{"type":"Point","coordinates":[4.89684,43.44681]},"properties":{"latitude":"43.44681","longitude":"4.89684","bright_ti4":"337","scan":"0.51","track":"0.49","acq_date":"2026-06-05","acq_time":"107","satellite":"N20","instrument":"VIIRS","confidence":"n","version":"2.0NRT","bright_ti5":"287.2","frp":"3.02","daynight":"N","commune":"Fos-sur-Mer","code_insee":"13039","departement":"Bouches-du-Rhône","region":"Provence-Alpes-Côte d'Azur"}},{"type":"Feature","geometry":{"type":"Point","coordinates":[2.60716,46.4663]},"properties":{"latitude":"46.4663","longitude":"2.60716","bright_ti4":"296.11","scan":"0.33","track":"0.55","acq_date":"2026-06-05","acq_time":"243","satellite":"N20","instrument":"VIIRS","confidence":"n","version":"2.0NRT","bright_ti5":"278.19","frp":"0.22","daynight":"N","commune":"Reugny","code_insee":"03213","departement":"Allier","region":"Auvergne-Rhône-Alpes"}},{"type":"Feature","geometry":{"type":"Point","coordinates":[-1.0371,48.10874]},"properties":{"latitude":"48.10874","longitude":"-1.0371","bright_ti4":"297.72","scan":"0.41","track":"0.45","acq_date":"2026-06-05","acq_time":"243","satellite":"N20","instrument":"VIIRS","confidence":"n","version":"2.0NRT","bright_ti5":"280.51","frp":"0.44","daynight":"N","commune":"Saint-Pierre-la-Cour","code_insee":"53247","departement":"Mayenne","region":"Pays de la Loire"}},{"type":"Feature","geometry":{"type":"Point","coordinates":[5.01333,43.38341]},"properties":{"latitude":"43.38341","longitude":"5.01333","bright_ti4":"302.76","scan":"0.53","track":"0.67","acq_date":"2026-06-05","acq_time":"245","satellite":"N20","instrument":"VIIRS","confidence":"n","version":"2.0NRT","bright_ti5":"285.01","frp":"1.21","daynight":"N","commune":"Martigues","code_insee":"13056","departement":"Bouches-du-Rhône","region":"Provence-Alpes-Côte d'Azur"}},{"type":"Feature","geometry":{"type":"Point","coordinates":[4.89532,43.43427]},"properties":{"latitude":"43.43427","longitude":"4.89532","bright_ti4":"299.4","scan":"0.52","track":"0.67","acq_date":"2026-06-05","acq_time":"245","satellite":"N20","instrument":"VIIRS","confidence":"n","version":"2.0NRT","bright_ti5":"284.42","frp":"1.26","daynight":"N","commune":"Fos-sur-Mer","code_insee":"13039","departement":"Bouches-du-Rhône","region":"Provence-Alpes-Côte d'Azur"}},{"type":"Feature","geometry":{"type":"Point","coordinates":[4.89278,43.44179]},"properties":{"latitude":"43.44179","longitude":"4.89278","bright_ti4":"308.41","scan":"0.52","track":"0.67","acq_date":"2026-06-05","acq_time":"245","satellite":"N20","instrument":"VIIRS","confidence":"n","version":"2.0NRT","bright_ti5":"284.83","frp":"1.26","daynight":"N","commune":"Fos-sur-Mer","code_insee":"13039","departement":"Bouches-du-Rhône","region":"Provence-Alpes-Côte d'Azur"}},{"type":"Feature","geometry":{"type":"Point","coordinates":[4.90207,43.44558]},"properties":{"latitude":"43.44558","longitude":"4.90207","bright_ti4":"296.46","scan":"0.52","track":"0.67","acq_date":"2026-06-05","acq_time":"245","satellite":"N20","instrument":"VIIRS","confidence":"n","version":"2.0NRT","bright_ti5":"285.1","frp":"1.36","daynight":"N","commune":"Fos-sur-Mer","code_insee":"13039","departement":"Bouches-du-Rhône","region":"Provence-Alpes-Côte d'Azur"}},{"type":"Feature","geometry":{"type":"Point","coordinates":[4.89615,43.44745]},"properties":{"latitude":"43.44745","longitude":"4.89615","bright_ti4":"323.19","scan":"0.52","track":"0.67","acq_date":"2026-06-05","acq_time":"245","satellite":"N20","instrument":"VIIRS","confidence":"n","version":"2.0NRT","bright_ti5":"285.26","frp":"1.36","daynight":"N","commune":"Fos-sur-Mer","code_insee":"13039","departement":"Bouches-du-Rhône","region":"Provence-Alpes-Côte d'Azur"}},{"type":"Feature","geometry":{"type":"Point","coordinates":[1.23095,43.98899]},"properties":{"latitude":"43.98899","longitude":"1.23095","bright_ti4":"297.5","scan":"0.34","track":"0.56","acq_date":"2026-06-05","acq_time":"245","satellite":"N20","instrument":"VIIRS","confidence":"n","version":"2.0NRT","bright_ti5":"281.43","frp":"0.39","daynight":"N","commune":"Montech","code_insee":"82125","departement":"Tarn-et-Garonne","region":"Occitanie"}},{"type":"Feature","geometry":{"type":"Point","coordinates":[4.90047,43.44576]},"properties":{"latitude":"43.44576","longitude":"4.90047","bright_ti4":"341.09","scan":"0.39","track":"0.36","acq_date":"2026-06-05","acq_time":"1229","satellite":"N20","instrument":"VIIRS","confidence":"n","version":"2.0NRT","bright_ti5":"307.46","frp":"4.64","daynight":"D","commune":"Fos-sur-Mer","code_insee":"13039","departement":"Bouches-du-Rhône","region":"Provence-Alpes-Côte d'Azur"}},{"type":"Feature","geometry":{"type":"Point","coordinates":[7.37379,43.79222]},"properties":{"latitude":"43.79222","longitude":"7.37379","bright_ti4":"333.63","scan":"0.39","track":"0.36","acq_date":"2026-06-05","acq_time":"1229","satellite":"N20","instrument":"VIIRS","confidence":"n","version":"2.0NRT","bright_ti5":"305.8","frp":"3.41","daynight":"D","commune":"Blausasc","code_insee":"06019","departement":"Alpes-Maritimes","region":"Provence-Alpes-Côte d'Azur"}},{"type":"Feature","geometry":{"type":"Point","coordinates":[2.29767,51.04303]},"properties":{"latitude":"51.04303","longitude":"2.29767","bright_ti4":"312.06","scan":"0.4","track":"0.37","acq_date":"2026-06-05","acq_time":"149","satellite":"N21","instrument":"VIIRS","confidence":"n","version":"2.0NRT","bright_ti5":"280.59","frp":"0.91","daynight":"N","commune":"Grande-Synthe","code_insee":"59271","departement":"Nord","region":"Hauts-de-France"}},{"type":"Feature","geometry":{"type":"Point","coordinates":[2.2988,51.04636]},"properties":{"latitude":"51.04636","longitude":"2.2988","bright_ti4":"295.4","scan":"0.4","track":"0.37","acq_date":"2026-06-05","acq_time":"149","satellite":"N21","instrument":"VIIRS","confidence":"n","version":"2.0NRT","bright_ti5":"278.42","frp":"0.91","daynight":"N","commune":"Grande-Synthe","code_insee":"59271","departement":"Nord","region":"Hauts-de-France"}},{"type":"Feature","geometry":{"type":"Point","coordinates":[2.32251,51.0466]},"properties":{"latitude":"51.0466","longitude":"2.32251","bright_ti4":"335.47","scan":"0.4","track":"0.37","acq_date":"2026-06-05","acq_time":"149","satellite":"N21","instrument":"VIIRS","confidence":"n","version":"2.0NRT","bright_ti5":"284.87","frp":"4.7","daynight":"N","commune":"Dunkerque","code_insee":"59183","departement":"Nord","region":"Hauts-de-France"}},{"type":"Feature","geometry":{"type":"Point","coordinates":[2.31687,51.04737]},"properties":{"latitude":"51.04737","longitude":"2.31687","bright_ti4":"306.01","scan":"0.4","track":"0.37","acq_date":"2026-06-05","acq_time":"149","satellite":"N21","instrument":"VIIRS","confidence":"n","version":"2.0NRT","bright_ti5":"283.1","frp":"4.7","daynight":"N","commune":"Dunkerque","code_insee":"59183","departement":"Nord","region":"Hauts-de-France"}},{"type":"Feature","geometry":{"type":"Point","coordinates":[5.01253,43.3799]},"properties":{"latitude":"43.3799","longitude":"5.01253","bright_ti4":"299.68","scan":"0.43","track":"0.38","acq_date":"2026-06-05","acq_time":"152","satellite":"N21","instrument":"VIIRS","confidence":"n","version":"2.0NRT","bright_ti5":"288.11","frp":"0.75","daynight":"N","commune":"Martigues","code_insee":"13056","departement":"Bouches-du-Rhône","region":"Provence-Alpes-Côte d'Azur"}},{"type":"Feature","geometry":{"type":"Point","coordinates":[4.89747,43.43065]},"properties":{"latitude":"43.43065","longitude":"4.89747","bright_ti4":"299.49","scan":"0.43","track":"0.38","acq_date":"2026-06-05","acq_time":"152","satellite":"N21","instrument":"VIIRS","confidence":"n","version":"2.0NRT","bright_ti5":"287.69","frp":"1.08","daynight":"N","commune":"Fos-sur-Mer","code_insee":"13039","departement":"Bouches-du-Rhône","region":"Provence-Alpes-Côte d'Azur"}},{"type":"Feature","geometry":{"type":"Point","coordinates":[4.89348,43.43502]},"properties":{"latitude":"43.43502","longitude":"4.89348","bright_ti4":"299.15","scan":"0.43","track":"0.38","acq_date":"2026-06-05","acq_time":"152","satellite":"N21","instrument":"VIIRS","confidence":"n","version":"2.0NRT","bright_ti5":"286.82","frp":"1.01","daynight":"N","commune":"Fos-sur-Mer","code_insee":"13039","departement":"Bouches-du-Rhône","region":"Provence-Alpes-Côte d'Azur"}},{"type":"Feature","geometry":{"type":"Point","coordinates":[4.89468,43.43843]},"properties":{"latitude":"43.43843","longitude":"4.89468","bright_ti4":"297.26","scan":"0.43","track":"0.38","acq_date":"2026-06-05","acq_time":"152","satellite":"N21","instrument":"VIIRS","confidence":"n","version":"2.0NRT","bright_ti5":"286.97","frp":"1.01","daynight":"N","commune":"Fos-sur-Mer","code_insee":"13039","departement":"Bouches-du-Rhône","region":"Provence-Alpes-Côte d'Azur"}},{"type":"Feature","geometry":{"type":"Point","coordinates":[4.88951,43.43939]},"properties":{"latitude":"43.43939","longitude":"4.88951","bright_ti4":"328.83","scan":"0.43","track":"0.38","acq_date":"2026-06-05","acq_time":"152","satellite":"N21","instrument":"VIIRS","confidence":"n","version":"2.0NRT","bright_ti5":"288.17","frp":"3.69","daynight":"N","commune":"Fos-sur-Mer","code_insee":"13039","departement":"Bouches-du-Rhône","region":"Provence-Alpes-Côte d'Azur"}},{"type":"Feature","geometry":{"type":"Point","coordinates":[4.90107,43.44086]},"properties":{"latitude":"43.44086","longitude":"4.90107","bright_ti4":"298.24","scan":"0.43","track":"0.38","acq_date":"2026-06-05","acq_time":"152","satellite":"N21","instrument":"VIIRS","confidence":"n","version":"2.0NRT","bright_ti5":"286.19","frp":"2.72","daynight":"N","commune":"Fos-sur-Mer","code_insee":"13039","departement":"Bouches-du-Rhône","region":"Provence-Alpes-Côte d'Azur"}},{"type":"Feature","geometry":{"type":"Point","coordinates":[4.89588,43.44183]},"properties":{"latitude":"43.44183","longitude":"4.89588","bright_ti4":"306.29","scan":"0.43","track":"0.38","acq_date":"2026-06-05","acq_time":"152","satellite":"N21","instrument":"VIIRS","confidence":"n","version":"2.0NRT","bright_ti5":"286.68","frp":"2.72","daynight":"N","commune":"Fos-sur-Mer","code_insee":"13039","departement":"Bouches-du-Rhône","region":"Provence-Alpes-Côte d'Azur"}},{"type":"Feature","geometry":{"type":"Point","coordinates":[4.89709,43.44522]},"properties":{"latitude":"43.44522","longitude":"4.89709","bright_ti4":"346.8","scan":"0.43","track":"0.38","acq_date":"2026-06-05","acq_time":"152","satellite":"N21","instrument":"VIIRS","confidence":"n","version":"2.0NRT","bright_ti5":"289.79","frp":"2.72","daynight":"N","commune":"Fos-sur-Mer","code_insee":"13039","departement":"Bouches-du-Rhône","region":"Provence-Alpes-Côte d'Azur"}},{"type":"Feature","geometry":{"type":"Point","coordinates":[4.8983,43.44863]},"properties":{"latitude":"43.44863","longitude":"4.8983","bright_ti4":"299.19","scan":"0.43","track":"0.38","acq_date":"2026-06-05","acq_time":"152","satellite":"N21","instrument":"VIIRS","confidence":"n","version":"2.0NRT","bright_ti5":"285.97","frp":"0.44","daynight":"N","commune":"Fos-sur-Mer","code_insee":"13039","departement":"Bouches-du-Rhône","region":"Provence-Alpes-Côte d'Azur"}},{"type":"Feature","geometry":{"type":"Point","coordinates":[7.37511,43.79296]},"properties":{"latitude":"43.79296","longitude":"7.37511","bright_ti4":"309.01","scan":"0.52","track":"0.41","acq_date":"2026-06-05","acq_time":"152","satellite":"N21","instrument":"VIIRS","confidence":"n","version":"2.0NRT","bright_ti5":"288.85","frp":"1.27","daynight":"N","commune":"Blausasc","code_insee":"06019","departement":"Alpes-Maritimes","region":"Provence-Alpes-Côte d'Azur"}},{"type":"Feature","geometry":{"type":"Point","coordinates":[7.37469,43.79349]},"properties":{"latitude":"43.79349","longitude":"7.37469","bright_ti4":"305.68","scan":"0.52","track":"0.41","acq_date":"2026-06-05","acq_time":"152","satellite":"N21","instrument":"VIIRS","confidence":"n","version":"2.0NRT","bright_ti5":"288.76","frp":"1.75","daynight":"N","commune":"Blausasc","code_insee":"06019","departement":"Alpes-Maritimes","region":"Provence-Alpes-Côte d'Azur"}},{"type":"Feature","geometry":{"type":"Point","coordinates":[4.84758,43.99712]},"properties":{"latitude":"43.99712","longitude":"4.84758","bright_ti4":"323.05","scan":"0.42","track":"0.38","acq_date":"2026-06-05","acq_time":"152","satellite":"N21","instrument":"VIIRS","confidence":"n","version":"2.0NRT","bright_ti5":"285.4","frp":"3.03","daynight":"N","commune":"Sorgues","code_insee":"84129","departement":"Vaucluse","region":"Provence-Alpes-Côte d'Azur"}},{"type":"Feature","geometry":{"type":"Point","coordinates":[3.92802,44.66357]},"properties":{"latitude":"44.66357","longitude":"3.92802","bright_ti4":"308.27","scan":"0.4","track":"0.37","acq_date":"2026-06-05","acq_time":"152","satellite":"N21","instrument":"VIIRS","confidence":"n","version":"2.0NRT","bright_ti5":"278.67","frp":"0.97","daynight":"N","commune":"Cellier-du-Luc","code_insee":"07047","departement":"Ardèche","region":"Auvergne-Rhône-Alpes"}},{"type":"Feature","geometry":{"type":"Point","coordinates":[2.6078,46.46283]},"properties":{"latitude":"46.46283","longitude":"2.6078","bright_ti4":"323.03","scan":"0.38","track":"0.36","acq_date":"2026-06-05","acq_time":"152","satellite":"N21","instrument":"VIIRS","confidence":"n","version":"2.0NRT","bright_ti5":"282.39","frp":"4.57","daynight":"N","commune":"Reugny","code_insee":"03213","departement":"Allier","region":"Auvergne-Rhône-Alpes"}},{"type":"Feature","geometry":{"type":"Point","coordinates":[2.60288,46.4636]},"properties":{"latitude":"46.4636","longitude":"2.60288","bright_ti4":"302.63","scan":"0.38","track":"0.36","acq_date":"2026-06-05","acq_time":"152","satellite":"N21","instrument":"VIIRS","confidence":"n","version":"2.0NRT","bright_ti5":"280.59","frp":"3.29","daynight":"N","commune":"Audes","code_insee":"03010","departement":"Allier","region":"Auvergne-Rhône-Alpes"}},{"type":"Feature","geometry":{"type":"Point","coordinates":[2.98512,48.38721]},"properties":{"latitude":"48.38721","longitude":"2.98512","bright_ti4":"295.11","scan":"0.38","track":"0.36","acq_date":"2026-06-05","acq_time":"152","satellite":"N21","instrument":"VIIRS","confidence":"n","version":"2.0NRT","bright_ti5":"274.61","frp":"0.71","daynight":"N","commune":"Montereau-Fault-Yonne","code_insee":"77305","departement":"Seine-et-Marne","region":"Île-de-France"}},{"type":"Feature","geometry":{"type":"Point","coordinates":[6.11001,48.60938]},"properties":{"latitude":"48.60938","longitude":"6.11001","bright_ti4":"299.52","scan":"0.41","track":"0.37","acq_date":"2026-06-05","acq_time":"152","satellite":"N21","instrument":"VIIRS","confidence":"n","version":"2.0NRT","bright_ti5":"282.48","frp":"1.34","daynight":"N","commune":"Neuves-Maisons","code_insee":"54397","departement":"Meurthe-et-Moselle","region":"Grand Est"}},{"type":"Feature","geometry":{"type":"Point","coordinates":[5.68101,48.71754]},"properties":{"latitude":"48.71754","longitude":"5.68101","bright_ti4":"302.29","scan":"0.4","track":"0.37","acq_date":"2026-06-05","acq_time":"152","satellite":"N21","instrument":"VIIRS","confidence":"n","version":"2.0NRT","bright_ti5":"281.42","frp":"0.79","daynight":"N","commune":"Sorcy-Saint-Martin","code_insee":"55496","departement":"Meuse","region":"Grand Est"}},{"type":"Feature","geometry":{"type":"Point","coordinates":[2.07365,49.04435]},"properties":{"latitude":"49.04435","longitude":"2.07365","bright_ti4":"303.17","scan":"0.39","track":"0.36","acq_date":"2026-06-05","acq_time":"152","satellite":"N21","instrument":"VIIRS","confidence":"n","version":"2.0NRT","bright_ti5":"280.71","frp":"0.76","daynight":"N","commune":"Cergy","code_insee":"95127","departement":"Val-d'Oise","region":"Île-de-France"}},{"type":"Feature","geometry":{"type":"Point","coordinates":[2.06835,49.04509]},"properties":{"latitude":"49.04509","longitude":"2.06835","bright_ti4":"298.85","scan":"0.39","track":"0.36","acq_date":"2026-06-05","acq_time":"152","satellite":"N21","instrument":"VIIRS","confidence":"n","version":"2.0NRT","bright_ti5":"280.5","frp":"0.76","daynight":"N","commune":"Cergy","code_insee":"95127","departement":"Val-d'Oise","region":"Île-de-France"}},{"type":"Feature","geometry":{"type":"Point","coordinates":[-1.26091,49.16599]},"properties":{"latitude":"49.16599","longitude":"-1.26091","bright_ti4":"302.72","scan":"0.47","track":"0.4","acq_date":"2026-06-05","acq_time":"152","satellite":"N21","instrument":"VIIRS","confidence":"n","version":"2.0NRT","bright_ti5":"282.29","frp":"1.08","daynight":"N","commune":"Remilly Les Marais","code_insee":"50431","departement":"Manche","region":"Normandie"}},{"type":"Feature","geometry":{"type":"Point","coordinates":[3.10523,49.46648]},"properties":{"latitude":"49.46648","longitude":"3.10523","bright_ti4":"299.02","scan":"0.39","track":"0.36","acq_date":"2026-06-05","acq_time":"152","satellite":"N21","instrument":"VIIRS","confidence":"n","version":"2.0NRT","bright_ti5":"281.57","frp":"0.61","daynight":"N","commune":"Autrêches","code_insee":"60032","departement":"Oise","region":"Hauts-de-France"}}]}