{"type":"FeatureCollection","features":[{"type":"Feature","geometry":{"type":"Point","coordinates":[4.83357,49.35317]},"properties":{"latitude":"49.35317","longitude":"4.83357","bright_ti4":"300.61","scan":"0.66","track":"0.73","acq_date":"2026-08-19","acq_time":"39","satellite":"N","instrument":"VIIRS","confidence":"n","version":"2.0NRT","bright_ti5":"284.44","frp":"2.04","daynight":"N","commune":"Grandpré","code_insee":"08198","departement":"Ardennes","region":"Grand Est"}},{"type":"Feature","geometry":{"type":"Point","coordinates":[4.84313,49.35329]},"properties":{"latitude":"49.35329","longitude":"4.84313","bright_ti4":"314.82","scan":"0.66","track":"0.73","acq_date":"2026-08-19","acq_time":"39","satellite":"N","instrument":"VIIRS","confidence":"n","version":"2.0NRT","bright_ti5":"285.02","frp":"2.04","daynight":"N","commune":"Grandpré","code_insee":"08198","departement":"Ardennes","region":"Grand Est"}},{"type":"Feature","geometry":{"type":"Point","coordinates":[7.37402,43.79567]},"properties":{"latitude":"43.79567","longitude":"7.37402","bright_ti4":"305.06","scan":"0.48","track":"0.64","acq_date":"2026-08-19","acq_time":"41","satellite":"N","instrument":"VIIRS","confidence":"n","version":"2.0NRT","bright_ti5":"290.97","frp":"0.84","daynight":"N","commune":"Blausasc","code_insee":"06019","departement":"Alpes-Maritimes","region":"Provence-Alpes-Côte d'Azur"}},{"type":"Feature","geometry":{"type":"Point","coordinates":[0.9914,43.18677]},"properties":{"latitude":"43.18677","longitude":"0.9914","bright_ti4":"302.1","scan":"0.46","track":"0.39","acq_date":"2026-08-19","acq_time":"221","satellite":"N","instrument":"VIIRS","confidence":"n","version":"2.0NRT","bright_ti5":"291.71","frp":"0.93","daynight":"N","commune":"Martres-Tolosane","code_insee":"31324","departement":"Haute-Garonne","region":"Occitanie"}},{"type":"Feature","geometry":{"type":"Point","coordinates":[4.89414,43.43359]},"properties":{"latitude":"43.43359","longitude":"4.89414","bright_ti4":"305.74","scan":"0.44","track":"0.46","acq_date":"2026-08-19","acq_time":"221","satellite":"N","instrument":"VIIRS","confidence":"n","version":"2.0NRT","bright_ti5":"294.88","frp":"2.17","daynight":"N","commune":"Fos-sur-Mer","code_insee":"13039","departement":"Bouches-du-Rhône","region":"Provence-Alpes-Côte d'Azur"}},{"type":"Feature","geometry":{"type":"Point","coordinates":[4.89961,43.44591]},"properties":{"latitude":"43.44591","longitude":"4.89961","bright_ti4":"330","scan":"0.44","track":"0.46","acq_date":"2026-08-19","acq_time":"221","satellite":"N","instrument":"VIIRS","confidence":"n","version":"2.0NRT","bright_ti5":"295.52","frp":"2.64","daynight":"N","commune":"Fos-sur-Mer","code_insee":"13039","departement":"Bouches-du-Rhône","region":"Provence-Alpes-Côte d'Azur"}},{"type":"Feature","geometry":{"type":"Point","coordinates":[4.89434,43.44716]},"properties":{"latitude":"43.44716","longitude":"4.89434","bright_ti4":"308.92","scan":"0.44","track":"0.46","acq_date":"2026-08-19","acq_time":"221","satellite":"N","instrument":"VIIRS","confidence":"n","version":"2.0NRT","bright_ti5":"294.55","frp":"1.8","daynight":"N","commune":"Fos-sur-Mer","code_insee":"13039","departement":"Bouches-du-Rhône","region":"Provence-Alpes-Côte d'Azur"}},{"type":"Feature","geometry":{"type":"Point","coordinates":[0.48061,46.66346]},"properties":{"latitude":"46.66346","longitude":"0.48061","bright_ti4":"301.87","scan":"0.41","track":"0.37","acq_date":"2026-08-19","acq_time":"221","satellite":"N","instrument":"VIIRS","confidence":"n","version":"2.0NRT","bright_ti5":"289.08","frp":"0.61","daynight":"N","commune":"Saint-Georges-lès-Baillargeaux","code_insee":"86222","departement":"Vienne","region":"Nouvelle-Aquitaine"}},{"type":"Feature","geometry":{"type":"Point","coordinates":[-0.14151,46.8071]},"properties":{"latitude":"46.8071","longitude":"-0.14151","bright_ti4":"304.3","scan":"0.4","track":"0.37","acq_date":"2026-08-19","acq_time":"221","satellite":"N","instrument":"VIIRS","confidence":"n","version":"2.0NRT","bright_ti5":"289.57","frp":"0.58","daynight":"N","commune":"Airvault","code_insee":"79005","departement":"Deux-Sèvres","region":"Nouvelle-Aquitaine"}},{"type":"Feature","geometry":{"type":"Point","coordinates":[4.841,49.35067]},"properties":{"latitude":"49.35067","longitude":"4.841","bright_ti4":"296.23","scan":"0.49","track":"0.4","acq_date":"2026-08-19","acq_time":"221","satellite":"N","instrument":"VIIRS","confidence":"n","version":"2.0NRT","bright_ti5":"285.89","frp":"0.83","daynight":"N","commune":"Grandpré","code_insee":"08198","departement":"Ardennes","region":"Grand Est"}},{"type":"Feature","geometry":{"type":"Point","coordinates":[6.96524,48.69339]},"properties":{"latitude":"48.69339","longitude":"6.96524","bright_ti4":"299.38","scan":"0.54","track":"0.51","acq_date":"2026-08-19","acq_time":"100","satellite":"N20","instrument":"VIIRS","confidence":"n","version":"2.0NRT","bright_ti5":"287.19","frp":"0.99","daynight":"N","commune":"Héming","code_insee":"57314","departement":"Moselle","region":"Grand Est"}},{"type":"Feature","geometry":{"type":"Point","coordinates":[4.84153,49.35464]},"properties":{"latitude":"49.35464","longitude":"4.84153","bright_ti4":"317.63","scan":"0.34","track":"0.56","acq_date":"2026-08-19","acq_time":"100","satellite":"N20","instrument":"VIIRS","confidence":"n","version":"2.0NRT","bright_ti5":"285.83","frp":"1.58","daynight":"N","commune":"Grandpré","code_insee":"08198","departement":"Ardennes","region":"Grand Est"}},{"type":"Feature","geometry":{"type":"Point","coordinates":[4.83675,49.35484]},"properties":{"latitude":"49.35484","longitude":"4.83675","bright_ti4":"316.36","scan":"0.34","track":"0.56","acq_date":"2026-08-19","acq_time":"100","satellite":"N20","instrument":"VIIRS","confidence":"n","version":"2.0NRT","bright_ti5":"284.61","frp":"1.58","daynight":"N","commune":"Grandpré","code_insee":"08198","departement":"Ardennes","region":"Grand Est"}},{"type":"Feature","geometry":{"type":"Point","coordinates":[5.24122,49.49081]},"properties":{"latitude":"49.49081","longitude":"5.24122","bright_ti4":"297.27","scan":"0.33","track":"0.55","acq_date":"2026-08-19","acq_time":"100","satellite":"N20","instrument":"VIIRS","confidence":"n","version":"2.0NRT","bright_ti5":"285.72","frp":"1.02","daynight":"N","commune":"Baâlon","code_insee":"55025","departement":"Meuse","region":"Grand Est"}},{"type":"Feature","geometry":{"type":"Point","coordinates":[5.23662,49.49101]},"properties":{"latitude":"49.49101","longitude":"5.23662","bright_ti4":"301.31","scan":"0.33","track":"0.55","acq_date":"2026-08-19","acq_time":"100","satellite":"N20","instrument":"VIIRS","confidence":"n","version":"2.0NRT","bright_ti5":"284.81","frp":"0.88","daynight":"N","commune":"Baâlon","code_insee":"55025","departement":"Meuse","region":"Grand Est"}},{"type":"Feature","geometry":{"type":"Point","coordinates":[2.28612,51.03551]},"properties":{"latitude":"51.03551","longitude":"2.28612","bright_ti4":"315.64","scan":"0.45","track":"0.63","acq_date":"2026-08-19","acq_time":"100","satellite":"N20","instrument":"VIIRS","confidence":"n","version":"2.0NRT","bright_ti5":"284.74","frp":"4.05","daynight":"N","commune":"Grande-Synthe","code_insee":"59271","departement":"Nord","region":"Hauts-de-France"}},{"type":"Feature","geometry":{"type":"Point","coordinates":[2.28685,51.03685]},"properties":{"latitude":"51.03685","longitude":"2.28685","bright_ti4":"310.16","scan":"0.45","track":"0.63","acq_date":"2026-08-19","acq_time":"100","satellite":"N20","instrument":"VIIRS","confidence":"n","version":"2.0NRT","bright_ti5":"284.33","frp":"4.59","daynight":"N","commune":"Grande-Synthe","code_insee":"59271","departement":"Nord","region":"Hauts-de-France"}},{"type":"Feature","geometry":{"type":"Point","coordinates":[2.30031,51.04247]},"properties":{"latitude":"51.04247","longitude":"2.30031","bright_ti4":"301.35","scan":"0.45","track":"0.63","acq_date":"2026-08-19","acq_time":"100","satellite":"N20","instrument":"VIIRS","confidence":"n","version":"2.0NRT","bright_ti5":"285.69","frp":"3.01","daynight":"N","commune":"Grande-Synthe","code_insee":"59271","departement":"Nord","region":"Hauts-de-France"}},{"type":"Feature","geometry":{"type":"Point","coordinates":[2.29325,51.04715]},"properties":{"latitude":"51.04715","longitude":"2.29325","bright_ti4":"320.56","scan":"0.45","track":"0.63","acq_date":"2026-08-19","acq_time":"100","satellite":"N20","instrument":"VIIRS","confidence":"n","version":"2.0NRT","bright_ti5":"285.66","frp":"3.84","daynight":"N","commune":"Grande-Synthe","code_insee":"59271","departement":"Nord","region":"Hauts-de-France"}},{"type":"Feature","geometry":{"type":"Point","coordinates":[0.98824,43.18817]},"properties":{"latitude":"43.18817","longitude":"0.98824","bright_ti4":"300.72","scan":"0.47","track":"0.64","acq_date":"2026-08-19","acq_time":"102","satellite":"N20","instrument":"VIIRS","confidence":"n","version":"2.0NRT","bright_ti5":"290.67","frp":"0.68","daynight":"N","commune":"Martres-Tolosane","code_insee":"31324","departement":"Haute-Garonne","region":"Occitanie"}},{"type":"Feature","geometry":{"type":"Point","coordinates":[4.8947,43.43222]},"properties":{"latitude":"43.43222","longitude":"4.8947","bright_ti4":"297.91","scan":"0.6","track":"0.53","acq_date":"2026-08-19","acq_time":"102","satellite":"N20","instrument":"VIIRS","confidence":"n","version":"2.0NRT","bright_ti5":"280.73","frp":"0.76","daynight":"N","commune":"Fos-sur-Mer","code_insee":"13039","departement":"Bouches-du-Rhône","region":"Provence-Alpes-Côte d'Azur"}},{"type":"Feature","geometry":{"type":"Point","coordinates":[4.8872,43.43269]},"properties":{"latitude":"43.43269","longitude":"4.8872","bright_ti4":"301.42","scan":"0.6","track":"0.53","acq_date":"2026-08-19","acq_time":"102","satellite":"N20","instrument":"VIIRS","confidence":"n","version":"2.0NRT","bright_ti5":"280.62","frp":"0.99","daynight":"N","commune":"Fos-sur-Mer","code_insee":"13039","departement":"Bouches-du-Rhône","region":"Provence-Alpes-Côte d'Azur"}},{"type":"Feature","geometry":{"type":"Point","coordinates":[4.89654,43.44693]},"properties":{"latitude":"43.44693","longitude":"4.89654","bright_ti4":"306.61","scan":"0.6","track":"0.53","acq_date":"2026-08-19","acq_time":"102","satellite":"N20","instrument":"VIIRS","confidence":"n","version":"2.0NRT","bright_ti5":"284.74","frp":"1.53","daynight":"N","commune":"Fos-sur-Mer","code_insee":"13039","departement":"Bouches-du-Rhône","region":"Provence-Alpes-Côte d'Azur"}},{"type":"Feature","geometry":{"type":"Point","coordinates":[7.37307,43.79411]},"properties":{"latitude":"43.79411","longitude":"7.37307","bright_ti4":"308.55","scan":"0.46","track":"0.47","acq_date":"2026-08-19","acq_time":"102","satellite":"N20","instrument":"VIIRS","confidence":"n","version":"2.0NRT","bright_ti5":"292.22","frp":"1.04","daynight":"N","commune":"Blausasc","code_insee":"06019","departement":"Alpes-Maritimes","region":"Provence-Alpes-Côte d'Azur"}},{"type":"Feature","geometry":{"type":"Point","coordinates":[-0.47133,47.46053]},"properties":{"latitude":"47.46053","longitude":"-0.47133","bright_ti4":"337.42","scan":"0.4","track":"0.44","acq_date":"2026-08-19","acq_time":"241","satellite":"N20","instrument":"VIIRS","confidence":"n","version":"2.0NRT","bright_ti5":"289.3","frp":"2.97","daynight":"N","commune":"Trélazé","code_insee":"49353","departement":"Maine-et-Loire","region":"Pays de la Loire"}},{"type":"Feature","geometry":{"type":"Point","coordinates":[7.23687,47.63214]},"properties":{"latitude":"47.63214","longitude":"7.23687","bright_ti4":"295.01","scan":"0.42","track":"0.61","acq_date":"2026-08-19","acq_time":"241","satellite":"N20","instrument":"VIIRS","confidence":"n","version":"2.0NRT","bright_ti5":"282.96","frp":"0.35","daynight":"N","commune":"Altkirch","code_insee":"68004","departement":"Haut-Rhin","region":"Grand Est"}},{"type":"Feature","geometry":{"type":"Point","coordinates":[6.10072,49.32498]},"properties":{"latitude":"49.32498","longitude":"6.10072","bright_ti4":"307.64","scan":"0.33","track":"0.55","acq_date":"2026-08-19","acq_time":"241","satellite":"N20","instrument":"VIIRS","confidence":"n","version":"2.0NRT","bright_ti5":"288.02","frp":"1.32","daynight":"N","commune":"Serémange-Erzange","code_insee":"57647","departement":"Moselle","region":"Grand Est"}},{"type":"Feature","geometry":{"type":"Point","coordinates":[4.84042,49.35453]},"properties":{"latitude":"49.35453","longitude":"4.84042","bright_ti4":"296.75","scan":"0.59","track":"0.53","acq_date":"2026-08-19","acq_time":"241","satellite":"N20","instrument":"VIIRS","confidence":"n","version":"2.0NRT","bright_ti5":"285.87","frp":"1.19","daynight":"N","commune":"Grandpré","code_insee":"08198","departement":"Ardennes","region":"Grand Est"}},{"type":"Feature","geometry":{"type":"Point","coordinates":[4.897,43.43412]},"properties":{"latitude":"43.43412","longitude":"4.897","bright_ti4":"304.26","scan":"0.45","track":"0.63","acq_date":"2026-08-19","acq_time":"243","satellite":"N20","instrument":"VIIRS","confidence":"n","version":"2.0NRT","bright_ti5":"293.63","frp":"0.97","daynight":"N","commune":"Fos-sur-Mer","code_insee":"13039","departement":"Bouches-du-Rhône","region":"Provence-Alpes-Côte d'Azur"}},{"type":"Feature","geometry":{"type":"Point","coordinates":[4.89185,43.43567]},"properties":{"latitude":"43.43567","longitude":"4.89185","bright_ti4":"307.91","scan":"0.45","track":"0.63","acq_date":"2026-08-19","acq_time":"243","satellite":"N20","instrument":"VIIRS","confidence":"n","version":"2.0NRT","bright_ti5":"294.39","frp":"0.97","daynight":"N","commune":"Fos-sur-Mer","code_insee":"13039","departement":"Bouches-du-Rhône","region":"Provence-Alpes-Côte d'Azur"}},{"type":"Feature","geometry":{"type":"Point","coordinates":[4.89795,43.4464]},"properties":{"latitude":"43.4464","longitude":"4.89795","bright_ti4":"326.86","scan":"0.45","track":"0.63","acq_date":"2026-08-19","acq_time":"243","satellite":"N20","instrument":"VIIRS","confidence":"n","version":"2.0NRT","bright_ti5":"294.39","frp":"4.14","daynight":"N","commune":"Fos-sur-Mer","code_insee":"13039","departement":"Bouches-du-Rhône","region":"Provence-Alpes-Côte d'Azur"}},{"type":"Feature","geometry":{"type":"Point","coordinates":[4.89282,43.44793]},"properties":{"latitude":"43.44793","longitude":"4.89282","bright_ti4":"318.56","scan":"0.45","track":"0.63","acq_date":"2026-08-19","acq_time":"243","satellite":"N20","instrument":"VIIRS","confidence":"n","version":"2.0NRT","bright_ti5":"292.4","frp":"3.2","daynight":"N","commune":"Fos-sur-Mer","code_insee":"13039","departement":"Bouches-du-Rhône","region":"Provence-Alpes-Côte d'Azur"}},{"type":"Feature","geometry":{"type":"Point","coordinates":[1.51713,42.90091]},"properties":{"latitude":"42.90091","longitude":"1.51713","bright_ti4":"298.59","scan":"0.39","track":"0.36","acq_date":"2026-08-19","acq_time":"145","satellite":"N21","instrument":"VIIRS","confidence":"n","version":"2.0NRT","bright_ti5":"288.39","frp":"0.33","daynight":"N","commune":"Saurat","code_insee":"09280","departement":"Ariège","region":"Occitanie"}},{"type":"Feature","geometry":{"type":"Point","coordinates":[1.51346,42.90485]},"properties":{"latitude":"42.90485","longitude":"1.51346","bright_ti4":"302.39","scan":"0.39","track":"0.36","acq_date":"2026-08-19","acq_time":"145","satellite":"N21","instrument":"VIIRS","confidence":"n","version":"2.0NRT","bright_ti5":"289.97","frp":"0.6","daynight":"N","commune":"Saurat","code_insee":"09280","departement":"Ariège","region":"Occitanie"}},{"type":"Feature","geometry":{"type":"Point","coordinates":[1.50874,42.90554]},"properties":{"latitude":"42.90554","longitude":"1.50874","bright_ti4":"301.03","scan":"0.39","track":"0.36","acq_date":"2026-08-19","acq_time":"145","satellite":"N21","instrument":"VIIRS","confidence":"n","version":"2.0NRT","bright_ti5":"288.33","frp":"0.6","daynight":"N","commune":"Saurat","code_insee":"09280","departement":"Ariège","region":"Occitanie"}},{"type":"Feature","geometry":{"type":"Point","coordinates":[4.8911,43.43177]},"properties":{"latitude":"43.43177","longitude":"4.8911","bright_ti4":"317.11","scan":"0.4","track":"0.37","acq_date":"2026-08-19","acq_time":"145","satellite":"N21","instrument":"VIIRS","confidence":"n","version":"2.0NRT","bright_ti5":"296.31","frp":"2.85","daynight":"N","commune":"Fos-sur-Mer","code_insee":"13039","departement":"Bouches-du-Rhône","region":"Provence-Alpes-Côte d'Azur"}},{"type":"Feature","geometry":{"type":"Point","coordinates":[4.88625,43.43261]},"properties":{"latitude":"43.43261","longitude":"4.88625","bright_ti4":"326.99","scan":"0.4","track":"0.37","acq_date":"2026-08-19","acq_time":"145","satellite":"N21","instrument":"VIIRS","confidence":"n","version":"2.0NRT","bright_ti5":"296.19","frp":"2.85","daynight":"N","commune":"Fos-sur-Mer","code_insee":"13039","departement":"Bouches-du-Rhône","region":"Provence-Alpes-Côte d'Azur"}},{"type":"Feature","geometry":{"type":"Point","coordinates":[4.90029,43.44415]},"properties":{"latitude":"43.44415","longitude":"4.90029","bright_ti4":"334.51","scan":"0.4","track":"0.37","acq_date":"2026-08-19","acq_time":"145","satellite":"N21","instrument":"VIIRS","confidence":"n","version":"2.0NRT","bright_ti5":"295.7","frp":"3.64","daynight":"N","commune":"Fos-sur-Mer","code_insee":"13039","departement":"Bouches-du-Rhône","region":"Provence-Alpes-Côte d'Azur"}},{"type":"Feature","geometry":{"type":"Point","coordinates":[4.89544,43.44499]},"properties":{"latitude":"43.44499","longitude":"4.89544","bright_ti4":"309.62","scan":"0.4","track":"0.37","acq_date":"2026-08-19","acq_time":"145","satellite":"N21","instrument":"VIIRS","confidence":"n","version":"2.0NRT","bright_ti5":"294.98","frp":"2.81","daynight":"N","commune":"Fos-sur-Mer","code_insee":"13039","departement":"Bouches-du-Rhône","region":"Provence-Alpes-Côte d'Azur"}},{"type":"Feature","geometry":{"type":"Point","coordinates":[4.89653,43.4483]},"properties":{"latitude":"43.4483","longitude":"4.89653","bright_ti4":"313.68","scan":"0.4","track":"0.37","acq_date":"2026-08-19","acq_time":"145","satellite":"N21","instrument":"VIIRS","confidence":"n","version":"2.0NRT","bright_ti5":"293.51","frp":"1.35","daynight":"N","commune":"Fos-sur-Mer","code_insee":"13039","departement":"Bouches-du-Rhône","region":"Provence-Alpes-Côte d'Azur"}},{"type":"Feature","geometry":{"type":"Point","coordinates":[1.23128,43.98743]},"properties":{"latitude":"43.98743","longitude":"1.23128","bright_ti4":"302.19","scan":"0.4","track":"0.37","acq_date":"2026-08-19","acq_time":"145","satellite":"N21","instrument":"VIIRS","confidence":"n","version":"2.0NRT","bright_ti5":"290.7","frp":"0.57","daynight":"N","commune":"Montech","code_insee":"82125","departement":"Tarn-et-Garonne","region":"Occitanie"}},{"type":"Feature","geometry":{"type":"Point","coordinates":[0.25512,44.20632]},"properties":{"latitude":"44.20632","longitude":"0.25512","bright_ti4":"305.53","scan":"0.42","track":"0.38","acq_date":"2026-08-19","acq_time":"145","satellite":"N21","instrument":"VIIRS","confidence":"n","version":"2.0NRT","bright_ti5":"290.77","frp":"0.93","daynight":"N","commune":"Xaintrailles","code_insee":"47327","departement":"Lot-et-Garonne","region":"Nouvelle-Aquitaine"}},{"type":"Feature","geometry":{"type":"Point","coordinates":[5.81986,45.91119]},"properties":{"latitude":"45.91119","longitude":"5.81986","bright_ti4":"301.37","scan":"0.4","track":"0.37","acq_date":"2026-08-19","acq_time":"145","satellite":"N21","instrument":"VIIRS","confidence":"n","version":"2.0NRT","bright_ti5":"290.41","frp":"0.62","daynight":"N","commune":"Anglefort","code_insee":"01010","departement":"Ain","region":"Auvergne-Rhône-Alpes"}},{"type":"Feature","geometry":{"type":"Point","coordinates":[-0.1425,46.80608]},"properties":{"latitude":"46.80608","longitude":"-0.1425","bright_ti4":"301.14","scan":"0.45","track":"0.39","acq_date":"2026-08-19","acq_time":"145","satellite":"N21","instrument":"VIIRS","confidence":"n","version":"2.0NRT","bright_ti5":"289.68","frp":"1.16","daynight":"N","commune":"Airvault","code_insee":"79005","departement":"Deux-Sèvres","region":"Nouvelle-Aquitaine"}},{"type":"Feature","geometry":{"type":"Point","coordinates":[7.23553,47.62745]},"properties":{"latitude":"47.62745","longitude":"7.23553","bright_ti4":"300.76","scan":"0.41","track":"0.37","acq_date":"2026-08-19","acq_time":"145","satellite":"N21","instrument":"VIIRS","confidence":"n","version":"2.0NRT","bright_ti5":"288.96","frp":"0.81","daynight":"N","commune":"Altkirch","code_insee":"68004","departement":"Haut-Rhin","region":"Grand Est"}},{"type":"Feature","geometry":{"type":"Point","coordinates":[6.10128,49.32465]},"properties":{"latitude":"49.32465","longitude":"6.10128","bright_ti4":"300.3","scan":"0.39","track":"0.36","acq_date":"2026-08-19","acq_time":"145","satellite":"N21","instrument":"VIIRS","confidence":"n","version":"2.0NRT","bright_ti5":"287.08","frp":"1.02","daynight":"N","commune":"Serémange-Erzange","code_insee":"57647","departement":"Moselle","region":"Grand Est"}},{"type":"Feature","geometry":{"type":"Point","coordinates":[5.2402,49.49008]},"properties":{"latitude":"49.49008","longitude":"5.2402","bright_ti4":"316.38","scan":"0.38","track":"0.36","acq_date":"2026-08-19","acq_time":"145","satellite":"N21","instrument":"VIIRS","confidence":"n","version":"2.0NRT","bright_ti5":"287.42","frp":"1.99","daynight":"N","commune":"Baâlon","code_insee":"55025","departement":"Meuse","region":"Grand Est"}},{"type":"Feature","geometry":{"type":"Point","coordinates":[-0.46969,47.45584]},"properties":{"latitude":"47.45584","longitude":"-0.46969","bright_ti4":"299.59","scan":"0.69","track":"0.74","acq_date":"2026-08-19","acq_time":"325","satellite":"N21","instrument":"VIIRS","confidence":"n","version":"2.0NRT","bright_ti5":"285.42","frp":"1.33","daynight":"N","commune":"Trélazé","code_insee":"49353","departement":"Maine-et-Loire","region":"Pays de la Loire"}}]}