{"type":"FeatureCollection","features":[{"type":"Feature","geometry":{"type":"Point","coordinates":[2.2701,51.02885]},"properties":{"latitude":"51.02885","longitude":"2.2701","bright_ti4":"309.68","scan":"0.53","track":"0.67","acq_date":"2026-08-18","acq_time":"58","satellite":"N","instrument":"VIIRS","confidence":"n","version":"2.0NRT","bright_ti5":"271.1","frp":"1.84","daynight":"N","commune":"Grande-Synthe","code_insee":"59271","departement":"Nord","region":"Hauts-de-France"}},{"type":"Feature","geometry":{"type":"Point","coordinates":[2.2697,51.03091]},"properties":{"latitude":"51.03091","longitude":"2.2697","bright_ti4":"298.98","scan":"0.53","track":"0.67","acq_date":"2026-08-18","acq_time":"58","satellite":"N","instrument":"VIIRS","confidence":"n","version":"2.0NRT","bright_ti5":"271.16","frp":"1.99","daynight":"N","commune":"Grande-Synthe","code_insee":"59271","departement":"Nord","region":"Hauts-de-France"}},{"type":"Feature","geometry":{"type":"Point","coordinates":[7.37337,43.7943]},"properties":{"latitude":"43.7943","longitude":"7.37337","bright_ti4":"302.8","scan":"0.55","track":"0.51","acq_date":"2026-08-18","acq_time":"100","satellite":"N","instrument":"VIIRS","confidence":"n","version":"2.0NRT","bright_ti5":"290.74","frp":"1.03","daynight":"N","commune":"Blausasc","code_insee":"06019","departement":"Alpes-Maritimes","region":"Provence-Alpes-Côte d'Azur"}},{"type":"Feature","geometry":{"type":"Point","coordinates":[5.82053,45.91245]},"properties":{"latitude":"45.91245","longitude":"5.82053","bright_ti4":"301.43","scan":"0.34","track":"0.56","acq_date":"2026-08-18","acq_time":"100","satellite":"N","instrument":"VIIRS","confidence":"n","version":"2.0NRT","bright_ti5":"287.22","frp":"0.6","daynight":"N","commune":"Anglefort","code_insee":"01010","departement":"Ain","region":"Auvergne-Rhône-Alpes"}},{"type":"Feature","geometry":{"type":"Point","coordinates":[1.511,42.90285]},"properties":{"latitude":"42.90285","longitude":"1.511","bright_ti4":"301.84","scan":"0.54","track":"0.68","acq_date":"2026-08-18","acq_time":"102","satellite":"N","instrument":"VIIRS","confidence":"n","version":"2.0NRT","bright_ti5":"283.95","frp":"1.69","daynight":"N","commune":"Saurat","code_insee":"09280","departement":"Ariège","region":"Occitanie"}},{"type":"Feature","geometry":{"type":"Point","coordinates":[1.50845,42.90651]},"properties":{"latitude":"42.90651","longitude":"1.50845","bright_ti4":"307.55","scan":"0.54","track":"0.67","acq_date":"2026-08-18","acq_time":"102","satellite":"N","instrument":"VIIRS","confidence":"n","version":"2.0NRT","bright_ti5":"284.45","frp":"2.45","daynight":"N","commune":"Brassac","code_insee":"09066","departement":"Ariège","region":"Occitanie"}},{"type":"Feature","geometry":{"type":"Point","coordinates":[4.89032,43.4377]},"properties":{"latitude":"43.4377","longitude":"4.89032","bright_ti4":"327.63","scan":"0.36","track":"0.58","acq_date":"2026-08-18","acq_time":"102","satellite":"N","instrument":"VIIRS","confidence":"n","version":"2.0NRT","bright_ti5":"290.27","frp":"3.98","daynight":"N","commune":"Fos-sur-Mer","code_insee":"13039","departement":"Bouches-du-Rhône","region":"Provence-Alpes-Côte d'Azur"}},{"type":"Feature","geometry":{"type":"Point","coordinates":[4.88161,43.44352]},"properties":{"latitude":"43.44352","longitude":"4.88161","bright_ti4":"333.84","scan":"0.36","track":"0.58","acq_date":"2026-08-18","acq_time":"102","satellite":"N","instrument":"VIIRS","confidence":"n","version":"2.0NRT","bright_ti5":"287.06","frp":"6.23","daynight":"N","commune":"Fos-sur-Mer","code_insee":"13039","departement":"Bouches-du-Rhône","region":"Provence-Alpes-Côte d'Azur"}},{"type":"Feature","geometry":{"type":"Point","coordinates":[4.877,43.44374]},"properties":{"latitude":"43.44374","longitude":"4.877","bright_ti4":"320.1","scan":"0.36","track":"0.58","acq_date":"2026-08-18","acq_time":"102","satellite":"N","instrument":"VIIRS","confidence":"n","version":"2.0NRT","bright_ti5":"284.04","frp":"4.7","daynight":"N","commune":"Fos-sur-Mer","code_insee":"13039","departement":"Bouches-du-Rhône","region":"Provence-Alpes-Côte d'Azur"}},{"type":"Feature","geometry":{"type":"Point","coordinates":[0.4785,46.6629]},"properties":{"latitude":"46.6629","longitude":"0.4785","bright_ti4":"299.59","scan":"0.39","track":"0.44","acq_date":"2026-08-18","acq_time":"241","satellite":"N","instrument":"VIIRS","confidence":"n","version":"2.0NRT","bright_ti5":"287.55","frp":"0.74","daynight":"N","commune":"Saint-Georges-lès-Baillargeaux","code_insee":"86222","departement":"Vienne","region":"Nouvelle-Aquitaine"}},{"type":"Feature","geometry":{"type":"Point","coordinates":[6.96728,48.69323]},"properties":{"latitude":"48.69323","longitude":"6.96728","bright_ti4":"299.42","scan":"0.32","track":"0.54","acq_date":"2026-08-18","acq_time":"241","satellite":"N","instrument":"VIIRS","confidence":"n","version":"2.0NRT","bright_ti5":"286.3","frp":"0.83","daynight":"N","commune":"Héming","code_insee":"57314","departement":"Moselle","region":"Grand Est"}},{"type":"Feature","geometry":{"type":"Point","coordinates":[6.14643,49.31722]},"properties":{"latitude":"49.31722","longitude":"6.14643","bright_ti4":"297.34","scan":"0.56","track":"0.52","acq_date":"2026-08-18","acq_time":"241","satellite":"N","instrument":"VIIRS","confidence":"n","version":"2.0NRT","bright_ti5":"285.37","frp":"0.49","daynight":"N","commune":"Florange","code_insee":"57221","departement":"Moselle","region":"Grand Est"}},{"type":"Feature","geometry":{"type":"Point","coordinates":[0.53484,49.47675]},"properties":{"latitude":"49.47675","longitude":"0.53484","bright_ti4":"302.12","scan":"0.51","track":"0.41","acq_date":"2026-08-18","acq_time":"241","satellite":"N","instrument":"VIIRS","confidence":"n","version":"2.0NRT","bright_ti5":"283.74","frp":"0.71","daynight":"N","commune":"Lillebonne","code_insee":"76384","departement":"Seine-Maritime","region":"Normandie"}},{"type":"Feature","geometry":{"type":"Point","coordinates":[4.88782,43.43142]},"properties":{"latitude":"43.43142","longitude":"4.88782","bright_ti4":"309.15","scan":"0.37","track":"0.58","acq_date":"2026-08-18","acq_time":"243","satellite":"N","instrument":"VIIRS","confidence":"n","version":"2.0NRT","bright_ti5":"292.38","frp":"1.05","daynight":"N","commune":"Fos-sur-Mer","code_insee":"13039","departement":"Bouches-du-Rhône","region":"Provence-Alpes-Côte d'Azur"}},{"type":"Feature","geometry":{"type":"Point","coordinates":[4.89485,43.43523]},"properties":{"latitude":"43.43523","longitude":"4.89485","bright_ti4":"303.84","scan":"0.37","track":"0.58","acq_date":"2026-08-18","acq_time":"243","satellite":"N","instrument":"VIIRS","confidence":"n","version":"2.0NRT","bright_ti5":"292.21","frp":"1.05","daynight":"N","commune":"Fos-sur-Mer","code_insee":"13039","departement":"Bouches-du-Rhône","region":"Provence-Alpes-Côte d'Azur"}},{"type":"Feature","geometry":{"type":"Point","coordinates":[4.89051,43.43647]},"properties":{"latitude":"43.43647","longitude":"4.89051","bright_ti4":"315.82","scan":"0.37","track":"0.58","acq_date":"2026-08-18","acq_time":"243","satellite":"N","instrument":"VIIRS","confidence":"n","version":"2.0NRT","bright_ti5":"292.81","frp":"1.05","daynight":"N","commune":"Fos-sur-Mer","code_insee":"13039","departement":"Bouches-du-Rhône","region":"Provence-Alpes-Côte d'Azur"}},{"type":"Feature","geometry":{"type":"Point","coordinates":[4.8862,43.4377]},"properties":{"latitude":"43.4377","longitude":"4.8862","bright_ti4":"304.92","scan":"0.37","track":"0.58","acq_date":"2026-08-18","acq_time":"243","satellite":"N","instrument":"VIIRS","confidence":"n","version":"2.0NRT","bright_ti5":"292.46","frp":"1.39","daynight":"N","commune":"Fos-sur-Mer","code_insee":"13039","departement":"Bouches-du-Rhône","region":"Provence-Alpes-Côte d'Azur"}},{"type":"Feature","geometry":{"type":"Point","coordinates":[4.88188,43.43893]},"properties":{"latitude":"43.43893","longitude":"4.88188","bright_ti4":"313.27","scan":"0.37","track":"0.58","acq_date":"2026-08-18","acq_time":"243","satellite":"N","instrument":"VIIRS","confidence":"n","version":"2.0NRT","bright_ti5":"292.41","frp":"1.39","daynight":"N","commune":"Fos-sur-Mer","code_insee":"13039","departement":"Bouches-du-Rhône","region":"Provence-Alpes-Côte d'Azur"}},{"type":"Feature","geometry":{"type":"Point","coordinates":[4.89322,43.44151]},"properties":{"latitude":"43.44151","longitude":"4.89322","bright_ti4":"311.72","scan":"0.37","track":"0.58","acq_date":"2026-08-18","acq_time":"243","satellite":"N","instrument":"VIIRS","confidence":"n","version":"2.0NRT","bright_ti5":"292.25","frp":"2.22","daynight":"N","commune":"Fos-sur-Mer","code_insee":"13039","departement":"Bouches-du-Rhône","region":"Provence-Alpes-Côte d'Azur"}},{"type":"Feature","geometry":{"type":"Point","coordinates":[4.8846,43.44396]},"properties":{"latitude":"43.44396","longitude":"4.8846","bright_ti4":"319.35","scan":"0.37","track":"0.58","acq_date":"2026-08-18","acq_time":"243","satellite":"N","instrument":"VIIRS","confidence":"n","version":"2.0NRT","bright_ti5":"291.53","frp":"3.24","daynight":"N","commune":"Fos-sur-Mer","code_insee":"13039","departement":"Bouches-du-Rhône","region":"Provence-Alpes-Côte d'Azur"}},{"type":"Feature","geometry":{"type":"Point","coordinates":[4.88026,43.4452]},"properties":{"latitude":"43.4452","longitude":"4.88026","bright_ti4":"320.9","scan":"0.37","track":"0.58","acq_date":"2026-08-18","acq_time":"243","satellite":"N","instrument":"VIIRS","confidence":"n","version":"2.0NRT","bright_ti5":"292.82","frp":"2.34","daynight":"N","commune":"Fos-sur-Mer","code_insee":"13039","departement":"Bouches-du-Rhône","region":"Provence-Alpes-Côte d'Azur"}},{"type":"Feature","geometry":{"type":"Point","coordinates":[4.90026,43.4453]},"properties":{"latitude":"43.4453","longitude":"4.90026","bright_ti4":"333.97","scan":"0.37","track":"0.58","acq_date":"2026-08-18","acq_time":"243","satellite":"N","instrument":"VIIRS","confidence":"n","version":"2.0NRT","bright_ti5":"293.69","frp":"2.22","daynight":"N","commune":"Fos-sur-Mer","code_insee":"13039","departement":"Bouches-du-Rhône","region":"Provence-Alpes-Côte d'Azur"}},{"type":"Feature","geometry":{"type":"Point","coordinates":[4.89591,43.44654]},"properties":{"latitude":"43.44654","longitude":"4.89591","bright_ti4":"325.65","scan":"0.37","track":"0.58","acq_date":"2026-08-18","acq_time":"243","satellite":"N","instrument":"VIIRS","confidence":"n","version":"2.0NRT","bright_ti5":"292.97","frp":"2.22","daynight":"N","commune":"Fos-sur-Mer","code_insee":"13039","departement":"Bouches-du-Rhône","region":"Provence-Alpes-Côte d'Azur"}},{"type":"Feature","geometry":{"type":"Point","coordinates":[4.69441,44.09066]},"properties":{"latitude":"44.09066","longitude":"4.69441","bright_ti4":"303.85","scan":"0.34","track":"0.56","acq_date":"2026-08-18","acq_time":"243","satellite":"N","instrument":"VIIRS","confidence":"n","version":"2.0NRT","bright_ti5":"291.74","frp":"0.43","daynight":"N","commune":"Laudun-l'Ardoise","code_insee":"30141","departement":"Gard","region":"Occitanie"}},{"type":"Feature","geometry":{"type":"Point","coordinates":[6.10916,48.61031]},"properties":{"latitude":"48.61031","longitude":"6.10916","bright_ti4":"328","scan":"0.54","track":"0.42","acq_date":"2026-08-18","acq_time":"117","satellite":"N20","instrument":"VIIRS","confidence":"n","version":"2.0NRT","bright_ti5":"288.19","frp":"4.49","daynight":"N","commune":"Neuves-Maisons","code_insee":"54397","departement":"Meurthe-et-Moselle","region":"Grand Est"}},{"type":"Feature","geometry":{"type":"Point","coordinates":[2.73629,48.94923]},"properties":{"latitude":"48.94923","longitude":"2.73629","bright_ti4":"300.09","scan":"0.51","track":"0.49","acq_date":"2026-08-18","acq_time":"117","satellite":"N20","instrument":"VIIRS","confidence":"n","version":"2.0NRT","bright_ti5":"287","frp":"0.99","daynight":"N","commune":"Fresnes-sur-Marne","code_insee":"77196","departement":"Seine-et-Marne","region":"Île-de-France"}},{"type":"Feature","geometry":{"type":"Point","coordinates":[6.14654,49.31755]},"properties":{"latitude":"49.31755","longitude":"6.14654","bright_ti4":"297.49","scan":"0.55","track":"0.43","acq_date":"2026-08-18","acq_time":"117","satellite":"N20","instrument":"VIIRS","confidence":"n","version":"2.0NRT","bright_ti5":"286.7","frp":"1.71","daynight":"N","commune":"Florange","code_insee":"57221","departement":"Moselle","region":"Grand Est"}},{"type":"Feature","geometry":{"type":"Point","coordinates":[2.27198,51.02704]},"properties":{"latitude":"51.02704","longitude":"2.27198","bright_ti4":"295.9","scan":"0.56","track":"0.51","acq_date":"2026-08-18","acq_time":"117","satellite":"N20","instrument":"VIIRS","confidence":"n","version":"2.0NRT","bright_ti5":"274.22","frp":"1.27","daynight":"N","commune":"Grande-Synthe","code_insee":"59271","departement":"Nord","region":"Hauts-de-France"}},{"type":"Feature","geometry":{"type":"Point","coordinates":[2.28148,51.03608]},"properties":{"latitude":"51.03608","longitude":"2.28148","bright_ti4":"304.37","scan":"0.56","track":"0.51","acq_date":"2026-08-18","acq_time":"117","satellite":"N20","instrument":"VIIRS","confidence":"n","version":"2.0NRT","bright_ti5":"274.05","frp":"1.24","daynight":"N","commune":"Grande-Synthe","code_insee":"59271","departement":"Nord","region":"Hauts-de-France"}},{"type":"Feature","geometry":{"type":"Point","coordinates":[2.29899,51.04465]},"properties":{"latitude":"51.04465","longitude":"2.29899","bright_ti4":"299.33","scan":"0.56","track":"0.51","acq_date":"2026-08-18","acq_time":"117","satellite":"N20","instrument":"VIIRS","confidence":"n","version":"2.0NRT","bright_ti5":"269.49","frp":"0.64","daynight":"N","commune":"Grande-Synthe","code_insee":"59271","departement":"Nord","region":"Hauts-de-France"}},{"type":"Feature","geometry":{"type":"Point","coordinates":[2.29692,51.04492]},"properties":{"latitude":"51.04492","longitude":"2.29692","bright_ti4":"301.05","scan":"0.56","track":"0.51","acq_date":"2026-08-18","acq_time":"117","satellite":"N20","instrument":"VIIRS","confidence":"n","version":"2.0NRT","bright_ti5":"269.44","frp":"1.9","daynight":"N","commune":"Grande-Synthe","code_insee":"59271","departement":"Nord","region":"Hauts-de-France"}},{"type":"Feature","geometry":{"type":"Point","coordinates":[1.51084,42.903]},"properties":{"latitude":"42.903","longitude":"1.51084","bright_ti4":"298.28","scan":"0.51","track":"0.49","acq_date":"2026-08-18","acq_time":"120","satellite":"N20","instrument":"VIIRS","confidence":"n","version":"2.0NRT","bright_ti5":"284.44","frp":"1.26","daynight":"N","commune":"Saurat","code_insee":"09280","departement":"Ariège","region":"Occitanie"}},{"type":"Feature","geometry":{"type":"Point","coordinates":[4.89454,43.43415]},"properties":{"latitude":"43.43415","longitude":"4.89454","bright_ti4":"307.9","scan":"0.53","track":"0.42","acq_date":"2026-08-18","acq_time":"120","satellite":"N20","instrument":"VIIRS","confidence":"n","version":"2.0NRT","bright_ti5":"292.02","frp":"4.56","daynight":"N","commune":"Fos-sur-Mer","code_insee":"13039","departement":"Bouches-du-Rhône","region":"Provence-Alpes-Côte d'Azur"}},{"type":"Feature","geometry":{"type":"Point","coordinates":[4.88793,43.43483]},"properties":{"latitude":"43.43483","longitude":"4.88793","bright_ti4":"337.26","scan":"0.53","track":"0.42","acq_date":"2026-08-18","acq_time":"120","satellite":"N20","instrument":"VIIRS","confidence":"n","version":"2.0NRT","bright_ti5":"291.62","frp":"7.36","daynight":"N","commune":"Fos-sur-Mer","code_insee":"13039","departement":"Bouches-du-Rhône","region":"Provence-Alpes-Côte d'Azur"}},{"type":"Feature","geometry":{"type":"Point","coordinates":[4.88869,43.43869]},"properties":{"latitude":"43.43869","longitude":"4.88869","bright_ti4":"325.76","scan":"0.53","track":"0.42","acq_date":"2026-08-18","acq_time":"120","satellite":"N20","instrument":"VIIRS","confidence":"n","version":"2.0NRT","bright_ti5":"284.5","frp":"3.32","daynight":"N","commune":"Fos-sur-Mer","code_insee":"13039","departement":"Bouches-du-Rhône","region":"Provence-Alpes-Côte d'Azur"}},{"type":"Feature","geometry":{"type":"Point","coordinates":[4.88285,43.44323]},"properties":{"latitude":"43.44323","longitude":"4.88285","bright_ti4":"320.87","scan":"0.53","track":"0.42","acq_date":"2026-08-18","acq_time":"120","satellite":"N20","instrument":"VIIRS","confidence":"n","version":"2.0NRT","bright_ti5":"279.03","frp":"3.32","daynight":"N","commune":"Fos-sur-Mer","code_insee":"13039","departement":"Bouches-du-Rhône","region":"Provence-Alpes-Côte d'Azur"}},{"type":"Feature","geometry":{"type":"Point","coordinates":[4.87623,43.44393]},"properties":{"latitude":"43.44393","longitude":"4.87623","bright_ti4":"313.11","scan":"0.53","track":"0.42","acq_date":"2026-08-18","acq_time":"120","satellite":"N20","instrument":"VIIRS","confidence":"n","version":"2.0NRT","bright_ti5":"269.73","frp":"1.18","daynight":"N","commune":"Fos-sur-Mer","code_insee":"13039","departement":"Bouches-du-Rhône","region":"Provence-Alpes-Côte d'Azur"}},{"type":"Feature","geometry":{"type":"Point","coordinates":[4.89686,43.4457]},"properties":{"latitude":"43.4457","longitude":"4.89686","bright_ti4":"323.88","scan":"0.53","track":"0.42","acq_date":"2026-08-18","acq_time":"120","satellite":"N20","instrument":"VIIRS","confidence":"n","version":"2.0NRT","bright_ti5":"281.88","frp":"3.99","daynight":"N","commune":"Fos-sur-Mer","code_insee":"13039","departement":"Bouches-du-Rhône","region":"Provence-Alpes-Côte d'Azur"}},{"type":"Feature","geometry":{"type":"Point","coordinates":[7.3753,43.79222]},"properties":{"latitude":"43.79222","longitude":"7.3753","bright_ti4":"306.82","scan":"0.44","track":"0.38","acq_date":"2026-08-18","acq_time":"120","satellite":"N20","instrument":"VIIRS","confidence":"n","version":"2.0NRT","bright_ti5":"291.81","frp":"0.97","daynight":"N","commune":"Blausasc","code_insee":"06019","departement":"Alpes-Maritimes","region":"Provence-Alpes-Côte d'Azur"}},{"type":"Feature","geometry":{"type":"Point","coordinates":[-2.05587,47.31817]},"properties":{"latitude":"47.31817","longitude":"-2.05587","bright_ti4":"299.8","scan":"0.41","track":"0.61","acq_date":"2026-08-18","acq_time":"120","satellite":"N20","instrument":"VIIRS","confidence":"n","version":"2.0NRT","bright_ti5":"286.51","frp":"0.78","daynight":"N","commune":"Donges","code_insee":"44052","departement":"Loire-Atlantique","region":"Pays de la Loire"}},{"type":"Feature","geometry":{"type":"Point","coordinates":[6.11706,48.61037]},"properties":{"latitude":"48.61037","longitude":"6.11706","bright_ti4":"297.85","scan":"0.55","track":"0.68","acq_date":"2026-08-18","acq_time":"258","satellite":"N20","instrument":"VIIRS","confidence":"n","version":"2.0NRT","bright_ti5":"281.81","frp":"1.02","daynight":"N","commune":"Neuves-Maisons","code_insee":"54397","departement":"Meurthe-et-Moselle","region":"Grand Est"}},{"type":"Feature","geometry":{"type":"Point","coordinates":[6.96523,48.69344]},"properties":{"latitude":"48.69344","longitude":"6.96523","bright_ti4":"296.4","scan":"0.59","track":"0.7","acq_date":"2026-08-18","acq_time":"258","satellite":"N20","instrument":"VIIRS","confidence":"n","version":"2.0NRT","bright_ti5":"284.01","frp":"1.1","daynight":"N","commune":"Héming","code_insee":"57314","departement":"Moselle","region":"Grand Est"}},{"type":"Feature","geometry":{"type":"Point","coordinates":[4.8925,43.43449]},"properties":{"latitude":"43.43449","longitude":"4.8925","bright_ti4":"304.57","scan":"0.74","track":"0.76","acq_date":"2026-08-18","acq_time":"300","satellite":"N20","instrument":"VIIRS","confidence":"n","version":"2.0NRT","bright_ti5":"290.1","frp":"3.27","daynight":"N","commune":"Fos-sur-Mer","code_insee":"13039","departement":"Bouches-du-Rhône","region":"Provence-Alpes-Côte d'Azur"}},{"type":"Feature","geometry":{"type":"Point","coordinates":[4.89099,43.4356]},"properties":{"latitude":"43.4356","longitude":"4.89099","bright_ti4":"304.62","scan":"0.74","track":"0.76","acq_date":"2026-08-18","acq_time":"300","satellite":"N20","instrument":"VIIRS","confidence":"n","version":"2.0NRT","bright_ti5":"290.49","frp":"3.24","daynight":"N","commune":"Fos-sur-Mer","code_insee":"13039","departement":"Bouches-du-Rhône","region":"Provence-Alpes-Côte d'Azur"}},{"type":"Feature","geometry":{"type":"Point","coordinates":[4.8952,43.44195]},"properties":{"latitude":"43.44195","longitude":"4.8952","bright_ti4":"303.55","scan":"0.74","track":"0.76","acq_date":"2026-08-18","acq_time":"300","satellite":"N20","instrument":"VIIRS","confidence":"n","version":"2.0NRT","bright_ti5":"289.77","frp":"1.91","daynight":"N","commune":"Fos-sur-Mer","code_insee":"13039","departement":"Bouches-du-Rhône","region":"Provence-Alpes-Côte d'Azur"}},{"type":"Feature","geometry":{"type":"Point","coordinates":[4.88853,43.44375]},"properties":{"latitude":"43.44375","longitude":"4.88853","bright_ti4":"305.56","scan":"0.74","track":"0.76","acq_date":"2026-08-18","acq_time":"300","satellite":"N20","instrument":"VIIRS","confidence":"n","version":"2.0NRT","bright_ti5":"289.8","frp":"2.32","daynight":"N","commune":"Fos-sur-Mer","code_insee":"13039","departement":"Bouches-du-Rhône","region":"Provence-Alpes-Côte d'Azur"}},{"type":"Feature","geometry":{"type":"Point","coordinates":[4.88705,43.44481]},"properties":{"latitude":"43.44481","longitude":"4.88705","bright_ti4":"311.64","scan":"0.74","track":"0.76","acq_date":"2026-08-18","acq_time":"300","satellite":"N20","instrument":"VIIRS","confidence":"n","version":"2.0NRT","bright_ti5":"289.72","frp":"3.8","daynight":"N","commune":"Fos-sur-Mer","code_insee":"13039","departement":"Bouches-du-Rhône","region":"Provence-Alpes-Côte d'Azur"}},{"type":"Feature","geometry":{"type":"Point","coordinates":[4.88032,43.44667]},"properties":{"latitude":"43.44667","longitude":"4.88032","bright_ti4":"309.15","scan":"0.74","track":"0.76","acq_date":"2026-08-18","acq_time":"300","satellite":"N20","instrument":"VIIRS","confidence":"n","version":"2.0NRT","bright_ti5":"289.84","frp":"2.32","daynight":"N","commune":"Fos-sur-Mer","code_insee":"13039","departement":"Bouches-du-Rhône","region":"Provence-Alpes-Côte d'Azur"}},{"type":"Feature","geometry":{"type":"Point","coordinates":[4.90095,43.44718]},"properties":{"latitude":"43.44718","longitude":"4.90095","bright_ti4":"308.31","scan":"0.74","track":"0.76","acq_date":"2026-08-18","acq_time":"300","satellite":"N20","instrument":"VIIRS","confidence":"n","version":"2.0NRT","bright_ti5":"289.91","frp":"1.73","daynight":"N","commune":"Fos-sur-Mer","code_insee":"13039","departement":"Bouches-du-Rhône","region":"Provence-Alpes-Côte d'Azur"}},{"type":"Feature","geometry":{"type":"Point","coordinates":[4.89951,43.44827]},"properties":{"latitude":"43.44827","longitude":"4.89951","bright_ti4":"309.48","scan":"0.74","track":"0.76","acq_date":"2026-08-18","acq_time":"300","satellite":"N20","instrument":"VIIRS","confidence":"n","version":"2.0NRT","bright_ti5":"290.06","frp":"1.91","daynight":"N","commune":"Fos-sur-Mer","code_insee":"13039","departement":"Bouches-du-Rhône","region":"Provence-Alpes-Côte d'Azur"}},{"type":"Feature","geometry":{"type":"Point","coordinates":[0.478,46.66142]},"properties":{"latitude":"46.66142","longitude":"0.478","bright_ti4":"301.65","scan":"0.39","track":"0.36","acq_date":"2026-08-18","acq_time":"204","satellite":"N21","instrument":"VIIRS","confidence":"n","version":"2.0NRT","bright_ti5":"288.55","frp":"0.48","daynight":"N","commune":"Saint-Georges-lès-Baillargeaux","code_insee":"86222","departement":"Vienne","region":"Nouvelle-Aquitaine"}},{"type":"Feature","geometry":{"type":"Point","coordinates":[0.47914,46.66468]},"properties":{"latitude":"46.66468","longitude":"0.47914","bright_ti4":"297.31","scan":"0.39","track":"0.36","acq_date":"2026-08-18","acq_time":"204","satellite":"N21","instrument":"VIIRS","confidence":"n","version":"2.0NRT","bright_ti5":"287.09","frp":"0.48","daynight":"N","commune":"Saint-Georges-lès-Baillargeaux","code_insee":"86222","departement":"Vienne","region":"Nouvelle-Aquitaine"}},{"type":"Feature","geometry":{"type":"Point","coordinates":[-2.05356,47.31437]},"properties":{"latitude":"47.31437","longitude":"-2.05356","bright_ti4":"303.28","scan":"0.39","track":"0.37","acq_date":"2026-08-18","acq_time":"204","satellite":"N21","instrument":"VIIRS","confidence":"n","version":"2.0NRT","bright_ti5":"288.89","frp":"0.63","daynight":"N","commune":"Donges","code_insee":"44052","departement":"Loire-Atlantique","region":"Pays de la Loire"}},{"type":"Feature","geometry":{"type":"Point","coordinates":[-1.03887,48.10785]},"properties":{"latitude":"48.10785","longitude":"-1.03887","bright_ti4":"297.12","scan":"0.39","track":"0.36","acq_date":"2026-08-18","acq_time":"204","satellite":"N21","instrument":"VIIRS","confidence":"n","version":"2.0NRT","bright_ti5":"281.31","frp":"0.73","daynight":"N","commune":"Saint-Pierre-la-Cour","code_insee":"53247","departement":"Mayenne","region":"Pays de la Loire"}},{"type":"Feature","geometry":{"type":"Point","coordinates":[2.79951,48.43684]},"properties":{"latitude":"48.43684","longitude":"2.79951","bright_ti4":"302.52","scan":"0.41","track":"0.37","acq_date":"2026-08-18","acq_time":"204","satellite":"N21","instrument":"VIIRS","confidence":"n","version":"2.0NRT","bright_ti5":"288.66","frp":"0.64","daynight":"N","commune":"Héricy","code_insee":"77226","departement":"Seine-et-Marne","region":"Île-de-France"}},{"type":"Feature","geometry":{"type":"Point","coordinates":[6.11453,48.60929]},"properties":{"latitude":"48.60929","longitude":"6.11453","bright_ti4":"303.25","scan":"0.5","track":"0.41","acq_date":"2026-08-18","acq_time":"204","satellite":"N21","instrument":"VIIRS","confidence":"n","version":"2.0NRT","bright_ti5":"288.34","frp":"1.59","daynight":"N","commune":"Neuves-Maisons","code_insee":"54397","departement":"Meurthe-et-Moselle","region":"Grand Est"}},{"type":"Feature","geometry":{"type":"Point","coordinates":[1.89322,50.97026]},"properties":{"latitude":"50.97026","longitude":"1.89322","bright_ti4":"299.63","scan":"0.39","track":"0.36","acq_date":"2026-08-18","acq_time":"204","satellite":"N21","instrument":"VIIRS","confidence":"n","version":"2.0NRT","bright_ti5":"279.69","frp":"0.47","daynight":"N","commune":"Calais","code_insee":"62193","departement":"Pas-de-Calais","region":"Hauts-de-France"}},{"type":"Feature","geometry":{"type":"Point","coordinates":[2.2744,51.02847]},"properties":{"latitude":"51.02847","longitude":"2.2744","bright_ti4":"296.55","scan":"0.39","track":"0.36","acq_date":"2026-08-18","acq_time":"204","satellite":"N21","instrument":"VIIRS","confidence":"n","version":"2.0NRT","bright_ti5":"274.82","frp":"0.77","daynight":"N","commune":"Grande-Synthe","code_insee":"59271","departement":"Nord","region":"Hauts-de-France"}},{"type":"Feature","geometry":{"type":"Point","coordinates":[2.28789,51.03316]},"properties":{"latitude":"51.03316","longitude":"2.28789","bright_ti4":"318.56","scan":"0.39","track":"0.36","acq_date":"2026-08-18","acq_time":"204","satellite":"N21","instrument":"VIIRS","confidence":"n","version":"2.0NRT","bright_ti5":"277.84","frp":"0.9","daynight":"N","commune":"Grande-Synthe","code_insee":"59271","departement":"Nord","region":"Hauts-de-France"}},{"type":"Feature","geometry":{"type":"Point","coordinates":[2.2825,51.03405]},"properties":{"latitude":"51.03405","longitude":"2.2825","bright_ti4":"295.04","scan":"0.39","track":"0.36","acq_date":"2026-08-18","acq_time":"204","satellite":"N21","instrument":"VIIRS","confidence":"n","version":"2.0NRT","bright_ti5":"276.92","frp":"0.9","daynight":"N","commune":"Grande-Synthe","code_insee":"59271","departement":"Nord","region":"Hauts-de-France"}},{"type":"Feature","geometry":{"type":"Point","coordinates":[2.28924,51.0364]},"properties":{"latitude":"51.0364","longitude":"2.28924","bright_ti4":"296.83","scan":"0.39","track":"0.36","acq_date":"2026-08-18","acq_time":"204","satellite":"N21","instrument":"VIIRS","confidence":"n","version":"2.0NRT","bright_ti5":"277.37","frp":"0.9","daynight":"N","commune":"Grande-Synthe","code_insee":"59271","departement":"Nord","region":"Hauts-de-France"}},{"type":"Feature","geometry":{"type":"Point","coordinates":[2.28385,51.03729]},"properties":{"latitude":"51.03729","longitude":"2.28385","bright_ti4":"304.99","scan":"0.39","track":"0.36","acq_date":"2026-08-18","acq_time":"204","satellite":"N21","instrument":"VIIRS","confidence":"n","version":"2.0NRT","bright_ti5":"277.86","frp":"0.9","daynight":"N","commune":"Grande-Synthe","code_insee":"59271","departement":"Nord","region":"Hauts-de-France"}},{"type":"Feature","geometry":{"type":"Point","coordinates":[2.29734,51.04198]},"properties":{"latitude":"51.04198","longitude":"2.29734","bright_ti4":"311.12","scan":"0.39","track":"0.36","acq_date":"2026-08-18","acq_time":"204","satellite":"N21","instrument":"VIIRS","confidence":"n","version":"2.0NRT","bright_ti5":"281.51","frp":"1.56","daynight":"N","commune":"Grande-Synthe","code_insee":"59271","departement":"Nord","region":"Hauts-de-France"}},{"type":"Feature","geometry":{"type":"Point","coordinates":[2.29195,51.04287]},"properties":{"latitude":"51.04287","longitude":"2.29195","bright_ti4":"298.98","scan":"0.39","track":"0.36","acq_date":"2026-08-18","acq_time":"204","satellite":"N21","instrument":"VIIRS","confidence":"n","version":"2.0NRT","bright_ti5":"279.49","frp":"1.02","daynight":"N","commune":"Grande-Synthe","code_insee":"59271","departement":"Nord","region":"Hauts-de-France"}},{"type":"Feature","geometry":{"type":"Point","coordinates":[2.29869,51.04522]},"properties":{"latitude":"51.04522","longitude":"2.29869","bright_ti4":"330.5","scan":"0.39","track":"0.36","acq_date":"2026-08-18","acq_time":"204","satellite":"N21","instrument":"VIIRS","confidence":"n","version":"2.0NRT","bright_ti5":"283.01","frp":"3.92","daynight":"N","commune":"Grande-Synthe","code_insee":"59271","departement":"Nord","region":"Hauts-de-France"}},{"type":"Feature","geometry":{"type":"Point","coordinates":[2.2933,51.04611]},"properties":{"latitude":"51.04611","longitude":"2.2933","bright_ti4":"299.17","scan":"0.39","track":"0.36","acq_date":"2026-08-18","acq_time":"204","satellite":"N21","instrument":"VIIRS","confidence":"n","version":"2.0NRT","bright_ti5":"278.94","frp":"2.44","daynight":"N","commune":"Grande-Synthe","code_insee":"59271","departement":"Nord","region":"Hauts-de-France"}},{"type":"Feature","geometry":{"type":"Point","coordinates":[2.32297,51.04811]},"properties":{"latitude":"51.04811","longitude":"2.32297","bright_ti4":"297.4","scan":"0.39","track":"0.36","acq_date":"2026-08-18","acq_time":"204","satellite":"N21","instrument":"VIIRS","confidence":"n","version":"2.0NRT","bright_ti5":"279.89","frp":"0.39","daynight":"N","commune":"Dunkerque","code_insee":"59183","departement":"Nord","region":"Hauts-de-France"}},{"type":"Feature","geometry":{"type":"Point","coordinates":[4.88575,43.43254]},"properties":{"latitude":"43.43254","longitude":"4.88575","bright_ti4":"328.43","scan":"0.57","track":"0.43","acq_date":"2026-08-18","acq_time":"206","satellite":"N21","instrument":"VIIRS","confidence":"n","version":"2.0NRT","bright_ti5":"294.94","frp":"3.63","daynight":"N","commune":"Fos-sur-Mer","code_insee":"13039","departement":"Bouches-du-Rhône","region":"Provence-Alpes-Côte d'Azur"}},{"type":"Feature","geometry":{"type":"Point","coordinates":[4.88735,43.43637]},"properties":{"latitude":"43.43637","longitude":"4.88735","bright_ti4":"309.11","scan":"0.57","track":"0.43","acq_date":"2026-08-18","acq_time":"206","satellite":"N21","instrument":"VIIRS","confidence":"n","version":"2.0NRT","bright_ti5":"294.66","frp":"3.21","daynight":"N","commune":"Fos-sur-Mer","code_insee":"13039","departement":"Bouches-du-Rhône","region":"Provence-Alpes-Côte d'Azur"}},{"type":"Feature","geometry":{"type":"Point","coordinates":[4.88894,43.4402]},"properties":{"latitude":"43.4402","longitude":"4.88894","bright_ti4":"320.49","scan":"0.57","track":"0.43","acq_date":"2026-08-18","acq_time":"206","satellite":"N21","instrument":"VIIRS","confidence":"n","version":"2.0NRT","bright_ti5":"294.56","frp":"3.21","daynight":"N","commune":"Fos-sur-Mer","code_insee":"13039","departement":"Bouches-du-Rhône","region":"Provence-Alpes-Côte d'Azur"}},{"type":"Feature","geometry":{"type":"Point","coordinates":[4.88216,43.44167]},"properties":{"latitude":"43.44167","longitude":"4.88216","bright_ti4":"335.08","scan":"0.57","track":"0.43","acq_date":"2026-08-18","acq_time":"206","satellite":"N21","instrument":"VIIRS","confidence":"n","version":"2.0NRT","bright_ti5":"294.91","frp":"3.21","daynight":"N","commune":"Fos-sur-Mer","code_insee":"13039","departement":"Bouches-du-Rhône","region":"Provence-Alpes-Côte d'Azur"}},{"type":"Feature","geometry":{"type":"Point","coordinates":[4.89732,43.44256]},"properties":{"latitude":"43.44256","longitude":"4.89732","bright_ti4":"312.35","scan":"0.57","track":"0.43","acq_date":"2026-08-18","acq_time":"206","satellite":"N21","instrument":"VIIRS","confidence":"n","version":"2.0NRT","bright_ti5":"293.87","frp":"5.37","daynight":"N","commune":"Fos-sur-Mer","code_insee":"13039","departement":"Bouches-du-Rhône","region":"Provence-Alpes-Côte d'Azur"}},{"type":"Feature","geometry":{"type":"Point","coordinates":[4.87538,43.44314]},"properties":{"latitude":"43.44314","longitude":"4.87538","bright_ti4":"304.51","scan":"0.57","track":"0.43","acq_date":"2026-08-18","acq_time":"206","satellite":"N21","instrument":"VIIRS","confidence":"n","version":"2.0NRT","bright_ti5":"292.99","frp":"2.31","daynight":"N","commune":"Fos-sur-Mer","code_insee":"13039","departement":"Bouches-du-Rhône","region":"Provence-Alpes-Côte d'Azur"}},{"type":"Feature","geometry":{"type":"Point","coordinates":[4.89893,43.44639]},"properties":{"latitude":"43.44639","longitude":"4.89893","bright_ti4":"343.59","scan":"0.57","track":"0.43","acq_date":"2026-08-18","acq_time":"206","satellite":"N21","instrument":"VIIRS","confidence":"n","version":"2.0NRT","bright_ti5":"295.39","frp":"5.37","daynight":"N","commune":"Fos-sur-Mer","code_insee":"13039","departement":"Bouches-du-Rhône","region":"Provence-Alpes-Côte d'Azur"}},{"type":"Feature","geometry":{"type":"Point","coordinates":[4.85859,43.96894]},"properties":{"latitude":"43.96894","longitude":"4.85859","bright_ti4":"304.93","scan":"0.55","track":"0.43","acq_date":"2026-08-18","acq_time":"206","satellite":"N21","instrument":"VIIRS","confidence":"n","version":"2.0NRT","bright_ti5":"293.13","frp":"1.21","daynight":"N","commune":"Le Pontet","code_insee":"84092","departement":"Vaucluse","region":"Provence-Alpes-Côte d'Azur"}},{"type":"Feature","geometry":{"type":"Point","coordinates":[1.50818,42.90254]},"properties":{"latitude":"42.90254","longitude":"1.50818","bright_ti4":"353.66","scan":"0.45","track":"0.63","acq_date":"2026-08-18","acq_time":"1149","satellite":"N21","instrument":"VIIRS","confidence":"n","version":"2.0NRT","bright_ti5":"300.67","frp":"14.14","daynight":"D","commune":"Saurat","code_insee":"09280","departement":"Ariège","region":"Occitanie"}}]}