{"type":"FeatureCollection","features":[{"type":"Feature","geometry":{"type":"Point","coordinates":[3.49129,50.33023]},"properties":{"latitude":"50.33023","longitude":"3.49129","bright_ti4":"295.71","scan":"0.39","track":"0.36","acq_date":"2026-06-06","acq_time":"206","satellite":"N","instrument":"VIIRS","confidence":"n","version":"2.0NRT","bright_ti5":"264.8","frp":"0.24","daynight":"N","commune":"Trith-Saint-Léger","code_insee":"59603","departement":"Nord","region":"Hauts-de-France"}},{"type":"Feature","geometry":{"type":"Point","coordinates":[2.2878,51.03415]},"properties":{"latitude":"51.03415","longitude":"2.2878","bright_ti4":"301.18","scan":"0.39","track":"0.36","acq_date":"2026-06-06","acq_time":"206","satellite":"N","instrument":"VIIRS","confidence":"n","version":"2.0NRT","bright_ti5":"278.78","frp":"1.11","daynight":"N","commune":"Grande-Synthe","code_insee":"59271","departement":"Nord","region":"Hauts-de-France"}},{"type":"Feature","geometry":{"type":"Point","coordinates":[2.29033,51.04068]},"properties":{"latitude":"51.04068","longitude":"2.29033","bright_ti4":"296.07","scan":"0.39","track":"0.36","acq_date":"2026-06-06","acq_time":"206","satellite":"N","instrument":"VIIRS","confidence":"n","version":"2.0NRT","bright_ti5":"279.89","frp":"1.31","daynight":"N","commune":"Grande-Synthe","code_insee":"59271","departement":"Nord","region":"Hauts-de-France"}},{"type":"Feature","geometry":{"type":"Point","coordinates":[2.29702,51.04312]},"properties":{"latitude":"51.04312","longitude":"2.29702","bright_ti4":"311.13","scan":"0.39","track":"0.36","acq_date":"2026-06-06","acq_time":"206","satellite":"N","instrument":"VIIRS","confidence":"n","version":"2.0NRT","bright_ti5":"281.6","frp":"1.31","daynight":"N","commune":"Grande-Synthe","code_insee":"59271","departement":"Nord","region":"Hauts-de-France"}},{"type":"Feature","geometry":{"type":"Point","coordinates":[2.29829,51.04639]},"properties":{"latitude":"51.04639","longitude":"2.29829","bright_ti4":"332.64","scan":"0.39","track":"0.36","acq_date":"2026-06-06","acq_time":"206","satellite":"N","instrument":"VIIRS","confidence":"n","version":"2.0NRT","bright_ti5":"280.87","frp":"4.75","daynight":"N","commune":"Grande-Synthe","code_insee":"59271","departement":"Nord","region":"Hauts-de-France"}},{"type":"Feature","geometry":{"type":"Point","coordinates":[2.31041,51.04799]},"properties":{"latitude":"51.04799","longitude":"2.31041","bright_ti4":"295.6","scan":"0.38","track":"0.36","acq_date":"2026-06-06","acq_time":"206","satellite":"N","instrument":"VIIRS","confidence":"n","version":"2.0NRT","bright_ti5":"280.51","frp":"0.59","daynight":"N","commune":"Dunkerque","code_insee":"59183","departement":"Nord","region":"Hauts-de-France"}},{"type":"Feature","geometry":{"type":"Point","coordinates":[2.92329,43.26733]},"properties":{"latitude":"43.26733","longitude":"2.92329","bright_ti4":"330.95","scan":"0.43","track":"0.62","acq_date":"2026-06-06","acq_time":"1151","satellite":"N","instrument":"VIIRS","confidence":"n","version":"2.0NRT","bright_ti5":"296.95","frp":"4.31","daynight":"D","commune":"Saint-Marcel-sur-Aude","code_insee":"11353","departement":"Aude","region":"Occitanie"}},{"type":"Feature","geometry":{"type":"Point","coordinates":[2.92502,43.26744]},"properties":{"latitude":"43.26744","longitude":"2.92502","bright_ti4":"351.53","scan":"0.45","track":"0.47","acq_date":"2026-06-06","acq_time":"1210","satellite":"N20","instrument":"VIIRS","confidence":"n","version":"2.0NRT","bright_ti5":"301.12","frp":"7.9","daynight":"D","commune":"Saint-Marcel-sur-Aude","code_insee":"11353","departement":"Aude","region":"Occitanie"}},{"type":"Feature","geometry":{"type":"Point","coordinates":[4.84952,43.93478]},"properties":{"latitude":"43.93478","longitude":"4.84952","bright_ti4":"335.74","scan":"0.53","track":"0.42","acq_date":"2026-06-06","acq_time":"1210","satellite":"N20","instrument":"VIIRS","confidence":"l","version":"2.0NRT","bright_ti5":"307.31","frp":"2.68","daynight":"D","commune":"Avignon","code_insee":"84007","departement":"Vaucluse","region":"Provence-Alpes-Côte d'Azur"}},{"type":"Feature","geometry":{"type":"Point","coordinates":[4.4148,45.7362]},"properties":{"latitude":"45.7362","longitude":"4.4148","bright_ti4":"326.29","scan":"0.51","track":"0.41","acq_date":"2026-06-06","acq_time":"1212","satellite":"N20","instrument":"VIIRS","confidence":"n","version":"2.0NRT","bright_ti5":"295.89","frp":"0.81","daynight":"D","commune":"Haute-Rivoire","code_insee":"69099","departement":"Rhône","region":"Auvergne-Rhône-Alpes"}},{"type":"Feature","geometry":{"type":"Point","coordinates":[6.0504,49.3359]},"properties":{"latitude":"49.3359","longitude":"6.0504","bright_ti4":"297.57","scan":"0.41","track":"0.37","acq_date":"2026-06-06","acq_time":"132","satellite":"N21","instrument":"VIIRS","confidence":"n","version":"2.0NRT","bright_ti5":"279.26","frp":"0.58","daynight":"N","commune":"Nilvange","code_insee":"57508","departement":"Moselle","region":"Grand Est"}},{"type":"Feature","geometry":{"type":"Point","coordinates":[8.80406,41.95311]},"properties":{"latitude":"41.95311","longitude":"8.80406","bright_ti4":"296.74","scan":"0.42","track":"0.38","acq_date":"2026-06-06","acq_time":"134","satellite":"N21","instrument":"VIIRS","confidence":"n","version":"2.0NRT","bright_ti5":"285.46","frp":"0.44","daynight":"N","commune":"Sarrola-Carcopino","code_insee":"2A271","departement":"Corse-du-Sud","region":"Corse"}},{"type":"Feature","geometry":{"type":"Point","coordinates":[7.37149,43.7932]},"properties":{"latitude":"43.7932","longitude":"7.37149","bright_ti4":"304.47","scan":"0.39","track":"0.36","acq_date":"2026-06-06","acq_time":"134","satellite":"N21","instrument":"VIIRS","confidence":"n","version":"2.0NRT","bright_ti5":"278.51","frp":"1.44","daynight":"N","commune":"Blausasc","code_insee":"06019","departement":"Alpes-Maritimes","region":"Provence-Alpes-Côte d'Azur"}},{"type":"Feature","geometry":{"type":"Point","coordinates":[2.99087,42.6567]},"properties":{"latitude":"42.6567","longitude":"2.99087","bright_ti4":"332.07","scan":"0.46","track":"0.39","acq_date":"2026-06-06","acq_time":"1257","satellite":"N21","instrument":"VIIRS","confidence":"n","version":"2.0NRT","bright_ti5":"290.57","frp":"2.33","daynight":"D","commune":"Saint-Nazaire","code_insee":"66186","departement":"Pyrénées-Orientales","region":"Occitanie"}},{"type":"Feature","geometry":{"type":"Point","coordinates":[4.89875,43.44555]},"properties":{"latitude":"43.44555","longitude":"4.89875","bright_ti4":"330.02","scan":"0.55","track":"0.43","acq_date":"2026-06-06","acq_time":"1257","satellite":"N21","instrument":"VIIRS","confidence":"l","version":"2.0NRT","bright_ti5":"303.74","frp":"7.54","daynight":"D","commune":"Fos-sur-Mer","code_insee":"13039","departement":"Bouches-du-Rhône","region":"Provence-Alpes-Côte d'Azur"}},{"type":"Feature","geometry":{"type":"Point","coordinates":[4.89741,43.44899]},"properties":{"latitude":"43.44899","longitude":"4.89741","bright_ti4":"338.78","scan":"0.55","track":"0.43","acq_date":"2026-06-06","acq_time":"1257","satellite":"N21","instrument":"VIIRS","confidence":"n","version":"2.0NRT","bright_ti5":"300.76","frp":"22.32","daynight":"D","commune":"Fos-sur-Mer","code_insee":"13039","departement":"Bouches-du-Rhône","region":"Provence-Alpes-Côte d'Azur"}}]}