{"type":"FeatureCollection","features":[{"type":"Feature","geometry":{"type":"Point","coordinates":[2.26624,51.02929]},"properties":{"latitude":"51.02929","longitude":"2.26624","bright_ti4":"303.84","scan":"0.61","track":"0.71","acq_date":"2026-06-10","acq_time":"50","satellite":"N","instrument":"VIIRS","confidence":"n","version":"2.0NRT","bright_ti5":"280.51","frp":"1.67","daynight":"N","commune":"Grande-Synthe","code_insee":"59271","departement":"Nord","region":"Hauts-de-France"}},{"type":"Feature","geometry":{"type":"Point","coordinates":[2.28447,51.0362]},"properties":{"latitude":"51.0362","longitude":"2.28447","bright_ti4":"300.13","scan":"0.61","track":"0.71","acq_date":"2026-06-10","acq_time":"50","satellite":"N","instrument":"VIIRS","confidence":"n","version":"2.0NRT","bright_ti5":"280.71","frp":"2.5","daynight":"N","commune":"Grande-Synthe","code_insee":"59271","departement":"Nord","region":"Hauts-de-France"}},{"type":"Feature","geometry":{"type":"Point","coordinates":[2.29349,51.043]},"properties":{"latitude":"51.043","longitude":"2.29349","bright_ti4":"303.18","scan":"0.61","track":"0.71","acq_date":"2026-06-10","acq_time":"50","satellite":"N","instrument":"VIIRS","confidence":"n","version":"2.0NRT","bright_ti5":"281.72","frp":"1.57","daynight":"N","commune":"Grande-Synthe","code_insee":"59271","departement":"Nord","region":"Hauts-de-France"}},{"type":"Feature","geometry":{"type":"Point","coordinates":[4.03615,43.67386]},"properties":{"latitude":"43.67386","longitude":"4.03615","bright_ti4":"309.38","scan":"0.48","track":"0.64","acq_date":"2026-06-10","acq_time":"52","satellite":"N","instrument":"VIIRS","confidence":"n","version":"2.0NRT","bright_ti5":"284.11","frp":"1.45","daynight":"N","commune":"Saint-Brès","code_insee":"34244","departement":"Hérault","region":"Occitanie"}},{"type":"Feature","geometry":{"type":"Point","coordinates":[4.0366,43.6799]},"properties":{"latitude":"43.6799","longitude":"4.0366","bright_ti4":"305.86","scan":"0.48","track":"0.64","acq_date":"2026-06-10","acq_time":"52","satellite":"N","instrument":"VIIRS","confidence":"n","version":"2.0NRT","bright_ti5":"283.59","frp":"0.7","daynight":"N","commune":"Valergues","code_insee":"34321","departement":"Hérault","region":"Occitanie"}},{"type":"Feature","geometry":{"type":"Point","coordinates":[4.47949,43.7658]},"properties":{"latitude":"43.7658","longitude":"4.47949","bright_ti4":"323.62","scan":"0.45","track":"0.63","acq_date":"2026-06-10","acq_time":"52","satellite":"N","instrument":"VIIRS","confidence":"n","version":"2.0NRT","bright_ti5":"285.1","frp":"2.42","daynight":"N","commune":"Bellegarde","code_insee":"30034","departement":"Gard","region":"Occitanie"}},{"type":"Feature","geometry":{"type":"Point","coordinates":[4.48003,43.77172]},"properties":{"latitude":"43.77172","longitude":"4.48003","bright_ti4":"330.76","scan":"0.45","track":"0.63","acq_date":"2026-06-10","acq_time":"52","satellite":"N","instrument":"VIIRS","confidence":"n","version":"2.0NRT","bright_ti5":"286.06","frp":"2.87","daynight":"N","commune":"Bellegarde","code_insee":"30034","departement":"Gard","region":"Occitanie"}},{"type":"Feature","geometry":{"type":"Point","coordinates":[1.89378,50.97197]},"properties":{"latitude":"50.97197","longitude":"1.89378","bright_ti4":"295.32","scan":"0.47","track":"0.4","acq_date":"2026-06-10","acq_time":"232","satellite":"N","instrument":"VIIRS","confidence":"n","version":"2.0NRT","bright_ti5":"282.49","frp":"0.47","daynight":"N","commune":"Calais","code_insee":"62193","departement":"Pas-de-Calais","region":"Hauts-de-France"}},{"type":"Feature","geometry":{"type":"Point","coordinates":[2.27273,51.02841]},"properties":{"latitude":"51.02841","longitude":"2.27273","bright_ti4":"304.93","scan":"0.48","track":"0.4","acq_date":"2026-06-10","acq_time":"232","satellite":"N","instrument":"VIIRS","confidence":"n","version":"2.0NRT","bright_ti5":"282.41","frp":"0.92","daynight":"N","commune":"Grande-Synthe","code_insee":"59271","departement":"Nord","region":"Hauts-de-France"}},{"type":"Feature","geometry":{"type":"Point","coordinates":[2.25285,51.0326]},"properties":{"latitude":"51.0326","longitude":"2.25285","bright_ti4":"298.24","scan":"0.48","track":"0.4","acq_date":"2026-06-10","acq_time":"232","satellite":"N","instrument":"VIIRS","confidence":"n","version":"2.0NRT","bright_ti5":"281.2","frp":"0.74","daynight":"N","commune":"Dunkerque","code_insee":"59183","departement":"Nord","region":"Hauts-de-France"}},{"type":"Feature","geometry":{"type":"Point","coordinates":[2.27652,51.0355]},"properties":{"latitude":"51.0355","longitude":"2.27652","bright_ti4":"300.73","scan":"0.48","track":"0.4","acq_date":"2026-06-10","acq_time":"232","satellite":"N","instrument":"VIIRS","confidence":"n","version":"2.0NRT","bright_ti5":"281.87","frp":"1.41","daynight":"N","commune":"Grande-Synthe","code_insee":"59271","departement":"Nord","region":"Hauts-de-France"}},{"type":"Feature","geometry":{"type":"Point","coordinates":[2.29548,51.04332]},"properties":{"latitude":"51.04332","longitude":"2.29548","bright_ti4":"320.28","scan":"0.48","track":"0.4","acq_date":"2026-06-10","acq_time":"232","satellite":"N","instrument":"VIIRS","confidence":"n","version":"2.0NRT","bright_ti5":"286.5","frp":"3.39","daynight":"N","commune":"Grande-Synthe","code_insee":"59271","departement":"Nord","region":"Hauts-de-France"}},{"type":"Feature","geometry":{"type":"Point","coordinates":[2.29739,51.04687]},"properties":{"latitude":"51.04687","longitude":"2.29739","bright_ti4":"330.76","scan":"0.48","track":"0.4","acq_date":"2026-06-10","acq_time":"232","satellite":"N","instrument":"VIIRS","confidence":"n","version":"2.0NRT","bright_ti5":"284.85","frp":"5.06","daynight":"N","commune":"Grande-Synthe","code_insee":"59271","departement":"Nord","region":"Hauts-de-France"}},{"type":"Feature","geometry":{"type":"Point","coordinates":[2.31927,51.04778]},"properties":{"latitude":"51.04778","longitude":"2.31927","bright_ti4":"295.72","scan":"0.48","track":"0.4","acq_date":"2026-06-10","acq_time":"232","satellite":"N","instrument":"VIIRS","confidence":"n","version":"2.0NRT","bright_ti5":"283.75","frp":"0.44","daynight":"N","commune":"Dunkerque","code_insee":"59183","departement":"Nord","region":"Hauts-de-France"}},{"type":"Feature","geometry":{"type":"Point","coordinates":[4.89118,43.43629]},"properties":{"latitude":"43.43629","longitude":"4.89118","bright_ti4":"302.99","scan":"0.62","track":"0.54","acq_date":"2026-06-10","acq_time":"234","satellite":"N","instrument":"VIIRS","confidence":"n","version":"2.0NRT","bright_ti5":"285.99","frp":"1.32","daynight":"N","commune":"Fos-sur-Mer","code_insee":"13039","departement":"Bouches-du-Rhône","region":"Provence-Alpes-Côte d'Azur"}},{"type":"Feature","geometry":{"type":"Point","coordinates":[4.88541,43.43797]},"properties":{"latitude":"43.43797","longitude":"4.88541","bright_ti4":"306.44","scan":"0.62","track":"0.54","acq_date":"2026-06-10","acq_time":"234","satellite":"N","instrument":"VIIRS","confidence":"n","version":"2.0NRT","bright_ti5":"285.55","frp":"2.61","daynight":"N","commune":"Fos-sur-Mer","code_insee":"13039","departement":"Bouches-du-Rhône","region":"Provence-Alpes-Côte d'Azur"}},{"type":"Feature","geometry":{"type":"Point","coordinates":[4.8838,43.43829]},"properties":{"latitude":"43.43829","longitude":"4.8838","bright_ti4":"297.48","scan":"0.62","track":"0.54","acq_date":"2026-06-10","acq_time":"234","satellite":"N","instrument":"VIIRS","confidence":"n","version":"2.0NRT","bright_ti5":"285.69","frp":"1.62","daynight":"N","commune":"Fos-sur-Mer","code_insee":"13039","departement":"Bouches-du-Rhône","region":"Provence-Alpes-Côte d'Azur"}},{"type":"Feature","geometry":{"type":"Point","coordinates":[4.89764,43.44549]},"properties":{"latitude":"43.44549","longitude":"4.89764","bright_ti4":"319.64","scan":"0.62","track":"0.54","acq_date":"2026-06-10","acq_time":"234","satellite":"N","instrument":"VIIRS","confidence":"n","version":"2.0NRT","bright_ti5":"286.67","frp":"3.5","daynight":"N","commune":"Fos-sur-Mer","code_insee":"13039","departement":"Bouches-du-Rhône","region":"Provence-Alpes-Côte d'Azur"}},{"type":"Feature","geometry":{"type":"Point","coordinates":[4.89598,43.44577]},"properties":{"latitude":"43.44577","longitude":"4.89598","bright_ti4":"319.15","scan":"0.62","track":"0.54","acq_date":"2026-06-10","acq_time":"234","satellite":"N","instrument":"VIIRS","confidence":"n","version":"2.0NRT","bright_ti5":"286.42","frp":"3.06","daynight":"N","commune":"Fos-sur-Mer","code_insee":"13039","departement":"Bouches-du-Rhône","region":"Provence-Alpes-Côte d'Azur"}},{"type":"Feature","geometry":{"type":"Point","coordinates":[4.03863,43.67832]},"properties":{"latitude":"43.67832","longitude":"4.03863","bright_ti4":"296.65","scan":"0.56","track":"0.52","acq_date":"2026-06-10","acq_time":"234","satellite":"N","instrument":"VIIRS","confidence":"n","version":"2.0NRT","bright_ti5":"283.24","frp":"0.88","daynight":"N","commune":"Saint-Brès","code_insee":"34244","departement":"Hérault","region":"Occitanie"}},{"type":"Feature","geometry":{"type":"Point","coordinates":[1.22889,43.98939]},"properties":{"latitude":"43.98939","longitude":"1.22889","bright_ti4":"298.49","scan":"0.41","track":"0.45","acq_date":"2026-06-10","acq_time":"234","satellite":"N","instrument":"VIIRS","confidence":"n","version":"2.0NRT","bright_ti5":"281.06","frp":"0.59","daynight":"N","commune":"Montech","code_insee":"82125","departement":"Tarn-et-Garonne","region":"Occitanie"}},{"type":"Feature","geometry":{"type":"Point","coordinates":[3.43098,43.47724]},"properties":{"latitude":"43.47724","longitude":"3.43098","bright_ti4":"337.37","scan":"0.41","track":"0.45","acq_date":"2026-06-10","acq_time":"1219","satellite":"N","instrument":"VIIRS","confidence":"n","version":"2.0NRT","bright_ti5":"297.99","frp":"1.89","daynight":"D","commune":"Pézenas","code_insee":"34199","departement":"Hérault","region":"Occitanie"}},{"type":"Feature","geometry":{"type":"Point","coordinates":[3.42939,43.48123]},"properties":{"latitude":"43.48123","longitude":"3.42939","bright_ti4":"338.65","scan":"0.41","track":"0.45","acq_date":"2026-06-10","acq_time":"1219","satellite":"N","instrument":"VIIRS","confidence":"n","version":"2.0NRT","bright_ti5":"299.68","frp":"2.17","daynight":"D","commune":"Pézenas","code_insee":"34199","departement":"Hérault","region":"Occitanie"}},{"type":"Feature","geometry":{"type":"Point","coordinates":[2.26903,51.01489]},"properties":{"latitude":"51.01489","longitude":"2.26903","bright_ti4":"298.49","scan":"0.33","track":"0.56","acq_date":"2026-06-10","acq_time":"109","satellite":"N20","instrument":"VIIRS","confidence":"n","version":"2.0NRT","bright_ti5":"280.68","frp":"0.34","daynight":"N","commune":"Grande-Synthe","code_insee":"59271","departement":"Nord","region":"Hauts-de-France"}},{"type":"Feature","geometry":{"type":"Point","coordinates":[2.27079,51.03034]},"properties":{"latitude":"51.03034","longitude":"2.27079","bright_ti4":"312.91","scan":"0.33","track":"0.56","acq_date":"2026-06-10","acq_time":"109","satellite":"N20","instrument":"VIIRS","confidence":"n","version":"2.0NRT","bright_ti5":"281.85","frp":"1.36","daynight":"N","commune":"Grande-Synthe","code_insee":"59271","departement":"Nord","region":"Hauts-de-France"}},{"type":"Feature","geometry":{"type":"Point","coordinates":[2.27192,51.0317]},"properties":{"latitude":"51.0317","longitude":"2.27192","bright_ti4":"297.73","scan":"0.33","track":"0.56","acq_date":"2026-06-10","acq_time":"109","satellite":"N20","instrument":"VIIRS","confidence":"n","version":"2.0NRT","bright_ti5":"280.69","frp":"0.6","daynight":"N","commune":"Grande-Synthe","code_insee":"59271","departement":"Nord","region":"Hauts-de-France"}},{"type":"Feature","geometry":{"type":"Point","coordinates":[2.2907,51.03465]},"properties":{"latitude":"51.03465","longitude":"2.2907","bright_ti4":"304","scan":"0.33","track":"0.55","acq_date":"2026-06-10","acq_time":"109","satellite":"N20","instrument":"VIIRS","confidence":"n","version":"2.0NRT","bright_ti5":"282.35","frp":"0.98","daynight":"N","commune":"Grande-Synthe","code_insee":"59271","departement":"Nord","region":"Hauts-de-France"}},{"type":"Feature","geometry":{"type":"Point","coordinates":[2.28589,51.03486]},"properties":{"latitude":"51.03486","longitude":"2.28589","bright_ti4":"300.54","scan":"0.33","track":"0.56","acq_date":"2026-06-10","acq_time":"109","satellite":"N20","instrument":"VIIRS","confidence":"n","version":"2.0NRT","bright_ti5":"280.86","frp":"1.19","daynight":"N","commune":"Grande-Synthe","code_insee":"59271","departement":"Nord","region":"Hauts-de-France"}},{"type":"Feature","geometry":{"type":"Point","coordinates":[2.28706,51.03629]},"properties":{"latitude":"51.03629","longitude":"2.28706","bright_ti4":"315","scan":"0.33","track":"0.56","acq_date":"2026-06-10","acq_time":"109","satellite":"N20","instrument":"VIIRS","confidence":"n","version":"2.0NRT","bright_ti5":"281.74","frp":"1.77","daynight":"N","commune":"Grande-Synthe","code_insee":"59271","departement":"Nord","region":"Hauts-de-France"}},{"type":"Feature","geometry":{"type":"Point","coordinates":[2.28221,51.03648]},"properties":{"latitude":"51.03648","longitude":"2.28221","bright_ti4":"315.93","scan":"0.33","track":"0.56","acq_date":"2026-06-10","acq_time":"109","satellite":"N20","instrument":"VIIRS","confidence":"n","version":"2.0NRT","bright_ti5":"281.18","frp":"1.59","daynight":"N","commune":"Grande-Synthe","code_insee":"59271","departement":"Nord","region":"Hauts-de-France"}},{"type":"Feature","geometry":{"type":"Point","coordinates":[2.28152,51.04023]},"properties":{"latitude":"51.04023","longitude":"2.28152","bright_ti4":"308.15","scan":"0.33","track":"0.56","acq_date":"2026-06-10","acq_time":"109","satellite":"N20","instrument":"VIIRS","confidence":"n","version":"2.0NRT","bright_ti5":"280.18","frp":"1.05","daynight":"N","commune":"Grande-Synthe","code_insee":"59271","departement":"Nord","region":"Hauts-de-France"}},{"type":"Feature","geometry":{"type":"Point","coordinates":[2.29245,51.04126]},"properties":{"latitude":"51.04126","longitude":"2.29245","bright_ti4":"295.31","scan":"0.33","track":"0.56","acq_date":"2026-06-10","acq_time":"109","satellite":"N20","instrument":"VIIRS","confidence":"n","version":"2.0NRT","bright_ti5":"282.25","frp":"1.67","daynight":"N","commune":"Grande-Synthe","code_insee":"59271","departement":"Nord","region":"Hauts-de-France"}},{"type":"Feature","geometry":{"type":"Point","coordinates":[2.30149,51.04452]},"properties":{"latitude":"51.04452","longitude":"2.30149","bright_ti4":"303.81","scan":"0.33","track":"0.55","acq_date":"2026-06-10","acq_time":"109","satellite":"N20","instrument":"VIIRS","confidence":"n","version":"2.0NRT","bright_ti5":"283.04","frp":"2.84","daynight":"N","commune":"Grande-Synthe","code_insee":"59271","departement":"Nord","region":"Hauts-de-France"}},{"type":"Feature","geometry":{"type":"Point","coordinates":[2.29666,51.04473]},"properties":{"latitude":"51.04473","longitude":"2.29666","bright_ti4":"352.19","scan":"0.33","track":"0.55","acq_date":"2026-06-10","acq_time":"109","satellite":"N20","instrument":"VIIRS","confidence":"n","version":"2.0NRT","bright_ti5":"284.53","frp":"2.55","daynight":"N","commune":"Grande-Synthe","code_insee":"59271","departement":"Nord","region":"Hauts-de-France"}},{"type":"Feature","geometry":{"type":"Point","coordinates":[2.29179,51.04495]},"properties":{"latitude":"51.04495","longitude":"2.29179","bright_ti4":"297.24","scan":"0.33","track":"0.55","acq_date":"2026-06-10","acq_time":"109","satellite":"N20","instrument":"VIIRS","confidence":"n","version":"2.0NRT","bright_ti5":"281.49","frp":"2.55","daynight":"N","commune":"Grande-Synthe","code_insee":"59271","departement":"Nord","region":"Hauts-de-France"}},{"type":"Feature","geometry":{"type":"Point","coordinates":[2.30271,51.04602]},"properties":{"latitude":"51.04602","longitude":"2.30271","bright_ti4":"295","scan":"0.33","track":"0.55","acq_date":"2026-06-10","acq_time":"109","satellite":"N20","instrument":"VIIRS","confidence":"n","version":"2.0NRT","bright_ti5":"281.6","frp":"2.35","daynight":"N","commune":"Grande-Synthe","code_insee":"59271","departement":"Nord","region":"Hauts-de-France"}},{"type":"Feature","geometry":{"type":"Point","coordinates":[2.29787,51.04622]},"properties":{"latitude":"51.04622","longitude":"2.29787","bright_ti4":"346.59","scan":"0.33","track":"0.55","acq_date":"2026-06-10","acq_time":"109","satellite":"N20","instrument":"VIIRS","confidence":"n","version":"2.0NRT","bright_ti5":"284.77","frp":"2.35","daynight":"N","commune":"Grande-Synthe","code_insee":"59271","departement":"Nord","region":"Hauts-de-France"}},{"type":"Feature","geometry":{"type":"Point","coordinates":[2.29303,51.0464]},"properties":{"latitude":"51.0464","longitude":"2.29303","bright_ti4":"299.05","scan":"0.33","track":"0.56","acq_date":"2026-06-10","acq_time":"109","satellite":"N20","instrument":"VIIRS","confidence":"n","version":"2.0NRT","bright_ti5":"281.55","frp":"1.67","daynight":"N","commune":"Grande-Synthe","code_insee":"59271","departement":"Nord","region":"Hauts-de-France"}},{"type":"Feature","geometry":{"type":"Point","coordinates":[4.89309,43.43909]},"properties":{"latitude":"43.43909","longitude":"4.89309","bright_ti4":"299.16","scan":"0.43","track":"0.46","acq_date":"2026-06-10","acq_time":"111","satellite":"N20","instrument":"VIIRS","confidence":"n","version":"2.0NRT","bright_ti5":"287.55","frp":"1.01","daynight":"N","commune":"Fos-sur-Mer","code_insee":"13039","departement":"Bouches-du-Rhône","region":"Provence-Alpes-Côte d'Azur"}},{"type":"Feature","geometry":{"type":"Point","coordinates":[4.89982,43.44701]},"properties":{"latitude":"43.44701","longitude":"4.89982","bright_ti4":"311.44","scan":"0.43","track":"0.46","acq_date":"2026-06-10","acq_time":"111","satellite":"N20","instrument":"VIIRS","confidence":"n","version":"2.0NRT","bright_ti5":"287.99","frp":"1.21","daynight":"N","commune":"Fos-sur-Mer","code_insee":"13039","departement":"Bouches-du-Rhône","region":"Provence-Alpes-Côte d'Azur"}},{"type":"Feature","geometry":{"type":"Point","coordinates":[4.03993,43.67756]},"properties":{"latitude":"43.67756","longitude":"4.03993","bright_ti4":"328.97","scan":"0.47","track":"0.48","acq_date":"2026-06-10","acq_time":"111","satellite":"N20","instrument":"VIIRS","confidence":"n","version":"2.0NRT","bright_ti5":"285.62","frp":"3.61","daynight":"N","commune":"Saint-Brès","code_insee":"34244","departement":"Hérault","region":"Occitanie"}},{"type":"Feature","geometry":{"type":"Point","coordinates":[4.48169,43.76942]},"properties":{"latitude":"43.76942","longitude":"4.48169","bright_ti4":"337.49","scan":"0.45","track":"0.47","acq_date":"2026-06-10","acq_time":"111","satellite":"N20","instrument":"VIIRS","confidence":"n","version":"2.0NRT","bright_ti5":"288.95","frp":"3.44","daynight":"N","commune":"Bellegarde","code_insee":"30034","departement":"Gard","region":"Occitanie"}},{"type":"Feature","geometry":{"type":"Point","coordinates":[2.27442,51.02811]},"properties":{"latitude":"51.02811","longitude":"2.27442","bright_ti4":"299.16","scan":"0.54","track":"0.51","acq_date":"2026-06-10","acq_time":"249","satellite":"N20","instrument":"VIIRS","confidence":"n","version":"2.0NRT","bright_ti5":"281.18","frp":"2.04","daynight":"N","commune":"Grande-Synthe","code_insee":"59271","departement":"Nord","region":"Hauts-de-France"}},{"type":"Feature","geometry":{"type":"Point","coordinates":[2.28753,51.03479]},"properties":{"latitude":"51.03479","longitude":"2.28753","bright_ti4":"308.47","scan":"0.54","track":"0.51","acq_date":"2026-06-10","acq_time":"249","satellite":"N20","instrument":"VIIRS","confidence":"n","version":"2.0NRT","bright_ti5":"282.5","frp":"2.63","daynight":"N","commune":"Grande-Synthe","code_insee":"59271","departement":"Nord","region":"Hauts-de-France"}},{"type":"Feature","geometry":{"type":"Point","coordinates":[2.28035,51.03676]},"properties":{"latitude":"51.03676","longitude":"2.28035","bright_ti4":"301.91","scan":"0.54","track":"0.51","acq_date":"2026-06-10","acq_time":"249","satellite":"N20","instrument":"VIIRS","confidence":"n","version":"2.0NRT","bright_ti5":"280.67","frp":"1.2","daynight":"N","commune":"Grande-Synthe","code_insee":"59271","departement":"Nord","region":"Hauts-de-France"}},{"type":"Feature","geometry":{"type":"Point","coordinates":[2.29347,51.04345]},"properties":{"latitude":"51.04345","longitude":"2.29347","bright_ti4":"301.43","scan":"0.54","track":"0.51","acq_date":"2026-06-10","acq_time":"249","satellite":"N20","instrument":"VIIRS","confidence":"n","version":"2.0NRT","bright_ti5":"282.13","frp":"4.57","daynight":"N","commune":"Grande-Synthe","code_insee":"59271","departement":"Nord","region":"Hauts-de-France"}},{"type":"Feature","geometry":{"type":"Point","coordinates":[2.29646,51.04776]},"properties":{"latitude":"51.04776","longitude":"2.29646","bright_ti4":"336.98","scan":"0.54","track":"0.51","acq_date":"2026-06-10","acq_time":"249","satellite":"N20","instrument":"VIIRS","confidence":"n","version":"2.0NRT","bright_ti5":"285.49","frp":"4.57","daynight":"N","commune":"Grande-Synthe","code_insee":"59271","departement":"Nord","region":"Hauts-de-France"}},{"type":"Feature","geometry":{"type":"Point","coordinates":[5.39142,43.34438]},"properties":{"latitude":"43.34438","longitude":"5.39142","bright_ti4":"334.78","scan":"0.39","track":"0.36","acq_date":"2026-06-10","acq_time":"1236","satellite":"N20","instrument":"VIIRS","confidence":"n","version":"2.0NRT","bright_ti5":"304.53","frp":"3","daynight":"D","commune":"Marseille","code_insee":"13055","departement":"Bouches-du-Rhône","region":"Provence-Alpes-Côte d'Azur"}},{"type":"Feature","geometry":{"type":"Point","coordinates":[2.98462,48.38623]},"properties":{"latitude":"48.38623","longitude":"2.98462","bright_ti4":"327.42","scan":"0.38","track":"0.36","acq_date":"2026-06-10","acq_time":"1238","satellite":"N20","instrument":"VIIRS","confidence":"l","version":"2.0NRT","bright_ti5":"299.83","frp":"2.46","daynight":"D","commune":"Montereau-Fault-Yonne","code_insee":"77305","departement":"Seine-et-Marne","region":"Île-de-France"}},{"type":"Feature","geometry":{"type":"Point","coordinates":[2.31808,51.04685]},"properties":{"latitude":"51.04685","longitude":"2.31808","bright_ti4":"335.57","scan":"0.39","track":"0.36","acq_date":"2026-06-10","acq_time":"1238","satellite":"N20","instrument":"VIIRS","confidence":"n","version":"2.0NRT","bright_ti5":"302.7","frp":"6.74","daynight":"D","commune":"Dunkerque","code_insee":"59183","departement":"Nord","region":"Hauts-de-France"}},{"type":"Feature","geometry":{"type":"Point","coordinates":[4.88903,43.43591]},"properties":{"latitude":"43.43591","longitude":"4.88903","bright_ti4":"317.86","scan":"0.48","track":"0.4","acq_date":"2026-06-10","acq_time":"158","satellite":"N21","instrument":"VIIRS","confidence":"n","version":"2.0NRT","bright_ti5":"288","frp":"3.42","daynight":"N","commune":"Fos-sur-Mer","code_insee":"13039","departement":"Bouches-du-Rhône","region":"Provence-Alpes-Côte d'Azur"}},{"type":"Feature","geometry":{"type":"Point","coordinates":[4.89925,43.44516]},"properties":{"latitude":"43.44516","longitude":"4.89925","bright_ti4":"324.63","scan":"0.48","track":"0.4","acq_date":"2026-06-10","acq_time":"158","satellite":"N21","instrument":"VIIRS","confidence":"n","version":"2.0NRT","bright_ti5":"288.93","frp":"2.27","daynight":"N","commune":"Fos-sur-Mer","code_insee":"13039","departement":"Bouches-du-Rhône","region":"Provence-Alpes-Côte d'Azur"}},{"type":"Feature","geometry":{"type":"Point","coordinates":[4.89893,43.44547]},"properties":{"latitude":"43.44547","longitude":"4.89893","bright_ti4":"331.19","scan":"0.48","track":"0.4","acq_date":"2026-06-10","acq_time":"158","satellite":"N21","instrument":"VIIRS","confidence":"n","version":"2.0NRT","bright_ti5":"289.55","frp":"3.46","daynight":"N","commune":"Fos-sur-Mer","code_insee":"13039","departement":"Bouches-du-Rhône","region":"Provence-Alpes-Côte d'Azur"}},{"type":"Feature","geometry":{"type":"Point","coordinates":[4.89346,43.44635]},"properties":{"latitude":"43.44635","longitude":"4.89346","bright_ti4":"301.69","scan":"0.48","track":"0.4","acq_date":"2026-06-10","acq_time":"158","satellite":"N21","instrument":"VIIRS","confidence":"n","version":"2.0NRT","bright_ti5":"287.88","frp":"2.27","daynight":"N","commune":"Fos-sur-Mer","code_insee":"13039","departement":"Bouches-du-Rhône","region":"Provence-Alpes-Côte d'Azur"}},{"type":"Feature","geometry":{"type":"Point","coordinates":[4.03693,43.67634]},"properties":{"latitude":"43.67634","longitude":"4.03693","bright_ti4":"321.41","scan":"0.45","track":"0.39","acq_date":"2026-06-10","acq_time":"158","satellite":"N21","instrument":"VIIRS","confidence":"n","version":"2.0NRT","bright_ti5":"284.96","frp":"1.72","daynight":"N","commune":"Saint-Brès","code_insee":"34244","departement":"Hérault","region":"Occitanie"}},{"type":"Feature","geometry":{"type":"Point","coordinates":[4.47967,43.76731]},"properties":{"latitude":"43.76731","longitude":"4.47967","bright_ti4":"317.36","scan":"0.46","track":"0.39","acq_date":"2026-06-10","acq_time":"158","satellite":"N21","instrument":"VIIRS","confidence":"n","version":"2.0NRT","bright_ti5":"289.58","frp":"2.29","daynight":"N","commune":"Bellegarde","code_insee":"30034","departement":"Gard","region":"Occitanie"}},{"type":"Feature","geometry":{"type":"Point","coordinates":[3.56389,50.40057]},"properties":{"latitude":"50.40057","longitude":"3.56389","bright_ti4":"306.62","scan":"0.39","track":"0.36","acq_date":"2026-06-10","acq_time":"158","satellite":"N21","instrument":"VIIRS","confidence":"n","version":"2.0NRT","bright_ti5":"282.48","frp":"0.9","daynight":"N","commune":"Saint-Saulve","code_insee":"59544","departement":"Nord","region":"Hauts-de-France"}},{"type":"Feature","geometry":{"type":"Point","coordinates":[2.27291,51.02668]},"properties":{"latitude":"51.02668","longitude":"2.27291","bright_ti4":"300.21","scan":"0.39","track":"0.36","acq_date":"2026-06-10","acq_time":"158","satellite":"N21","instrument":"VIIRS","confidence":"n","version":"2.0NRT","bright_ti5":"282.04","frp":"0.52","daynight":"N","commune":"Grande-Synthe","code_insee":"59271","departement":"Nord","region":"Hauts-de-France"}},{"type":"Feature","geometry":{"type":"Point","coordinates":[2.2525,51.03316]},"properties":{"latitude":"51.03316","longitude":"2.2525","bright_ti4":"308.34","scan":"0.39","track":"0.36","acq_date":"2026-06-10","acq_time":"158","satellite":"N21","instrument":"VIIRS","confidence":"n","version":"2.0NRT","bright_ti5":"283.05","frp":"1.33","daynight":"N","commune":"Dunkerque","code_insee":"59183","departement":"Nord","region":"Hauts-de-France"}},{"type":"Feature","geometry":{"type":"Point","coordinates":[2.27535,51.03318]},"properties":{"latitude":"51.03318","longitude":"2.27535","bright_ti4":"306.93","scan":"0.39","track":"0.36","acq_date":"2026-06-10","acq_time":"158","satellite":"N21","instrument":"VIIRS","confidence":"n","version":"2.0NRT","bright_ti5":"282.69","frp":"1.44","daynight":"N","commune":"Grande-Synthe","code_insee":"59271","departement":"Nord","region":"Hauts-de-France"}},{"type":"Feature","geometry":{"type":"Point","coordinates":[2.28739,51.03482]},"properties":{"latitude":"51.03482","longitude":"2.28739","bright_ti4":"307.18","scan":"0.39","track":"0.36","acq_date":"2026-06-10","acq_time":"158","satellite":"N21","instrument":"VIIRS","confidence":"n","version":"2.0NRT","bright_ti5":"283.12","frp":"1.49","daynight":"N","commune":"Grande-Synthe","code_insee":"59271","departement":"Nord","region":"Hauts-de-France"}},{"type":"Feature","geometry":{"type":"Point","coordinates":[2.29524,51.04051]},"properties":{"latitude":"51.04051","longitude":"2.29524","bright_ti4":"296.22","scan":"0.39","track":"0.36","acq_date":"2026-06-10","acq_time":"158","satellite":"N21","instrument":"VIIRS","confidence":"n","version":"2.0NRT","bright_ti5":"285.02","frp":"8.93","daynight":"N","commune":"Grande-Synthe","code_insee":"59271","departement":"Nord","region":"Hauts-de-France"}},{"type":"Feature","geometry":{"type":"Point","coordinates":[2.28983,51.04132]},"properties":{"latitude":"51.04132","longitude":"2.28983","bright_ti4":"327.84","scan":"0.39","track":"0.36","acq_date":"2026-06-10","acq_time":"158","satellite":"N21","instrument":"VIIRS","confidence":"n","version":"2.0NRT","bright_ti5":"284.22","frp":"8.93","daynight":"N","commune":"Grande-Synthe","code_insee":"59271","departement":"Nord","region":"Hauts-de-France"}},{"type":"Feature","geometry":{"type":"Point","coordinates":[2.30187,51.04295]},"properties":{"latitude":"51.04295","longitude":"2.30187","bright_ti4":"300.52","scan":"0.39","track":"0.36","acq_date":"2026-06-10","acq_time":"158","satellite":"N21","instrument":"VIIRS","confidence":"n","version":"2.0NRT","bright_ti5":"283.2","frp":"0.8","daynight":"N","commune":"Grande-Synthe","code_insee":"59271","departement":"Nord","region":"Hauts-de-France"}},{"type":"Feature","geometry":{"type":"Point","coordinates":[2.29646,51.04376]},"properties":{"latitude":"51.04376","longitude":"2.29646","bright_ti4":"327.6","scan":"0.39","track":"0.36","acq_date":"2026-06-10","acq_time":"158","satellite":"N21","instrument":"VIIRS","confidence":"n","version":"2.0NRT","bright_ti5":"290.86","frp":"8.93","daynight":"N","commune":"Grande-Synthe","code_insee":"59271","departement":"Nord","region":"Hauts-de-France"}},{"type":"Feature","geometry":{"type":"Point","coordinates":[2.29769,51.04701]},"properties":{"latitude":"51.04701","longitude":"2.29769","bright_ti4":"306.63","scan":"0.39","track":"0.36","acq_date":"2026-06-10","acq_time":"158","satellite":"N21","instrument":"VIIRS","confidence":"n","version":"2.0NRT","bright_ti5":"284.52","frp":"1.48","daynight":"N","commune":"Grande-Synthe","code_insee":"59271","departement":"Nord","region":"Hauts-de-France"}},{"type":"Feature","geometry":{"type":"Point","coordinates":[2.31512,51.04783]},"properties":{"latitude":"51.04783","longitude":"2.31512","bright_ti4":"302.05","scan":"0.39","track":"0.36","acq_date":"2026-06-10","acq_time":"158","satellite":"N21","instrument":"VIIRS","confidence":"n","version":"2.0NRT","bright_ti5":"282.71","frp":"1.05","daynight":"N","commune":"Dunkerque","code_insee":"59183","departement":"Nord","region":"Hauts-de-France"}},{"type":"Feature","geometry":{"type":"Point","coordinates":[4.89539,43.44809]},"properties":{"latitude":"43.44809","longitude":"4.89539","bright_ti4":"334.81","scan":"0.36","track":"0.58","acq_date":"2026-06-10","acq_time":"1145","satellite":"N21","instrument":"VIIRS","confidence":"n","version":"2.0NRT","bright_ti5":"299.47","frp":"5.27","daynight":"D","commune":"Fos-sur-Mer","code_insee":"13039","departement":"Bouches-du-Rhône","region":"Provence-Alpes-Côte d'Azur"}},{"type":"Feature","geometry":{"type":"Point","coordinates":[3.4806,43.59919]},"properties":{"latitude":"43.59919","longitude":"3.4806","bright_ti4":"325.83","scan":"0.42","track":"0.61","acq_date":"2026-06-10","acq_time":"1145","satellite":"N21","instrument":"VIIRS","confidence":"n","version":"2.0NRT","bright_ti5":"294.58","frp":"2.18","daynight":"D","commune":"Canet","code_insee":"34051","departement":"Hérault","region":"Occitanie"}},{"type":"Feature","geometry":{"type":"Point","coordinates":[3.43081,43.47809]},"properties":{"latitude":"43.47809","longitude":"3.43081","bright_ti4":"334","scan":"0.32","track":"0.55","acq_date":"2026-06-10","acq_time":"1325","satellite":"N21","instrument":"VIIRS","confidence":"n","version":"2.0NRT","bright_ti5":"296.64","frp":"1.18","daynight":"D","commune":"Pézenas","code_insee":"34199","departement":"Hérault","region":"Occitanie"}},{"type":"Feature","geometry":{"type":"Point","coordinates":[1.716,48.31357]},"properties":{"latitude":"48.31357","longitude":"1.716","bright_ti4":"338.31","scan":"0.58","track":"0.52","acq_date":"2026-06-10","acq_time":"1325","satellite":"N21","instrument":"VIIRS","confidence":"n","version":"2.0NRT","bright_ti5":"294.48","frp":"14.48","daynight":"D","commune":"Boisville-la-Saint-Père","code_insee":"28047","departement":"Eure-et-Loir","region":"Centre-Val de Loire"}},{"type":"Feature","geometry":{"type":"Point","coordinates":[1.7153,48.31479]},"properties":{"latitude":"48.31479","longitude":"1.7153","bright_ti4":"335.57","scan":"0.58","track":"0.52","acq_date":"2026-06-10","acq_time":"1325","satellite":"N21","instrument":"VIIRS","confidence":"n","version":"2.0NRT","bright_ti5":"293.3","frp":"20.15","daynight":"D","commune":"Boisville-la-Saint-Père","code_insee":"28047","departement":"Eure-et-Loir","region":"Centre-Val de Loire"}}]}