{"type":"FeatureCollection","features":[{"type":"Feature","geometry":{"type":"Point","coordinates":[1.89331,50.97033]},"properties":{"latitude":"50.97033","longitude":"1.89331","bright_ti4":"304.96","scan":"0.39","track":"0.36","acq_date":"2026-06-22","acq_time":"206","satellite":"N","instrument":"VIIRS","confidence":"n","version":"2.0NRT","bright_ti5":"288.74","frp":"0.49","daynight":"N","commune":"Calais","code_insee":"62193","departement":"Pas-de-Calais","region":"Hauts-de-France"}},{"type":"Feature","geometry":{"type":"Point","coordinates":[1.89455,50.97361]},"properties":{"latitude":"50.97361","longitude":"1.89455","bright_ti4":"298.22","scan":"0.39","track":"0.36","acq_date":"2026-06-22","acq_time":"206","satellite":"N","instrument":"VIIRS","confidence":"n","version":"2.0NRT","bright_ti5":"287.94","frp":"0.49","daynight":"N","commune":"Calais","code_insee":"62193","departement":"Pas-de-Calais","region":"Hauts-de-France"}},{"type":"Feature","geometry":{"type":"Point","coordinates":[2.28304,51.02402]},"properties":{"latitude":"51.02402","longitude":"2.28304","bright_ti4":"304.92","scan":"0.39","track":"0.36","acq_date":"2026-06-22","acq_time":"206","satellite":"N","instrument":"VIIRS","confidence":"n","version":"2.0NRT","bright_ti5":"289.42","frp":"0.48","daynight":"N","commune":"Grande-Synthe","code_insee":"59271","departement":"Nord","region":"Hauts-de-France"}},{"type":"Feature","geometry":{"type":"Point","coordinates":[2.27219,51.02569]},"properties":{"latitude":"51.02569","longitude":"2.27219","bright_ti4":"301.9","scan":"0.39","track":"0.36","acq_date":"2026-06-22","acq_time":"206","satellite":"N","instrument":"VIIRS","confidence":"n","version":"2.0NRT","bright_ti5":"289.84","frp":"0.55","daynight":"N","commune":"Grande-Synthe","code_insee":"59271","departement":"Nord","region":"Hauts-de-France"}},{"type":"Feature","geometry":{"type":"Point","coordinates":[2.28557,51.03056]},"properties":{"latitude":"51.03056","longitude":"2.28557","bright_ti4":"302.49","scan":"0.39","track":"0.36","acq_date":"2026-06-22","acq_time":"206","satellite":"N","instrument":"VIIRS","confidence":"n","version":"2.0NRT","bright_ti5":"289.71","frp":"0.77","daynight":"N","commune":"Grande-Synthe","code_insee":"59271","departement":"Nord","region":"Hauts-de-France"}},{"type":"Feature","geometry":{"type":"Point","coordinates":[2.28684,51.03384]},"properties":{"latitude":"51.03384","longitude":"2.28684","bright_ti4":"322.15","scan":"0.39","track":"0.36","acq_date":"2026-06-22","acq_time":"206","satellite":"N","instrument":"VIIRS","confidence":"n","version":"2.0NRT","bright_ti5":"290.1","frp":"1.27","daynight":"N","commune":"Grande-Synthe","code_insee":"59271","departement":"Nord","region":"Hauts-de-France"}},{"type":"Feature","geometry":{"type":"Point","coordinates":[2.25306,51.03556]},"properties":{"latitude":"51.03556","longitude":"2.25306","bright_ti4":"307.37","scan":"0.39","track":"0.36","acq_date":"2026-06-22","acq_time":"206","satellite":"N","instrument":"VIIRS","confidence":"n","version":"2.0NRT","bright_ti5":"290.24","frp":"0.89","daynight":"N","commune":"Dunkerque","code_insee":"59183","departement":"Nord","region":"Hauts-de-France"}},{"type":"Feature","geometry":{"type":"Point","coordinates":[2.28811,51.0371]},"properties":{"latitude":"51.0371","longitude":"2.28811","bright_ti4":"311.33","scan":"0.39","track":"0.36","acq_date":"2026-06-22","acq_time":"206","satellite":"N","instrument":"VIIRS","confidence":"n","version":"2.0NRT","bright_ti5":"290.08","frp":"1.27","daynight":"N","commune":"Grande-Synthe","code_insee":"59271","departement":"Nord","region":"Hauts-de-France"}},{"type":"Feature","geometry":{"type":"Point","coordinates":[2.3015,51.04197]},"properties":{"latitude":"51.04197","longitude":"2.3015","bright_ti4":"300.68","scan":"0.38","track":"0.36","acq_date":"2026-06-22","acq_time":"206","satellite":"N","instrument":"VIIRS","confidence":"n","version":"2.0NRT","bright_ti5":"289.29","frp":"1.11","daynight":"N","commune":"Grande-Synthe","code_insee":"59271","departement":"Nord","region":"Hauts-de-France"}},{"type":"Feature","geometry":{"type":"Point","coordinates":[2.29607,51.04281]},"properties":{"latitude":"51.04281","longitude":"2.29607","bright_ti4":"312.19","scan":"0.39","track":"0.36","acq_date":"2026-06-22","acq_time":"206","satellite":"N","instrument":"VIIRS","confidence":"n","version":"2.0NRT","bright_ti5":"291.88","frp":"1.11","daynight":"N","commune":"Grande-Synthe","code_insee":"59271","departement":"Nord","region":"Hauts-de-France"}},{"type":"Feature","geometry":{"type":"Point","coordinates":[2.29065,51.04365]},"properties":{"latitude":"51.04365","longitude":"2.29065","bright_ti4":"301.85","scan":"0.39","track":"0.36","acq_date":"2026-06-22","acq_time":"206","satellite":"N","instrument":"VIIRS","confidence":"n","version":"2.0NRT","bright_ti5":"289.89","frp":"0.85","daynight":"N","commune":"Grande-Synthe","code_insee":"59271","departement":"Nord","region":"Hauts-de-France"}},{"type":"Feature","geometry":{"type":"Point","coordinates":[2.30277,51.04525]},"properties":{"latitude":"51.04525","longitude":"2.30277","bright_ti4":"311.35","scan":"0.38","track":"0.36","acq_date":"2026-06-22","acq_time":"206","satellite":"N","instrument":"VIIRS","confidence":"n","version":"2.0NRT","bright_ti5":"289.49","frp":"2.91","daynight":"N","commune":"Grande-Synthe","code_insee":"59271","departement":"Nord","region":"Hauts-de-France"}},{"type":"Feature","geometry":{"type":"Point","coordinates":[2.32031,51.046]},"properties":{"latitude":"51.046","longitude":"2.32031","bright_ti4":"324.65","scan":"0.38","track":"0.36","acq_date":"2026-06-22","acq_time":"206","satellite":"N","instrument":"VIIRS","confidence":"n","version":"2.0NRT","bright_ti5":"291.87","frp":"2.14","daynight":"N","commune":"Dunkerque","code_insee":"59183","departement":"Nord","region":"Hauts-de-France"}},{"type":"Feature","geometry":{"type":"Point","coordinates":[2.29734,51.04608]},"properties":{"latitude":"51.04608","longitude":"2.29734","bright_ti4":"344.76","scan":"0.39","track":"0.36","acq_date":"2026-06-22","acq_time":"206","satellite":"N","instrument":"VIIRS","confidence":"n","version":"2.0NRT","bright_ti5":"290.68","frp":"2.91","daynight":"N","commune":"Grande-Synthe","code_insee":"59271","departement":"Nord","region":"Hauts-de-France"}},{"type":"Feature","geometry":{"type":"Point","coordinates":[-0.13992,46.80849]},"properties":{"latitude":"46.80849","longitude":"-0.13992","bright_ti4":"306.92","scan":"0.39","track":"0.36","acq_date":"2026-06-22","acq_time":"209","satellite":"N","instrument":"VIIRS","confidence":"n","version":"2.0NRT","bright_ti5":"295.99","frp":"0.9","daynight":"N","commune":"Airvault","code_insee":"79005","departement":"Deux-Sèvres","region":"Nouvelle-Aquitaine"}},{"type":"Feature","geometry":{"type":"Point","coordinates":[-1.03574,48.10758]},"properties":{"latitude":"48.10758","longitude":"-1.03574","bright_ti4":"307.94","scan":"0.41","track":"0.37","acq_date":"2026-06-22","acq_time":"209","satellite":"N","instrument":"VIIRS","confidence":"n","version":"2.0NRT","bright_ti5":"295.32","frp":"0.9","daynight":"N","commune":"Saint-Pierre-la-Cour","code_insee":"53247","departement":"Mayenne","region":"Pays de la Loire"}},{"type":"Feature","geometry":{"type":"Point","coordinates":[6.11931,48.61064]},"properties":{"latitude":"48.61064","longitude":"6.11931","bright_ti4":"307.64","scan":"0.45","track":"0.39","acq_date":"2026-06-22","acq_time":"209","satellite":"N","instrument":"VIIRS","confidence":"n","version":"2.0NRT","bright_ti5":"292.5","frp":"0.85","daynight":"N","commune":"Neuves-Maisons","code_insee":"54397","departement":"Meurthe-et-Moselle","region":"Grand Est"}},{"type":"Feature","geometry":{"type":"Point","coordinates":[6.11344,48.6118]},"properties":{"latitude":"48.6118","longitude":"6.11344","bright_ti4":"308.72","scan":"0.45","track":"0.39","acq_date":"2026-06-22","acq_time":"209","satellite":"N","instrument":"VIIRS","confidence":"n","version":"2.0NRT","bright_ti5":"293.2","frp":"0.85","daynight":"N","commune":"Neuves-Maisons","code_insee":"54397","departement":"Meurthe-et-Moselle","region":"Grand Est"}},{"type":"Feature","geometry":{"type":"Point","coordinates":[1.76037,48.98341]},"properties":{"latitude":"48.98341","longitude":"1.76037","bright_ti4":"327","scan":"0.38","track":"0.36","acq_date":"2026-06-22","acq_time":"209","satellite":"N","instrument":"VIIRS","confidence":"n","version":"2.0NRT","bright_ti5":"295.14","frp":"2.82","daynight":"N","commune":"Porcheville","code_insee":"78501","departement":"Yvelines","region":"Île-de-France"}},{"type":"Feature","geometry":{"type":"Point","coordinates":[6.11413,49.10128]},"properties":{"latitude":"49.10128","longitude":"6.11413","bright_ti4":"318.54","scan":"0.44","track":"0.38","acq_date":"2026-06-22","acq_time":"209","satellite":"N","instrument":"VIIRS","confidence":"n","version":"2.0NRT","bright_ti5":"293.89","frp":"1.91","daynight":"N","commune":"Moulins-lès-Metz","code_insee":"57487","departement":"Moselle","region":"Grand Est"}},{"type":"Feature","geometry":{"type":"Point","coordinates":[0.53465,49.47838]},"properties":{"latitude":"49.47838","longitude":"0.53465","bright_ti4":"308.81","scan":"0.39","track":"0.36","acq_date":"2026-06-22","acq_time":"209","satellite":"N","instrument":"VIIRS","confidence":"n","version":"2.0NRT","bright_ti5":"292.29","frp":"1.4","daynight":"N","commune":"Port-Jérôme-sur-Seine","code_insee":"76476","departement":"Seine-Maritime","region":"Normandie"}},{"type":"Feature","geometry":{"type":"Point","coordinates":[0.40178,49.63087]},"properties":{"latitude":"49.63087","longitude":"0.40178","bright_ti4":"314.16","scan":"0.39","track":"0.37","acq_date":"2026-06-22","acq_time":"209","satellite":"N","instrument":"VIIRS","confidence":"n","version":"2.0NRT","bright_ti5":"289.58","frp":"1.11","daynight":"N","commune":"Bréauté","code_insee":"76141","departement":"Seine-Maritime","region":"Normandie"}},{"type":"Feature","geometry":{"type":"Point","coordinates":[5.27435,46.1564]},"properties":{"latitude":"46.1564","longitude":"5.27435","bright_ti4":"342.45","scan":"0.55","track":"0.51","acq_date":"2026-06-22","acq_time":"1153","satellite":"N","instrument":"VIIRS","confidence":"n","version":"2.0NRT","bright_ti5":"307.64","frp":"5.23","daynight":"D","commune":"Montagnat","code_insee":"01254","departement":"Ain","region":"Auvergne-Rhône-Alpes"}},{"type":"Feature","geometry":{"type":"Point","coordinates":[0.93342,46.37852]},"properties":{"latitude":"46.37852","longitude":"0.93342","bright_ti4":"367","scan":"0.42","track":"0.61","acq_date":"2026-06-22","acq_time":"1153","satellite":"N","instrument":"VIIRS","confidence":"h","version":"2.0NRT","bright_ti5":"308.12","frp":"15.71","daynight":"D","commune":"Saulgé","code_insee":"86254","departement":"Vienne","region":"Nouvelle-Aquitaine"}},{"type":"Feature","geometry":{"type":"Point","coordinates":[0.93866,46.38011]},"properties":{"latitude":"46.38011","longitude":"0.93866","bright_ti4":"367","scan":"0.42","track":"0.61","acq_date":"2026-06-22","acq_time":"1153","satellite":"N","instrument":"VIIRS","confidence":"h","version":"2.0NRT","bright_ti5":"311.62","frp":"17.21","daynight":"D","commune":"Lathus-Saint-Rémy","code_insee":"86120","departement":"Vienne","region":"Nouvelle-Aquitaine"}},{"type":"Feature","geometry":{"type":"Point","coordinates":[0.94389,46.3817]},"properties":{"latitude":"46.3817","longitude":"0.94389","bright_ti4":"367","scan":"0.42","track":"0.61","acq_date":"2026-06-22","acq_time":"1153","satellite":"N","instrument":"VIIRS","confidence":"h","version":"2.0NRT","bright_ti5":"305.76","frp":"17.21","daynight":"D","commune":"Montmorillon","code_insee":"86165","departement":"Vienne","region":"Nouvelle-Aquitaine"}},{"type":"Feature","geometry":{"type":"Point","coordinates":[0.93,46.38375]},"properties":{"latitude":"46.38375","longitude":"0.93","bright_ti4":"367","scan":"0.42","track":"0.61","acq_date":"2026-06-22","acq_time":"1153","satellite":"N","instrument":"VIIRS","confidence":"h","version":"2.0NRT","bright_ti5":"313.39","frp":"113.62","daynight":"D","commune":"Montmorillon","code_insee":"86165","departement":"Vienne","region":"Nouvelle-Aquitaine"}},{"type":"Feature","geometry":{"type":"Point","coordinates":[0.92035,46.38398]},"properties":{"latitude":"46.38398","longitude":"0.92035","bright_ti4":"334.53","scan":"0.42","track":"0.61","acq_date":"2026-06-22","acq_time":"1153","satellite":"N","instrument":"VIIRS","confidence":"n","version":"2.0NRT","bright_ti5":"301.1","frp":"10.77","daynight":"D","commune":"Saulgé","code_insee":"86254","departement":"Vienne","region":"Nouvelle-Aquitaine"}},{"type":"Feature","geometry":{"type":"Point","coordinates":[0.93521,46.38533]},"properties":{"latitude":"46.38533","longitude":"0.93521","bright_ti4":"351.99","scan":"0.42","track":"0.61","acq_date":"2026-06-22","acq_time":"1153","satellite":"N","instrument":"VIIRS","confidence":"n","version":"2.0NRT","bright_ti5":"302.9","frp":"28.35","daynight":"D","commune":"Montmorillon","code_insee":"86165","departement":"Vienne","region":"Nouvelle-Aquitaine"}},{"type":"Feature","geometry":{"type":"Point","coordinates":[0.92557,46.38559]},"properties":{"latitude":"46.38559","longitude":"0.92557","bright_ti4":"367","scan":"0.42","track":"0.61","acq_date":"2026-06-22","acq_time":"1153","satellite":"N","instrument":"VIIRS","confidence":"h","version":"2.0NRT","bright_ti5":"303.04","frp":"19.45","daynight":"D","commune":"Montmorillon","code_insee":"86165","departement":"Vienne","region":"Nouvelle-Aquitaine"}},{"type":"Feature","geometry":{"type":"Point","coordinates":[0.93077,46.3872]},"properties":{"latitude":"46.3872","longitude":"0.93077","bright_ti4":"337.36","scan":"0.42","track":"0.61","acq_date":"2026-06-22","acq_time":"1153","satellite":"N","instrument":"VIIRS","confidence":"n","version":"2.0NRT","bright_ti5":"300.95","frp":"19.45","daynight":"D","commune":"Montmorillon","code_insee":"86165","departement":"Vienne","region":"Nouvelle-Aquitaine"}},{"type":"Feature","geometry":{"type":"Point","coordinates":[6.11045,48.61059]},"properties":{"latitude":"48.61059","longitude":"6.11045","bright_ti4":"338.69","scan":"0.44","track":"0.46","acq_date":"2026-06-22","acq_time":"1153","satellite":"N","instrument":"VIIRS","confidence":"n","version":"2.0NRT","bright_ti5":"307.5","frp":"6.89","daynight":"D","commune":"Neuves-Maisons","code_insee":"54397","departement":"Meurthe-et-Moselle","region":"Grand Est"}},{"type":"Feature","geometry":{"type":"Point","coordinates":[2.75092,49.33916]},"properties":{"latitude":"49.33916","longitude":"2.75092","bright_ti4":"341.54","scan":"0.57","track":"0.52","acq_date":"2026-06-22","acq_time":"1153","satellite":"N","instrument":"VIIRS","confidence":"n","version":"2.0NRT","bright_ti5":"295.64","frp":"8.44","daynight":"D","commune":"Verberie","code_insee":"60667","departement":"Oise","region":"Hauts-de-France"}},{"type":"Feature","geometry":{"type":"Point","coordinates":[2.74857,49.34261]},"properties":{"latitude":"49.34261","longitude":"2.74857","bright_ti4":"336.81","scan":"0.57","track":"0.52","acq_date":"2026-06-22","acq_time":"1153","satellite":"N","instrument":"VIIRS","confidence":"n","version":"2.0NRT","bright_ti5":"295.03","frp":"3.52","daynight":"D","commune":"Verberie","code_insee":"60667","departement":"Oise","region":"Hauts-de-France"}},{"type":"Feature","geometry":{"type":"Point","coordinates":[1.29752,43.4291]},"properties":{"latitude":"43.4291","longitude":"1.29752","bright_ti4":"344.02","scan":"0.52","track":"0.5","acq_date":"2026-06-22","acq_time":"1333","satellite":"N","instrument":"VIIRS","confidence":"n","version":"2.0NRT","bright_ti5":"306.91","frp":"4.08","daynight":"D","commune":"Muret","code_insee":"31395","departement":"Haute-Garonne","region":"Occitanie"}},{"type":"Feature","geometry":{"type":"Point","coordinates":[-0.39668,45.27313]},"properties":{"latitude":"45.27313","longitude":"-0.39668","bright_ti4":"344.28","scan":"0.45","track":"0.47","acq_date":"2026-06-22","acq_time":"1333","satellite":"N","instrument":"VIIRS","confidence":"n","version":"2.0NRT","bright_ti5":"311.59","frp":"15.77","daynight":"D","commune":"Montendre","code_insee":"17240","departement":"Charente-Maritime","region":"Nouvelle-Aquitaine"}},{"type":"Feature","geometry":{"type":"Point","coordinates":[0.93123,46.37451]},"properties":{"latitude":"46.37451","longitude":"0.93123","bright_ti4":"351.75","scan":"0.53","track":"0.5","acq_date":"2026-06-22","acq_time":"1333","satellite":"N","instrument":"VIIRS","confidence":"n","version":"2.0NRT","bright_ti5":"308.53","frp":"51.88","daynight":"D","commune":"Saulgé","code_insee":"86254","departement":"Vienne","region":"Nouvelle-Aquitaine"}},{"type":"Feature","geometry":{"type":"Point","coordinates":[0.93062,46.37919]},"properties":{"latitude":"46.37919","longitude":"0.93062","bright_ti4":"342.25","scan":"0.53","track":"0.5","acq_date":"2026-06-22","acq_time":"1333","satellite":"N","instrument":"VIIRS","confidence":"n","version":"2.0NRT","bright_ti5":"312.21","frp":"38.04","daynight":"D","commune":"Saulgé","code_insee":"86254","departement":"Vienne","region":"Nouvelle-Aquitaine"}},{"type":"Feature","geometry":{"type":"Point","coordinates":[0.93759,46.37964]},"properties":{"latitude":"46.37964","longitude":"0.93759","bright_ti4":"340.26","scan":"0.53","track":"0.5","acq_date":"2026-06-22","acq_time":"1333","satellite":"N","instrument":"VIIRS","confidence":"n","version":"2.0NRT","bright_ti5":"306.77","frp":"20.06","daynight":"D","commune":"Lathus-Saint-Rémy","code_insee":"86120","departement":"Vienne","region":"Nouvelle-Aquitaine"}},{"type":"Feature","geometry":{"type":"Point","coordinates":[0.92307,46.38342]},"properties":{"latitude":"46.38342","longitude":"0.92307","bright_ti4":"340.49","scan":"0.53","track":"0.5","acq_date":"2026-06-22","acq_time":"1333","satellite":"N","instrument":"VIIRS","confidence":"n","version":"2.0NRT","bright_ti5":"303.82","frp":"38.04","daynight":"D","commune":"Saulgé","code_insee":"86254","departement":"Vienne","region":"Nouvelle-Aquitaine"}},{"type":"Feature","geometry":{"type":"Point","coordinates":[0.93004,46.38387]},"properties":{"latitude":"46.38387","longitude":"0.93004","bright_ti4":"345.94","scan":"0.53","track":"0.5","acq_date":"2026-06-22","acq_time":"1333","satellite":"N","instrument":"VIIRS","confidence":"n","version":"2.0NRT","bright_ti5":"306.35","frp":"38.04","daynight":"D","commune":"Montmorillon","code_insee":"86165","departement":"Vienne","region":"Nouvelle-Aquitaine"}},{"type":"Feature","geometry":{"type":"Point","coordinates":[4.93202,47.39075]},"properties":{"latitude":"47.39075","longitude":"4.93202","bright_ti4":"347.65","scan":"0.42","track":"0.61","acq_date":"2026-06-22","acq_time":"1333","satellite":"N","instrument":"VIIRS","confidence":"n","version":"2.0NRT","bright_ti5":"302.45","frp":"8.36","daynight":"D","commune":"Darois","code_insee":"21227","departement":"Côte-d'Or","region":"Bourgogne-Franche-Comté"}},{"type":"Feature","geometry":{"type":"Point","coordinates":[4.93779,47.39091]},"properties":{"latitude":"47.39091","longitude":"4.93779","bright_ti4":"354.76","scan":"0.42","track":"0.61","acq_date":"2026-06-22","acq_time":"1333","satellite":"N","instrument":"VIIRS","confidence":"n","version":"2.0NRT","bright_ti5":"303.92","frp":"12.39","daynight":"D","commune":"Darois","code_insee":"21227","departement":"Côte-d'Or","region":"Bourgogne-Franche-Comté"}},{"type":"Feature","geometry":{"type":"Point","coordinates":[4.93128,47.39647]},"properties":{"latitude":"47.39647","longitude":"4.93128","bright_ti4":"344.87","scan":"0.42","track":"0.61","acq_date":"2026-06-22","acq_time":"1333","satellite":"N","instrument":"VIIRS","confidence":"n","version":"2.0NRT","bright_ti5":"299.02","frp":"8.36","daynight":"D","commune":"Darois","code_insee":"21227","departement":"Côte-d'Or","region":"Bourgogne-Franche-Comté"}},{"type":"Feature","geometry":{"type":"Point","coordinates":[4.93702,47.39662]},"properties":{"latitude":"47.39662","longitude":"4.93702","bright_ti4":"355.31","scan":"0.42","track":"0.61","acq_date":"2026-06-22","acq_time":"1333","satellite":"N","instrument":"VIIRS","confidence":"n","version":"2.0NRT","bright_ti5":"300.22","frp":"12.39","daynight":"D","commune":"Darois","code_insee":"21227","departement":"Côte-d'Or","region":"Bourgogne-Franche-Comté"}},{"type":"Feature","geometry":{"type":"Point","coordinates":[1.75122,47.98203]},"properties":{"latitude":"47.98203","longitude":"1.75122","bright_ti4":"331.61","scan":"0.6","track":"0.53","acq_date":"2026-06-22","acq_time":"1333","satellite":"N","instrument":"VIIRS","confidence":"l","version":"2.0NRT","bright_ti5":"305.17","frp":"3.37","daynight":"D","commune":"Boulay-les-Barres","code_insee":"45046","departement":"Loiret","region":"Centre-Val de Loire"}},{"type":"Feature","geometry":{"type":"Point","coordinates":[1.2713,48.06612]},"properties":{"latitude":"48.06612","longitude":"1.2713","bright_ti4":"342.27","scan":"0.57","track":"0.52","acq_date":"2026-06-22","acq_time":"1333","satellite":"N","instrument":"VIIRS","confidence":"n","version":"2.0NRT","bright_ti5":"305.05","frp":"8.28","daynight":"D","commune":"Saint-Denis-Lanneray","code_insee":"28334","departement":"Eure-et-Loir","region":"Centre-Val de Loire"}},{"type":"Feature","geometry":{"type":"Point","coordinates":[3.23443,48.20122]},"properties":{"latitude":"48.20122","longitude":"3.23443","bright_ti4":"335.64","scan":"0.35","track":"0.57","acq_date":"2026-06-22","acq_time":"1333","satellite":"N","instrument":"VIIRS","confidence":"l","version":"2.0NRT","bright_ti5":"306.07","frp":"4.23","daynight":"D","commune":"Saint-Martin-du-Tertre","code_insee":"89354","departement":"Yonne","region":"Bourgogne-Franche-Comté"}},{"type":"Feature","geometry":{"type":"Point","coordinates":[3.24852,48.21782]},"properties":{"latitude":"48.21782","longitude":"3.24852","bright_ti4":"333.85","scan":"0.35","track":"0.57","acq_date":"2026-06-22","acq_time":"1333","satellite":"N","instrument":"VIIRS","confidence":"n","version":"2.0NRT","bright_ti5":"303.34","frp":"2.75","daynight":"D","commune":"Saint-Martin-du-Tertre","code_insee":"89354","departement":"Yonne","region":"Bourgogne-Franche-Comté"}},{"type":"Feature","geometry":{"type":"Point","coordinates":[3.71705,48.24795]},"properties":{"latitude":"48.24795","longitude":"3.71705","bright_ti4":"344.67","scan":"0.37","track":"0.58","acq_date":"2026-06-22","acq_time":"1333","satellite":"N","instrument":"VIIRS","confidence":"n","version":"2.0NRT","bright_ti5":"303.97","frp":"3.94","daynight":"D","commune":"Aix-Villemaur-Pâlis","code_insee":"10003","departement":"Aube","region":"Grand Est"}},{"type":"Feature","geometry":{"type":"Point","coordinates":[4.42619,48.96104]},"properties":{"latitude":"48.96104","longitude":"4.42619","bright_ti4":"333.27","scan":"0.41","track":"0.6","acq_date":"2026-06-22","acq_time":"1333","satellite":"N","instrument":"VIIRS","confidence":"n","version":"2.0NRT","bright_ti5":"297.53","frp":"3.98","daynight":"D","commune":"Saint-Memmie","code_insee":"51506","departement":"Marne","region":"Grand Est"}},{"type":"Feature","geometry":{"type":"Point","coordinates":[2.28833,51.03349]},"properties":{"latitude":"51.03349","longitude":"2.28833","bright_ti4":"302.81","scan":"0.63","track":"0.72","acq_date":"2026-06-22","acq_time":"43","satellite":"N20","instrument":"VIIRS","confidence":"n","version":"2.0NRT","bright_ti5":"279.22","frp":"0.89","daynight":"N","commune":"Grande-Synthe","code_insee":"59271","departement":"Nord","region":"Hauts-de-France"}},{"type":"Feature","geometry":{"type":"Point","coordinates":[2.28376,51.03601]},"properties":{"latitude":"51.03601","longitude":"2.28376","bright_ti4":"300.69","scan":"0.63","track":"0.72","acq_date":"2026-06-22","acq_time":"43","satellite":"N20","instrument":"VIIRS","confidence":"n","version":"2.0NRT","bright_ti5":"279.42","frp":"1.28","daynight":"N","commune":"Grande-Synthe","code_insee":"59271","departement":"Nord","region":"Hauts-de-France"}},{"type":"Feature","geometry":{"type":"Point","coordinates":[2.29283,51.04283]},"properties":{"latitude":"51.04283","longitude":"2.29283","bright_ti4":"301.6","scan":"0.63","track":"0.72","acq_date":"2026-06-22","acq_time":"43","satellite":"N20","instrument":"VIIRS","confidence":"n","version":"2.0NRT","bright_ti5":"281.59","frp":"1.83","daynight":"N","commune":"Grande-Synthe","code_insee":"59271","departement":"Nord","region":"Hauts-de-France"}},{"type":"Feature","geometry":{"type":"Point","coordinates":[2.29258,51.04952]},"properties":{"latitude":"51.04952","longitude":"2.29258","bright_ti4":"308.92","scan":"0.63","track":"0.72","acq_date":"2026-06-22","acq_time":"43","satellite":"N20","instrument":"VIIRS","confidence":"n","version":"2.0NRT","bright_ti5":"282.45","frp":"3.37","daynight":"N","commune":"Grande-Synthe","code_insee":"59271","departement":"Nord","region":"Hauts-de-France"}},{"type":"Feature","geometry":{"type":"Point","coordinates":[2.32037,51.04988]},"properties":{"latitude":"51.04988","longitude":"2.32037","bright_ti4":"303.94","scan":"0.63","track":"0.72","acq_date":"2026-06-22","acq_time":"43","satellite":"N20","instrument":"VIIRS","confidence":"n","version":"2.0NRT","bright_ti5":"279.43","frp":"1.65","daynight":"N","commune":"Dunkerque","code_insee":"59183","departement":"Nord","region":"Hauts-de-France"}},{"type":"Feature","geometry":{"type":"Point","coordinates":[4.99684,43.3855]},"properties":{"latitude":"43.3855","longitude":"4.99684","bright_ti4":"341.88","scan":"0.44","track":"0.62","acq_date":"2026-06-22","acq_time":"45","satellite":"N20","instrument":"VIIRS","confidence":"n","version":"2.0NRT","bright_ti5":"289.89","frp":"4.61","daynight":"N","commune":"Martigues","code_insee":"13056","departement":"Bouches-du-Rhône","region":"Provence-Alpes-Côte d'Azur"}},{"type":"Feature","geometry":{"type":"Point","coordinates":[4.99877,43.38604]},"properties":{"latitude":"43.38604","longitude":"4.99877","bright_ti4":"311.43","scan":"0.44","track":"0.62","acq_date":"2026-06-22","acq_time":"45","satellite":"N20","instrument":"VIIRS","confidence":"n","version":"2.0NRT","bright_ti5":"290.16","frp":"2.02","daynight":"N","commune":"Martigues","code_insee":"13056","departement":"Bouches-du-Rhône","region":"Provence-Alpes-Côte d'Azur"}},{"type":"Feature","geometry":{"type":"Point","coordinates":[4.89219,43.44168]},"properties":{"latitude":"43.44168","longitude":"4.89219","bright_ti4":"307.35","scan":"0.44","track":"0.62","acq_date":"2026-06-22","acq_time":"45","satellite":"N20","instrument":"VIIRS","confidence":"n","version":"2.0NRT","bright_ti5":"290.86","frp":"3.24","daynight":"N","commune":"Fos-sur-Mer","code_insee":"13039","departement":"Bouches-du-Rhône","region":"Provence-Alpes-Côte d'Azur"}},{"type":"Feature","geometry":{"type":"Point","coordinates":[4.89817,43.44729]},"properties":{"latitude":"43.44729","longitude":"4.89817","bright_ti4":"309.02","scan":"0.44","track":"0.62","acq_date":"2026-06-22","acq_time":"45","satellite":"N20","instrument":"VIIRS","confidence":"n","version":"2.0NRT","bright_ti5":"289.25","frp":"1.89","daynight":"N","commune":"Fos-sur-Mer","code_insee":"13039","departement":"Bouches-du-Rhône","region":"Provence-Alpes-Côte d'Azur"}},{"type":"Feature","geometry":{"type":"Point","coordinates":[5.66603,45.23322]},"properties":{"latitude":"45.23322","longitude":"5.66603","bright_ti4":"302.06","scan":"0.42","track":"0.61","acq_date":"2026-06-22","acq_time":"45","satellite":"N20","instrument":"VIIRS","confidence":"n","version":"2.0NRT","bright_ti5":"291.2","frp":"0.54","daynight":"N","commune":"Saint-Égrève","code_insee":"38382","departement":"Isère","region":"Auvergne-Rhône-Alpes"}},{"type":"Feature","geometry":{"type":"Point","coordinates":[7.23652,47.62925]},"properties":{"latitude":"47.62925","longitude":"7.23652","bright_ti4":"302.01","scan":"0.36","track":"0.58","acq_date":"2026-06-22","acq_time":"45","satellite":"N20","instrument":"VIIRS","confidence":"n","version":"2.0NRT","bright_ti5":"290.7","frp":"0.68","daynight":"N","commune":"Altkirch","code_insee":"68004","departement":"Haut-Rhin","region":"Grand Est"}},{"type":"Feature","geometry":{"type":"Point","coordinates":[6.11721,48.61345]},"properties":{"latitude":"48.61345","longitude":"6.11721","bright_ti4":"304.3","scan":"0.42","track":"0.61","acq_date":"2026-06-22","acq_time":"45","satellite":"N20","instrument":"VIIRS","confidence":"n","version":"2.0NRT","bright_ti5":"290.3","frp":"1.07","daynight":"N","commune":"Neuves-Maisons","code_insee":"54397","departement":"Meurthe-et-Moselle","region":"Grand Est"}},{"type":"Feature","geometry":{"type":"Point","coordinates":[6.02018,45.42928]},"properties":{"latitude":"45.42928","longitude":"6.02018","bright_ti4":"325.82","scan":"0.62","track":"0.54","acq_date":"2026-06-22","acq_time":"226","satellite":"N20","instrument":"VIIRS","confidence":"n","version":"2.0NRT","bright_ti5":"290.09","frp":"4.26","daynight":"N","commune":"Pontcharra","code_insee":"38314","departement":"Isère","region":"Auvergne-Rhône-Alpes"}},{"type":"Feature","geometry":{"type":"Point","coordinates":[-1.03872,48.10778]},"properties":{"latitude":"48.10778","longitude":"-1.03872","bright_ti4":"305.02","scan":"0.43","track":"0.38","acq_date":"2026-06-22","acq_time":"226","satellite":"N20","instrument":"VIIRS","confidence":"n","version":"2.0NRT","bright_ti5":"294.74","frp":"0.93","daynight":"N","commune":"Saint-Pierre-la-Cour","code_insee":"53247","departement":"Mayenne","region":"Pays de la Loire"}},{"type":"Feature","geometry":{"type":"Point","coordinates":[5.68155,48.71858]},"properties":{"latitude":"48.71858","longitude":"5.68155","bright_ti4":"300.56","scan":"0.48","track":"0.48","acq_date":"2026-06-22","acq_time":"226","satellite":"N20","instrument":"VIIRS","confidence":"n","version":"2.0NRT","bright_ti5":"290.56","frp":"0.9","daynight":"N","commune":"Sorcy-Saint-Martin","code_insee":"55496","departement":"Meuse","region":"Grand Est"}},{"type":"Feature","geometry":{"type":"Point","coordinates":[4.56488,48.77118]},"properties":{"latitude":"48.77118","longitude":"4.56488","bright_ti4":"301.96","scan":"0.43","track":"0.46","acq_date":"2026-06-22","acq_time":"226","satellite":"N20","instrument":"VIIRS","confidence":"n","version":"2.0NRT","bright_ti5":"290.91","frp":"0.76","daynight":"N","commune":"Couvrot","code_insee":"51195","departement":"Marne","region":"Grand Est"}},{"type":"Feature","geometry":{"type":"Point","coordinates":[2.73797,48.94798]},"properties":{"latitude":"48.94798","longitude":"2.73797","bright_ti4":"304.57","scan":"0.55","track":"0.42","acq_date":"2026-06-22","acq_time":"226","satellite":"N20","instrument":"VIIRS","confidence":"n","version":"2.0NRT","bright_ti5":"291.4","frp":"0.9","daynight":"N","commune":"Fresnes-sur-Marne","code_insee":"77196","departement":"Seine-et-Marne","region":"Île-de-France"}},{"type":"Feature","geometry":{"type":"Point","coordinates":[1.76501,48.98381]},"properties":{"latitude":"48.98381","longitude":"1.76501","bright_ti4":"304.98","scan":"0.5","track":"0.41","acq_date":"2026-06-22","acq_time":"226","satellite":"N20","instrument":"VIIRS","confidence":"n","version":"2.0NRT","bright_ti5":"293.73","frp":"0.96","daynight":"N","commune":"Porcheville","code_insee":"78501","departement":"Yvelines","region":"Île-de-France"}},{"type":"Feature","geometry":{"type":"Point","coordinates":[1.75838,48.98522]},"properties":{"latitude":"48.98522","longitude":"1.75838","bright_ti4":"306.95","scan":"0.5","track":"0.41","acq_date":"2026-06-22","acq_time":"226","satellite":"N20","instrument":"VIIRS","confidence":"n","version":"2.0NRT","bright_ti5":"292.84","frp":"0.96","daynight":"N","commune":"Limay","code_insee":"78335","departement":"Yvelines","region":"Île-de-France"}},{"type":"Feature","geometry":{"type":"Point","coordinates":[1.75925,48.9861]},"properties":{"latitude":"48.9861","longitude":"1.75925","bright_ti4":"308.39","scan":"0.5","track":"0.41","acq_date":"2026-06-22","acq_time":"226","satellite":"N20","instrument":"VIIRS","confidence":"n","version":"2.0NRT","bright_ti5":"293.62","frp":"0.9","daynight":"N","commune":"Limay","code_insee":"78335","departement":"Yvelines","region":"Île-de-France"}},{"type":"Feature","geometry":{"type":"Point","coordinates":[6.11069,49.10123]},"properties":{"latitude":"49.10123","longitude":"6.11069","bright_ti4":"335.65","scan":"0.49","track":"0.49","acq_date":"2026-06-22","acq_time":"226","satellite":"N20","instrument":"VIIRS","confidence":"n","version":"2.0NRT","bright_ti5":"292.56","frp":"6.37","daynight":"N","commune":"Moulins-lès-Metz","code_insee":"57487","departement":"Moselle","region":"Grand Est"}},{"type":"Feature","geometry":{"type":"Point","coordinates":[6.11328,49.10416]},"properties":{"latitude":"49.10416","longitude":"6.11328","bright_ti4":"338.23","scan":"0.49","track":"0.49","acq_date":"2026-06-22","acq_time":"226","satellite":"N20","instrument":"VIIRS","confidence":"n","version":"2.0NRT","bright_ti5":"292.79","frp":"4.28","daynight":"N","commune":"Scy-Chazelles","code_insee":"57642","departement":"Moselle","region":"Grand Est"}},{"type":"Feature","geometry":{"type":"Point","coordinates":[0.40105,49.63326]},"properties":{"latitude":"49.63326","longitude":"0.40105","bright_ti4":"303.42","scan":"0.45","track":"0.39","acq_date":"2026-06-22","acq_time":"226","satellite":"N20","instrument":"VIIRS","confidence":"n","version":"2.0NRT","bright_ti5":"288.57","frp":"0.8","daynight":"N","commune":"Bréauté","code_insee":"76141","departement":"Seine-Maritime","region":"Normandie"}},{"type":"Feature","geometry":{"type":"Point","coordinates":[2.2843,51.02394]},"properties":{"latitude":"51.02394","longitude":"2.2843","bright_ti4":"296.31","scan":"0.48","track":"0.4","acq_date":"2026-06-22","acq_time":"226","satellite":"N20","instrument":"VIIRS","confidence":"n","version":"2.0NRT","bright_ti5":"279.73","frp":"0.55","daynight":"N","commune":"Grande-Synthe","code_insee":"59271","departement":"Nord","region":"Hauts-de-France"}},{"type":"Feature","geometry":{"type":"Point","coordinates":[2.27122,51.02673]},"properties":{"latitude":"51.02673","longitude":"2.27122","bright_ti4":"299.24","scan":"0.48","track":"0.4","acq_date":"2026-06-22","acq_time":"226","satellite":"N20","instrument":"VIIRS","confidence":"n","version":"2.0NRT","bright_ti5":"281.88","frp":"1.05","daynight":"N","commune":"Grande-Synthe","code_insee":"59271","departement":"Nord","region":"Hauts-de-France"}},{"type":"Feature","geometry":{"type":"Point","coordinates":[2.27268,51.02696]},"properties":{"latitude":"51.02696","longitude":"2.27268","bright_ti4":"299.11","scan":"0.48","track":"0.4","acq_date":"2026-06-22","acq_time":"226","satellite":"N20","instrument":"VIIRS","confidence":"n","version":"2.0NRT","bright_ti5":"280.97","frp":"1.09","daynight":"N","commune":"Grande-Synthe","code_insee":"59271","departement":"Nord","region":"Hauts-de-France"}},{"type":"Feature","geometry":{"type":"Point","coordinates":[2.27494,51.03375]},"properties":{"latitude":"51.03375","longitude":"2.27494","bright_ti4":"301.7","scan":"0.48","track":"0.4","acq_date":"2026-06-22","acq_time":"226","satellite":"N20","instrument":"VIIRS","confidence":"n","version":"2.0NRT","bright_ti5":"284.57","frp":"0.87","daynight":"N","commune":"Grande-Synthe","code_insee":"59271","departement":"Nord","region":"Hauts-de-France"}},{"type":"Feature","geometry":{"type":"Point","coordinates":[2.25349,51.0344]},"properties":{"latitude":"51.0344","longitude":"2.25349","bright_ti4":"299.65","scan":"0.48","track":"0.4","acq_date":"2026-06-22","acq_time":"226","satellite":"N20","instrument":"VIIRS","confidence":"n","version":"2.0NRT","bright_ti5":"284.79","frp":"0.61","daynight":"N","commune":"Dunkerque","code_insee":"59183","departement":"Nord","region":"Hauts-de-France"}},{"type":"Feature","geometry":{"type":"Point","coordinates":[2.28987,51.03448]},"properties":{"latitude":"51.03448","longitude":"2.28987","bright_ti4":"317.25","scan":"0.48","track":"0.4","acq_date":"2026-06-22","acq_time":"226","satellite":"N20","instrument":"VIIRS","confidence":"n","version":"2.0NRT","bright_ti5":"284.79","frp":"3.18","daynight":"N","commune":"Grande-Synthe","code_insee":"59271","departement":"Nord","region":"Hauts-de-France"}},{"type":"Feature","geometry":{"type":"Point","coordinates":[2.29359,51.04151]},"properties":{"latitude":"51.04151","longitude":"2.29359","bright_ti4":"300.8","scan":"0.48","track":"0.4","acq_date":"2026-06-22","acq_time":"226","satellite":"N20","instrument":"VIIRS","confidence":"n","version":"2.0NRT","bright_ti5":"286.97","frp":"1.21","daynight":"N","commune":"Grande-Synthe","code_insee":"59271","departement":"Nord","region":"Hauts-de-France"}},{"type":"Feature","geometry":{"type":"Point","coordinates":[2.302,51.04364]},"properties":{"latitude":"51.04364","longitude":"2.302","bright_ti4":"300.81","scan":"0.48","track":"0.4","acq_date":"2026-06-22","acq_time":"226","satellite":"N20","instrument":"VIIRS","confidence":"n","version":"2.0NRT","bright_ti5":"286.42","frp":"3.09","daynight":"N","commune":"Grande-Synthe","code_insee":"59271","departement":"Nord","region":"Hauts-de-France"}},{"type":"Feature","geometry":{"type":"Point","coordinates":[2.29545,51.04502]},"properties":{"latitude":"51.04502","longitude":"2.29545","bright_ti4":"336.98","scan":"0.48","track":"0.4","acq_date":"2026-06-22","acq_time":"226","satellite":"N20","instrument":"VIIRS","confidence":"n","version":"2.0NRT","bright_ti5":"288.48","frp":"9.63","daynight":"N","commune":"Grande-Synthe","code_insee":"59271","departement":"Nord","region":"Hauts-de-France"}},{"type":"Feature","geometry":{"type":"Point","coordinates":[2.32538,51.0465]},"properties":{"latitude":"51.0465","longitude":"2.32538","bright_ti4":"300.4","scan":"0.48","track":"0.4","acq_date":"2026-06-22","acq_time":"226","satellite":"N20","instrument":"VIIRS","confidence":"n","version":"2.0NRT","bright_ti5":"285.16","frp":"1.14","daynight":"N","commune":"Dunkerque","code_insee":"59183","departement":"Nord","region":"Hauts-de-France"}},{"type":"Feature","geometry":{"type":"Point","coordinates":[2.31883,51.04789]},"properties":{"latitude":"51.04789","longitude":"2.31883","bright_ti4":"307.75","scan":"0.48","track":"0.4","acq_date":"2026-06-22","acq_time":"226","satellite":"N20","instrument":"VIIRS","confidence":"n","version":"2.0NRT","bright_ti5":"285.4","frp":"1.14","daynight":"N","commune":"Dunkerque","code_insee":"59183","departement":"Nord","region":"Hauts-de-France"}},{"type":"Feature","geometry":{"type":"Point","coordinates":[0.15995,45.56566]},"properties":{"latitude":"45.56566","longitude":"0.15995","bright_ti4":"308.2","scan":"0.51","track":"0.41","acq_date":"2026-06-22","acq_time":"228","satellite":"N20","instrument":"VIIRS","confidence":"n","version":"2.0NRT","bright_ti5":"294.33","frp":"0.91","daynight":"N","commune":"Mouthiers-sur-Boëme","code_insee":"16236","departement":"Charente","region":"Nouvelle-Aquitaine"}},{"type":"Feature","geometry":{"type":"Point","coordinates":[4.89865,43.44566]},"properties":{"latitude":"43.44566","longitude":"4.89865","bright_ti4":"340.63","scan":"0.54","track":"0.42","acq_date":"2026-06-22","acq_time":"1212","satellite":"N20","instrument":"VIIRS","confidence":"l","version":"2.0NRT","bright_ti5":"312.69","frp":"8.05","daynight":"D","commune":"Fos-sur-Mer","code_insee":"13039","departement":"Bouches-du-Rhône","region":"Provence-Alpes-Côte d'Azur"}},{"type":"Feature","geometry":{"type":"Point","coordinates":[0.26414,44.31077]},"properties":{"latitude":"44.31077","longitude":"0.26414","bright_ti4":"338.29","scan":"0.55","track":"0.51","acq_date":"2026-06-22","acq_time":"1212","satellite":"N20","instrument":"VIIRS","confidence":"n","version":"2.0NRT","bright_ti5":"305.35","frp":"4.54","daynight":"D","commune":"Puch-d'Agenais","code_insee":"47214","departement":"Lot-et-Garonne","region":"Nouvelle-Aquitaine"}},{"type":"Feature","geometry":{"type":"Point","coordinates":[0.21853,44.4755]},"properties":{"latitude":"44.4755","longitude":"0.21853","bright_ti4":"342.17","scan":"0.55","track":"0.51","acq_date":"2026-06-22","acq_time":"1212","satellite":"N20","instrument":"VIIRS","confidence":"n","version":"2.0NRT","bright_ti5":"304.67","frp":"4.9","daynight":"D","commune":"Saint-Pardoux-du-Breuil","code_insee":"47263","departement":"Lot-et-Garonne","region":"Nouvelle-Aquitaine"}},{"type":"Feature","geometry":{"type":"Point","coordinates":[4.8676,44.90015]},"properties":{"latitude":"44.90015","longitude":"4.8676","bright_ti4":"335.55","scan":"0.51","track":"0.41","acq_date":"2026-06-22","acq_time":"1212","satellite":"N20","instrument":"VIIRS","confidence":"l","version":"2.0NRT","bright_ti5":"307.07","frp":"5.56","daynight":"D","commune":"Valence","code_insee":"26362","departement":"Drôme","region":"Auvergne-Rhône-Alpes"}},{"type":"Feature","geometry":{"type":"Point","coordinates":[0.94086,46.377]},"properties":{"latitude":"46.377","longitude":"0.94086","bright_ti4":"348.92","scan":"0.46","track":"0.47","acq_date":"2026-06-22","acq_time":"1212","satellite":"N20","instrument":"VIIRS","confidence":"n","version":"2.0NRT","bright_ti5":"313.68","frp":"18.25","daynight":"D","commune":"Lathus-Saint-Rémy","code_insee":"86120","departement":"Vienne","region":"Nouvelle-Aquitaine"}},{"type":"Feature","geometry":{"type":"Point","coordinates":[0.92738,46.37837]},"properties":{"latitude":"46.37837","longitude":"0.92738","bright_ti4":"350.89","scan":"0.46","track":"0.47","acq_date":"2026-06-22","acq_time":"1212","satellite":"N20","instrument":"VIIRS","confidence":"n","version":"2.0NRT","bright_ti5":"309.36","frp":"10.88","daynight":"D","commune":"Saulgé","code_insee":"86254","departement":"Vienne","region":"Nouvelle-Aquitaine"}},{"type":"Feature","geometry":{"type":"Point","coordinates":[0.93308,46.37973]},"properties":{"latitude":"46.37973","longitude":"0.93308","bright_ti4":"355.24","scan":"0.46","track":"0.47","acq_date":"2026-06-22","acq_time":"1212","satellite":"N20","instrument":"VIIRS","confidence":"n","version":"2.0NRT","bright_ti5":"321.14","frp":"18.25","daynight":"D","commune":"Saulgé","code_insee":"86254","departement":"Vienne","region":"Nouvelle-Aquitaine"}},{"type":"Feature","geometry":{"type":"Point","coordinates":[0.93878,46.3811]},"properties":{"latitude":"46.3811","longitude":"0.93878","bright_ti4":"355.26","scan":"0.46","track":"0.47","acq_date":"2026-06-22","acq_time":"1212","satellite":"N20","instrument":"VIIRS","confidence":"n","version":"2.0NRT","bright_ti5":"317.29","frp":"18.25","daynight":"D","commune":"Lathus-Saint-Rémy","code_insee":"86120","departement":"Vienne","region":"Nouvelle-Aquitaine"}},{"type":"Feature","geometry":{"type":"Point","coordinates":[0.93099,46.38384]},"properties":{"latitude":"46.38384","longitude":"0.93099","bright_ti4":"348.13","scan":"0.46","track":"0.47","acq_date":"2026-06-22","acq_time":"1212","satellite":"N20","instrument":"VIIRS","confidence":"n","version":"2.0NRT","bright_ti5":"312.93","frp":"32.38","daynight":"D","commune":"Montmorillon","code_insee":"86165","departement":"Vienne","region":"Nouvelle-Aquitaine"}},{"type":"Feature","geometry":{"type":"Point","coordinates":[0.93666,46.3852]},"properties":{"latitude":"46.3852","longitude":"0.93666","bright_ti4":"342.79","scan":"0.46","track":"0.47","acq_date":"2026-06-22","acq_time":"1212","satellite":"N20","instrument":"VIIRS","confidence":"n","version":"2.0NRT","bright_ti5":"307.23","frp":"32.38","daynight":"D","commune":"Montmorillon","code_insee":"86165","departement":"Vienne","region":"Nouvelle-Aquitaine"}},{"type":"Feature","geometry":{"type":"Point","coordinates":[-1.4351,47.2071]},"properties":{"latitude":"47.2071","longitude":"-1.4351","bright_ti4":"345.03","scan":"0.55","track":"0.51","acq_date":"2026-06-22","acq_time":"1212","satellite":"N20","instrument":"VIIRS","confidence":"n","version":"2.0NRT","bright_ti5":"306.52","frp":"11.53","daynight":"D","commune":"Haute-Goulaine","code_insee":"44071","departement":"Loire-Atlantique","region":"Pays de la Loire"}},{"type":"Feature","geometry":{"type":"Point","coordinates":[-1.42741,47.22223]},"properties":{"latitude":"47.22223","longitude":"-1.42741","bright_ti4":"340.75","scan":"0.55","track":"0.51","acq_date":"2026-06-22","acq_time":"1212","satellite":"N20","instrument":"VIIRS","confidence":"n","version":"2.0NRT","bright_ti5":"309.22","frp":"6.04","daynight":"D","commune":"Saint-Julien-de-Concelles","code_insee":"44169","departement":"Loire-Atlantique","region":"Pays de la Loire"}},{"type":"Feature","geometry":{"type":"Point","coordinates":[0.76069,47.45682]},"properties":{"latitude":"47.45682","longitude":"0.76069","bright_ti4":"342.27","scan":"0.44","track":"0.46","acq_date":"2026-06-22","acq_time":"1212","satellite":"N20","instrument":"VIIRS","confidence":"n","version":"2.0NRT","bright_ti5":"308.7","frp":"2.93","daynight":"D","commune":"Parçay-Meslay","code_insee":"37179","departement":"Indre-et-Loire","region":"Centre-Val de Loire"}},{"type":"Feature","geometry":{"type":"Point","coordinates":[-0.47014,47.58712]},"properties":{"latitude":"47.58712","longitude":"-0.47014","bright_ti4":"331.9","scan":"0.49","track":"0.48","acq_date":"2026-06-22","acq_time":"1212","satellite":"N20","instrument":"VIIRS","confidence":"n","version":"2.0NRT","bright_ti5":"305.68","frp":"3.02","daynight":"D","commune":"Briollay","code_insee":"49048","departement":"Maine-et-Loire","region":"Pays de la Loire"}},{"type":"Feature","geometry":{"type":"Point","coordinates":[1.07782,47.94912]},"properties":{"latitude":"47.94912","longitude":"1.07782","bright_ti4":"351.01","scan":"0.41","track":"0.45","acq_date":"2026-06-22","acq_time":"1212","satellite":"N20","instrument":"VIIRS","confidence":"n","version":"2.0NRT","bright_ti5":"315.48","frp":"18.32","daynight":"D","commune":"Chauvigny-du-Perche","code_insee":"41048","departement":"Loir-et-Cher","region":"Centre-Val de Loire"}},{"type":"Feature","geometry":{"type":"Point","coordinates":[1.08309,47.95035]},"properties":{"latitude":"47.95035","longitude":"1.08309","bright_ti4":"341.72","scan":"0.41","track":"0.45","acq_date":"2026-06-22","acq_time":"1212","satellite":"N20","instrument":"VIIRS","confidence":"n","version":"2.0NRT","bright_ti5":"307.92","frp":"15.09","daynight":"D","commune":"Chauvigny-du-Perche","code_insee":"41048","departement":"Loir-et-Cher","region":"Centre-Val de Loire"}},{"type":"Feature","geometry":{"type":"Point","coordinates":[1.07586,47.95305]},"properties":{"latitude":"47.95305","longitude":"1.07586","bright_ti4":"339.12","scan":"0.41","track":"0.45","acq_date":"2026-06-22","acq_time":"1212","satellite":"N20","instrument":"VIIRS","confidence":"n","version":"2.0NRT","bright_ti5":"306.49","frp":"18.32","daynight":"D","commune":"Chauvigny-du-Perche","code_insee":"41048","departement":"Loir-et-Cher","region":"Centre-Val de Loire"}},{"type":"Feature","geometry":{"type":"Point","coordinates":[3.23816,48.20153]},"properties":{"latitude":"48.20153","longitude":"3.23816","bright_ti4":"335.35","scan":"0.5","track":"0.41","acq_date":"2026-06-22","acq_time":"1212","satellite":"N20","instrument":"VIIRS","confidence":"l","version":"2.0NRT","bright_ti5":"309.05","frp":"113.01","daynight":"D","commune":"Saint-Martin-du-Tertre","code_insee":"89354","departement":"Yonne","region":"Bourgogne-Franche-Comté"}},{"type":"Feature","geometry":{"type":"Point","coordinates":[3.23003,48.20378]},"properties":{"latitude":"48.20378","longitude":"3.23003","bright_ti4":"334.38","scan":"0.5","track":"0.41","acq_date":"2026-06-22","acq_time":"1212","satellite":"N20","instrument":"VIIRS","confidence":"l","version":"2.0NRT","bright_ti5":"304.99","frp":"6.83","daynight":"D","commune":"Saint-Martin-du-Tertre","code_insee":"89354","departement":"Yonne","region":"Bourgogne-Franche-Comté"}},{"type":"Feature","geometry":{"type":"Point","coordinates":[3.2365,48.20515]},"properties":{"latitude":"48.20515","longitude":"3.2365","bright_ti4":"342.66","scan":"0.5","track":"0.41","acq_date":"2026-06-22","acq_time":"1212","satellite":"N20","instrument":"VIIRS","confidence":"n","version":"2.0NRT","bright_ti5":"308.29","frp":"6.83","daynight":"D","commune":"Saint-Martin-du-Tertre","code_insee":"89354","departement":"Yonne","region":"Bourgogne-Franche-Comté"}},{"type":"Feature","geometry":{"type":"Point","coordinates":[6.11465,48.60963]},"properties":{"latitude":"48.60963","longitude":"6.11465","bright_ti4":"338.32","scan":"0.41","track":"0.37","acq_date":"2026-06-22","acq_time":"1212","satellite":"N20","instrument":"VIIRS","confidence":"l","version":"2.0NRT","bright_ti5":"311.73","frp":"5.13","daynight":"D","commune":"Neuves-Maisons","code_insee":"54397","departement":"Meurthe-et-Moselle","region":"Grand Est"}},{"type":"Feature","geometry":{"type":"Point","coordinates":[6.12012,48.61061]},"properties":{"latitude":"48.61061","longitude":"6.12012","bright_ti4":"336.08","scan":"0.41","track":"0.37","acq_date":"2026-06-22","acq_time":"1212","satellite":"N20","instrument":"VIIRS","confidence":"l","version":"2.0NRT","bright_ti5":"310.2","frp":"3.02","daynight":"D","commune":"Neuves-Maisons","code_insee":"54397","departement":"Meurthe-et-Moselle","region":"Grand Est"}},{"type":"Feature","geometry":{"type":"Point","coordinates":[-1.27178,48.31673]},"properties":{"latitude":"48.31673","longitude":"-1.27178","bright_ti4":"341.38","scan":"0.5","track":"0.49","acq_date":"2026-06-22","acq_time":"1214","satellite":"N20","instrument":"VIIRS","confidence":"n","version":"2.0NRT","bright_ti5":"303.02","frp":"4.14","daynight":"D","commune":"Romagné","code_insee":"35243","departement":"Ille-et-Vilaine","region":"Bretagne"}},{"type":"Feature","geometry":{"type":"Point","coordinates":[0.07715,48.81411]},"properties":{"latitude":"48.81411","longitude":"0.07715","bright_ti4":"345.65","scan":"0.43","track":"0.46","acq_date":"2026-06-22","acq_time":"1214","satellite":"N20","instrument":"VIIRS","confidence":"n","version":"2.0NRT","bright_ti5":"304.27","frp":"7.69","daynight":"D","commune":"Saint-Lambert-sur-Dive","code_insee":"61413","departement":"Orne","region":"Normandie"}},{"type":"Feature","geometry":{"type":"Point","coordinates":[2.06219,49.40712]},"properties":{"latitude":"49.40712","longitude":"2.06219","bright_ti4":"342.76","scan":"0.52","track":"0.42","acq_date":"2026-06-22","acq_time":"1214","satellite":"N20","instrument":"VIIRS","confidence":"n","version":"2.0NRT","bright_ti5":"300.65","frp":"5.62","daynight":"D","commune":"Saint-Martin-le-Nœud","code_insee":"60586","departement":"Oise","region":"Hauts-de-France"}},{"type":"Feature","geometry":{"type":"Point","coordinates":[2.27156,51.02639]},"properties":{"latitude":"51.02639","longitude":"2.27156","bright_ti4":"336.08","scan":"0.48","track":"0.4","acq_date":"2026-06-22","acq_time":"1214","satellite":"N20","instrument":"VIIRS","confidence":"n","version":"2.0NRT","bright_ti5":"301.22","frp":"4.44","daynight":"D","commune":"Grande-Synthe","code_insee":"59271","departement":"Nord","region":"Hauts-de-France"}},{"type":"Feature","geometry":{"type":"Point","coordinates":[2.28468,51.02913]},"properties":{"latitude":"51.02913","longitude":"2.28468","bright_ti4":"332.11","scan":"0.48","track":"0.4","acq_date":"2026-06-22","acq_time":"1214","satellite":"N20","instrument":"VIIRS","confidence":"l","version":"2.0NRT","bright_ti5":"302.64","frp":"7.66","daynight":"D","commune":"Grande-Synthe","code_insee":"59271","departement":"Nord","region":"Hauts-de-France"}},{"type":"Feature","geometry":{"type":"Point","coordinates":[2.28285,51.03265]},"properties":{"latitude":"51.03265","longitude":"2.28285","bright_ti4":"337.84","scan":"0.48","track":"0.4","acq_date":"2026-06-22","acq_time":"1214","satellite":"N20","instrument":"VIIRS","confidence":"n","version":"2.0NRT","bright_ti5":"303.62","frp":"59.46","daynight":"D","commune":"Grande-Synthe","code_insee":"59271","departement":"Nord","region":"Hauts-de-France"}},{"type":"Feature","geometry":{"type":"Point","coordinates":[2.29882,51.04378]},"properties":{"latitude":"51.04378","longitude":"2.29882","bright_ti4":"340.36","scan":"0.48","track":"0.4","acq_date":"2026-06-22","acq_time":"1214","satellite":"N20","instrument":"VIIRS","confidence":"n","version":"2.0NRT","bright_ti5":"301.84","frp":"4.43","daynight":"D","commune":"Grande-Synthe","code_insee":"59271","departement":"Nord","region":"Hauts-de-France"}},{"type":"Feature","geometry":{"type":"Point","coordinates":[3.31204,44.03254]},"properties":{"latitude":"44.03254","longitude":"3.31204","bright_ti4":"367","scan":"0.68","track":"0.74","acq_date":"2026-06-22","acq_time":"1353","satellite":"N20","instrument":"VIIRS","confidence":"h","version":"2.0NRT","bright_ti5":"297.74","frp":"16.64","daynight":"D","commune":"Nant","code_insee":"12168","departement":"Aveyron","region":"Occitanie"}},{"type":"Feature","geometry":{"type":"Point","coordinates":[3.309,44.03264]},"properties":{"latitude":"44.03264","longitude":"3.309","bright_ti4":"351.44","scan":"0.68","track":"0.74","acq_date":"2026-06-22","acq_time":"1353","satellite":"N20","instrument":"VIIRS","confidence":"n","version":"2.0NRT","bright_ti5":"298.72","frp":"14.98","daynight":"D","commune":"Nant","code_insee":"12168","departement":"Aveyron","region":"Occitanie"}},{"type":"Feature","geometry":{"type":"Point","coordinates":[3.31567,44.03265]},"properties":{"latitude":"44.03265","longitude":"3.31567","bright_ti4":"338.68","scan":"0.68","track":"0.74","acq_date":"2026-06-22","acq_time":"1353","satellite":"N20","instrument":"VIIRS","confidence":"n","version":"2.0NRT","bright_ti5":"296.84","frp":"12.14","daynight":"D","commune":"Nant","code_insee":"12168","departement":"Aveyron","region":"Occitanie"}},{"type":"Feature","geometry":{"type":"Point","coordinates":[2.29673,51.04296]},"properties":{"latitude":"51.04296","longitude":"2.29673","bright_ti4":"334.16","scan":"0.63","track":"0.72","acq_date":"2026-06-22","acq_time":"1353","satellite":"N20","instrument":"VIIRS","confidence":"n","version":"2.0NRT","bright_ti5":"289.58","frp":"3.52","daynight":"D","commune":"Grande-Synthe","code_insee":"59271","departement":"Nord","region":"Hauts-de-France"}},{"type":"Feature","geometry":{"type":"Point","coordinates":[1.27217,48.06509]},"properties":{"latitude":"48.06509","longitude":"1.27217","bright_ti4":"336.93","scan":"0.56","track":"0.69","acq_date":"2026-06-22","acq_time":"1355","satellite":"N20","instrument":"VIIRS","confidence":"n","version":"2.0NRT","bright_ti5":"299.82","frp":"5.61","daynight":"D","commune":"Saint-Denis-Lanneray","code_insee":"28334","departement":"Eure-et-Loir","region":"Centre-Val de Loire"}},{"type":"Feature","geometry":{"type":"Point","coordinates":[2.76877,48.48403]},"properties":{"latitude":"48.48403","longitude":"2.76877","bright_ti4":"338.85","scan":"0.66","track":"0.73","acq_date":"2026-06-22","acq_time":"1355","satellite":"N20","instrument":"VIIRS","confidence":"n","version":"2.0NRT","bright_ti5":"296.25","frp":"5.8","daynight":"D","commune":"Fontaine-le-Port","code_insee":"77188","departement":"Seine-et-Marne","region":"Île-de-France"}},{"type":"Feature","geometry":{"type":"Point","coordinates":[6.11069,48.56266]},"properties":{"latitude":"48.56266","longitude":"6.11069","bright_ti4":"302.11","scan":"0.4","track":"0.37","acq_date":"2026-06-22","acq_time":"132","satellite":"N21","instrument":"VIIRS","confidence":"n","version":"2.0NRT","bright_ti5":"291.71","frp":"0.66","daynight":"N","commune":"Xeuilley","code_insee":"54596","departement":"Meurthe-et-Moselle","region":"Grand Est"}},{"type":"Feature","geometry":{"type":"Point","coordinates":[6.11502,48.60865]},"properties":{"latitude":"48.60865","longitude":"6.11502","bright_ti4":"316.85","scan":"0.4","track":"0.37","acq_date":"2026-06-22","acq_time":"132","satellite":"N21","instrument":"VIIRS","confidence":"n","version":"2.0NRT","bright_ti5":"292.97","frp":"1.4","daynight":"N","commune":"Neuves-Maisons","code_insee":"54397","departement":"Meurthe-et-Moselle","region":"Grand Est"}},{"type":"Feature","geometry":{"type":"Point","coordinates":[6.10964,48.60938]},"properties":{"latitude":"48.60938","longitude":"6.10964","bright_ti4":"309.11","scan":"0.4","track":"0.37","acq_date":"2026-06-22","acq_time":"132","satellite":"N21","instrument":"VIIRS","confidence":"n","version":"2.0NRT","bright_ti5":"292.44","frp":"1.4","daynight":"N","commune":"Neuves-Maisons","code_insee":"54397","departement":"Meurthe-et-Moselle","region":"Grand Est"}},{"type":"Feature","geometry":{"type":"Point","coordinates":[6.96806,48.69174]},"properties":{"latitude":"48.69174","longitude":"6.96806","bright_ti4":"302.12","scan":"0.39","track":"0.36","acq_date":"2026-06-22","acq_time":"132","satellite":"N21","instrument":"VIIRS","confidence":"n","version":"2.0NRT","bright_ti5":"290.79","frp":"0.81","daynight":"N","commune":"Héming","code_insee":"57314","departement":"Moselle","region":"Grand Est"}},{"type":"Feature","geometry":{"type":"Point","coordinates":[5.68378,48.71511]},"properties":{"latitude":"48.71511","longitude":"5.68378","bright_ti4":"305.93","scan":"0.41","track":"0.37","acq_date":"2026-06-22","acq_time":"132","satellite":"N21","instrument":"VIIRS","confidence":"n","version":"2.0NRT","bright_ti5":"290.88","frp":"0.83","daynight":"N","commune":"Sorcy-Saint-Martin","code_insee":"55496","departement":"Meuse","region":"Grand Est"}},{"type":"Feature","geometry":{"type":"Point","coordinates":[6.05155,48.88404]},"properties":{"latitude":"48.88404","longitude":"6.05155","bright_ti4":"315.86","scan":"0.4","track":"0.37","acq_date":"2026-06-22","acq_time":"132","satellite":"N21","instrument":"VIIRS","confidence":"n","version":"2.0NRT","bright_ti5":"292.8","frp":"2.13","daynight":"N","commune":"Blénod-lès-Pont-à-Mousson","code_insee":"54079","departement":"Meurthe-et-Moselle","region":"Grand Est"}},{"type":"Feature","geometry":{"type":"Point","coordinates":[2.87287,48.95325]},"properties":{"latitude":"48.95325","longitude":"2.87287","bright_ti4":"304.93","scan":"0.49","track":"0.41","acq_date":"2026-06-22","acq_time":"132","satellite":"N21","instrument":"VIIRS","confidence":"n","version":"2.0NRT","bright_ti5":"293.18","frp":"1.26","daynight":"N","commune":"Villenoy","code_insee":"77513","departement":"Seine-et-Marne","region":"Île-de-France"}},{"type":"Feature","geometry":{"type":"Point","coordinates":[1.76383,48.98218]},"properties":{"latitude":"48.98218","longitude":"1.76383","bright_ti4":"309.99","scan":"0.54","track":"0.42","acq_date":"2026-06-22","acq_time":"132","satellite":"N21","instrument":"VIIRS","confidence":"n","version":"2.0NRT","bright_ti5":"294.21","frp":"1.78","daynight":"N","commune":"Porcheville","code_insee":"78501","departement":"Yvelines","region":"Île-de-France"}},{"type":"Feature","geometry":{"type":"Point","coordinates":[1.75643,48.98291]},"properties":{"latitude":"48.98291","longitude":"1.75643","bright_ti4":"311.44","scan":"0.54","track":"0.42","acq_date":"2026-06-22","acq_time":"132","satellite":"N21","instrument":"VIIRS","confidence":"n","version":"2.0NRT","bright_ti5":"294.08","frp":"1.78","daynight":"N","commune":"Limay","code_insee":"78335","departement":"Yvelines","region":"Île-de-France"}},{"type":"Feature","geometry":{"type":"Point","coordinates":[0.53663,49.47787]},"properties":{"latitude":"49.47787","longitude":"0.53663","bright_ti4":"305.81","scan":"0.41","track":"0.45","acq_date":"2026-06-22","acq_time":"132","satellite":"N21","instrument":"VIIRS","confidence":"n","version":"2.0NRT","bright_ti5":"291.65","frp":"1.96","daynight":"N","commune":"Port-Jérôme-sur-Seine","code_insee":"76476","departement":"Seine-Maritime","region":"Normandie"}},{"type":"Feature","geometry":{"type":"Point","coordinates":[0.3992,49.6298]},"properties":{"latitude":"49.6298","longitude":"0.3992","bright_ti4":"317.97","scan":"0.42","track":"0.45","acq_date":"2026-06-22","acq_time":"132","satellite":"N21","instrument":"VIIRS","confidence":"n","version":"2.0NRT","bright_ti5":"289.67","frp":"1.63","daynight":"N","commune":"Bréauté","code_insee":"76141","departement":"Seine-Maritime","region":"Normandie"}},{"type":"Feature","geometry":{"type":"Point","coordinates":[2.27147,51.02337]},"properties":{"latitude":"51.02337","longitude":"2.27147","bright_ti4":"299.38","scan":"0.55","track":"0.43","acq_date":"2026-06-22","acq_time":"132","satellite":"N21","instrument":"VIIRS","confidence":"n","version":"2.0NRT","bright_ti5":"280.76","frp":"0.51","daynight":"N","commune":"Grande-Synthe","code_insee":"59271","departement":"Nord","region":"Hauts-de-France"}},{"type":"Feature","geometry":{"type":"Point","coordinates":[2.28887,51.02969]},"properties":{"latitude":"51.02969","longitude":"2.28887","bright_ti4":"295.86","scan":"0.55","track":"0.42","acq_date":"2026-06-22","acq_time":"132","satellite":"N21","instrument":"VIIRS","confidence":"n","version":"2.0NRT","bright_ti5":"282.08","frp":"0.3","daynight":"N","commune":"Grande-Synthe","code_insee":"59271","departement":"Nord","region":"Hauts-de-France"}},{"type":"Feature","geometry":{"type":"Point","coordinates":[2.28977,51.03357]},"properties":{"latitude":"51.03357","longitude":"2.28977","bright_ti4":"298.01","scan":"0.55","track":"0.42","acq_date":"2026-06-22","acq_time":"132","satellite":"N21","instrument":"VIIRS","confidence":"n","version":"2.0NRT","bright_ti5":"283.2","frp":"0.68","daynight":"N","commune":"Grande-Synthe","code_insee":"59271","departement":"Nord","region":"Hauts-de-France"}},{"type":"Feature","geometry":{"type":"Point","coordinates":[2.30027,51.04448]},"properties":{"latitude":"51.04448","longitude":"2.30027","bright_ti4":"320.21","scan":"0.55","track":"0.42","acq_date":"2026-06-22","acq_time":"132","satellite":"N21","instrument":"VIIRS","confidence":"n","version":"2.0NRT","bright_ti5":"286.01","frp":"3.76","daynight":"N","commune":"Grande-Synthe","code_insee":"59271","departement":"Nord","region":"Hauts-de-France"}},{"type":"Feature","geometry":{"type":"Point","coordinates":[2.29247,51.04522]},"properties":{"latitude":"51.04522","longitude":"2.29247","bright_ti4":"316.54","scan":"0.55","track":"0.42","acq_date":"2026-06-22","acq_time":"132","satellite":"N21","instrument":"VIIRS","confidence":"n","version":"2.0NRT","bright_ti5":"286.16","frp":"3.76","daynight":"N","commune":"Grande-Synthe","code_insee":"59271","departement":"Nord","region":"Hauts-de-France"}},{"type":"Feature","geometry":{"type":"Point","coordinates":[2.32448,51.04617]},"properties":{"latitude":"51.04617","longitude":"2.32448","bright_ti4":"305.86","scan":"0.55","track":"0.42","acq_date":"2026-06-22","acq_time":"132","satellite":"N21","instrument":"VIIRS","confidence":"n","version":"2.0NRT","bright_ti5":"284.27","frp":"1.42","daynight":"N","commune":"Dunkerque","code_insee":"59183","departement":"Nord","region":"Hauts-de-France"}},{"type":"Feature","geometry":{"type":"Point","coordinates":[7.37287,43.79491]},"properties":{"latitude":"43.79491","longitude":"7.37287","bright_ti4":"312.1","scan":"0.39","track":"0.36","acq_date":"2026-06-22","acq_time":"134","satellite":"N21","instrument":"VIIRS","confidence":"n","version":"2.0NRT","bright_ti5":"293.45","frp":"1.47","daynight":"N","commune":"Blausasc","code_insee":"06019","departement":"Alpes-Maritimes","region":"Provence-Alpes-Côte d'Azur"}},{"type":"Feature","geometry":{"type":"Point","coordinates":[5.66654,45.22979]},"properties":{"latitude":"45.22979","longitude":"5.66654","bright_ti4":"304.38","scan":"0.39","track":"0.36","acq_date":"2026-06-22","acq_time":"134","satellite":"N21","instrument":"VIIRS","confidence":"n","version":"2.0NRT","bright_ti5":"293.78","frp":"0.66","daynight":"N","commune":"Saint-Égrève","code_insee":"38382","departement":"Isère","region":"Auvergne-Rhône-Alpes"}},{"type":"Feature","geometry":{"type":"Point","coordinates":[4.79122,45.34905]},"properties":{"latitude":"45.34905","longitude":"4.79122","bright_ti4":"302.47","scan":"0.4","track":"0.37","acq_date":"2026-06-22","acq_time":"134","satellite":"N21","instrument":"VIIRS","confidence":"n","version":"2.0NRT","bright_ti5":"292.42","frp":"0.93","daynight":"N","commune":"Salaise-sur-Sanne","code_insee":"38468","departement":"Isère","region":"Auvergne-Rhône-Alpes"}},{"type":"Feature","geometry":{"type":"Point","coordinates":[2.27121,51.02739]},"properties":{"latitude":"51.02739","longitude":"2.27121","bright_ti4":"302.18","scan":"0.48","track":"0.65","acq_date":"2026-06-22","acq_time":"310","satellite":"N21","instrument":"VIIRS","confidence":"n","version":"2.0NRT","bright_ti5":"283.71","frp":"1.87","daynight":"N","commune":"Grande-Synthe","code_insee":"59271","departement":"Nord","region":"Hauts-de-France"}},{"type":"Feature","geometry":{"type":"Point","coordinates":[2.28645,51.03581]},"properties":{"latitude":"51.03581","longitude":"2.28645","bright_ti4":"309.31","scan":"0.48","track":"0.65","acq_date":"2026-06-22","acq_time":"310","satellite":"N21","instrument":"VIIRS","confidence":"n","version":"2.0NRT","bright_ti5":"284.8","frp":"2.75","daynight":"N","commune":"Grande-Synthe","code_insee":"59271","departement":"Nord","region":"Hauts-de-France"}},{"type":"Feature","geometry":{"type":"Point","coordinates":[2.29565,51.04629]},"properties":{"latitude":"51.04629","longitude":"2.29565","bright_ti4":"310.49","scan":"0.48","track":"0.65","acq_date":"2026-06-22","acq_time":"310","satellite":"N21","instrument":"VIIRS","confidence":"n","version":"2.0NRT","bright_ti5":"286.33","frp":"2.65","daynight":"N","commune":"Grande-Synthe","code_insee":"59271","departement":"Nord","region":"Hauts-de-France"}},{"type":"Feature","geometry":{"type":"Point","coordinates":[4.89546,43.44621]},"properties":{"latitude":"43.44621","longitude":"4.89546","bright_ti4":"330.12","scan":"0.72","track":"0.75","acq_date":"2026-06-22","acq_time":"1117","satellite":"N21","instrument":"VIIRS","confidence":"l","version":"2.0NRT","bright_ti5":"300.44","frp":"7.51","daynight":"D","commune":"Fos-sur-Mer","code_insee":"13039","departement":"Bouches-du-Rhône","region":"Provence-Alpes-Côte d'Azur"}},{"type":"Feature","geometry":{"type":"Point","coordinates":[3.19318,48.33418]},"properties":{"latitude":"48.33418","longitude":"3.19318","bright_ti4":"367","scan":"0.57","track":"0.69","acq_date":"2026-06-22","acq_time":"1119","satellite":"N21","instrument":"VIIRS","confidence":"h","version":"2.0NRT","bright_ti5":"303.77","frp":"18.51","daynight":"D","commune":"Serbonnes","code_insee":"89390","departement":"Yonne","region":"Bourgogne-Franche-Comté"}},{"type":"Feature","geometry":{"type":"Point","coordinates":[3.18724,48.33533]},"properties":{"latitude":"48.33533","longitude":"3.18724","bright_ti4":"338.99","scan":"0.58","track":"0.69","acq_date":"2026-06-22","acq_time":"1119","satellite":"N21","instrument":"VIIRS","confidence":"n","version":"2.0NRT","bright_ti5":"301.28","frp":"10.87","daynight":"D","commune":"Courlon-sur-Yonne","code_insee":"89124","departement":"Yonne","region":"Bourgogne-Franche-Comté"}},{"type":"Feature","geometry":{"type":"Point","coordinates":[3.19453,48.33784]},"properties":{"latitude":"48.33784","longitude":"3.19453","bright_ti4":"348.13","scan":"0.57","track":"0.69","acq_date":"2026-06-22","acq_time":"1119","satellite":"N21","instrument":"VIIRS","confidence":"n","version":"2.0NRT","bright_ti5":"301.51","frp":"10.87","daynight":"D","commune":"Serbonnes","code_insee":"89390","departement":"Yonne","region":"Bourgogne-Franche-Comté"}},{"type":"Feature","geometry":{"type":"Point","coordinates":[2.9613,42.59162]},"properties":{"latitude":"42.59162","longitude":"2.9613","bright_ti4":"334.26","scan":"0.45","track":"0.39","acq_date":"2026-06-22","acq_time":"1257","satellite":"N21","instrument":"VIIRS","confidence":"l","version":"2.0NRT","bright_ti5":"305.92","frp":"2.75","daynight":"D","commune":"Elne","code_insee":"66065","departement":"Pyrénées-Orientales","region":"Occitanie"}},{"type":"Feature","geometry":{"type":"Point","coordinates":[2.99245,42.65746]},"properties":{"latitude":"42.65746","longitude":"2.99245","bright_ti4":"345.53","scan":"0.46","track":"0.39","acq_date":"2026-06-22","acq_time":"1257","satellite":"N21","instrument":"VIIRS","confidence":"n","version":"2.0NRT","bright_ti5":"305.11","frp":"2.46","daynight":"D","commune":"Saint-Nazaire","code_insee":"66186","departement":"Pyrénées-Orientales","region":"Occitanie"}},{"type":"Feature","geometry":{"type":"Point","coordinates":[0.59577,43.68561]},"properties":{"latitude":"43.68561","longitude":"0.59577","bright_ti4":"367","scan":"0.4","track":"0.37","acq_date":"2026-06-22","acq_time":"1257","satellite":"N21","instrument":"VIIRS","confidence":"h","version":"2.0NRT","bright_ti5":"331.05","frp":"83.71","daynight":"D","commune":"Auch","code_insee":"32013","departement":"Gers","region":"Occitanie"}},{"type":"Feature","geometry":{"type":"Point","coordinates":[-0.39897,45.27454]},"properties":{"latitude":"45.27454","longitude":"-0.39897","bright_ti4":"345.91","scan":"0.39","track":"0.37","acq_date":"2026-06-22","acq_time":"1257","satellite":"N21","instrument":"VIIRS","confidence":"n","version":"2.0NRT","bright_ti5":"310.41","frp":"7.22","daynight":"D","commune":"Montendre","code_insee":"17240","departement":"Charente-Maritime","region":"Nouvelle-Aquitaine"}},{"type":"Feature","geometry":{"type":"Point","coordinates":[0.93165,46.3774]},"properties":{"latitude":"46.3774","longitude":"0.93165","bright_ti4":"338.71","scan":"0.43","track":"0.38","acq_date":"2026-06-22","acq_time":"1257","satellite":"N21","instrument":"VIIRS","confidence":"n","version":"2.0NRT","bright_ti5":"312.99","frp":"7.33","daynight":"D","commune":"Lathus-Saint-Rémy","code_insee":"86120","departement":"Vienne","region":"Nouvelle-Aquitaine"}},{"type":"Feature","geometry":{"type":"Point","coordinates":[0.93716,46.37808]},"properties":{"latitude":"46.37808","longitude":"0.93716","bright_ti4":"348.53","scan":"0.43","track":"0.38","acq_date":"2026-06-22","acq_time":"1257","satellite":"N21","instrument":"VIIRS","confidence":"n","version":"2.0NRT","bright_ti5":"319.25","frp":"7.33","daynight":"D","commune":"Lathus-Saint-Rémy","code_insee":"86120","departement":"Vienne","region":"Nouvelle-Aquitaine"}},{"type":"Feature","geometry":{"type":"Point","coordinates":[0.92525,46.38017]},"properties":{"latitude":"46.38017","longitude":"0.92525","bright_ti4":"342.52","scan":"0.43","track":"0.38","acq_date":"2026-06-22","acq_time":"1257","satellite":"N21","instrument":"VIIRS","confidence":"n","version":"2.0NRT","bright_ti5":"313.38","frp":"21.45","daynight":"D","commune":"Saulgé","code_insee":"86254","departement":"Vienne","region":"Nouvelle-Aquitaine"}},{"type":"Feature","geometry":{"type":"Point","coordinates":[0.93076,46.38086]},"properties":{"latitude":"46.38086","longitude":"0.93076","bright_ti4":"367","scan":"0.43","track":"0.38","acq_date":"2026-06-22","acq_time":"1257","satellite":"N21","instrument":"VIIRS","confidence":"h","version":"2.0NRT","bright_ti5":"323.01","frp":"17.43","daynight":"D","commune":"Saulgé","code_insee":"86254","departement":"Vienne","region":"Nouvelle-Aquitaine"}},{"type":"Feature","geometry":{"type":"Point","coordinates":[0.93628,46.38153]},"properties":{"latitude":"46.38153","longitude":"0.93628","bright_ti4":"367","scan":"0.43","track":"0.38","acq_date":"2026-06-22","acq_time":"1257","satellite":"N21","instrument":"VIIRS","confidence":"h","version":"2.0NRT","bright_ti5":"326.65","frp":"17.43","daynight":"D","commune":"Saulgé","code_insee":"86254","departement":"Vienne","region":"Nouvelle-Aquitaine"}},{"type":"Feature","geometry":{"type":"Point","coordinates":[0.92437,46.38363]},"properties":{"latitude":"46.38363","longitude":"0.92437","bright_ti4":"351.42","scan":"0.43","track":"0.38","acq_date":"2026-06-22","acq_time":"1257","satellite":"N21","instrument":"VIIRS","confidence":"l","version":"2.0NRT","bright_ti5":"327.15","frp":"21.45","daynight":"D","commune":"Saulgé","code_insee":"86254","departement":"Vienne","region":"Nouvelle-Aquitaine"}},{"type":"Feature","geometry":{"type":"Point","coordinates":[0.92988,46.38431]},"properties":{"latitude":"46.38431","longitude":"0.92988","bright_ti4":"367","scan":"0.43","track":"0.38","acq_date":"2026-06-22","acq_time":"1257","satellite":"N21","instrument":"VIIRS","confidence":"h","version":"2.0NRT","bright_ti5":"320.45","frp":"17.43","daynight":"D","commune":"Montmorillon","code_insee":"86165","departement":"Vienne","region":"Nouvelle-Aquitaine"}},{"type":"Feature","geometry":{"type":"Point","coordinates":[0.9354,46.38499]},"properties":{"latitude":"46.38499","longitude":"0.9354","bright_ti4":"354.52","scan":"0.43","track":"0.38","acq_date":"2026-06-22","acq_time":"1257","satellite":"N21","instrument":"VIIRS","confidence":"n","version":"2.0NRT","bright_ti5":"314.63","frp":"17.43","daynight":"D","commune":"Montmorillon","code_insee":"86165","departement":"Vienne","region":"Nouvelle-Aquitaine"}},{"type":"Feature","geometry":{"type":"Point","coordinates":[0.92349,46.38708]},"properties":{"latitude":"46.38708","longitude":"0.92349","bright_ti4":"340.3","scan":"0.43","track":"0.38","acq_date":"2026-06-22","acq_time":"1257","satellite":"N21","instrument":"VIIRS","confidence":"n","version":"2.0NRT","bright_ti5":"310.34","frp":"19.63","daynight":"D","commune":"Montmorillon","code_insee":"86165","departement":"Vienne","region":"Nouvelle-Aquitaine"}},{"type":"Feature","geometry":{"type":"Point","coordinates":[0.929,46.38776]},"properties":{"latitude":"46.38776","longitude":"0.929","bright_ti4":"342.85","scan":"0.43","track":"0.38","acq_date":"2026-06-22","acq_time":"1257","satellite":"N21","instrument":"VIIRS","confidence":"n","version":"2.0NRT","bright_ti5":"309.88","frp":"25.64","daynight":"D","commune":"Montmorillon","code_insee":"86165","departement":"Vienne","region":"Nouvelle-Aquitaine"}},{"type":"Feature","geometry":{"type":"Point","coordinates":[-1.02907,46.53326]},"properties":{"latitude":"46.53326","longitude":"-1.02907","bright_ti4":"345.33","scan":"0.39","track":"0.36","acq_date":"2026-06-22","acq_time":"1257","satellite":"N21","instrument":"VIIRS","confidence":"n","version":"2.0NRT","bright_ti5":"318.15","frp":"4.22","daynight":"D","commune":"Saint-Étienne-de-Brillouet","code_insee":"85209","departement":"Vendée","region":"Pays de la Loire"}},{"type":"Feature","geometry":{"type":"Point","coordinates":[5.39989,46.90056]},"properties":{"latitude":"46.90056","longitude":"5.39989","bright_ti4":"333.47","scan":"0.42","track":"0.46","acq_date":"2026-06-22","acq_time":"1257","satellite":"N21","instrument":"VIIRS","confidence":"n","version":"2.0NRT","bright_ti5":"308.04","frp":"3.65","daynight":"D","commune":"Les Hays","code_insee":"39266","departement":"Jura","region":"Bourgogne-Franche-Comté"}},{"type":"Feature","geometry":{"type":"Point","coordinates":[0.75937,47.45842]},"properties":{"latitude":"47.45842","longitude":"0.75937","bright_ti4":"347.51","scan":"0.43","track":"0.38","acq_date":"2026-06-22","acq_time":"1259","satellite":"N21","instrument":"VIIRS","confidence":"n","version":"2.0NRT","bright_ti5":"313.59","frp":"9.98","daynight":"D","commune":"Parçay-Meslay","code_insee":"37179","departement":"Indre-et-Loire","region":"Centre-Val de Loire"}},{"type":"Feature","geometry":{"type":"Point","coordinates":[5.55875,47.62223]},"properties":{"latitude":"47.62223","longitude":"5.55875","bright_ti4":"352.15","scan":"0.44","track":"0.46","acq_date":"2026-06-22","acq_time":"1259","satellite":"N21","instrument":"VIIRS","confidence":"n","version":"2.0NRT","bright_ti5":"307.05","frp":"23.06","daynight":"D","commune":"Champlitte","code_insee":"70122","departement":"Haute-Saône","region":"Bourgogne-Franche-Comté"}},{"type":"Feature","geometry":{"type":"Point","coordinates":[5.56226,47.62602]},"properties":{"latitude":"47.62602","longitude":"5.56226","bright_ti4":"341.59","scan":"0.44","track":"0.46","acq_date":"2026-06-22","acq_time":"1259","satellite":"N21","instrument":"VIIRS","confidence":"n","version":"2.0NRT","bright_ti5":"309.81","frp":"19.59","daynight":"D","commune":"Champlitte","code_insee":"70122","departement":"Haute-Saône","region":"Bourgogne-Franche-Comté"}},{"type":"Feature","geometry":{"type":"Point","coordinates":[5.55801,47.62647]},"properties":{"latitude":"47.62647","longitude":"5.55801","bright_ti4":"347.89","scan":"0.44","track":"0.46","acq_date":"2026-06-22","acq_time":"1259","satellite":"N21","instrument":"VIIRS","confidence":"n","version":"2.0NRT","bright_ti5":"310.92","frp":"23.06","daynight":"D","commune":"Champlitte","code_insee":"70122","departement":"Haute-Saône","region":"Bourgogne-Franche-Comté"}},{"type":"Feature","geometry":{"type":"Point","coordinates":[0.90194,47.9306]},"properties":{"latitude":"47.9306","longitude":"0.90194","bright_ti4":"338.98","scan":"0.44","track":"0.38","acq_date":"2026-06-22","acq_time":"1259","satellite":"N21","instrument":"VIIRS","confidence":"l","version":"2.0NRT","bright_ti5":"312.31","frp":"7.55","daynight":"D","commune":"Le Temple","code_insee":"41254","departement":"Loir-et-Cher","region":"Centre-Val de Loire"}},{"type":"Feature","geometry":{"type":"Point","coordinates":[0.90102,47.9341]},"properties":{"latitude":"47.9341","longitude":"0.90102","bright_ti4":"345.38","scan":"0.44","track":"0.38","acq_date":"2026-06-22","acq_time":"1259","satellite":"N21","instrument":"VIIRS","confidence":"n","version":"2.0NRT","bright_ti5":"311.57","frp":"7.55","daynight":"D","commune":"Le Temple","code_insee":"41254","departement":"Loir-et-Cher","region":"Centre-Val de Loire"}},{"type":"Feature","geometry":{"type":"Point","coordinates":[2.16502,47.94485]},"properties":{"latitude":"47.94485","longitude":"2.16502","bright_ti4":"337.55","scan":"0.48","track":"0.4","acq_date":"2026-06-22","acq_time":"1259","satellite":"N21","instrument":"VIIRS","confidence":"n","version":"2.0NRT","bright_ti5":"311.98","frp":"5.61","daynight":"D","commune":"Fay-aux-Loges","code_insee":"45142","departement":"Loiret","region":"Centre-Val de Loire"}},{"type":"Feature","geometry":{"type":"Point","coordinates":[1.07465,47.94777]},"properties":{"latitude":"47.94777","longitude":"1.07465","bright_ti4":"340.4","scan":"0.45","track":"0.39","acq_date":"2026-06-22","acq_time":"1259","satellite":"N21","instrument":"VIIRS","confidence":"n","version":"2.0NRT","bright_ti5":"308.18","frp":"6.75","daynight":"D","commune":"Chauvigny-du-Perche","code_insee":"41048","departement":"Loir-et-Cher","region":"Centre-Val de Loire"}},{"type":"Feature","geometry":{"type":"Point","coordinates":[1.07353,47.95044]},"properties":{"latitude":"47.95044","longitude":"1.07353","bright_ti4":"340.23","scan":"0.45","track":"0.39","acq_date":"2026-06-22","acq_time":"1259","satellite":"N21","instrument":"VIIRS","confidence":"l","version":"2.0NRT","bright_ti5":"311.19","frp":"8.51","daynight":"D","commune":"Chauvigny-du-Perche","code_insee":"41048","departement":"Loir-et-Cher","region":"Centre-Val de Loire"}},{"type":"Feature","geometry":{"type":"Point","coordinates":[-2.11495,48.02771]},"properties":{"latitude":"48.02771","longitude":"-2.11495","bright_ti4":"336.28","scan":"0.39","track":"0.36","acq_date":"2026-06-22","acq_time":"1259","satellite":"N21","instrument":"VIIRS","confidence":"l","version":"2.0NRT","bright_ti5":"308.07","frp":"4.37","daynight":"D","commune":"Paimpont","code_insee":"35211","departement":"Ille-et-Vilaine","region":"Bretagne"}},{"type":"Feature","geometry":{"type":"Point","coordinates":[3.22575,48.19928]},"properties":{"latitude":"48.19928","longitude":"3.22575","bright_ti4":"340.05","scan":"0.53","track":"0.42","acq_date":"2026-06-22","acq_time":"1259","satellite":"N21","instrument":"VIIRS","confidence":"n","version":"2.0NRT","bright_ti5":"308.89","frp":"7.45","daynight":"D","commune":"Saint-Martin-du-Tertre","code_insee":"89354","departement":"Yonne","region":"Bourgogne-Franche-Comté"}},{"type":"Feature","geometry":{"type":"Point","coordinates":[3.23299,48.19997]},"properties":{"latitude":"48.19997","longitude":"3.23299","bright_ti4":"353.38","scan":"0.53","track":"0.42","acq_date":"2026-06-22","acq_time":"1259","satellite":"N21","instrument":"VIIRS","confidence":"n","version":"2.0NRT","bright_ti5":"309.26","frp":"7.45","daynight":"D","commune":"Saint-Martin-du-Tertre","code_insee":"89354","departement":"Yonne","region":"Bourgogne-Franche-Comté"}},{"type":"Feature","geometry":{"type":"Point","coordinates":[3.2321,48.20381]},"properties":{"latitude":"48.20381","longitude":"3.2321","bright_ti4":"337.01","scan":"0.53","track":"0.42","acq_date":"2026-06-22","acq_time":"1259","satellite":"N21","instrument":"VIIRS","confidence":"n","version":"2.0NRT","bright_ti5":"308.34","frp":"7.45","daynight":"D","commune":"Saint-Martin-du-Tertre","code_insee":"89354","departement":"Yonne","region":"Bourgogne-Franche-Comté"}},{"type":"Feature","geometry":{"type":"Point","coordinates":[3.23935,48.20451]},"properties":{"latitude":"48.20451","longitude":"3.23935","bright_ti4":"332.68","scan":"0.53","track":"0.42","acq_date":"2026-06-22","acq_time":"1259","satellite":"N21","instrument":"VIIRS","confidence":"l","version":"2.0NRT","bright_ti5":"306.09","frp":"3.77","daynight":"D","commune":"Saint-Martin-du-Tertre","code_insee":"89354","departement":"Yonne","region":"Bourgogne-Franche-Comté"}},{"type":"Feature","geometry":{"type":"Point","coordinates":[3.24422,48.21675]},"properties":{"latitude":"48.21675","longitude":"3.24422","bright_ti4":"345.27","scan":"0.53","track":"0.42","acq_date":"2026-06-22","acq_time":"1259","satellite":"N21","instrument":"VIIRS","confidence":"n","version":"2.0NRT","bright_ti5":"308.02","frp":"12.34","daynight":"D","commune":"Courtois-sur-Yonne","code_insee":"89127","departement":"Yonne","region":"Bourgogne-Franche-Comté"}},{"type":"Feature","geometry":{"type":"Point","coordinates":[6.05404,48.88565]},"properties":{"latitude":"48.88565","longitude":"6.05404","bright_ti4":"343.37","scan":"0.48","track":"0.48","acq_date":"2026-06-22","acq_time":"1259","satellite":"N21","instrument":"VIIRS","confidence":"n","version":"2.0NRT","bright_ti5":"310.16","frp":"9.96","daynight":"D","commune":"Blénod-lès-Pont-à-Mousson","code_insee":"54079","departement":"Meurthe-et-Moselle","region":"Grand Est"}},{"type":"Feature","geometry":{"type":"Point","coordinates":[4.4208,48.96104]},"properties":{"latitude":"48.96104","longitude":"4.4208","bright_ti4":"334.62","scan":"0.41","track":"0.45","acq_date":"2026-06-22","acq_time":"1259","satellite":"N21","instrument":"VIIRS","confidence":"n","version":"2.0NRT","bright_ti5":"301.33","frp":"4.74","daynight":"D","commune":"Saint-Memmie","code_insee":"51506","departement":"Marne","region":"Grand Est"}},{"type":"Feature","geometry":{"type":"Point","coordinates":[4.42635,48.96151]},"properties":{"latitude":"48.96151","longitude":"4.42635","bright_ti4":"340.88","scan":"0.41","track":"0.45","acq_date":"2026-06-22","acq_time":"1259","satellite":"N21","instrument":"VIIRS","confidence":"n","version":"2.0NRT","bright_ti5":"301.59","frp":"4.78","daynight":"D","commune":"Saint-Memmie","code_insee":"51506","departement":"Marne","region":"Grand Est"}},{"type":"Feature","geometry":{"type":"Point","coordinates":[4.42546,48.96559]},"properties":{"latitude":"48.96559","longitude":"4.42546","bright_ti4":"343.79","scan":"0.41","track":"0.45","acq_date":"2026-06-22","acq_time":"1259","satellite":"N21","instrument":"VIIRS","confidence":"n","version":"2.0NRT","bright_ti5":"310.86","frp":"38.02","daynight":"D","commune":"Saint-Memmie","code_insee":"51506","departement":"Marne","region":"Grand Est"}},{"type":"Feature","geometry":{"type":"Point","coordinates":[2.33928,49.47197]},"properties":{"latitude":"49.47197","longitude":"2.33928","bright_ti4":"332.77","scan":"0.51","track":"0.41","acq_date":"2026-06-22","acq_time":"1259","satellite":"N21","instrument":"VIIRS","confidence":"n","version":"2.0NRT","bright_ti5":"301.98","frp":"2.7","daynight":"D","commune":"Bulles","code_insee":"60115","departement":"Oise","region":"Hauts-de-France"}},{"type":"Feature","geometry":{"type":"Point","coordinates":[2.27164,51.02833]},"properties":{"latitude":"51.02833","longitude":"2.27164","bright_ti4":"334.24","scan":"0.53","track":"0.42","acq_date":"2026-06-22","acq_time":"1259","satellite":"N21","instrument":"VIIRS","confidence":"n","version":"2.0NRT","bright_ti5":"299.65","frp":"8.35","daynight":"D","commune":"Grande-Synthe","code_insee":"59271","departement":"Nord","region":"Hauts-de-France"}},{"type":"Feature","geometry":{"type":"Point","coordinates":[2.27823,51.03287]},"properties":{"latitude":"51.03287","longitude":"2.27823","bright_ti4":"337.85","scan":"0.53","track":"0.42","acq_date":"2026-06-22","acq_time":"1259","satellite":"N21","instrument":"VIIRS","confidence":"n","version":"2.0NRT","bright_ti5":"300.12","frp":"6.64","daynight":"D","commune":"Grande-Synthe","code_insee":"59271","departement":"Nord","region":"Hauts-de-France"}},{"type":"Feature","geometry":{"type":"Point","coordinates":[2.29809,51.04651]},"properties":{"latitude":"51.04651","longitude":"2.29809","bright_ti4":"330.02","scan":"0.53","track":"0.42","acq_date":"2026-06-22","acq_time":"1259","satellite":"N21","instrument":"VIIRS","confidence":"n","version":"2.0NRT","bright_ti5":"296.52","frp":"6.13","daynight":"D","commune":"Grande-Synthe","code_insee":"59271","departement":"Nord","region":"Hauts-de-France"}}]}