{"type":"FeatureCollection","features":[{"type":"Feature","geometry":{"type":"Point","coordinates":[9.08628,42.27972]},"properties":{"latitude":"42.27972","longitude":"9.08628","bright_ti4":"320.35","scan":"0.68","track":"0.74","acq_date":"2026-07-15","acq_time":"16","satellite":"N20","instrument":"VIIRS","confidence":"n","version":"2.0NRT","bright_ti5":"292.4","frp":"1.98","daynight":"N","commune":"Corte","code_insee":"2B096","departement":"Haute-Corse","region":"Corse"}},{"type":"Feature","geometry":{"type":"Point","coordinates":[9.08797,42.28602]},"properties":{"latitude":"42.28602","longitude":"9.08797","bright_ti4":"314.64","scan":"0.67","track":"0.74","acq_date":"2026-07-15","acq_time":"16","satellite":"N20","instrument":"VIIRS","confidence":"n","version":"2.0NRT","bright_ti5":"292.21","frp":"3.52","daynight":"N","commune":"Corte","code_insee":"2B096","departement":"Haute-Corse","region":"Corse"}},{"type":"Feature","geometry":{"type":"Point","coordinates":[9.08011,42.28607]},"properties":{"latitude":"42.28607","longitude":"9.08011","bright_ti4":"313.46","scan":"0.68","track":"0.74","acq_date":"2026-07-15","acq_time":"16","satellite":"N20","instrument":"VIIRS","confidence":"n","version":"2.0NRT","bright_ti5":"291.27","frp":"4.12","daynight":"N","commune":"Corte","code_insee":"2B096","departement":"Haute-Corse","region":"Corse"}},{"type":"Feature","geometry":{"type":"Point","coordinates":[9.08455,42.28656]},"properties":{"latitude":"42.28656","longitude":"9.08455","bright_ti4":"306.77","scan":"0.68","track":"0.74","acq_date":"2026-07-15","acq_time":"16","satellite":"N20","instrument":"VIIRS","confidence":"n","version":"2.0NRT","bright_ti5":"291.86","frp":"1.98","daynight":"N","commune":"Corte","code_insee":"2B096","departement":"Haute-Corse","region":"Corse"}},{"type":"Feature","geometry":{"type":"Point","coordinates":[9.07581,42.28659]},"properties":{"latitude":"42.28659","longitude":"9.07581","bright_ti4":"305.68","scan":"0.68","track":"0.74","acq_date":"2026-07-15","acq_time":"16","satellite":"N20","instrument":"VIIRS","confidence":"n","version":"2.0NRT","bright_ti5":"292.26","frp":"1.98","daynight":"N","commune":"Corte","code_insee":"2B096","departement":"Haute-Corse","region":"Corse"}},{"type":"Feature","geometry":{"type":"Point","coordinates":[8.9213,42.32133]},"properties":{"latitude":"42.32133","longitude":"8.9213","bright_ti4":"303.51","scan":"0.69","track":"0.74","acq_date":"2026-07-15","acq_time":"16","satellite":"N20","instrument":"VIIRS","confidence":"n","version":"2.0NRT","bright_ti5":"291.59","frp":"2.16","daynight":"N","commune":"Albertacce","code_insee":"2B007","departement":"Haute-Corse","region":"Corse"}},{"type":"Feature","geometry":{"type":"Point","coordinates":[8.93044,42.32819]},"properties":{"latitude":"42.32819","longitude":"8.93044","bright_ti4":"323.99","scan":"0.69","track":"0.74","acq_date":"2026-07-15","acq_time":"16","satellite":"N20","instrument":"VIIRS","confidence":"n","version":"2.0NRT","bright_ti5":"295.85","frp":"4.62","daynight":"N","commune":"Albertacce","code_insee":"2B007","departement":"Haute-Corse","region":"Corse"}},{"type":"Feature","geometry":{"type":"Point","coordinates":[8.92347,42.32822]},"properties":{"latitude":"42.32822","longitude":"8.92347","bright_ti4":"317.44","scan":"0.69","track":"0.74","acq_date":"2026-07-15","acq_time":"16","satellite":"N20","instrument":"VIIRS","confidence":"n","version":"2.0NRT","bright_ti5":"294.63","frp":"4.62","daynight":"N","commune":"Albertacce","code_insee":"2B007","departement":"Haute-Corse","region":"Corse"}},{"type":"Feature","geometry":{"type":"Point","coordinates":[8.91717,42.32824]},"properties":{"latitude":"42.32824","longitude":"8.91717","bright_ti4":"309.09","scan":"0.69","track":"0.74","acq_date":"2026-07-15","acq_time":"16","satellite":"N20","instrument":"VIIRS","confidence":"n","version":"2.0NRT","bright_ti5":"293.73","frp":"2.16","daynight":"N","commune":"Albertacce","code_insee":"2B007","departement":"Haute-Corse","region":"Corse"}},{"type":"Feature","geometry":{"type":"Point","coordinates":[8.91113,42.32826]},"properties":{"latitude":"42.32826","longitude":"8.91113","bright_ti4":"304.38","scan":"0.69","track":"0.74","acq_date":"2026-07-15","acq_time":"16","satellite":"N20","instrument":"VIIRS","confidence":"n","version":"2.0NRT","bright_ti5":"292.05","frp":"2.16","daynight":"N","commune":"Albertacce","code_insee":"2B007","departement":"Haute-Corse","region":"Corse"}},{"type":"Feature","geometry":{"type":"Point","coordinates":[8.93316,42.32841]},"properties":{"latitude":"42.32841","longitude":"8.93316","bright_ti4":"318.86","scan":"0.69","track":"0.74","acq_date":"2026-07-15","acq_time":"16","satellite":"N20","instrument":"VIIRS","confidence":"n","version":"2.0NRT","bright_ti5":"295.18","frp":"4.86","daynight":"N","commune":"Albertacce","code_insee":"2B007","departement":"Haute-Corse","region":"Corse"}},{"type":"Feature","geometry":{"type":"Point","coordinates":[8.92621,42.32846]},"properties":{"latitude":"42.32846","longitude":"8.92621","bright_ti4":"317.82","scan":"0.69","track":"0.74","acq_date":"2026-07-15","acq_time":"16","satellite":"N20","instrument":"VIIRS","confidence":"n","version":"2.0NRT","bright_ti5":"294.81","frp":"3.16","daynight":"N","commune":"Albertacce","code_insee":"2B007","departement":"Haute-Corse","region":"Corse"}},{"type":"Feature","geometry":{"type":"Point","coordinates":[8.9195,42.32851]},"properties":{"latitude":"42.32851","longitude":"8.9195","bright_ti4":"310.44","scan":"0.69","track":"0.74","acq_date":"2026-07-15","acq_time":"16","satellite":"N20","instrument":"VIIRS","confidence":"n","version":"2.0NRT","bright_ti5":"293.24","frp":"3.16","daynight":"N","commune":"Albertacce","code_insee":"2B007","departement":"Haute-Corse","region":"Corse"}},{"type":"Feature","geometry":{"type":"Point","coordinates":[8.91334,42.32856]},"properties":{"latitude":"42.32856","longitude":"8.91334","bright_ti4":"305.79","scan":"0.69","track":"0.74","acq_date":"2026-07-15","acq_time":"16","satellite":"N20","instrument":"VIIRS","confidence":"n","version":"2.0NRT","bright_ti5":"292.62","frp":"5.09","daynight":"N","commune":"Albertacce","code_insee":"2B007","departement":"Haute-Corse","region":"Corse"}},{"type":"Feature","geometry":{"type":"Point","coordinates":[8.91608,42.33514]},"properties":{"latitude":"42.33514","longitude":"8.91608","bright_ti4":"304.27","scan":"0.69","track":"0.74","acq_date":"2026-07-15","acq_time":"16","satellite":"N20","instrument":"VIIRS","confidence":"n","version":"2.0NRT","bright_ti5":"292.9","frp":"3.16","daynight":"N","commune":"Albertacce","code_insee":"2B007","departement":"Haute-Corse","region":"Corse"}},{"type":"Feature","geometry":{"type":"Point","coordinates":[8.91951,42.33541]},"properties":{"latitude":"42.33541","longitude":"8.91951","bright_ti4":"305.29","scan":"0.69","track":"0.74","acq_date":"2026-07-15","acq_time":"16","satellite":"N20","instrument":"VIIRS","confidence":"n","version":"2.0NRT","bright_ti5":"292.99","frp":"3.16","daynight":"N","commune":"Albertacce","code_insee":"2B007","departement":"Haute-Corse","region":"Corse"}},{"type":"Feature","geometry":{"type":"Point","coordinates":[4.89516,43.43434]},"properties":{"latitude":"43.43434","longitude":"4.89516","bright_ti4":"309.77","scan":"0.43","track":"0.38","acq_date":"2026-07-15","acq_time":"156","satellite":"N20","instrument":"VIIRS","confidence":"n","version":"2.0NRT","bright_ti5":"295.12","frp":"2.54","daynight":"N","commune":"Fos-sur-Mer","code_insee":"13039","departement":"Bouches-du-Rhône","region":"Provence-Alpes-Côte d'Azur"}},{"type":"Feature","geometry":{"type":"Point","coordinates":[4.88992,43.43533]},"properties":{"latitude":"43.43533","longitude":"4.88992","bright_ti4":"332.4","scan":"0.43","track":"0.38","acq_date":"2026-07-15","acq_time":"156","satellite":"N20","instrument":"VIIRS","confidence":"n","version":"2.0NRT","bright_ti5":"292.54","frp":"2.54","daynight":"N","commune":"Fos-sur-Mer","code_insee":"13039","departement":"Bouches-du-Rhône","region":"Provence-Alpes-Côte d'Azur"}},{"type":"Feature","geometry":{"type":"Point","coordinates":[4.89115,43.43875]},"properties":{"latitude":"43.43875","longitude":"4.89115","bright_ti4":"325.04","scan":"0.43","track":"0.38","acq_date":"2026-07-15","acq_time":"156","satellite":"N20","instrument":"VIIRS","confidence":"n","version":"2.0NRT","bright_ti5":"293.74","frp":"2.54","daynight":"N","commune":"Fos-sur-Mer","code_insee":"13039","departement":"Bouches-du-Rhône","region":"Provence-Alpes-Côte d'Azur"}},{"type":"Feature","geometry":{"type":"Point","coordinates":[4.89884,43.4446]},"properties":{"latitude":"43.4446","longitude":"4.89884","bright_ti4":"313.53","scan":"0.43","track":"0.38","acq_date":"2026-07-15","acq_time":"156","satellite":"N20","instrument":"VIIRS","confidence":"n","version":"2.0NRT","bright_ti5":"296.31","frp":"2.28","daynight":"N","commune":"Fos-sur-Mer","code_insee":"13039","departement":"Bouches-du-Rhône","region":"Provence-Alpes-Côte d'Azur"}},{"type":"Feature","geometry":{"type":"Point","coordinates":[4.90007,43.44802]},"properties":{"latitude":"43.44802","longitude":"4.90007","bright_ti4":"310.63","scan":"0.43","track":"0.38","acq_date":"2026-07-15","acq_time":"156","satellite":"N20","instrument":"VIIRS","confidence":"n","version":"2.0NRT","bright_ti5":"295.86","frp":"1.85","daynight":"N","commune":"Fos-sur-Mer","code_insee":"13039","departement":"Bouches-du-Rhône","region":"Provence-Alpes-Côte d'Azur"}},{"type":"Feature","geometry":{"type":"Point","coordinates":[-0.64044,44.24381]},"properties":{"latitude":"44.24381","longitude":"-0.64044","bright_ti4":"304.89","scan":"0.41","track":"0.37","acq_date":"2026-07-15","acq_time":"156","satellite":"N20","instrument":"VIIRS","confidence":"n","version":"2.0NRT","bright_ti5":"293.39","frp":"1.93","daynight":"N","commune":"Sore","code_insee":"40307","departement":"Landes","region":"Nouvelle-Aquitaine"}},{"type":"Feature","geometry":{"type":"Point","coordinates":[5.65104,46.34281]},"properties":{"latitude":"46.34281","longitude":"5.65104","bright_ti4":"328.93","scan":"0.42","track":"0.38","acq_date":"2026-07-15","acq_time":"156","satellite":"N20","instrument":"VIIRS","confidence":"n","version":"2.0NRT","bright_ti5":"291.3","frp":"3.93","daynight":"N","commune":"Chancia","code_insee":"39102","departement":"Jura","region":"Bourgogne-Franche-Comté"}},{"type":"Feature","geometry":{"type":"Point","coordinates":[5.6521,46.34622]},"properties":{"latitude":"46.34622","longitude":"5.6521","bright_ti4":"341.84","scan":"0.42","track":"0.38","acq_date":"2026-07-15","acq_time":"156","satellite":"N20","instrument":"VIIRS","confidence":"n","version":"2.0NRT","bright_ti5":"295.7","frp":"3.93","daynight":"N","commune":"Montcusel","code_insee":"39351","departement":"Jura","region":"Bourgogne-Franche-Comté"}},{"type":"Feature","geometry":{"type":"Point","coordinates":[5.64708,46.34716]},"properties":{"latitude":"46.34716","longitude":"5.64708","bright_ti4":"305.02","scan":"0.42","track":"0.38","acq_date":"2026-07-15","acq_time":"156","satellite":"N20","instrument":"VIIRS","confidence":"n","version":"2.0NRT","bright_ti5":"289.92","frp":"3.93","daynight":"N","commune":"Chancia","code_insee":"39102","departement":"Jura","region":"Bourgogne-Franche-Comté"}},{"type":"Feature","geometry":{"type":"Point","coordinates":[2.65169,48.37932]},"properties":{"latitude":"48.37932","longitude":"2.65169","bright_ti4":"296.47","scan":"0.39","track":"0.36","acq_date":"2026-07-15","acq_time":"156","satellite":"N20","instrument":"VIIRS","confidence":"n","version":"2.0NRT","bright_ti5":"273.75","frp":"1.08","daynight":"N","commune":"Fontainebleau","code_insee":"77186","departement":"Seine-et-Marne","region":"Île-de-France"}},{"type":"Feature","geometry":{"type":"Point","coordinates":[2.64657,48.3801]},"properties":{"latitude":"48.3801","longitude":"2.64657","bright_ti4":"300.19","scan":"0.39","track":"0.36","acq_date":"2026-07-15","acq_time":"156","satellite":"N20","instrument":"VIIRS","confidence":"n","version":"2.0NRT","bright_ti5":"268.38","frp":"0.47","daynight":"N","commune":"Fontainebleau","code_insee":"77186","departement":"Seine-et-Marne","region":"Île-de-France"}},{"type":"Feature","geometry":{"type":"Point","coordinates":[2.65281,48.38258]},"properties":{"latitude":"48.38258","longitude":"2.65281","bright_ti4":"310.66","scan":"0.39","track":"0.36","acq_date":"2026-07-15","acq_time":"156","satellite":"N20","instrument":"VIIRS","confidence":"n","version":"2.0NRT","bright_ti5":"281.11","frp":"2.21","daynight":"N","commune":"Fontainebleau","code_insee":"77186","departement":"Seine-et-Marne","region":"Île-de-France"}},{"type":"Feature","geometry":{"type":"Point","coordinates":[2.98287,48.38665]},"properties":{"latitude":"48.38665","longitude":"2.98287","bright_ti4":"311.86","scan":"0.38","track":"0.36","acq_date":"2026-07-15","acq_time":"156","satellite":"N20","instrument":"VIIRS","confidence":"n","version":"2.0NRT","bright_ti5":"289.34","frp":"1.22","daynight":"N","commune":"Montereau-Fault-Yonne","code_insee":"77305","departement":"Seine-et-Marne","region":"Île-de-France"}},{"type":"Feature","geometry":{"type":"Point","coordinates":[2.63455,48.39222]},"properties":{"latitude":"48.39222","longitude":"2.63455","bright_ti4":"295.66","scan":"0.39","track":"0.36","acq_date":"2026-07-15","acq_time":"156","satellite":"N20","instrument":"VIIRS","confidence":"n","version":"2.0NRT","bright_ti5":"273.18","frp":"1.33","daynight":"N","commune":"Fontainebleau","code_insee":"77186","departement":"Seine-et-Marne","region":"Île-de-France"}},{"type":"Feature","geometry":{"type":"Point","coordinates":[2.62943,48.39301]},"properties":{"latitude":"48.39301","longitude":"2.62943","bright_ti4":"299.87","scan":"0.39","track":"0.36","acq_date":"2026-07-15","acq_time":"156","satellite":"N20","instrument":"VIIRS","confidence":"n","version":"2.0NRT","bright_ti5":"272.06","frp":"1.16","daynight":"N","commune":"Fontainebleau","code_insee":"77186","departement":"Seine-et-Marne","region":"Île-de-France"}},{"type":"Feature","geometry":{"type":"Point","coordinates":[2.64929,48.40371]},"properties":{"latitude":"48.40371","longitude":"2.64929","bright_ti4":"297.65","scan":"0.39","track":"0.36","acq_date":"2026-07-15","acq_time":"156","satellite":"N20","instrument":"VIIRS","confidence":"n","version":"2.0NRT","bright_ti5":"268.56","frp":"0.93","daynight":"N","commune":"Fontainebleau","code_insee":"77186","departement":"Seine-et-Marne","region":"Île-de-France"}},{"type":"Feature","geometry":{"type":"Point","coordinates":[2.64416,48.40448]},"properties":{"latitude":"48.40448","longitude":"2.64416","bright_ti4":"336.67","scan":"0.39","track":"0.36","acq_date":"2026-07-15","acq_time":"156","satellite":"N20","instrument":"VIIRS","confidence":"n","version":"2.0NRT","bright_ti5":"271.81","frp":"2.2","daynight":"N","commune":"Fontainebleau","code_insee":"77186","departement":"Seine-et-Marne","region":"Île-de-France"}},{"type":"Feature","geometry":{"type":"Point","coordinates":[2.64529,48.40775]},"properties":{"latitude":"48.40775","longitude":"2.64529","bright_ti4":"305.09","scan":"0.39","track":"0.36","acq_date":"2026-07-15","acq_time":"156","satellite":"N20","instrument":"VIIRS","confidence":"n","version":"2.0NRT","bright_ti5":"268.05","frp":"2.2","daynight":"N","commune":"Fontainebleau","code_insee":"77186","departement":"Seine-et-Marne","region":"Île-de-France"}},{"type":"Feature","geometry":{"type":"Point","coordinates":[6.96745,48.68974]},"properties":{"latitude":"48.68974","longitude":"6.96745","bright_ti4":"303.82","scan":"0.43","track":"0.38","acq_date":"2026-07-15","acq_time":"156","satellite":"N20","instrument":"VIIRS","confidence":"n","version":"2.0NRT","bright_ti5":"290.38","frp":"0.84","daynight":"N","commune":"Héming","code_insee":"57314","departement":"Moselle","region":"Grand Est"}},{"type":"Feature","geometry":{"type":"Point","coordinates":[6.14763,49.31916]},"properties":{"latitude":"49.31916","longitude":"6.14763","bright_ti4":"303.77","scan":"0.4","track":"0.37","acq_date":"2026-07-15","acq_time":"156","satellite":"N20","instrument":"VIIRS","confidence":"n","version":"2.0NRT","bright_ti5":"290.96","frp":"1.21","daynight":"N","commune":"Florange","code_insee":"57221","departement":"Moselle","region":"Grand Est"}},{"type":"Feature","geometry":{"type":"Point","coordinates":[4.88673,49.35389]},"properties":{"latitude":"49.35389","longitude":"4.88673","bright_ti4":"328.21","scan":"0.39","track":"0.36","acq_date":"2026-07-15","acq_time":"156","satellite":"N20","instrument":"VIIRS","confidence":"n","version":"2.0NRT","bright_ti5":"291.01","frp":"2.88","daynight":"N","commune":"Grandpré","code_insee":"08198","departement":"Ardennes","region":"Grand Est"}},{"type":"Feature","geometry":{"type":"Point","coordinates":[2.26899,51.02771]},"properties":{"latitude":"51.02771","longitude":"2.26899","bright_ti4":"306.68","scan":"0.4","track":"0.37","acq_date":"2026-07-15","acq_time":"156","satellite":"N20","instrument":"VIIRS","confidence":"n","version":"2.0NRT","bright_ti5":"291.39","frp":"0.95","daynight":"N","commune":"Grande-Synthe","code_insee":"59271","departement":"Nord","region":"Hauts-de-France"}},{"type":"Feature","geometry":{"type":"Point","coordinates":[2.28944,51.033]},"properties":{"latitude":"51.033","longitude":"2.28944","bright_ti4":"306.32","scan":"0.4","track":"0.37","acq_date":"2026-07-15","acq_time":"156","satellite":"N20","instrument":"VIIRS","confidence":"n","version":"2.0NRT","bright_ti5":"291.56","frp":"1.09","daynight":"N","commune":"Grande-Synthe","code_insee":"59271","departement":"Nord","region":"Hauts-de-France"}},{"type":"Feature","geometry":{"type":"Point","coordinates":[2.27694,51.03357]},"properties":{"latitude":"51.03357","longitude":"2.27694","bright_ti4":"317.79","scan":"0.4","track":"0.37","acq_date":"2026-07-15","acq_time":"156","satellite":"N20","instrument":"VIIRS","confidence":"n","version":"2.0NRT","bright_ti5":"291.66","frp":"1.36","daynight":"N","commune":"Grande-Synthe","code_insee":"59271","departement":"Nord","region":"Hauts-de-France"}},{"type":"Feature","geometry":{"type":"Point","coordinates":[2.27819,51.03455]},"properties":{"latitude":"51.03455","longitude":"2.27819","bright_ti4":"313.58","scan":"0.4","track":"0.37","acq_date":"2026-07-15","acq_time":"156","satellite":"N20","instrument":"VIIRS","confidence":"n","version":"2.0NRT","bright_ti5":"291.74","frp":"1.41","daynight":"N","commune":"Grande-Synthe","code_insee":"59271","departement":"Nord","region":"Hauts-de-France"}},{"type":"Feature","geometry":{"type":"Point","coordinates":[2.2906,51.03632]},"properties":{"latitude":"51.03632","longitude":"2.2906","bright_ti4":"317.63","scan":"0.4","track":"0.37","acq_date":"2026-07-15","acq_time":"156","satellite":"N20","instrument":"VIIRS","confidence":"n","version":"2.0NRT","bright_ti5":"292.33","frp":"1.09","daynight":"N","commune":"Grande-Synthe","code_insee":"59271","departement":"Nord","region":"Hauts-de-France"}},{"type":"Feature","geometry":{"type":"Point","coordinates":[2.28497,51.0371]},"properties":{"latitude":"51.0371","longitude":"2.28497","bright_ti4":"312.52","scan":"0.4","track":"0.37","acq_date":"2026-07-15","acq_time":"156","satellite":"N20","instrument":"VIIRS","confidence":"n","version":"2.0NRT","bright_ti5":"291.09","frp":"1.41","daynight":"N","commune":"Grande-Synthe","code_insee":"59271","departement":"Nord","region":"Hauts-de-France"}},{"type":"Feature","geometry":{"type":"Point","coordinates":[2.29855,51.04219]},"properties":{"latitude":"51.04219","longitude":"2.29855","bright_ti4":"304.11","scan":"0.4","track":"0.37","acq_date":"2026-07-15","acq_time":"156","satellite":"N20","instrument":"VIIRS","confidence":"n","version":"2.0NRT","bright_ti5":"293.31","frp":"0.67","daynight":"N","commune":"Grande-Synthe","code_insee":"59271","departement":"Nord","region":"Hauts-de-France"}},{"type":"Feature","geometry":{"type":"Point","coordinates":[2.29293,51.04296]},"properties":{"latitude":"51.04296","longitude":"2.29293","bright_ti4":"302.29","scan":"0.4","track":"0.37","acq_date":"2026-07-15","acq_time":"156","satellite":"N20","instrument":"VIIRS","confidence":"n","version":"2.0NRT","bright_ti5":"292.07","frp":"0.67","daynight":"N","commune":"Grande-Synthe","code_insee":"59271","departement":"Nord","region":"Hauts-de-France"}},{"type":"Feature","geometry":{"type":"Point","coordinates":[2.30534,51.04473]},"properties":{"latitude":"51.04473","longitude":"2.30534","bright_ti4":"301.1","scan":"0.4","track":"0.37","acq_date":"2026-07-15","acq_time":"156","satellite":"N20","instrument":"VIIRS","confidence":"n","version":"2.0NRT","bright_ti5":"291.07","frp":"0.44","daynight":"N","commune":"Dunkerque","code_insee":"59183","departement":"Nord","region":"Hauts-de-France"}},{"type":"Feature","geometry":{"type":"Point","coordinates":[2.29972,51.04551]},"properties":{"latitude":"51.04551","longitude":"2.29972","bright_ti4":"331.8","scan":"0.4","track":"0.37","acq_date":"2026-07-15","acq_time":"156","satellite":"N20","instrument":"VIIRS","confidence":"n","version":"2.0NRT","bright_ti5":"293.6","frp":"3.39","daynight":"N","commune":"Grande-Synthe","code_insee":"59271","departement":"Nord","region":"Hauts-de-France"}},{"type":"Feature","geometry":{"type":"Point","coordinates":[2.29409,51.04629]},"properties":{"latitude":"51.04629","longitude":"2.29409","bright_ti4":"328.72","scan":"0.4","track":"0.37","acq_date":"2026-07-15","acq_time":"156","satellite":"N20","instrument":"VIIRS","confidence":"n","version":"2.0NRT","bright_ti5":"291.64","frp":"3.39","daynight":"N","commune":"Grande-Synthe","code_insee":"59271","departement":"Nord","region":"Hauts-de-France"}},{"type":"Feature","geometry":{"type":"Point","coordinates":[2.31213,51.04727]},"properties":{"latitude":"51.04727","longitude":"2.31213","bright_ti4":"303.26","scan":"0.4","track":"0.37","acq_date":"2026-07-15","acq_time":"156","satellite":"N20","instrument":"VIIRS","confidence":"n","version":"2.0NRT","bright_ti5":"290.81","frp":"0.44","daynight":"N","commune":"Dunkerque","code_insee":"59183","departement":"Nord","region":"Hauts-de-France"}},{"type":"Feature","geometry":{"type":"Point","coordinates":[2.32453,51.04903]},"properties":{"latitude":"51.04903","longitude":"2.32453","bright_ti4":"304.63","scan":"0.4","track":"0.37","acq_date":"2026-07-15","acq_time":"156","satellite":"N20","instrument":"VIIRS","confidence":"n","version":"2.0NRT","bright_ti5":"291.31","frp":"0.77","daynight":"N","commune":"Dunkerque","code_insee":"59183","departement":"Nord","region":"Hauts-de-France"}},{"type":"Feature","geometry":{"type":"Point","coordinates":[9.09319,42.28146]},"properties":{"latitude":"42.28146","longitude":"9.09319","bright_ti4":"311.19","scan":"0.45","track":"0.47","acq_date":"2026-07-15","acq_time":"158","satellite":"N20","instrument":"VIIRS","confidence":"n","version":"2.0NRT","bright_ti5":"294.67","frp":"1.53","daynight":"N","commune":"Corte","code_insee":"2B096","departement":"Haute-Corse","region":"Corse"}},{"type":"Feature","geometry":{"type":"Point","coordinates":[9.08654,42.28302]},"properties":{"latitude":"42.28302","longitude":"9.08654","bright_ti4":"311.47","scan":"0.45","track":"0.47","acq_date":"2026-07-15","acq_time":"158","satellite":"N20","instrument":"VIIRS","confidence":"n","version":"2.0NRT","bright_ti5":"293.79","frp":"1.4","daynight":"N","commune":"Corte","code_insee":"2B096","departement":"Haute-Corse","region":"Corse"}},{"type":"Feature","geometry":{"type":"Point","coordinates":[8.92903,42.32415]},"properties":{"latitude":"42.32415","longitude":"8.92903","bright_ti4":"314.33","scan":"0.44","track":"0.46","acq_date":"2026-07-15","acq_time":"158","satellite":"N20","instrument":"VIIRS","confidence":"n","version":"2.0NRT","bright_ti5":"295.74","frp":"2.92","daynight":"N","commune":"Albertacce","code_insee":"2B007","departement":"Haute-Corse","region":"Corse"}},{"type":"Feature","geometry":{"type":"Point","coordinates":[8.9238,42.32536]},"properties":{"latitude":"42.32536","longitude":"8.9238","bright_ti4":"322.96","scan":"0.44","track":"0.46","acq_date":"2026-07-15","acq_time":"158","satellite":"N20","instrument":"VIIRS","confidence":"n","version":"2.0NRT","bright_ti5":"296.01","frp":"2.17","daynight":"N","commune":"Albertacce","code_insee":"2B007","departement":"Haute-Corse","region":"Corse"}},{"type":"Feature","geometry":{"type":"Point","coordinates":[8.91848,42.3266]},"properties":{"latitude":"42.3266","longitude":"8.91848","bright_ti4":"311.93","scan":"0.44","track":"0.46","acq_date":"2026-07-15","acq_time":"158","satellite":"N20","instrument":"VIIRS","confidence":"n","version":"2.0NRT","bright_ti5":"295.52","frp":"2.17","daynight":"N","commune":"Albertacce","code_insee":"2B007","departement":"Haute-Corse","region":"Corse"}},{"type":"Feature","geometry":{"type":"Point","coordinates":[8.91291,42.32788]},"properties":{"latitude":"42.32788","longitude":"8.91291","bright_ti4":"311.51","scan":"0.44","track":"0.46","acq_date":"2026-07-15","acq_time":"158","satellite":"N20","instrument":"VIIRS","confidence":"n","version":"2.0NRT","bright_ti5":"295.47","frp":"1.4","daynight":"N","commune":"Albertacce","code_insee":"2B007","departement":"Haute-Corse","region":"Corse"}},{"type":"Feature","geometry":{"type":"Point","coordinates":[8.93205,42.32792]},"properties":{"latitude":"42.32792","longitude":"8.93205","bright_ti4":"323.03","scan":"0.44","track":"0.46","acq_date":"2026-07-15","acq_time":"158","satellite":"N20","instrument":"VIIRS","confidence":"n","version":"2.0NRT","bright_ti5":"298.1","frp":"2.92","daynight":"N","commune":"Albertacce","code_insee":"2B007","departement":"Haute-Corse","region":"Corse"}},{"type":"Feature","geometry":{"type":"Point","coordinates":[8.90734,42.32917]},"properties":{"latitude":"42.32917","longitude":"8.90734","bright_ti4":"305.72","scan":"0.44","track":"0.46","acq_date":"2026-07-15","acq_time":"158","satellite":"N20","instrument":"VIIRS","confidence":"n","version":"2.0NRT","bright_ti5":"293.56","frp":"1.4","daynight":"N","commune":"Albertacce","code_insee":"2B007","departement":"Haute-Corse","region":"Corse"}},{"type":"Feature","geometry":{"type":"Point","coordinates":[8.92659,42.32919]},"properties":{"latitude":"42.32919","longitude":"8.92659","bright_ti4":"333.61","scan":"0.44","track":"0.46","acq_date":"2026-07-15","acq_time":"158","satellite":"N20","instrument":"VIIRS","confidence":"n","version":"2.0NRT","bright_ti5":"298.37","frp":"2.17","daynight":"N","commune":"Albertacce","code_insee":"2B007","departement":"Haute-Corse","region":"Corse"}},{"type":"Feature","geometry":{"type":"Point","coordinates":[8.9212,42.33043]},"properties":{"latitude":"42.33043","longitude":"8.9212","bright_ti4":"308.53","scan":"0.44","track":"0.46","acq_date":"2026-07-15","acq_time":"158","satellite":"N20","instrument":"VIIRS","confidence":"n","version":"2.0NRT","bright_ti5":"296.35","frp":"2.17","daynight":"N","commune":"Albertacce","code_insee":"2B007","departement":"Haute-Corse","region":"Corse"}},{"type":"Feature","geometry":{"type":"Point","coordinates":[8.91568,42.33171]},"properties":{"latitude":"42.33171","longitude":"8.91568","bright_ti4":"307.43","scan":"0.44","track":"0.46","acq_date":"2026-07-15","acq_time":"158","satellite":"N20","instrument":"VIIRS","confidence":"n","version":"2.0NRT","bright_ti5":"294.89","frp":"1.4","daynight":"N","commune":"Albertacce","code_insee":"2B007","departement":"Haute-Corse","region":"Corse"}},{"type":"Feature","geometry":{"type":"Point","coordinates":[8.91016,42.33298]},"properties":{"latitude":"42.33298","longitude":"8.91016","bright_ti4":"315.59","scan":"0.44","track":"0.46","acq_date":"2026-07-15","acq_time":"158","satellite":"N20","instrument":"VIIRS","confidence":"n","version":"2.0NRT","bright_ti5":"296.26","frp":"1.4","daynight":"N","commune":"Albertacce","code_insee":"2B007","departement":"Haute-Corse","region":"Corse"}},{"type":"Feature","geometry":{"type":"Point","coordinates":[8.90442,42.33431]},"properties":{"latitude":"42.33431","longitude":"8.90442","bright_ti4":"310.46","scan":"0.44","track":"0.46","acq_date":"2026-07-15","acq_time":"158","satellite":"N20","instrument":"VIIRS","confidence":"n","version":"2.0NRT","bright_ti5":"294.06","frp":"2.06","daynight":"N","commune":"Albertacce","code_insee":"2B007","departement":"Haute-Corse","region":"Corse"}},{"type":"Feature","geometry":{"type":"Point","coordinates":[1.04463,42.84271]},"properties":{"latitude":"42.84271","longitude":"1.04463","bright_ti4":"312.77","scan":"0.38","track":"0.36","acq_date":"2026-07-15","acq_time":"158","satellite":"N20","instrument":"VIIRS","confidence":"n","version":"2.0NRT","bright_ti5":"289.53","frp":"2.01","daynight":"N","commune":"Bordes-Uchentein","code_insee":"09062","departement":"Ariège","region":"Occitanie"}},{"type":"Feature","geometry":{"type":"Point","coordinates":[1.03997,42.84344]},"properties":{"latitude":"42.84344","longitude":"1.03997","bright_ti4":"332.93","scan":"0.38","track":"0.36","acq_date":"2026-07-15","acq_time":"158","satellite":"N20","instrument":"VIIRS","confidence":"n","version":"2.0NRT","bright_ti5":"295.88","frp":"6.08","daynight":"N","commune":"Bordes-Uchentein","code_insee":"09062","departement":"Ariège","region":"Occitanie"}},{"type":"Feature","geometry":{"type":"Point","coordinates":[0.99054,43.18596]},"properties":{"latitude":"43.18596","longitude":"0.99054","bright_ti4":"308.97","scan":"0.38","track":"0.36","acq_date":"2026-07-15","acq_time":"158","satellite":"N20","instrument":"VIIRS","confidence":"n","version":"2.0NRT","bright_ti5":"295.55","frp":"1.15","daynight":"N","commune":"Martres-Tolosane","code_insee":"31324","departement":"Haute-Garonne","region":"Occitanie"}},{"type":"Feature","geometry":{"type":"Point","coordinates":[2.28476,51.03452]},"properties":{"latitude":"51.03452","longitude":"2.28476","bright_ti4":"302.82","scan":"0.73","track":"0.76","acq_date":"2026-07-15","acq_time":"334","satellite":"N20","instrument":"VIIRS","confidence":"n","version":"2.0NRT","bright_ti5":"280.07","frp":"0.55","daynight":"N","commune":"Grande-Synthe","code_insee":"59271","departement":"Nord","region":"Hauts-de-France"}},{"type":"Feature","geometry":{"type":"Point","coordinates":[2.28085,51.0355]},"properties":{"latitude":"51.0355","longitude":"2.28085","bright_ti4":"296.85","scan":"0.73","track":"0.76","acq_date":"2026-07-15","acq_time":"334","satellite":"N20","instrument":"VIIRS","confidence":"n","version":"2.0NRT","bright_ti5":"278.83","frp":"1.01","daynight":"N","commune":"Grande-Synthe","code_insee":"59271","departement":"Nord","region":"Hauts-de-France"}},{"type":"Feature","geometry":{"type":"Point","coordinates":[2.29085,51.04044]},"properties":{"latitude":"51.04044","longitude":"2.29085","bright_ti4":"295.14","scan":"0.73","track":"0.76","acq_date":"2026-07-15","acq_time":"334","satellite":"N20","instrument":"VIIRS","confidence":"n","version":"2.0NRT","bright_ti5":"279.76","frp":"0.55","daynight":"N","commune":"Grande-Synthe","code_insee":"59271","departement":"Nord","region":"Hauts-de-France"}},{"type":"Feature","geometry":{"type":"Point","coordinates":[2.3018,51.04379]},"properties":{"latitude":"51.04379","longitude":"2.3018","bright_ti4":"302.49","scan":"0.73","track":"0.76","acq_date":"2026-07-15","acq_time":"334","satellite":"N20","instrument":"VIIRS","confidence":"n","version":"2.0NRT","bright_ti5":"286.23","frp":"3.94","daynight":"N","commune":"Grande-Synthe","code_insee":"59271","departement":"Nord","region":"Hauts-de-France"}},{"type":"Feature","geometry":{"type":"Point","coordinates":[2.29691,51.04636]},"properties":{"latitude":"51.04636","longitude":"2.29691","bright_ti4":"322.94","scan":"0.73","track":"0.76","acq_date":"2026-07-15","acq_time":"334","satellite":"N20","instrument":"VIIRS","confidence":"n","version":"2.0NRT","bright_ti5":"285.85","frp":"5.18","daynight":"N","commune":"Grande-Synthe","code_insee":"59271","departement":"Nord","region":"Hauts-de-France"}},{"type":"Feature","geometry":{"type":"Point","coordinates":[2.29295,51.04736]},"properties":{"latitude":"51.04736","longitude":"2.29295","bright_ti4":"311.54","scan":"0.73","track":"0.76","acq_date":"2026-07-15","acq_time":"334","satellite":"N20","instrument":"VIIRS","confidence":"n","version":"2.0NRT","bright_ti5":"284.29","frp":"3.17","daynight":"N","commune":"Grande-Synthe","code_insee":"59271","departement":"Nord","region":"Hauts-de-France"}},{"type":"Feature","geometry":{"type":"Point","coordinates":[9.09069,42.27847]},"properties":{"latitude":"42.27847","longitude":"9.09069","bright_ti4":"341.11","scan":"0.56","track":"0.52","acq_date":"2026-07-15","acq_time":"1140","satellite":"N20","instrument":"VIIRS","confidence":"n","version":"2.0NRT","bright_ti5":"303.72","frp":"8.82","daynight":"D","commune":"Corte","code_insee":"2B096","departement":"Haute-Corse","region":"Corse"}},{"type":"Feature","geometry":{"type":"Point","coordinates":[8.92983,42.32508]},"properties":{"latitude":"42.32508","longitude":"8.92983","bright_ti4":"347.39","scan":"0.57","track":"0.52","acq_date":"2026-07-15","acq_time":"1140","satellite":"N20","instrument":"VIIRS","confidence":"n","version":"2.0NRT","bright_ti5":"303.93","frp":"7.17","daynight":"D","commune":"Albertacce","code_insee":"2B007","departement":"Haute-Corse","region":"Corse"}},{"type":"Feature","geometry":{"type":"Point","coordinates":[8.93523,42.32645]},"properties":{"latitude":"42.32645","longitude":"8.93523","bright_ti4":"337.42","scan":"0.57","track":"0.52","acq_date":"2026-07-15","acq_time":"1140","satellite":"N20","instrument":"VIIRS","confidence":"n","version":"2.0NRT","bright_ti5":"302.17","frp":"7.17","daynight":"D","commune":"Albertacce","code_insee":"2B007","departement":"Haute-Corse","region":"Corse"}},{"type":"Feature","geometry":{"type":"Point","coordinates":[4.89291,43.43474]},"properties":{"latitude":"43.43474","longitude":"4.89291","bright_ti4":"338.83","scan":"0.42","track":"0.61","acq_date":"2026-07-15","acq_time":"1140","satellite":"N20","instrument":"VIIRS","confidence":"n","version":"2.0NRT","bright_ti5":"302.82","frp":"5.89","daynight":"D","commune":"Fos-sur-Mer","code_insee":"13039","departement":"Bouches-du-Rhône","region":"Provence-Alpes-Côte d'Azur"}},{"type":"Feature","geometry":{"type":"Point","coordinates":[2.29332,51.03733]},"properties":{"latitude":"51.03733","longitude":"2.29332","bright_ti4":"330.98","scan":"0.63","track":"0.54","acq_date":"2026-07-15","acq_time":"1145","satellite":"N20","instrument":"VIIRS","confidence":"n","version":"2.0NRT","bright_ti5":"300.53","frp":"8.58","daynight":"D","commune":"Grande-Synthe","code_insee":"59271","departement":"Nord","region":"Hauts-de-France"}},{"type":"Feature","geometry":{"type":"Point","coordinates":[2.29828,51.04424]},"properties":{"latitude":"51.04424","longitude":"2.29828","bright_ti4":"343.48","scan":"0.63","track":"0.54","acq_date":"2026-07-15","acq_time":"1145","satellite":"N20","instrument":"VIIRS","confidence":"n","version":"2.0NRT","bright_ti5":"300.39","frp":"4.87","daynight":"D","commune":"Grande-Synthe","code_insee":"59271","departement":"Nord","region":"Hauts-de-France"}},{"type":"Feature","geometry":{"type":"Point","coordinates":[4.89895,43.44272]},"properties":{"latitude":"43.44272","longitude":"4.89895","bright_ti4":"334.61","scan":"0.32","track":"0.55","acq_date":"2026-07-15","acq_time":"1323","satellite":"N20","instrument":"VIIRS","confidence":"n","version":"2.0NRT","bright_ti5":"302.2","frp":"3.35","daynight":"D","commune":"Fos-sur-Mer","code_insee":"13039","departement":"Bouches-du-Rhône","region":"Provence-Alpes-Côte d'Azur"}},{"type":"Feature","geometry":{"type":"Point","coordinates":[1.40901,43.66017]},"properties":{"latitude":"43.66017","longitude":"1.40901","bright_ti4":"341.16","scan":"0.44","track":"0.46","acq_date":"2026-07-15","acq_time":"1323","satellite":"N20","instrument":"VIIRS","confidence":"n","version":"2.0NRT","bright_ti5":"302.46","frp":"1.81","daynight":"D","commune":"Toulouse","code_insee":"31555","departement":"Haute-Garonne","region":"Occitanie"}},{"type":"Feature","geometry":{"type":"Point","coordinates":[1.43438,43.70971]},"properties":{"latitude":"43.70971","longitude":"1.43438","bright_ti4":"336.17","scan":"0.44","track":"0.46","acq_date":"2026-07-15","acq_time":"1323","satellite":"N20","instrument":"VIIRS","confidence":"n","version":"2.0NRT","bright_ti5":"301.41","frp":"5.36","daynight":"D","commune":"Castelginest","code_insee":"31116","departement":"Haute-Garonne","region":"Occitanie"}},{"type":"Feature","geometry":{"type":"Point","coordinates":[3.11785,46.4818]},"properties":{"latitude":"46.4818","longitude":"3.11785","bright_ti4":"334.94","scan":"0.57","track":"0.52","acq_date":"2026-07-15","acq_time":"1323","satellite":"N20","instrument":"VIIRS","confidence":"n","version":"2.0NRT","bright_ti5":"292.29","frp":"3.06","daynight":"D","commune":"Noyant-d'Allier","code_insee":"03202","departement":"Allier","region":"Auvergne-Rhône-Alpes"}},{"type":"Feature","geometry":{"type":"Point","coordinates":[2.65853,48.3815]},"properties":{"latitude":"48.3815","longitude":"2.65853","bright_ti4":"343.79","scan":"0.56","track":"0.51","acq_date":"2026-07-15","acq_time":"1323","satellite":"N20","instrument":"VIIRS","confidence":"n","version":"2.0NRT","bright_ti5":"297.47","frp":"11.65","daynight":"D","commune":"Fontainebleau","code_insee":"77186","departement":"Seine-et-Marne","region":"Île-de-France"}},{"type":"Feature","geometry":{"type":"Point","coordinates":[2.65803,48.38628]},"properties":{"latitude":"48.38628","longitude":"2.65803","bright_ti4":"355.24","scan":"0.56","track":"0.51","acq_date":"2026-07-15","acq_time":"1323","satellite":"N20","instrument":"VIIRS","confidence":"n","version":"2.0NRT","bright_ti5":"300.76","frp":"26.11","daynight":"D","commune":"Fontainebleau","code_insee":"77186","departement":"Seine-et-Marne","region":"Île-de-France"}},{"type":"Feature","geometry":{"type":"Point","coordinates":[2.63989,48.40437]},"properties":{"latitude":"48.40437","longitude":"2.63989","bright_ti4":"330.12","scan":"0.56","track":"0.51","acq_date":"2026-07-15","acq_time":"1323","satellite":"N20","instrument":"VIIRS","confidence":"n","version":"2.0NRT","bright_ti5":"295.6","frp":"3.06","daynight":"D","commune":"Fontainebleau","code_insee":"77186","departement":"Seine-et-Marne","region":"Île-de-France"}},{"type":"Feature","geometry":{"type":"Point","coordinates":[2.26954,51.02912]},"properties":{"latitude":"51.02912","longitude":"2.26954","bright_ti4":"330.05","scan":"0.57","track":"0.52","acq_date":"2026-07-15","acq_time":"1325","satellite":"N20","instrument":"VIIRS","confidence":"l","version":"2.0NRT","bright_ti5":"300.15","frp":"4.71","daynight":"D","commune":"Grande-Synthe","code_insee":"59271","departement":"Nord","region":"Hauts-de-France"}},{"type":"Feature","geometry":{"type":"Point","coordinates":[2.27775,51.02953]},"properties":{"latitude":"51.02953","longitude":"2.27775","bright_ti4":"338.03","scan":"0.57","track":"0.52","acq_date":"2026-07-15","acq_time":"1325","satellite":"N20","instrument":"VIIRS","confidence":"n","version":"2.0NRT","bright_ti5":"303.6","frp":"4.71","daynight":"D","commune":"Grande-Synthe","code_insee":"59271","departement":"Nord","region":"Hauts-de-France"}},{"type":"Feature","geometry":{"type":"Point","coordinates":[2.27641,51.03014]},"properties":{"latitude":"51.03014","longitude":"2.27641","bright_ti4":"331.09","scan":"0.57","track":"0.52","acq_date":"2026-07-15","acq_time":"1325","satellite":"N20","instrument":"VIIRS","confidence":"l","version":"2.0NRT","bright_ti5":"303.23","frp":"9.48","daynight":"D","commune":"Grande-Synthe","code_insee":"59271","departement":"Nord","region":"Hauts-de-France"}},{"type":"Feature","geometry":{"type":"Point","coordinates":[6.14509,49.31664]},"properties":{"latitude":"49.31664","longitude":"6.14509","bright_ti4":"306.19","scan":"0.51","track":"0.5","acq_date":"2026-07-15","acq_time":"100","satellite":"N21","instrument":"VIIRS","confidence":"n","version":"2.0NRT","bright_ti5":"290.07","frp":"1.24","daynight":"N","commune":"Florange","code_insee":"57221","departement":"Moselle","region":"Grand Est"}},{"type":"Feature","geometry":{"type":"Point","coordinates":[6.1462,49.31718]},"properties":{"latitude":"49.31718","longitude":"6.1462","bright_ti4":"306.27","scan":"0.51","track":"0.5","acq_date":"2026-07-15","acq_time":"100","satellite":"N21","instrument":"VIIRS","confidence":"n","version":"2.0NRT","bright_ti5":"290.3","frp":"1.41","daynight":"N","commune":"Florange","code_insee":"57221","departement":"Moselle","region":"Grand Est"}},{"type":"Feature","geometry":{"type":"Point","coordinates":[4.88711,49.3513]},"properties":{"latitude":"49.3513","longitude":"4.88711","bright_ti4":"309.16","scan":"0.59","track":"0.52","acq_date":"2026-07-15","acq_time":"100","satellite":"N21","instrument":"VIIRS","confidence":"n","version":"2.0NRT","bright_ti5":"289.42","frp":"2.25","daynight":"N","commune":"Grandpré","code_insee":"08198","departement":"Ardennes","region":"Grand Est"}},{"type":"Feature","geometry":{"type":"Point","coordinates":[3.56216,50.40043]},"properties":{"latitude":"50.40043","longitude":"3.56216","bright_ti4":"319.29","scan":"0.34","track":"0.56","acq_date":"2026-07-15","acq_time":"100","satellite":"N21","instrument":"VIIRS","confidence":"n","version":"2.0NRT","bright_ti5":"292.53","frp":"1.62","daynight":"N","commune":"Saint-Saulve","code_insee":"59544","departement":"Nord","region":"Hauts-de-France"}},{"type":"Feature","geometry":{"type":"Point","coordinates":[3.56179,50.40169]},"properties":{"latitude":"50.40169","longitude":"3.56179","bright_ti4":"319.18","scan":"0.34","track":"0.56","acq_date":"2026-07-15","acq_time":"100","satellite":"N21","instrument":"VIIRS","confidence":"n","version":"2.0NRT","bright_ti5":"292.15","frp":"1.81","daynight":"N","commune":"Saint-Saulve","code_insee":"59544","departement":"Nord","region":"Hauts-de-France"}},{"type":"Feature","geometry":{"type":"Point","coordinates":[2.26768,51.01581]},"properties":{"latitude":"51.01581","longitude":"2.26768","bright_ti4":"308.02","scan":"0.4","track":"0.6","acq_date":"2026-07-15","acq_time":"100","satellite":"N21","instrument":"VIIRS","confidence":"n","version":"2.0NRT","bright_ti5":"290.38","frp":"0.94","daynight":"N","commune":"Grande-Synthe","code_insee":"59271","departement":"Nord","region":"Hauts-de-France"}},{"type":"Feature","geometry":{"type":"Point","coordinates":[2.26844,51.02682]},"properties":{"latitude":"51.02682","longitude":"2.26844","bright_ti4":"310.44","scan":"0.4","track":"0.6","acq_date":"2026-07-15","acq_time":"100","satellite":"N21","instrument":"VIIRS","confidence":"n","version":"2.0NRT","bright_ti5":"290.81","frp":"1.91","daynight":"N","commune":"Grande-Synthe","code_insee":"59271","departement":"Nord","region":"Hauts-de-France"}},{"type":"Feature","geometry":{"type":"Point","coordinates":[2.28583,51.03187]},"properties":{"latitude":"51.03187","longitude":"2.28583","bright_ti4":"313.05","scan":"0.4","track":"0.6","acq_date":"2026-07-15","acq_time":"100","satellite":"N21","instrument":"VIIRS","confidence":"n","version":"2.0NRT","bright_ti5":"291.12","frp":"1.54","daynight":"N","commune":"Grande-Synthe","code_insee":"59271","departement":"Nord","region":"Hauts-de-France"}},{"type":"Feature","geometry":{"type":"Point","coordinates":[2.28614,51.03737]},"properties":{"latitude":"51.03737","longitude":"2.28614","bright_ti4":"306.27","scan":"0.4","track":"0.6","acq_date":"2026-07-15","acq_time":"100","satellite":"N21","instrument":"VIIRS","confidence":"n","version":"2.0NRT","bright_ti5":"290.86","frp":"0.97","daynight":"N","commune":"Grande-Synthe","code_insee":"59271","departement":"Nord","region":"Hauts-de-France"}},{"type":"Feature","geometry":{"type":"Point","coordinates":[2.29782,51.04256]},"properties":{"latitude":"51.04256","longitude":"2.29782","bright_ti4":"322.89","scan":"0.39","track":"0.6","acq_date":"2026-07-15","acq_time":"100","satellite":"N21","instrument":"VIIRS","confidence":"n","version":"2.0NRT","bright_ti5":"292","frp":"2.32","daynight":"N","commune":"Grande-Synthe","code_insee":"59271","departement":"Nord","region":"Hauts-de-France"}},{"type":"Feature","geometry":{"type":"Point","coordinates":[2.29213,51.04271]},"properties":{"latitude":"51.04271","longitude":"2.29213","bright_ti4":"303.62","scan":"0.39","track":"0.6","acq_date":"2026-07-15","acq_time":"100","satellite":"N21","instrument":"VIIRS","confidence":"n","version":"2.0NRT","bright_ti5":"291.23","frp":"2.32","daynight":"N","commune":"Grande-Synthe","code_insee":"59271","departement":"Nord","region":"Hauts-de-France"}},{"type":"Feature","geometry":{"type":"Point","coordinates":[9.0891,42.27904]},"properties":{"latitude":"42.27904","longitude":"9.0891","bright_ti4":"328.96","scan":"0.48","track":"0.4","acq_date":"2026-07-15","acq_time":"102","satellite":"N21","instrument":"VIIRS","confidence":"n","version":"2.0NRT","bright_ti5":"296.41","frp":"3.23","daynight":"N","commune":"Corte","code_insee":"2B096","departement":"Haute-Corse","region":"Corse"}},{"type":"Feature","geometry":{"type":"Point","coordinates":[9.08407,42.27962]},"properties":{"latitude":"42.27962","longitude":"9.08407","bright_ti4":"305.34","scan":"0.48","track":"0.4","acq_date":"2026-07-15","acq_time":"102","satellite":"N21","instrument":"VIIRS","confidence":"n","version":"2.0NRT","bright_ti5":"293.81","frp":"1.73","daynight":"N","commune":"Corte","code_insee":"2B096","departement":"Haute-Corse","region":"Corse"}},{"type":"Feature","geometry":{"type":"Point","coordinates":[9.08989,42.28268]},"properties":{"latitude":"42.28268","longitude":"9.08989","bright_ti4":"330.21","scan":"0.48","track":"0.4","acq_date":"2026-07-15","acq_time":"102","satellite":"N21","instrument":"VIIRS","confidence":"n","version":"2.0NRT","bright_ti5":"296.53","frp":"4.14","daynight":"N","commune":"Corte","code_insee":"2B096","departement":"Haute-Corse","region":"Corse"}},{"type":"Feature","geometry":{"type":"Point","coordinates":[9.08456,42.28329]},"properties":{"latitude":"42.28329","longitude":"9.08456","bright_ti4":"320.47","scan":"0.48","track":"0.4","acq_date":"2026-07-15","acq_time":"102","satellite":"N21","instrument":"VIIRS","confidence":"n","version":"2.0NRT","bright_ti5":"295.4","frp":"2.71","daynight":"N","commune":"Corte","code_insee":"2B096","departement":"Haute-Corse","region":"Corse"}},{"type":"Feature","geometry":{"type":"Point","coordinates":[8.92694,42.32298]},"properties":{"latitude":"42.32298","longitude":"8.92694","bright_ti4":"313.11","scan":"0.49","track":"0.4","acq_date":"2026-07-15","acq_time":"102","satellite":"N21","instrument":"VIIRS","confidence":"n","version":"2.0NRT","bright_ti5":"296.11","frp":"2.56","daynight":"N","commune":"Albertacce","code_insee":"2B007","departement":"Haute-Corse","region":"Corse"}},{"type":"Feature","geometry":{"type":"Point","coordinates":[8.93145,42.32346]},"properties":{"latitude":"42.32346","longitude":"8.93145","bright_ti4":"314.25","scan":"0.49","track":"0.4","acq_date":"2026-07-15","acq_time":"102","satellite":"N21","instrument":"VIIRS","confidence":"n","version":"2.0NRT","bright_ti5":"296.52","frp":"4.59","daynight":"N","commune":"Albertacce","code_insee":"2B007","departement":"Haute-Corse","region":"Corse"}},{"type":"Feature","geometry":{"type":"Point","coordinates":[8.92139,42.32359]},"properties":{"latitude":"42.32359","longitude":"8.92139","bright_ti4":"320.6","scan":"0.49","track":"0.4","acq_date":"2026-07-15","acq_time":"102","satellite":"N21","instrument":"VIIRS","confidence":"n","version":"2.0NRT","bright_ti5":"297.06","frp":"2.44","daynight":"N","commune":"Albertacce","code_insee":"2B007","departement":"Haute-Corse","region":"Corse"}},{"type":"Feature","geometry":{"type":"Point","coordinates":[8.92587,42.3241]},"properties":{"latitude":"42.3241","longitude":"8.92587","bright_ti4":"326.35","scan":"0.49","track":"0.4","acq_date":"2026-07-15","acq_time":"102","satellite":"N21","instrument":"VIIRS","confidence":"n","version":"2.0NRT","bright_ti5":"297.3","frp":"4.47","daynight":"N","commune":"Albertacce","code_insee":"2B007","departement":"Haute-Corse","region":"Corse"}},{"type":"Feature","geometry":{"type":"Point","coordinates":[8.91589,42.3242]},"properties":{"latitude":"42.3242","longitude":"8.91589","bright_ti4":"312.25","scan":"0.49","track":"0.4","acq_date":"2026-07-15","acq_time":"102","satellite":"N21","instrument":"VIIRS","confidence":"n","version":"2.0NRT","bright_ti5":"296.02","frp":"2.44","daynight":"N","commune":"Albertacce","code_insee":"2B007","departement":"Haute-Corse","region":"Corse"}},{"type":"Feature","geometry":{"type":"Point","coordinates":[8.92027,42.32474]},"properties":{"latitude":"42.32474","longitude":"8.92027","bright_ti4":"316.78","scan":"0.49","track":"0.4","acq_date":"2026-07-15","acq_time":"102","satellite":"N21","instrument":"VIIRS","confidence":"n","version":"2.0NRT","bright_ti5":"297.26","frp":"4.47","daynight":"N","commune":"Albertacce","code_insee":"2B007","departement":"Haute-Corse","region":"Corse"}},{"type":"Feature","geometry":{"type":"Point","coordinates":[8.91038,42.32481]},"properties":{"latitude":"42.32481","longitude":"8.91038","bright_ti4":"309.47","scan":"0.49","track":"0.4","acq_date":"2026-07-15","acq_time":"102","satellite":"N21","instrument":"VIIRS","confidence":"n","version":"2.0NRT","bright_ti5":"293.8","frp":"2.07","daynight":"N","commune":"Albertacce","code_insee":"2B007","departement":"Haute-Corse","region":"Corse"}},{"type":"Feature","geometry":{"type":"Point","coordinates":[8.91477,42.32537]},"properties":{"latitude":"42.32537","longitude":"8.91477","bright_ti4":"312.92","scan":"0.49","track":"0.4","acq_date":"2026-07-15","acq_time":"102","satellite":"N21","instrument":"VIIRS","confidence":"n","version":"2.0NRT","bright_ti5":"295.51","frp":"1.8","daynight":"N","commune":"Albertacce","code_insee":"2B007","departement":"Haute-Corse","region":"Corse"}},{"type":"Feature","geometry":{"type":"Point","coordinates":[8.90925,42.326]},"properties":{"latitude":"42.326","longitude":"8.90925","bright_ti4":"316.16","scan":"0.49","track":"0.4","acq_date":"2026-07-15","acq_time":"102","satellite":"N21","instrument":"VIIRS","confidence":"n","version":"2.0NRT","bright_ti5":"294.81","frp":"1.8","daynight":"N","commune":"Albertacce","code_insee":"2B007","departement":"Haute-Corse","region":"Corse"}},{"type":"Feature","geometry":{"type":"Point","coordinates":[8.93263,42.32609]},"properties":{"latitude":"42.32609","longitude":"8.93263","bright_ti4":"331.92","scan":"0.49","track":"0.4","acq_date":"2026-07-15","acq_time":"102","satellite":"N21","instrument":"VIIRS","confidence":"n","version":"2.0NRT","bright_ti5":"299.22","frp":"9.68","daynight":"N","commune":"Albertacce","code_insee":"2B007","departement":"Haute-Corse","region":"Corse"}},{"type":"Feature","geometry":{"type":"Point","coordinates":[8.92696,42.32672]},"properties":{"latitude":"42.32672","longitude":"8.92696","bright_ti4":"355.27","scan":"0.49","track":"0.4","acq_date":"2026-07-15","acq_time":"102","satellite":"N21","instrument":"VIIRS","confidence":"n","version":"2.0NRT","bright_ti5":"303.6","frp":"9.68","daynight":"N","commune":"Albertacce","code_insee":"2B007","departement":"Haute-Corse","region":"Corse"}},{"type":"Feature","geometry":{"type":"Point","coordinates":[8.93152,42.32722]},"properties":{"latitude":"42.32722","longitude":"8.93152","bright_ti4":"334.61","scan":"0.49","track":"0.4","acq_date":"2026-07-15","acq_time":"102","satellite":"N21","instrument":"VIIRS","confidence":"n","version":"2.0NRT","bright_ti5":"300.5","frp":"4.59","daynight":"N","commune":"Albertacce","code_insee":"2B007","departement":"Haute-Corse","region":"Corse"}},{"type":"Feature","geometry":{"type":"Point","coordinates":[8.92129,42.32734]},"properties":{"latitude":"42.32734","longitude":"8.92129","bright_ti4":"319.24","scan":"0.49","track":"0.4","acq_date":"2026-07-15","acq_time":"102","satellite":"N21","instrument":"VIIRS","confidence":"n","version":"2.0NRT","bright_ti5":"298.4","frp":"2.49","daynight":"N","commune":"Albertacce","code_insee":"2B007","departement":"Haute-Corse","region":"Corse"}},{"type":"Feature","geometry":{"type":"Point","coordinates":[8.92588,42.32787]},"properties":{"latitude":"42.32787","longitude":"8.92588","bright_ti4":"353.01","scan":"0.49","track":"0.4","acq_date":"2026-07-15","acq_time":"102","satellite":"N21","instrument":"VIIRS","confidence":"n","version":"2.0NRT","bright_ti5":"302.78","frp":"4.47","daynight":"N","commune":"Albertacce","code_insee":"2B007","departement":"Haute-Corse","region":"Corse"}},{"type":"Feature","geometry":{"type":"Point","coordinates":[8.91582,42.32795]},"properties":{"latitude":"42.32795","longitude":"8.91582","bright_ti4":"313.69","scan":"0.49","track":"0.4","acq_date":"2026-07-15","acq_time":"102","satellite":"N21","instrument":"VIIRS","confidence":"n","version":"2.0NRT","bright_ti5":"296.42","frp":"2.49","daynight":"N","commune":"Albertacce","code_insee":"2B007","departement":"Haute-Corse","region":"Corse"}},{"type":"Feature","geometry":{"type":"Point","coordinates":[8.9203,42.32851]},"properties":{"latitude":"42.32851","longitude":"8.9203","bright_ti4":"312.96","scan":"0.49","track":"0.4","acq_date":"2026-07-15","acq_time":"102","satellite":"N21","instrument":"VIIRS","confidence":"n","version":"2.0NRT","bright_ti5":"297.49","frp":"4.47","daynight":"N","commune":"Albertacce","code_insee":"2B007","departement":"Haute-Corse","region":"Corse"}},{"type":"Feature","geometry":{"type":"Point","coordinates":[8.91035,42.32856]},"properties":{"latitude":"42.32856","longitude":"8.91035","bright_ti4":"314.31","scan":"0.49","track":"0.4","acq_date":"2026-07-15","acq_time":"102","satellite":"N21","instrument":"VIIRS","confidence":"n","version":"2.0NRT","bright_ti5":"296.79","frp":"1.97","daynight":"N","commune":"Albertacce","code_insee":"2B007","departement":"Haute-Corse","region":"Corse"}},{"type":"Feature","geometry":{"type":"Point","coordinates":[8.91481,42.32914]},"properties":{"latitude":"42.32914","longitude":"8.91481","bright_ti4":"307.11","scan":"0.49","track":"0.4","acq_date":"2026-07-15","acq_time":"102","satellite":"N21","instrument":"VIIRS","confidence":"n","version":"2.0NRT","bright_ti5":"296.14","frp":"1.8","daynight":"N","commune":"Albertacce","code_insee":"2B007","departement":"Haute-Corse","region":"Corse"}},{"type":"Feature","geometry":{"type":"Point","coordinates":[8.9049,42.32917]},"properties":{"latitude":"42.32917","longitude":"8.9049","bright_ti4":"304.47","scan":"0.49","track":"0.4","acq_date":"2026-07-15","acq_time":"102","satellite":"N21","instrument":"VIIRS","confidence":"n","version":"2.0NRT","bright_ti5":"294.03","frp":"1.97","daynight":"N","commune":"Albertacce","code_insee":"2B007","departement":"Haute-Corse","region":"Corse"}},{"type":"Feature","geometry":{"type":"Point","coordinates":[8.90931,42.32977]},"properties":{"latitude":"42.32977","longitude":"8.90931","bright_ti4":"311.5","scan":"0.49","track":"0.4","acq_date":"2026-07-15","acq_time":"102","satellite":"N21","instrument":"VIIRS","confidence":"n","version":"2.0NRT","bright_ti5":"296.11","frp":"1.8","daynight":"N","commune":"Albertacce","code_insee":"2B007","departement":"Haute-Corse","region":"Corse"}},{"type":"Feature","geometry":{"type":"Point","coordinates":[8.90388,42.33039]},"properties":{"latitude":"42.33039","longitude":"8.90388","bright_ti4":"311.7","scan":"0.49","track":"0.4","acq_date":"2026-07-15","acq_time":"102","satellite":"N21","instrument":"VIIRS","confidence":"n","version":"2.0NRT","bright_ti5":"294.07","frp":"2.34","daynight":"N","commune":"Albertacce","code_insee":"2B007","departement":"Haute-Corse","region":"Corse"}},{"type":"Feature","geometry":{"type":"Point","coordinates":[8.92173,42.33105]},"properties":{"latitude":"42.33105","longitude":"8.92173","bright_ti4":"314.1","scan":"0.49","track":"0.4","acq_date":"2026-07-15","acq_time":"102","satellite":"N21","instrument":"VIIRS","confidence":"n","version":"2.0NRT","bright_ti5":"296.84","frp":"2.49","daynight":"N","commune":"Albertacce","code_insee":"2B007","departement":"Haute-Corse","region":"Corse"}},{"type":"Feature","geometry":{"type":"Point","coordinates":[8.91616,42.33167]},"properties":{"latitude":"42.33167","longitude":"8.91616","bright_ti4":"323.75","scan":"0.49","track":"0.4","acq_date":"2026-07-15","acq_time":"102","satellite":"N21","instrument":"VIIRS","confidence":"n","version":"2.0NRT","bright_ti5":"296.48","frp":"2.49","daynight":"N","commune":"Albertacce","code_insee":"2B007","departement":"Haute-Corse","region":"Corse"}},{"type":"Feature","geometry":{"type":"Point","coordinates":[8.9106,42.33229]},"properties":{"latitude":"42.33229","longitude":"8.9106","bright_ti4":"313.85","scan":"0.49","track":"0.4","acq_date":"2026-07-15","acq_time":"102","satellite":"N21","instrument":"VIIRS","confidence":"n","version":"2.0NRT","bright_ti5":"297.59","frp":"1.97","daynight":"N","commune":"Albertacce","code_insee":"2B007","departement":"Haute-Corse","region":"Corse"}},{"type":"Feature","geometry":{"type":"Point","coordinates":[8.90515,42.33289]},"properties":{"latitude":"42.33289","longitude":"8.90515","bright_ti4":"317.94","scan":"0.49","track":"0.4","acq_date":"2026-07-15","acq_time":"102","satellite":"N21","instrument":"VIIRS","confidence":"n","version":"2.0NRT","bright_ti5":"295.98","frp":"1.97","daynight":"N","commune":"Albertacce","code_insee":"2B007","departement":"Haute-Corse","region":"Corse"}},{"type":"Feature","geometry":{"type":"Point","coordinates":[4.89373,43.44041]},"properties":{"latitude":"43.44041","longitude":"4.89373","bright_ti4":"301.23","scan":"0.51","track":"0.5","acq_date":"2026-07-15","acq_time":"102","satellite":"N21","instrument":"VIIRS","confidence":"n","version":"2.0NRT","bright_ti5":"275.76","frp":"1.88","daynight":"N","commune":"Fos-sur-Mer","code_insee":"13039","departement":"Bouches-du-Rhône","region":"Provence-Alpes-Côte d'Azur"}},{"type":"Feature","geometry":{"type":"Point","coordinates":[4.89503,43.44581]},"properties":{"latitude":"43.44581","longitude":"4.89503","bright_ti4":"300.13","scan":"0.51","track":"0.5","acq_date":"2026-07-15","acq_time":"102","satellite":"N21","instrument":"VIIRS","confidence":"n","version":"2.0NRT","bright_ti5":"273.37","frp":"2.6","daynight":"N","commune":"Fos-sur-Mer","code_insee":"13039","departement":"Bouches-du-Rhône","region":"Provence-Alpes-Côte d'Azur"}},{"type":"Feature","geometry":{"type":"Point","coordinates":[5.82148,45.91238]},"properties":{"latitude":"45.91238","longitude":"5.82148","bright_ti4":"304.36","scan":"0.49","track":"0.49","acq_date":"2026-07-15","acq_time":"102","satellite":"N21","instrument":"VIIRS","confidence":"n","version":"2.0NRT","bright_ti5":"292.16","frp":"1.04","daynight":"N","commune":"Anglefort","code_insee":"01010","departement":"Ain","region":"Auvergne-Rhône-Alpes"}},{"type":"Feature","geometry":{"type":"Point","coordinates":[3.42207,46.24816]},"properties":{"latitude":"46.24816","longitude":"3.42207","bright_ti4":"301.17","scan":"0.32","track":"0.55","acq_date":"2026-07-15","acq_time":"102","satellite":"N21","instrument":"VIIRS","confidence":"n","version":"2.0NRT","bright_ti5":"287.77","frp":"0.84","daynight":"N","commune":"Créchy","code_insee":"03091","departement":"Allier","region":"Auvergne-Rhône-Alpes"}},{"type":"Feature","geometry":{"type":"Point","coordinates":[5.65145,46.34621]},"properties":{"latitude":"46.34621","longitude":"5.65145","bright_ti4":"337.37","scan":"0.5","track":"0.49","acq_date":"2026-07-15","acq_time":"102","satellite":"N21","instrument":"VIIRS","confidence":"n","version":"2.0NRT","bright_ti5":"292.1","frp":"7.75","daynight":"N","commune":"Montcusel","code_insee":"39351","departement":"Jura","region":"Bourgogne-Franche-Comté"}},{"type":"Feature","geometry":{"type":"Point","coordinates":[5.64337,46.34681]},"properties":{"latitude":"46.34681","longitude":"5.64337","bright_ti4":"325.25","scan":"0.5","track":"0.49","acq_date":"2026-07-15","acq_time":"102","satellite":"N21","instrument":"VIIRS","confidence":"n","version":"2.0NRT","bright_ti5":"290.97","frp":"7.75","daynight":"N","commune":"Chancia","code_insee":"39102","departement":"Jura","region":"Bourgogne-Franche-Comté"}},{"type":"Feature","geometry":{"type":"Point","coordinates":[6.96851,48.68961]},"properties":{"latitude":"48.68961","longitude":"6.96851","bright_ti4":"302.7","scan":"0.46","track":"0.47","acq_date":"2026-07-15","acq_time":"102","satellite":"N21","instrument":"VIIRS","confidence":"n","version":"2.0NRT","bright_ti5":"289.04","frp":"0.66","daynight":"N","commune":"Héming","code_insee":"57314","departement":"Moselle","region":"Grand Est"}},{"type":"Feature","geometry":{"type":"Point","coordinates":[6.05184,48.88395]},"properties":{"latitude":"48.88395","longitude":"6.05184","bright_ti4":"309.15","scan":"0.51","track":"0.5","acq_date":"2026-07-15","acq_time":"102","satellite":"N21","instrument":"VIIRS","confidence":"n","version":"2.0NRT","bright_ti5":"289.52","frp":"2.4","daynight":"N","commune":"Blénod-lès-Pont-à-Mousson","code_insee":"54079","departement":"Meurthe-et-Moselle","region":"Grand Est"}},{"type":"Feature","geometry":{"type":"Point","coordinates":[4.89617,43.43493]},"properties":{"latitude":"43.43493","longitude":"4.89617","bright_ti4":"305.36","scan":"0.52","track":"0.67","acq_date":"2026-07-15","acq_time":"241","satellite":"N21","instrument":"VIIRS","confidence":"n","version":"2.0NRT","bright_ti5":"292.29","frp":"1.92","daynight":"N","commune":"Fos-sur-Mer","code_insee":"13039","departement":"Bouches-du-Rhône","region":"Provence-Alpes-Côte d'Azur"}},{"type":"Feature","geometry":{"type":"Point","coordinates":[4.8902,43.43677]},"properties":{"latitude":"43.43677","longitude":"4.8902","bright_ti4":"310.21","scan":"0.52","track":"0.67","acq_date":"2026-07-15","acq_time":"241","satellite":"N21","instrument":"VIIRS","confidence":"n","version":"2.0NRT","bright_ti5":"292.36","frp":"1.92","daynight":"N","commune":"Fos-sur-Mer","code_insee":"13039","departement":"Bouches-du-Rhône","region":"Provence-Alpes-Côte d'Azur"}},{"type":"Feature","geometry":{"type":"Point","coordinates":[4.88898,43.4389]},"properties":{"latitude":"43.4389","longitude":"4.88898","bright_ti4":"304.07","scan":"0.52","track":"0.67","acq_date":"2026-07-15","acq_time":"241","satellite":"N21","instrument":"VIIRS","confidence":"n","version":"2.0NRT","bright_ti5":"292.26","frp":"2.05","daynight":"N","commune":"Fos-sur-Mer","code_insee":"13039","departement":"Bouches-du-Rhône","region":"Provence-Alpes-Côte d'Azur"}},{"type":"Feature","geometry":{"type":"Point","coordinates":[4.89582,43.45017]},"properties":{"latitude":"43.45017","longitude":"4.89582","bright_ti4":"301.19","scan":"0.52","track":"0.67","acq_date":"2026-07-15","acq_time":"241","satellite":"N21","instrument":"VIIRS","confidence":"n","version":"2.0NRT","bright_ti5":"287.41","frp":"0.53","daynight":"N","commune":"Fos-sur-Mer","code_insee":"13039","departement":"Bouches-du-Rhône","region":"Provence-Alpes-Côte d'Azur"}},{"type":"Feature","geometry":{"type":"Point","coordinates":[5.65306,46.34477]},"properties":{"latitude":"46.34477","longitude":"5.65306","bright_ti4":"301.1","scan":"0.46","track":"0.63","acq_date":"2026-07-15","acq_time":"241","satellite":"N21","instrument":"VIIRS","confidence":"n","version":"2.0NRT","bright_ti5":"278.01","frp":"1.38","daynight":"N","commune":"Montcusel","code_insee":"39351","departement":"Jura","region":"Bourgogne-Franche-Comté"}},{"type":"Feature","geometry":{"type":"Point","coordinates":[5.64885,46.34609]},"properties":{"latitude":"46.34609","longitude":"5.64885","bright_ti4":"307.51","scan":"0.46","track":"0.63","acq_date":"2026-07-15","acq_time":"241","satellite":"N21","instrument":"VIIRS","confidence":"n","version":"2.0NRT","bright_ti5":"281.38","frp":"1.38","daynight":"N","commune":"Chancia","code_insee":"39102","departement":"Jura","region":"Bourgogne-Franche-Comté"}},{"type":"Feature","geometry":{"type":"Point","coordinates":[4.8849,49.35239]},"properties":{"latitude":"49.35239","longitude":"4.8849","bright_ti4":"307.39","scan":"0.34","track":"0.56","acq_date":"2026-07-15","acq_time":"241","satellite":"N21","instrument":"VIIRS","confidence":"n","version":"2.0NRT","bright_ti5":"287.96","frp":"0.88","daynight":"N","commune":"Grandpré","code_insee":"08198","departement":"Ardennes","region":"Grand Est"}},{"type":"Feature","geometry":{"type":"Point","coordinates":[4.88765,49.35366]},"properties":{"latitude":"49.35366","longitude":"4.88765","bright_ti4":"312.64","scan":"0.34","track":"0.56","acq_date":"2026-07-15","acq_time":"241","satellite":"N21","instrument":"VIIRS","confidence":"n","version":"2.0NRT","bright_ti5":"287.96","frp":"1.12","daynight":"N","commune":"Grandpré","code_insee":"08198","departement":"Ardennes","region":"Grand Est"}},{"type":"Feature","geometry":{"type":"Point","coordinates":[2.26943,51.0143]},"properties":{"latitude":"51.0143","longitude":"2.26943","bright_ti4":"302.25","scan":"0.47","track":"0.48","acq_date":"2026-07-15","acq_time":"241","satellite":"N21","instrument":"VIIRS","confidence":"n","version":"2.0NRT","bright_ti5":"290.14","frp":"0.95","daynight":"N","commune":"Grande-Synthe","code_insee":"59271","departement":"Nord","region":"Hauts-de-France"}},{"type":"Feature","geometry":{"type":"Point","coordinates":[2.27103,51.02818]},"properties":{"latitude":"51.02818","longitude":"2.27103","bright_ti4":"302.42","scan":"0.47","track":"0.48","acq_date":"2026-07-15","acq_time":"241","satellite":"N21","instrument":"VIIRS","confidence":"n","version":"2.0NRT","bright_ti5":"290.12","frp":"1.41","daynight":"N","commune":"Grande-Synthe","code_insee":"59271","departement":"Nord","region":"Hauts-de-France"}},{"type":"Feature","geometry":{"type":"Point","coordinates":[2.28895,51.03314]},"properties":{"latitude":"51.03314","longitude":"2.28895","bright_ti4":"324.58","scan":"0.47","track":"0.48","acq_date":"2026-07-15","acq_time":"241","satellite":"N21","instrument":"VIIRS","confidence":"n","version":"2.0NRT","bright_ti5":"291.16","frp":"3.07","daynight":"N","commune":"Grande-Synthe","code_insee":"59271","departement":"Nord","region":"Hauts-de-France"}},{"type":"Feature","geometry":{"type":"Point","coordinates":[2.28263,51.03475]},"properties":{"latitude":"51.03475","longitude":"2.28263","bright_ti4":"303.7","scan":"0.47","track":"0.48","acq_date":"2026-07-15","acq_time":"241","satellite":"N21","instrument":"VIIRS","confidence":"n","version":"2.0NRT","bright_ti5":"290.1","frp":"2.37","daynight":"N","commune":"Grande-Synthe","code_insee":"59271","departement":"Nord","region":"Hauts-de-France"}},{"type":"Feature","geometry":{"type":"Point","coordinates":[2.29427,51.04131]},"properties":{"latitude":"51.04131","longitude":"2.29427","bright_ti4":"303.38","scan":"0.47","track":"0.48","acq_date":"2026-07-15","acq_time":"241","satellite":"N21","instrument":"VIIRS","confidence":"n","version":"2.0NRT","bright_ti5":"292.25","frp":"4.49","daynight":"N","commune":"Grande-Synthe","code_insee":"59271","departement":"Nord","region":"Hauts-de-France"}},{"type":"Feature","geometry":{"type":"Point","coordinates":[2.29693,51.0454]},"properties":{"latitude":"51.0454","longitude":"2.29693","bright_ti4":"342.04","scan":"0.47","track":"0.48","acq_date":"2026-07-15","acq_time":"241","satellite":"N21","instrument":"VIIRS","confidence":"n","version":"2.0NRT","bright_ti5":"291.2","frp":"4.49","daynight":"N","commune":"Grande-Synthe","code_insee":"59271","departement":"Nord","region":"Hauts-de-France"}},{"type":"Feature","geometry":{"type":"Point","coordinates":[1.04443,42.83909]},"properties":{"latitude":"42.83909","longitude":"1.04443","bright_ti4":"301.72","scan":"0.36","track":"0.57","acq_date":"2026-07-15","acq_time":"243","satellite":"N21","instrument":"VIIRS","confidence":"n","version":"2.0NRT","bright_ti5":"289.36","frp":"4.28","daynight":"N","commune":"Bordes-Uchentein","code_insee":"09062","departement":"Ariège","region":"Occitanie"}},{"type":"Feature","geometry":{"type":"Point","coordinates":[1.04165,42.83987]},"properties":{"latitude":"42.83987","longitude":"1.04165","bright_ti4":"367","scan":"0.36","track":"0.57","acq_date":"2026-07-15","acq_time":"243","satellite":"N21","instrument":"VIIRS","confidence":"h","version":"2.0NRT","bright_ti5":"297.34","frp":"4.28","daynight":"N","commune":"Bordes-Uchentein","code_insee":"09062","departement":"Ariège","region":"Occitanie"}},{"type":"Feature","geometry":{"type":"Point","coordinates":[1.03899,42.8406]},"properties":{"latitude":"42.8406","longitude":"1.03899","bright_ti4":"307.78","scan":"0.36","track":"0.57","acq_date":"2026-07-15","acq_time":"243","satellite":"N21","instrument":"VIIRS","confidence":"n","version":"2.0NRT","bright_ti5":"291.12","frp":"7.5","daynight":"N","commune":"Bordes-Uchentein","code_insee":"09062","departement":"Ariège","region":"Occitanie"}},{"type":"Feature","geometry":{"type":"Point","coordinates":[1.04269,42.84521]},"properties":{"latitude":"42.84521","longitude":"1.04269","bright_ti4":"310.41","scan":"0.36","track":"0.57","acq_date":"2026-07-15","acq_time":"243","satellite":"N21","instrument":"VIIRS","confidence":"n","version":"2.0NRT","bright_ti5":"290.1","frp":"4.28","daynight":"N","commune":"Bordes-Uchentein","code_insee":"09062","departement":"Ariège","region":"Occitanie"}},{"type":"Feature","geometry":{"type":"Point","coordinates":[2.64149,48.37432]},"properties":{"latitude":"48.37432","longitude":"2.64149","bright_ti4":"325.63","scan":"0.59","track":"0.53","acq_date":"2026-07-15","acq_time":"243","satellite":"N21","instrument":"VIIRS","confidence":"n","version":"2.0NRT","bright_ti5":"294.19","frp":"4.92","daynight":"N","commune":"Fontainebleau","code_insee":"77186","departement":"Seine-et-Marne","region":"Île-de-France"}},{"type":"Feature","geometry":{"type":"Point","coordinates":[2.64439,48.37876]},"properties":{"latitude":"48.37876","longitude":"2.64439","bright_ti4":"333.2","scan":"0.59","track":"0.53","acq_date":"2026-07-15","acq_time":"243","satellite":"N21","instrument":"VIIRS","confidence":"n","version":"2.0NRT","bright_ti5":"296.2","frp":"4.45","daynight":"N","commune":"Fontainebleau","code_insee":"77186","departement":"Seine-et-Marne","region":"Île-de-France"}},{"type":"Feature","geometry":{"type":"Point","coordinates":[2.65474,48.38118]},"properties":{"latitude":"48.38118","longitude":"2.65474","bright_ti4":"307.65","scan":"0.59","track":"0.53","acq_date":"2026-07-15","acq_time":"243","satellite":"N21","instrument":"VIIRS","confidence":"n","version":"2.0NRT","bright_ti5":"291.87","frp":"4.45","daynight":"N","commune":"Fontainebleau","code_insee":"77186","departement":"Seine-et-Marne","region":"Île-de-France"}},{"type":"Feature","geometry":{"type":"Point","coordinates":[2.64729,48.38321]},"properties":{"latitude":"48.38321","longitude":"2.64729","bright_ti4":"307.24","scan":"0.59","track":"0.53","acq_date":"2026-07-15","acq_time":"243","satellite":"N21","instrument":"VIIRS","confidence":"n","version":"2.0NRT","bright_ti5":"293.38","frp":"4.45","daynight":"N","commune":"Fontainebleau","code_insee":"77186","departement":"Seine-et-Marne","region":"Île-de-France"}},{"type":"Feature","geometry":{"type":"Point","coordinates":[2.65018,48.38766]},"properties":{"latitude":"48.38766","longitude":"2.65018","bright_ti4":"307.36","scan":"0.59","track":"0.53","acq_date":"2026-07-15","acq_time":"243","satellite":"N21","instrument":"VIIRS","confidence":"n","version":"2.0NRT","bright_ti5":"292.2","frp":"2.76","daynight":"N","commune":"Fontainebleau","code_insee":"77186","departement":"Seine-et-Marne","region":"Île-de-France"}},{"type":"Feature","geometry":{"type":"Point","coordinates":[2.64076,48.40067]},"properties":{"latitude":"48.40067","longitude":"2.64076","bright_ti4":"308.31","scan":"0.59","track":"0.53","acq_date":"2026-07-15","acq_time":"243","satellite":"N21","instrument":"VIIRS","confidence":"n","version":"2.0NRT","bright_ti5":"291.54","frp":"11.94","daynight":"N","commune":"Fontainebleau","code_insee":"77186","departement":"Seine-et-Marne","region":"Île-de-France"}},{"type":"Feature","geometry":{"type":"Point","coordinates":[2.65105,48.40311]},"properties":{"latitude":"48.40311","longitude":"2.65105","bright_ti4":"304.81","scan":"0.59","track":"0.53","acq_date":"2026-07-15","acq_time":"243","satellite":"N21","instrument":"VIIRS","confidence":"n","version":"2.0NRT","bright_ti5":"291.74","frp":"11.94","daynight":"N","commune":"Fontainebleau","code_insee":"77186","departement":"Seine-et-Marne","region":"Île-de-France"}},{"type":"Feature","geometry":{"type":"Point","coordinates":[2.64344,48.40517]},"properties":{"latitude":"48.40517","longitude":"2.64344","bright_ti4":"367","scan":"0.59","track":"0.53","acq_date":"2026-07-15","acq_time":"243","satellite":"N21","instrument":"VIIRS","confidence":"h","version":"2.0NRT","bright_ti5":"299.7","frp":"11.94","daynight":"N","commune":"Fontainebleau","code_insee":"77186","departement":"Seine-et-Marne","region":"Île-de-France"}},{"type":"Feature","geometry":{"type":"Point","coordinates":[9.09329,42.28311]},"properties":{"latitude":"42.28311","longitude":"9.09329","bright_ti4":"340.59","scan":"0.41","track":"0.37","acq_date":"2026-07-15","acq_time":"1225","satellite":"N21","instrument":"VIIRS","confidence":"l","version":"2.0NRT","bright_ti5":"311.32","frp":"18.46","daynight":"D","commune":"Corte","code_insee":"2B096","departement":"Haute-Corse","region":"Corse"}},{"type":"Feature","geometry":{"type":"Point","coordinates":[8.92975,42.32503]},"properties":{"latitude":"42.32503","longitude":"8.92975","bright_ti4":"355.45","scan":"0.4","track":"0.37","acq_date":"2026-07-15","acq_time":"1225","satellite":"N21","instrument":"VIIRS","confidence":"n","version":"2.0NRT","bright_ti5":"309.57","frp":"9.07","daynight":"D","commune":"Albertacce","code_insee":"2B007","departement":"Haute-Corse","region":"Corse"}},{"type":"Feature","geometry":{"type":"Point","coordinates":[8.93478,42.3257]},"properties":{"latitude":"42.3257","longitude":"8.93478","bright_ti4":"341.84","scan":"0.4","track":"0.37","acq_date":"2026-07-15","acq_time":"1225","satellite":"N21","instrument":"VIIRS","confidence":"n","version":"2.0NRT","bright_ti5":"306.12","frp":"2.5","daynight":"D","commune":"Albertacce","code_insee":"2B007","departement":"Haute-Corse","region":"Corse"}},{"type":"Feature","geometry":{"type":"Point","coordinates":[8.92418,42.32774]},"properties":{"latitude":"42.32774","longitude":"8.92418","bright_ti4":"333.18","scan":"0.4","track":"0.37","acq_date":"2026-07-15","acq_time":"1225","satellite":"N21","instrument":"VIIRS","confidence":"l","version":"2.0NRT","bright_ti5":"306.35","frp":"3.75","daynight":"D","commune":"Albertacce","code_insee":"2B007","departement":"Haute-Corse","region":"Corse"}},{"type":"Feature","geometry":{"type":"Point","coordinates":[8.90263,42.33176]},"properties":{"latitude":"42.33176","longitude":"8.90263","bright_ti4":"333.54","scan":"0.4","track":"0.37","acq_date":"2026-07-15","acq_time":"1225","satellite":"N21","instrument":"VIIRS","confidence":"l","version":"2.0NRT","bright_ti5":"307.02","frp":"5.07","daynight":"D","commune":"Albertacce","code_insee":"2B007","departement":"Haute-Corse","region":"Corse"}},{"type":"Feature","geometry":{"type":"Point","coordinates":[1.03895,42.84064]},"properties":{"latitude":"42.84064","longitude":"1.03895","bright_ti4":"348.26","scan":"0.52","track":"0.41","acq_date":"2026-07-15","acq_time":"1225","satellite":"N21","instrument":"VIIRS","confidence":"n","version":"2.0NRT","bright_ti5":"306.6","frp":"15.88","daynight":"D","commune":"Bordes-Uchentein","code_insee":"09062","departement":"Ariège","region":"Occitanie"}},{"type":"Feature","geometry":{"type":"Point","coordinates":[1.03783,42.84071]},"properties":{"latitude":"42.84071","longitude":"1.03783","bright_ti4":"344.5","scan":"0.52","track":"0.41","acq_date":"2026-07-15","acq_time":"1225","satellite":"N21","instrument":"VIIRS","confidence":"n","version":"2.0NRT","bright_ti5":"303.92","frp":"23.75","daynight":"D","commune":"Bordes-Uchentein","code_insee":"09062","departement":"Ariège","region":"Occitanie"}},{"type":"Feature","geometry":{"type":"Point","coordinates":[1.04716,42.84231]},"properties":{"latitude":"42.84231","longitude":"1.04716","bright_ti4":"332.42","scan":"0.52","track":"0.41","acq_date":"2026-07-15","acq_time":"1225","satellite":"N21","instrument":"VIIRS","confidence":"n","version":"2.0NRT","bright_ti5":"305.3","frp":"14.65","daynight":"D","commune":"Bordes-Uchentein","code_insee":"09062","departement":"Ariège","region":"Occitanie"}},{"type":"Feature","geometry":{"type":"Point","coordinates":[1.0461,42.84246]},"properties":{"latitude":"42.84246","longitude":"1.0461","bright_ti4":"337.34","scan":"0.52","track":"0.41","acq_date":"2026-07-15","acq_time":"1225","satellite":"N21","instrument":"VIIRS","confidence":"n","version":"2.0NRT","bright_ti5":"305.96","frp":"23.75","daynight":"D","commune":"Bordes-Uchentein","code_insee":"09062","departement":"Ariège","region":"Occitanie"}},{"type":"Feature","geometry":{"type":"Point","coordinates":[1.03736,42.84428]},"properties":{"latitude":"42.84428","longitude":"1.03736","bright_ti4":"330.4","scan":"0.52","track":"0.41","acq_date":"2026-07-15","acq_time":"1225","satellite":"N21","instrument":"VIIRS","confidence":"n","version":"2.0NRT","bright_ti5":"296.91","frp":"15.88","daynight":"D","commune":"Bordes-Uchentein","code_insee":"09062","departement":"Ariège","region":"Occitanie"}},{"type":"Feature","geometry":{"type":"Point","coordinates":[4.88945,43.43468]},"properties":{"latitude":"43.43468","longitude":"4.88945","bright_ti4":"337.17","scan":"0.39","track":"0.36","acq_date":"2026-07-15","acq_time":"1225","satellite":"N21","instrument":"VIIRS","confidence":"n","version":"2.0NRT","bright_ti5":"305.1","frp":"6.58","daynight":"D","commune":"Fos-sur-Mer","code_insee":"13039","departement":"Bouches-du-Rhône","region":"Provence-Alpes-Côte d'Azur"}},{"type":"Feature","geometry":{"type":"Point","coordinates":[2.64717,48.37622]},"properties":{"latitude":"48.37622","longitude":"2.64717","bright_ti4":"338.86","scan":"0.4","track":"0.37","acq_date":"2026-07-15","acq_time":"1227","satellite":"N21","instrument":"VIIRS","confidence":"n","version":"2.0NRT","bright_ti5":"296.56","frp":"4.94","daynight":"D","commune":"Fontainebleau","code_insee":"77186","departement":"Seine-et-Marne","region":"Île-de-France"}},{"type":"Feature","geometry":{"type":"Point","coordinates":[2.6459,48.37949]},"properties":{"latitude":"48.37949","longitude":"2.6459","bright_ti4":"330.6","scan":"0.4","track":"0.37","acq_date":"2026-07-15","acq_time":"1227","satellite":"N21","instrument":"VIIRS","confidence":"n","version":"2.0NRT","bright_ti5":"300.3","frp":"4.94","daynight":"D","commune":"Fontainebleau","code_insee":"77186","departement":"Seine-et-Marne","region":"Île-de-France"}},{"type":"Feature","geometry":{"type":"Point","coordinates":[2.6511,48.38038]},"properties":{"latitude":"48.38038","longitude":"2.6511","bright_ti4":"342.75","scan":"0.4","track":"0.37","acq_date":"2026-07-15","acq_time":"1227","satellite":"N21","instrument":"VIIRS","confidence":"n","version":"2.0NRT","bright_ti5":"297.55","frp":"4.94","daynight":"D","commune":"Fontainebleau","code_insee":"77186","departement":"Seine-et-Marne","region":"Île-de-France"}},{"type":"Feature","geometry":{"type":"Point","coordinates":[2.65631,48.38128]},"properties":{"latitude":"48.38128","longitude":"2.65631","bright_ti4":"348.91","scan":"0.4","track":"0.37","acq_date":"2026-07-15","acq_time":"1227","satellite":"N21","instrument":"VIIRS","confidence":"n","version":"2.0NRT","bright_ti5":"294","frp":"8.53","daynight":"D","commune":"Fontainebleau","code_insee":"77186","departement":"Seine-et-Marne","region":"Île-de-France"}},{"type":"Feature","geometry":{"type":"Point","coordinates":[2.65505,48.38454]},"properties":{"latitude":"48.38454","longitude":"2.65505","bright_ti4":"343.67","scan":"0.4","track":"0.37","acq_date":"2026-07-15","acq_time":"1227","satellite":"N21","instrument":"VIIRS","confidence":"n","version":"2.0NRT","bright_ti5":"300.27","frp":"13.4","daynight":"D","commune":"Fontainebleau","code_insee":"77186","departement":"Seine-et-Marne","region":"Île-de-France"}},{"type":"Feature","geometry":{"type":"Point","coordinates":[2.66024,48.38544]},"properties":{"latitude":"48.38544","longitude":"2.66024","bright_ti4":"332.72","scan":"0.4","track":"0.37","acq_date":"2026-07-15","acq_time":"1227","satellite":"N21","instrument":"VIIRS","confidence":"n","version":"2.0NRT","bright_ti5":"294.91","frp":"13.4","daynight":"D","commune":"Fontainebleau","code_insee":"77186","departement":"Seine-et-Marne","region":"Île-de-France"}},{"type":"Feature","geometry":{"type":"Point","coordinates":[2.64858,48.38692]},"properties":{"latitude":"48.38692","longitude":"2.64858","bright_ti4":"342.74","scan":"0.4","track":"0.37","acq_date":"2026-07-15","acq_time":"1227","satellite":"N21","instrument":"VIIRS","confidence":"n","version":"2.0NRT","bright_ti5":"306.77","frp":"8.03","daynight":"D","commune":"Fontainebleau","code_insee":"77186","departement":"Seine-et-Marne","region":"Île-de-France"}},{"type":"Feature","geometry":{"type":"Point","coordinates":[2.65378,48.38782]},"properties":{"latitude":"48.38782","longitude":"2.65378","bright_ti4":"353.2","scan":"0.4","track":"0.37","acq_date":"2026-07-15","acq_time":"1227","satellite":"N21","instrument":"VIIRS","confidence":"n","version":"2.0NRT","bright_ti5":"306.86","frp":"13.4","daynight":"D","commune":"Fontainebleau","code_insee":"77186","departement":"Seine-et-Marne","region":"Île-de-France"}},{"type":"Feature","geometry":{"type":"Point","coordinates":[2.65898,48.38871]},"properties":{"latitude":"48.38871","longitude":"2.65898","bright_ti4":"332.41","scan":"0.4","track":"0.37","acq_date":"2026-07-15","acq_time":"1227","satellite":"N21","instrument":"VIIRS","confidence":"n","version":"2.0NRT","bright_ti5":"294.91","frp":"13.4","daynight":"D","commune":"Fontainebleau","code_insee":"77186","departement":"Seine-et-Marne","region":"Île-de-France"}},{"type":"Feature","geometry":{"type":"Point","coordinates":[2.64232,48.40329]},"properties":{"latitude":"48.40329","longitude":"2.64232","bright_ti4":"344.82","scan":"0.4","track":"0.37","acq_date":"2026-07-15","acq_time":"1227","satellite":"N21","instrument":"VIIRS","confidence":"n","version":"2.0NRT","bright_ti5":"305.8","frp":"13.17","daynight":"D","commune":"Fontainebleau","code_insee":"77186","departement":"Seine-et-Marne","region":"Île-de-France"}},{"type":"Feature","geometry":{"type":"Point","coordinates":[2.64753,48.40419]},"properties":{"latitude":"48.40419","longitude":"2.64753","bright_ti4":"337.44","scan":"0.4","track":"0.37","acq_date":"2026-07-15","acq_time":"1227","satellite":"N21","instrument":"VIIRS","confidence":"n","version":"2.0NRT","bright_ti5":"305.88","frp":"5.06","daynight":"D","commune":"Fontainebleau","code_insee":"77186","departement":"Seine-et-Marne","region":"Île-de-France"}},{"type":"Feature","geometry":{"type":"Point","coordinates":[2.64108,48.40657]},"properties":{"latitude":"48.40657","longitude":"2.64108","bright_ti4":"349.14","scan":"0.4","track":"0.37","acq_date":"2026-07-15","acq_time":"1227","satellite":"N21","instrument":"VIIRS","confidence":"n","version":"2.0NRT","bright_ti5":"305.12","frp":"13.17","daynight":"D","commune":"Fontainebleau","code_insee":"77186","departement":"Seine-et-Marne","region":"Île-de-France"}},{"type":"Feature","geometry":{"type":"Point","coordinates":[5.2107,48.6257]},"properties":{"latitude":"48.6257","longitude":"5.2107","bright_ti4":"331.1","scan":"0.39","track":"0.36","acq_date":"2026-07-15","acq_time":"1227","satellite":"N21","instrument":"VIIRS","confidence":"n","version":"2.0NRT","bright_ti5":"300.28","frp":"2.05","daynight":"D","commune":"Ménil-sur-Saulx","code_insee":"55335","departement":"Meuse","region":"Grand Est"}},{"type":"Feature","geometry":{"type":"Point","coordinates":[1.76204,48.98299]},"properties":{"latitude":"48.98299","longitude":"1.76204","bright_ti4":"339.07","scan":"0.4","track":"0.37","acq_date":"2026-07-15","acq_time":"1227","satellite":"N21","instrument":"VIIRS","confidence":"n","version":"2.0NRT","bright_ti5":"303.34","frp":"3.3","daynight":"D","commune":"Porcheville","code_insee":"78501","departement":"Yvelines","region":"Île-de-France"}},{"type":"Feature","geometry":{"type":"Point","coordinates":[3.93274,49.01131]},"properties":{"latitude":"49.01131","longitude":"3.93274","bright_ti4":"336","scan":"0.38","track":"0.36","acq_date":"2026-07-15","acq_time":"1227","satellite":"N21","instrument":"VIIRS","confidence":"n","version":"2.0NRT","bright_ti5":"307.33","frp":"2.97","daynight":"D","commune":"Pierry","code_insee":"51431","departement":"Marne","region":"Grand Est"}},{"type":"Feature","geometry":{"type":"Point","coordinates":[2.91822,49.23043]},"properties":{"latitude":"49.23043","longitude":"2.91822","bright_ti4":"336.62","scan":"0.39","track":"0.36","acq_date":"2026-07-15","acq_time":"1227","satellite":"N21","instrument":"VIIRS","confidence":"l","version":"2.0NRT","bright_ti5":"309.15","frp":"3.4","daynight":"D","commune":"Crépy-en-Valois","code_insee":"60176","departement":"Oise","region":"Hauts-de-France"}},{"type":"Feature","geometry":{"type":"Point","coordinates":[3.66085,49.9013]},"properties":{"latitude":"49.9013","longitude":"3.66085","bright_ti4":"348.56","scan":"0.38","track":"0.36","acq_date":"2026-07-15","acq_time":"1227","satellite":"N21","instrument":"VIIRS","confidence":"n","version":"2.0NRT","bright_ti5":"308.21","frp":"25.74","daynight":"D","commune":"Flavigny-le-Grand-et-Beaurain","code_insee":"02313","departement":"Aisne","region":"Hauts-de-France"}},{"type":"Feature","geometry":{"type":"Point","coordinates":[3.2714,50.13271]},"properties":{"latitude":"50.13271","longitude":"3.2714","bright_ti4":"338.06","scan":"0.38","track":"0.36","acq_date":"2026-07-15","acq_time":"1227","satellite":"N21","instrument":"VIIRS","confidence":"n","version":"2.0NRT","bright_ti5":"302.77","frp":"4.78","daynight":"D","commune":"Séranvillers-Forenville","code_insee":"59567","departement":"Nord","region":"Hauts-de-France"}},{"type":"Feature","geometry":{"type":"Point","coordinates":[2.93859,50.46562]},"properties":{"latitude":"50.46562","longitude":"2.93859","bright_ti4":"333.78","scan":"0.39","track":"0.36","acq_date":"2026-07-15","acq_time":"1227","satellite":"N21","instrument":"VIIRS","confidence":"l","version":"2.0NRT","bright_ti5":"304.96","frp":"12.86","daynight":"D","commune":"Harnes","code_insee":"62413","departement":"Pas-de-Calais","region":"Hauts-de-France"}},{"type":"Feature","geometry":{"type":"Point","coordinates":[2.27188,51.02729]},"properties":{"latitude":"51.02729","longitude":"2.27188","bright_ti4":"344.12","scan":"0.39","track":"0.36","acq_date":"2026-07-15","acq_time":"1227","satellite":"N21","instrument":"VIIRS","confidence":"n","version":"2.0NRT","bright_ti5":"307.77","frp":"6.13","daynight":"D","commune":"Grande-Synthe","code_insee":"59271","departement":"Nord","region":"Hauts-de-France"}},{"type":"Feature","geometry":{"type":"Point","coordinates":[2.28266,51.02906]},"properties":{"latitude":"51.02906","longitude":"2.28266","bright_ti4":"337.21","scan":"0.39","track":"0.36","acq_date":"2026-07-15","acq_time":"1227","satellite":"N21","instrument":"VIIRS","confidence":"l","version":"2.0NRT","bright_ti5":"308.69","frp":"5.46","daynight":"D","commune":"Grande-Synthe","code_insee":"59271","departement":"Nord","region":"Hauts-de-France"}},{"type":"Feature","geometry":{"type":"Point","coordinates":[2.28133,51.0323]},"properties":{"latitude":"51.0323","longitude":"2.28133","bright_ti4":"335.48","scan":"0.39","track":"0.36","acq_date":"2026-07-15","acq_time":"1227","satellite":"N21","instrument":"VIIRS","confidence":"l","version":"2.0NRT","bright_ti5":"309.03","frp":"12.32","daynight":"D","commune":"Grande-Synthe","code_insee":"59271","departement":"Nord","region":"Hauts-de-France"}},{"type":"Feature","geometry":{"type":"Point","coordinates":[2.2989,51.04554]},"properties":{"latitude":"51.04554","longitude":"2.2989","bright_ti4":"335.53","scan":"0.39","track":"0.36","acq_date":"2026-07-15","acq_time":"1227","satellite":"N21","instrument":"VIIRS","confidence":"l","version":"2.0NRT","bright_ti5":"309.23","frp":"9.53","daynight":"D","commune":"Grande-Synthe","code_insee":"59271","departement":"Nord","region":"Hauts-de-France"}},{"type":"Feature","geometry":{"type":"Point","coordinates":[-1.91053,48.01892]},"properties":{"latitude":"48.01892","longitude":"-1.91053","bright_ti4":"328.91","scan":"0.66","track":"0.73","acq_date":"2026-07-15","acq_time":"1410","satellite":"N21","instrument":"VIIRS","confidence":"n","version":"2.0NRT","bright_ti5":"289.43","frp":"3.58","daynight":"D","commune":"Baulon","code_insee":"35016","departement":"Ille-et-Vilaine","region":"Bretagne"}}]}