{"type":"FeatureCollection","features":[{"type":"Feature","geometry":{"type":"Point","coordinates":[5.82048,45.9123]},"properties":{"latitude":"45.9123","longitude":"5.82048","bright_ti4":"302.93","scan":"0.34","track":"0.56","acq_date":"2026-07-01","acq_time":"58","satellite":"N","instrument":"VIIRS","confidence":"n","version":"2.0NRT","bright_ti5":"289.91","frp":"0.81","daynight":"N","commune":"Anglefort","code_insee":"01010","departement":"Ain","region":"Auvergne-Rhône-Alpes"}},{"type":"Feature","geometry":{"type":"Point","coordinates":[3.55937,50.40137]},"properties":{"latitude":"50.40137","longitude":"3.55937","bright_ti4":"297.54","scan":"0.46","track":"0.63","acq_date":"2026-07-01","acq_time":"58","satellite":"N","instrument":"VIIRS","confidence":"n","version":"2.0NRT","bright_ti5":"285.79","frp":"0.53","daynight":"N","commune":"Saint-Saulve","code_insee":"59544","departement":"Nord","region":"Hauts-de-France"}},{"type":"Feature","geometry":{"type":"Point","coordinates":[3.55996,50.40355]},"properties":{"latitude":"50.40355","longitude":"3.55996","bright_ti4":"296.5","scan":"0.46","track":"0.63","acq_date":"2026-07-01","acq_time":"58","satellite":"N","instrument":"VIIRS","confidence":"n","version":"2.0NRT","bright_ti5":"285.16","frp":"0.74","daynight":"N","commune":"Saint-Saulve","code_insee":"59544","departement":"Nord","region":"Hauts-de-France"}},{"type":"Feature","geometry":{"type":"Point","coordinates":[2.27672,51.03125]},"properties":{"latitude":"51.03125","longitude":"2.27672","bright_ti4":"298.46","scan":"0.52","track":"0.67","acq_date":"2026-07-01","acq_time":"58","satellite":"N","instrument":"VIIRS","confidence":"n","version":"2.0NRT","bright_ti5":"284.59","frp":"1.66","daynight":"N","commune":"Grande-Synthe","code_insee":"59271","departement":"Nord","region":"Hauts-de-France"}},{"type":"Feature","geometry":{"type":"Point","coordinates":[2.2845,51.03126]},"properties":{"latitude":"51.03126","longitude":"2.2845","bright_ti4":"301.88","scan":"0.52","track":"0.67","acq_date":"2026-07-01","acq_time":"58","satellite":"N","instrument":"VIIRS","confidence":"n","version":"2.0NRT","bright_ti5":"283.97","frp":"1.66","daynight":"N","commune":"Grande-Synthe","code_insee":"59271","departement":"Nord","region":"Hauts-de-France"}},{"type":"Feature","geometry":{"type":"Point","coordinates":[2.28885,51.03528]},"properties":{"latitude":"51.03528","longitude":"2.28885","bright_ti4":"296.49","scan":"0.52","track":"0.67","acq_date":"2026-07-01","acq_time":"58","satellite":"N","instrument":"VIIRS","confidence":"n","version":"2.0NRT","bright_ti5":"284.51","frp":"2.1","daynight":"N","commune":"Grande-Synthe","code_insee":"59271","departement":"Nord","region":"Hauts-de-France"}},{"type":"Feature","geometry":{"type":"Point","coordinates":[2.28107,51.03531]},"properties":{"latitude":"51.03531","longitude":"2.28107","bright_ti4":"327.97","scan":"0.52","track":"0.67","acq_date":"2026-07-01","acq_time":"58","satellite":"N","instrument":"VIIRS","confidence":"n","version":"2.0NRT","bright_ti5":"286.2","frp":"5.52","daynight":"N","commune":"Grande-Synthe","code_insee":"59271","departement":"Nord","region":"Hauts-de-France"}},{"type":"Feature","geometry":{"type":"Point","coordinates":[2.28457,51.03756]},"properties":{"latitude":"51.03756","longitude":"2.28457","bright_ti4":"327.42","scan":"0.52","track":"0.67","acq_date":"2026-07-01","acq_time":"58","satellite":"N","instrument":"VIIRS","confidence":"n","version":"2.0NRT","bright_ti5":"286.24","frp":"1.66","daynight":"N","commune":"Grande-Synthe","code_insee":"59271","departement":"Nord","region":"Hauts-de-France"}},{"type":"Feature","geometry":{"type":"Point","coordinates":[2.28889,51.04157]},"properties":{"latitude":"51.04157","longitude":"2.28889","bright_ti4":"295.07","scan":"0.52","track":"0.67","acq_date":"2026-07-01","acq_time":"58","satellite":"N","instrument":"VIIRS","confidence":"n","version":"2.0NRT","bright_ti5":"284.84","frp":"1.46","daynight":"N","commune":"Grande-Synthe","code_insee":"59271","departement":"Nord","region":"Hauts-de-France"}},{"type":"Feature","geometry":{"type":"Point","coordinates":[2.29245,51.04385]},"properties":{"latitude":"51.04385","longitude":"2.29245","bright_ti4":"320.16","scan":"0.52","track":"0.67","acq_date":"2026-07-01","acq_time":"58","satellite":"N","instrument":"VIIRS","confidence":"n","version":"2.0NRT","bright_ti5":"286.04","frp":"2.79","daynight":"N","commune":"Grande-Synthe","code_insee":"59271","departement":"Nord","region":"Hauts-de-France"}},{"type":"Feature","geometry":{"type":"Point","coordinates":[2.31584,51.04385]},"properties":{"latitude":"51.04385","longitude":"2.31584","bright_ti4":"295.96","scan":"0.52","track":"0.67","acq_date":"2026-07-01","acq_time":"58","satellite":"N","instrument":"VIIRS","confidence":"n","version":"2.0NRT","bright_ti5":"283.68","frp":"1.83","daynight":"N","commune":"Dunkerque","code_insee":"59183","departement":"Nord","region":"Hauts-de-France"}},{"type":"Feature","geometry":{"type":"Point","coordinates":[2.3201,51.04772]},"properties":{"latitude":"51.04772","longitude":"2.3201","bright_ti4":"326.3","scan":"0.52","track":"0.67","acq_date":"2026-07-01","acq_time":"58","satellite":"N","instrument":"VIIRS","confidence":"n","version":"2.0NRT","bright_ti5":"285.68","frp":"2.97","daynight":"N","commune":"Dunkerque","code_insee":"59183","departement":"Nord","region":"Hauts-de-France"}},{"type":"Feature","geometry":{"type":"Point","coordinates":[2.31233,51.04776]},"properties":{"latitude":"51.04776","longitude":"2.31233","bright_ti4":"297.86","scan":"0.52","track":"0.67","acq_date":"2026-07-01","acq_time":"58","satellite":"N","instrument":"VIIRS","confidence":"n","version":"2.0NRT","bright_ti5":"284.83","frp":"3.28","daynight":"N","commune":"Dunkerque","code_insee":"59183","departement":"Nord","region":"Hauts-de-France"}},{"type":"Feature","geometry":{"type":"Point","coordinates":[2.29676,51.04782]},"properties":{"latitude":"51.04782","longitude":"2.29676","bright_ti4":"310.14","scan":"0.52","track":"0.67","acq_date":"2026-07-01","acq_time":"58","satellite":"N","instrument":"VIIRS","confidence":"n","version":"2.0NRT","bright_ti5":"285.4","frp":"1.46","daynight":"N","commune":"Grande-Synthe","code_insee":"59271","departement":"Nord","region":"Hauts-de-France"}},{"type":"Feature","geometry":{"type":"Point","coordinates":[2.28891,51.04786]},"properties":{"latitude":"51.04786","longitude":"2.28891","bright_ti4":"308.58","scan":"0.52","track":"0.67","acq_date":"2026-07-01","acq_time":"58","satellite":"N","instrument":"VIIRS","confidence":"n","version":"2.0NRT","bright_ti5":"285.63","frp":"1.46","daynight":"N","commune":"Grande-Synthe","code_insee":"59271","departement":"Nord","region":"Hauts-de-France"}},{"type":"Feature","geometry":{"type":"Point","coordinates":[2.31591,51.05014]},"properties":{"latitude":"51.05014","longitude":"2.31591","bright_ti4":"325.67","scan":"0.52","track":"0.67","acq_date":"2026-07-01","acq_time":"58","satellite":"N","instrument":"VIIRS","confidence":"n","version":"2.0NRT","bright_ti5":"286.84","frp":"1.83","daynight":"N","commune":"Dunkerque","code_insee":"59183","departement":"Nord","region":"Hauts-de-France"}},{"type":"Feature","geometry":{"type":"Point","coordinates":[4.89616,43.43328]},"properties":{"latitude":"43.43328","longitude":"4.89616","bright_ti4":"307.43","scan":"0.36","track":"0.57","acq_date":"2026-07-01","acq_time":"100","satellite":"N","instrument":"VIIRS","confidence":"n","version":"2.0NRT","bright_ti5":"291.88","frp":"1.54","daynight":"N","commune":"Fos-sur-Mer","code_insee":"13039","departement":"Bouches-du-Rhône","region":"Provence-Alpes-Côte d'Azur"}},{"type":"Feature","geometry":{"type":"Point","coordinates":[4.88759,43.43907]},"properties":{"latitude":"43.43907","longitude":"4.88759","bright_ti4":"304.22","scan":"0.36","track":"0.57","acq_date":"2026-07-01","acq_time":"100","satellite":"N","instrument":"VIIRS","confidence":"n","version":"2.0NRT","bright_ti5":"291.7","frp":"2.39","daynight":"N","commune":"Fos-sur-Mer","code_insee":"13039","departement":"Bouches-du-Rhône","region":"Provence-Alpes-Côte d'Azur"}},{"type":"Feature","geometry":{"type":"Point","coordinates":[4.89725,43.44398]},"properties":{"latitude":"43.44398","longitude":"4.89725","bright_ti4":"333.11","scan":"0.36","track":"0.57","acq_date":"2026-07-01","acq_time":"100","satellite":"N","instrument":"VIIRS","confidence":"n","version":"2.0NRT","bright_ti5":"291.91","frp":"3.45","daynight":"N","commune":"Fos-sur-Mer","code_insee":"13039","departement":"Bouches-du-Rhône","region":"Provence-Alpes-Côte d'Azur"}},{"type":"Feature","geometry":{"type":"Point","coordinates":[2.1414,43.8925]},"properties":{"latitude":"43.8925","longitude":"2.1414","bright_ti4":"311.69","scan":"0.49","track":"0.65","acq_date":"2026-07-01","acq_time":"100","satellite":"N","instrument":"VIIRS","confidence":"n","version":"2.0NRT","bright_ti5":"286.17","frp":"1.66","daynight":"N","commune":"Albi","code_insee":"81004","departement":"Tarn","region":"Occitanie"}},{"type":"Feature","geometry":{"type":"Point","coordinates":[2.14164,43.89796]},"properties":{"latitude":"43.89796","longitude":"2.14164","bright_ti4":"298.72","scan":"0.49","track":"0.65","acq_date":"2026-07-01","acq_time":"100","satellite":"N","instrument":"VIIRS","confidence":"n","version":"2.0NRT","bright_ti5":"285.91","frp":"0.72","daynight":"N","commune":"Albi","code_insee":"81004","departement":"Tarn","region":"Occitanie"}},{"type":"Feature","geometry":{"type":"Point","coordinates":[6.05455,48.88586]},"properties":{"latitude":"48.88586","longitude":"6.05455","bright_ti4":"300.71","scan":"0.58","track":"0.52","acq_date":"2026-07-01","acq_time":"238","satellite":"N","instrument":"VIIRS","confidence":"n","version":"2.0NRT","bright_ti5":"281.9","frp":"0.79","daynight":"N","commune":"Blénod-lès-Pont-à-Mousson","code_insee":"54079","departement":"Meurthe-et-Moselle","region":"Grand Est"}},{"type":"Feature","geometry":{"type":"Point","coordinates":[1.76355,48.98469]},"properties":{"latitude":"48.98469","longitude":"1.76355","bright_ti4":"298.54","scan":"0.39","track":"0.44","acq_date":"2026-07-01","acq_time":"238","satellite":"N","instrument":"VIIRS","confidence":"n","version":"2.0NRT","bright_ti5":"287.2","frp":"1.39","daynight":"N","commune":"Porcheville","code_insee":"78501","departement":"Yvelines","region":"Île-de-France"}},{"type":"Feature","geometry":{"type":"Point","coordinates":[1.75846,48.98589]},"properties":{"latitude":"48.98589","longitude":"1.75846","bright_ti4":"320.75","scan":"0.39","track":"0.44","acq_date":"2026-07-01","acq_time":"238","satellite":"N","instrument":"VIIRS","confidence":"n","version":"2.0NRT","bright_ti5":"288.61","frp":"1.39","daynight":"N","commune":"Limay","code_insee":"78335","departement":"Yvelines","region":"Île-de-France"}},{"type":"Feature","geometry":{"type":"Point","coordinates":[2.28191,51.03197]},"properties":{"latitude":"51.03197","longitude":"2.28191","bright_ti4":"305.42","scan":"0.54","track":"0.42","acq_date":"2026-07-01","acq_time":"238","satellite":"N","instrument":"VIIRS","confidence":"n","version":"2.0NRT","bright_ti5":"286.6","frp":"1.25","daynight":"N","commune":"Grande-Synthe","code_insee":"59271","departement":"Nord","region":"Hauts-de-France"}},{"type":"Feature","geometry":{"type":"Point","coordinates":[2.2745,51.03367]},"properties":{"latitude":"51.03367","longitude":"2.2745","bright_ti4":"299.41","scan":"0.54","track":"0.42","acq_date":"2026-07-01","acq_time":"238","satellite":"N","instrument":"VIIRS","confidence":"n","version":"2.0NRT","bright_ti5":"284.63","frp":"1.25","daynight":"N","commune":"Grande-Synthe","code_insee":"59271","departement":"Nord","region":"Hauts-de-France"}},{"type":"Feature","geometry":{"type":"Point","coordinates":[2.28404,51.03569]},"properties":{"latitude":"51.03569","longitude":"2.28404","bright_ti4":"322.38","scan":"0.54","track":"0.42","acq_date":"2026-07-01","acq_time":"238","satellite":"N","instrument":"VIIRS","confidence":"n","version":"2.0NRT","bright_ti5":"286.67","frp":"3","daynight":"N","commune":"Grande-Synthe","code_insee":"59271","departement":"Nord","region":"Hauts-de-France"}},{"type":"Feature","geometry":{"type":"Point","coordinates":[2.29787,51.04515]},"properties":{"latitude":"51.04515","longitude":"2.29787","bright_ti4":"332.61","scan":"0.54","track":"0.42","acq_date":"2026-07-01","acq_time":"238","satellite":"N","instrument":"VIIRS","confidence":"n","version":"2.0NRT","bright_ti5":"288.45","frp":"6.33","daynight":"N","commune":"Grande-Synthe","code_insee":"59271","departement":"Nord","region":"Hauts-de-France"}},{"type":"Feature","geometry":{"type":"Point","coordinates":[2.32446,51.0475]},"properties":{"latitude":"51.0475","longitude":"2.32446","bright_ti4":"324.5","scan":"0.54","track":"0.42","acq_date":"2026-07-01","acq_time":"238","satellite":"N","instrument":"VIIRS","confidence":"n","version":"2.0NRT","bright_ti5":"287.11","frp":"2.12","daynight":"N","commune":"Dunkerque","code_insee":"59183","departement":"Nord","region":"Hauts-de-France"}},{"type":"Feature","geometry":{"type":"Point","coordinates":[2.31703,51.04919]},"properties":{"latitude":"51.04919","longitude":"2.31703","bright_ti4":"300.46","scan":"0.54","track":"0.42","acq_date":"2026-07-01","acq_time":"238","satellite":"N","instrument":"VIIRS","confidence":"n","version":"2.0NRT","bright_ti5":"286.6","frp":"2.12","daynight":"N","commune":"Dunkerque","code_insee":"59183","departement":"Nord","region":"Hauts-de-France"}},{"type":"Feature","geometry":{"type":"Point","coordinates":[4.89673,43.43172]},"properties":{"latitude":"43.43172","longitude":"4.89673","bright_ti4":"305.01","scan":"0.37","track":"0.58","acq_date":"2026-07-01","acq_time":"241","satellite":"N","instrument":"VIIRS","confidence":"n","version":"2.0NRT","bright_ti5":"291.75","frp":"0.97","daynight":"N","commune":"Fos-sur-Mer","code_insee":"13039","departement":"Bouches-du-Rhône","region":"Provence-Alpes-Côte d'Azur"}},{"type":"Feature","geometry":{"type":"Point","coordinates":[4.89233,43.43298]},"properties":{"latitude":"43.43298","longitude":"4.89233","bright_ti4":"308.44","scan":"0.37","track":"0.58","acq_date":"2026-07-01","acq_time":"241","satellite":"N","instrument":"VIIRS","confidence":"n","version":"2.0NRT","bright_ti5":"291.81","frp":"1.97","daynight":"N","commune":"Fos-sur-Mer","code_insee":"13039","departement":"Bouches-du-Rhône","region":"Provence-Alpes-Côte d'Azur"}},{"type":"Feature","geometry":{"type":"Point","coordinates":[4.89069,43.43928]},"properties":{"latitude":"43.43928","longitude":"4.89069","bright_ti4":"308.8","scan":"0.37","track":"0.58","acq_date":"2026-07-01","acq_time":"241","satellite":"N","instrument":"VIIRS","confidence":"n","version":"2.0NRT","bright_ti5":"291.38","frp":"1.98","daynight":"N","commune":"Fos-sur-Mer","code_insee":"13039","departement":"Bouches-du-Rhône","region":"Provence-Alpes-Côte d'Azur"}},{"type":"Feature","geometry":{"type":"Point","coordinates":[4.89776,43.44311]},"properties":{"latitude":"43.44311","longitude":"4.89776","bright_ti4":"332.5","scan":"0.37","track":"0.58","acq_date":"2026-07-01","acq_time":"241","satellite":"N","instrument":"VIIRS","confidence":"n","version":"2.0NRT","bright_ti5":"291.54","frp":"1.98","daynight":"N","commune":"Fos-sur-Mer","code_insee":"13039","departement":"Bouches-du-Rhône","region":"Provence-Alpes-Côte d'Azur"}},{"type":"Feature","geometry":{"type":"Point","coordinates":[4.90053,43.44816]},"properties":{"latitude":"43.44816","longitude":"4.90053","bright_ti4":"313.9","scan":"0.37","track":"0.58","acq_date":"2026-07-01","acq_time":"241","satellite":"N","instrument":"VIIRS","confidence":"n","version":"2.0NRT","bright_ti5":"291.55","frp":"1.24","daynight":"N","commune":"Fos-sur-Mer","code_insee":"13039","departement":"Bouches-du-Rhône","region":"Provence-Alpes-Côte d'Azur"}},{"type":"Feature","geometry":{"type":"Point","coordinates":[4.89615,43.44941]},"properties":{"latitude":"43.44941","longitude":"4.89615","bright_ti4":"322.5","scan":"0.37","track":"0.58","acq_date":"2026-07-01","acq_time":"241","satellite":"N","instrument":"VIIRS","confidence":"n","version":"2.0NRT","bright_ti5":"291.92","frp":"1.24","daynight":"N","commune":"Fos-sur-Mer","code_insee":"13039","departement":"Bouches-du-Rhône","region":"Provence-Alpes-Côte d'Azur"}},{"type":"Feature","geometry":{"type":"Point","coordinates":[5.01171,43.57758]},"properties":{"latitude":"43.57758","longitude":"5.01171","bright_ti4":"309","scan":"0.37","track":"0.58","acq_date":"2026-07-01","acq_time":"241","satellite":"N","instrument":"VIIRS","confidence":"n","version":"2.0NRT","bright_ti5":"290.63","frp":"0.86","daynight":"N","commune":"Miramas","code_insee":"13063","departement":"Bouches-du-Rhône","region":"Provence-Alpes-Côte d'Azur"}},{"type":"Feature","geometry":{"type":"Point","coordinates":[5.66739,45.2333]},"properties":{"latitude":"45.2333","longitude":"5.66739","bright_ti4":"303.07","scan":"0.36","track":"0.57","acq_date":"2026-07-01","acq_time":"241","satellite":"N","instrument":"VIIRS","confidence":"n","version":"2.0NRT","bright_ti5":"289.67","frp":"0.37","daynight":"N","commune":"Saint-Égrève","code_insee":"38382","departement":"Isère","region":"Auvergne-Rhône-Alpes"}},{"type":"Feature","geometry":{"type":"Point","coordinates":[-2.0564,47.31771]},"properties":{"latitude":"47.31771","longitude":"-2.0564","bright_ti4":"303.25","scan":"0.46","track":"0.39","acq_date":"2026-07-01","acq_time":"241","satellite":"N","instrument":"VIIRS","confidence":"n","version":"2.0NRT","bright_ti5":"284.66","frp":"0.86","daynight":"N","commune":"Donges","code_insee":"44052","departement":"Loire-Atlantique","region":"Pays de la Loire"}},{"type":"Feature","geometry":{"type":"Point","coordinates":[1.62351,47.40858]},"properties":{"latitude":"47.40858","longitude":"1.62351","bright_ti4":"295.04","scan":"0.41","track":"0.45","acq_date":"2026-07-01","acq_time":"241","satellite":"N","instrument":"VIIRS","confidence":"n","version":"2.0NRT","bright_ti5":"282.02","frp":"0.48","daynight":"N","commune":"Mur-de-Sologne","code_insee":"41157","departement":"Loir-et-Cher","region":"Centre-Val de Loire"}},{"type":"Feature","geometry":{"type":"Point","coordinates":[-1.03944,48.10809]},"properties":{"latitude":"48.10809","longitude":"-1.03944","bright_ti4":"302.59","scan":"0.48","track":"0.4","acq_date":"2026-07-01","acq_time":"241","satellite":"N","instrument":"VIIRS","confidence":"n","version":"2.0NRT","bright_ti5":"287.93","frp":"0.73","daynight":"N","commune":"Saint-Pierre-la-Cour","code_insee":"53247","departement":"Mayenne","region":"Pays de la Loire"}},{"type":"Feature","geometry":{"type":"Point","coordinates":[2.89508,42.73769]},"properties":{"latitude":"42.73769","longitude":"2.89508","bright_ti4":"333.83","scan":"0.57","track":"0.43","acq_date":"2026-07-01","acq_time":"1223","satellite":"N","instrument":"VIIRS","confidence":"n","version":"2.0NRT","bright_ti5":"301.83","frp":"4.94","daynight":"D","commune":"Pia","code_insee":"66141","departement":"Pyrénées-Orientales","region":"Occitanie"}},{"type":"Feature","geometry":{"type":"Point","coordinates":[2.83503,43.26346]},"properties":{"latitude":"43.26346","longitude":"2.83503","bright_ti4":"334.52","scan":"0.56","track":"0.43","acq_date":"2026-07-01","acq_time":"1223","satellite":"N","instrument":"VIIRS","confidence":"n","version":"2.0NRT","bright_ti5":"299.82","frp":"36.61","daynight":"D","commune":"Sainte-Valière","code_insee":"11366","departement":"Aude","region":"Occitanie"}},{"type":"Feature","geometry":{"type":"Point","coordinates":[2.84031,43.26877]},"properties":{"latitude":"43.26877","longitude":"2.84031","bright_ti4":"335.07","scan":"0.56","track":"0.43","acq_date":"2026-07-01","acq_time":"1223","satellite":"N","instrument":"VIIRS","confidence":"n","version":"2.0NRT","bright_ti5":"297.67","frp":"31.49","daynight":"D","commune":"Sainte-Valière","code_insee":"11366","departement":"Aude","region":"Occitanie"}},{"type":"Feature","geometry":{"type":"Point","coordinates":[4.89776,43.44733]},"properties":{"latitude":"43.44733","longitude":"4.89776","bright_ti4":"330.67","scan":"0.46","track":"0.39","acq_date":"2026-07-01","acq_time":"1223","satellite":"N","instrument":"VIIRS","confidence":"l","version":"2.0NRT","bright_ti5":"303.2","frp":"3.25","daynight":"D","commune":"Fos-sur-Mer","code_insee":"13039","departement":"Bouches-du-Rhône","region":"Provence-Alpes-Côte d'Azur"}},{"type":"Feature","geometry":{"type":"Point","coordinates":[4.18344,43.73968]},"properties":{"latitude":"43.73968","longitude":"4.18344","bright_ti4":"330.4","scan":"0.48","track":"0.4","acq_date":"2026-07-01","acq_time":"1223","satellite":"N","instrument":"VIIRS","confidence":"l","version":"2.0NRT","bright_ti5":"304.96","frp":"1.44","daynight":"D","commune":"Aigues-Vives","code_insee":"30004","departement":"Gard","region":"Occitanie"}},{"type":"Feature","geometry":{"type":"Point","coordinates":[2.72603,47.70688]},"properties":{"latitude":"47.70688","longitude":"2.72603","bright_ti4":"344.92","scan":"0.47","track":"0.39","acq_date":"2026-07-01","acq_time":"1225","satellite":"N","instrument":"VIIRS","confidence":"n","version":"2.0NRT","bright_ti5":"303.33","frp":"7.97","daynight":"D","commune":"Gien","code_insee":"45155","departement":"Loiret","region":"Centre-Val de Loire"}},{"type":"Feature","geometry":{"type":"Point","coordinates":[2.27369,51.02926]},"properties":{"latitude":"51.02926","longitude":"2.27369","bright_ti4":"337.87","scan":"0.43","track":"0.38","acq_date":"2026-07-01","acq_time":"1225","satellite":"N","instrument":"VIIRS","confidence":"n","version":"2.0NRT","bright_ti5":"302.48","frp":"5.78","daynight":"D","commune":"Grande-Synthe","code_insee":"59271","departement":"Nord","region":"Hauts-de-France"}},{"type":"Feature","geometry":{"type":"Point","coordinates":[2.28989,51.03607]},"properties":{"latitude":"51.03607","longitude":"2.28989","bright_ti4":"343.47","scan":"0.43","track":"0.38","acq_date":"2026-07-01","acq_time":"1225","satellite":"N","instrument":"VIIRS","confidence":"n","version":"2.0NRT","bright_ti5":"304.38","frp":"6.61","daynight":"D","commune":"Grande-Synthe","code_insee":"59271","departement":"Nord","region":"Hauts-de-France"}},{"type":"Feature","geometry":{"type":"Point","coordinates":[2.29421,51.04059]},"properties":{"latitude":"51.04059","longitude":"2.29421","bright_ti4":"333.33","scan":"0.43","track":"0.38","acq_date":"2026-07-01","acq_time":"1225","satellite":"N","instrument":"VIIRS","confidence":"l","version":"2.0NRT","bright_ti5":"303.42","frp":"3.33","daynight":"D","commune":"Grande-Synthe","code_insee":"59271","departement":"Nord","region":"Hauts-de-France"}},{"type":"Feature","geometry":{"type":"Point","coordinates":[2.29852,51.04511]},"properties":{"latitude":"51.04511","longitude":"2.29852","bright_ti4":"338.48","scan":"0.43","track":"0.38","acq_date":"2026-07-01","acq_time":"1225","satellite":"N","instrument":"VIIRS","confidence":"n","version":"2.0NRT","bright_ti5":"303.92","frp":"12.86","daynight":"D","commune":"Grande-Synthe","code_insee":"59271","departement":"Nord","region":"Hauts-de-France"}},{"type":"Feature","geometry":{"type":"Point","coordinates":[2.83996,43.2658]},"properties":{"latitude":"43.2658","longitude":"2.83996","bright_ti4":"337.27","scan":"0.76","track":"0.77","acq_date":"2026-07-01","acq_time":"1403","satellite":"N","instrument":"VIIRS","confidence":"n","version":"2.0NRT","bright_ti5":"291.84","frp":"6.78","daynight":"D","commune":"Sainte-Valière","code_insee":"11366","departement":"Aude","region":"Occitanie"}},{"type":"Feature","geometry":{"type":"Point","coordinates":[2.78873,43.30262]},"properties":{"latitude":"43.30262","longitude":"2.78873","bright_ti4":"367","scan":"0.76","track":"0.77","acq_date":"2026-07-01","acq_time":"1403","satellite":"N","instrument":"VIIRS","confidence":"h","version":"2.0NRT","bright_ti5":"296.76","frp":"61.97","daynight":"D","commune":"Oupia","code_insee":"34190","departement":"Hérault","region":"Occitanie"}},{"type":"Feature","geometry":{"type":"Point","coordinates":[2.7792,43.30269]},"properties":{"latitude":"43.30269","longitude":"2.7792","bright_ti4":"337.02","scan":"0.76","track":"0.77","acq_date":"2026-07-01","acq_time":"1403","satellite":"N","instrument":"VIIRS","confidence":"n","version":"2.0NRT","bright_ti5":"297.94","frp":"61.97","daynight":"D","commune":"Beaufort","code_insee":"34026","departement":"Hérault","region":"Occitanie"}},{"type":"Feature","geometry":{"type":"Point","coordinates":[2.78851,43.30283]},"properties":{"latitude":"43.30283","longitude":"2.78851","bright_ti4":"367","scan":"0.76","track":"0.77","acq_date":"2026-07-01","acq_time":"1403","satellite":"N","instrument":"VIIRS","confidence":"h","version":"2.0NRT","bright_ti5":"297.72","frp":"105.23","daynight":"D","commune":"Oupia","code_insee":"34190","departement":"Hérault","region":"Occitanie"}},{"type":"Feature","geometry":{"type":"Point","coordinates":[2.77895,43.30295]},"properties":{"latitude":"43.30295","longitude":"2.77895","bright_ti4":"337.35","scan":"0.76","track":"0.77","acq_date":"2026-07-01","acq_time":"1403","satellite":"N","instrument":"VIIRS","confidence":"n","version":"2.0NRT","bright_ti5":"297.97","frp":"73.49","daynight":"D","commune":"Beaufort","code_insee":"34026","departement":"Hérault","region":"Occitanie"}},{"type":"Feature","geometry":{"type":"Point","coordinates":[0.77899,46.49935]},"properties":{"latitude":"46.49935","longitude":"0.77899","bright_ti4":"335.5","scan":"0.62","track":"0.72","acq_date":"2026-07-01","acq_time":"1405","satellite":"N","instrument":"VIIRS","confidence":"n","version":"2.0NRT","bright_ti5":"290.28","frp":"2.57","daynight":"D","commune":"Leignes-sur-Fontaine","code_insee":"86126","departement":"Vienne","region":"Nouvelle-Aquitaine"}},{"type":"Feature","geometry":{"type":"Point","coordinates":[0.78012,46.50147]},"properties":{"latitude":"46.50147","longitude":"0.78012","bright_ti4":"339.72","scan":"0.62","track":"0.72","acq_date":"2026-07-01","acq_time":"1405","satellite":"N","instrument":"VIIRS","confidence":"n","version":"2.0NRT","bright_ti5":"288.54","frp":"6.72","daynight":"D","commune":"Leignes-sur-Fontaine","code_insee":"86126","departement":"Vienne","region":"Nouvelle-Aquitaine"}},{"type":"Feature","geometry":{"type":"Point","coordinates":[1.00224,47.69814]},"properties":{"latitude":"47.69814","longitude":"1.00224","bright_ti4":"336.09","scan":"0.64","track":"0.72","acq_date":"2026-07-01","acq_time":"1405","satellite":"N","instrument":"VIIRS","confidence":"n","version":"2.0NRT","bright_ti5":"291.23","frp":"5.26","daynight":"D","commune":"Saint-Amand-Longpré","code_insee":"41199","departement":"Loir-et-Cher","region":"Centre-Val de Loire"}},{"type":"Feature","geometry":{"type":"Point","coordinates":[2.29166,51.03326]},"properties":{"latitude":"51.03326","longitude":"2.29166","bright_ti4":"334.85","scan":"0.74","track":"0.76","acq_date":"2026-07-01","acq_time":"1408","satellite":"N","instrument":"VIIRS","confidence":"n","version":"2.0NRT","bright_ti5":"293.53","frp":"5.25","daynight":"D","commune":"Grande-Synthe","code_insee":"59271","departement":"Nord","region":"Hauts-de-France"}},{"type":"Feature","geometry":{"type":"Point","coordinates":[2.29416,51.03512]},"properties":{"latitude":"51.03512","longitude":"2.29416","bright_ti4":"329.28","scan":"0.74","track":"0.76","acq_date":"2026-07-01","acq_time":"1408","satellite":"N","instrument":"VIIRS","confidence":"n","version":"2.0NRT","bright_ti5":"291.95","frp":"8.81","daynight":"D","commune":"Grande-Synthe","code_insee":"59271","departement":"Nord","region":"Hauts-de-France"}},{"type":"Feature","geometry":{"type":"Point","coordinates":[2.28013,51.02962]},"properties":{"latitude":"51.02962","longitude":"2.28013","bright_ti4":"297.26","scan":"0.56","track":"0.52","acq_date":"2026-07-01","acq_time":"115","satellite":"N20","instrument":"VIIRS","confidence":"n","version":"2.0NRT","bright_ti5":"284.89","frp":"2.44","daynight":"N","commune":"Grande-Synthe","code_insee":"59271","departement":"Nord","region":"Hauts-de-France"}},{"type":"Feature","geometry":{"type":"Point","coordinates":[2.28469,51.03376]},"properties":{"latitude":"51.03376","longitude":"2.28469","bright_ti4":"322.26","scan":"0.56","track":"0.52","acq_date":"2026-07-01","acq_time":"115","satellite":"N20","instrument":"VIIRS","confidence":"n","version":"2.0NRT","bright_ti5":"286.35","frp":"3.65","daynight":"N","commune":"Grande-Synthe","code_insee":"59271","departement":"Nord","region":"Hauts-de-France"}},{"type":"Feature","geometry":{"type":"Point","coordinates":[2.28895,51.03392]},"properties":{"latitude":"51.03392","longitude":"2.28895","bright_ti4":"325.42","scan":"0.56","track":"0.52","acq_date":"2026-07-01","acq_time":"115","satellite":"N20","instrument":"VIIRS","confidence":"n","version":"2.0NRT","bright_ti5":"286.5","frp":"3.23","daynight":"N","commune":"Grande-Synthe","code_insee":"59271","departement":"Nord","region":"Hauts-de-France"}},{"type":"Feature","geometry":{"type":"Point","coordinates":[2.29353,51.03811]},"properties":{"latitude":"51.03811","longitude":"2.29353","bright_ti4":"296.89","scan":"0.56","track":"0.52","acq_date":"2026-07-01","acq_time":"115","satellite":"N20","instrument":"VIIRS","confidence":"n","version":"2.0NRT","bright_ti5":"285.23","frp":"2.15","daynight":"N","commune":"Grande-Synthe","code_insee":"59271","departement":"Nord","region":"Hauts-de-France"}},{"type":"Feature","geometry":{"type":"Point","coordinates":[2.29778,51.03823]},"properties":{"latitude":"51.03823","longitude":"2.29778","bright_ti4":"302.32","scan":"0.56","track":"0.52","acq_date":"2026-07-01","acq_time":"115","satellite":"N20","instrument":"VIIRS","confidence":"n","version":"2.0NRT","bright_ti5":"284.92","frp":"1.87","daynight":"N","commune":"Grande-Synthe","code_insee":"59271","departement":"Nord","region":"Hauts-de-France"}},{"type":"Feature","geometry":{"type":"Point","coordinates":[2.28537,51.03854]},"properties":{"latitude":"51.03854","longitude":"2.28537","bright_ti4":"316.76","scan":"0.56","track":"0.52","acq_date":"2026-07-01","acq_time":"115","satellite":"N20","instrument":"VIIRS","confidence":"n","version":"2.0NRT","bright_ti5":"285.61","frp":"1.88","daynight":"N","commune":"Grande-Synthe","code_insee":"59271","departement":"Nord","region":"Hauts-de-France"}},{"type":"Feature","geometry":{"type":"Point","coordinates":[2.28963,51.0387]},"properties":{"latitude":"51.0387","longitude":"2.28963","bright_ti4":"309.83","scan":"0.56","track":"0.52","acq_date":"2026-07-01","acq_time":"115","satellite":"N20","instrument":"VIIRS","confidence":"n","version":"2.0NRT","bright_ti5":"285.98","frp":"1.87","daynight":"N","commune":"Grande-Synthe","code_insee":"59271","departement":"Nord","region":"Hauts-de-France"}},{"type":"Feature","geometry":{"type":"Point","coordinates":[2.29425,51.04288]},"properties":{"latitude":"51.04288","longitude":"2.29425","bright_ti4":"320.92","scan":"0.56","track":"0.52","acq_date":"2026-07-01","acq_time":"115","satellite":"N20","instrument":"VIIRS","confidence":"n","version":"2.0NRT","bright_ti5":"287.41","frp":"2.15","daynight":"N","commune":"Grande-Synthe","code_insee":"59271","departement":"Nord","region":"Hauts-de-France"}},{"type":"Feature","geometry":{"type":"Point","coordinates":[2.29847,51.043]},"properties":{"latitude":"51.043","longitude":"2.29847","bright_ti4":"316.09","scan":"0.56","track":"0.52","acq_date":"2026-07-01","acq_time":"115","satellite":"N20","instrument":"VIIRS","confidence":"n","version":"2.0NRT","bright_ti5":"287.57","frp":"1.87","daynight":"N","commune":"Grande-Synthe","code_insee":"59271","departement":"Nord","region":"Hauts-de-France"}},{"type":"Feature","geometry":{"type":"Point","coordinates":[2.31939,51.04634]},"properties":{"latitude":"51.04634","longitude":"2.31939","bright_ti4":"337.77","scan":"0.56","track":"0.52","acq_date":"2026-07-01","acq_time":"115","satellite":"N20","instrument":"VIIRS","confidence":"n","version":"2.0NRT","bright_ti5":"286.92","frp":"3.38","daynight":"N","commune":"Dunkerque","code_insee":"59183","departement":"Nord","region":"Hauts-de-France"}},{"type":"Feature","geometry":{"type":"Point","coordinates":[2.32354,51.04634]},"properties":{"latitude":"51.04634","longitude":"2.32354","bright_ti4":"337.5","scan":"0.56","track":"0.52","acq_date":"2026-07-01","acq_time":"115","satellite":"N20","instrument":"VIIRS","confidence":"n","version":"2.0NRT","bright_ti5":"286.73","frp":"3.38","daynight":"N","commune":"Dunkerque","code_insee":"59183","departement":"Nord","region":"Hauts-de-France"}},{"type":"Feature","geometry":{"type":"Point","coordinates":[2.29492,51.04766]},"properties":{"latitude":"51.04766","longitude":"2.29492","bright_ti4":"332.66","scan":"0.56","track":"0.52","acq_date":"2026-07-01","acq_time":"115","satellite":"N20","instrument":"VIIRS","confidence":"n","version":"2.0NRT","bright_ti5":"288.28","frp":"5.96","daynight":"N","commune":"Grande-Synthe","code_insee":"59271","departement":"Nord","region":"Hauts-de-France"}},{"type":"Feature","geometry":{"type":"Point","coordinates":[2.29915,51.04777]},"properties":{"latitude":"51.04777","longitude":"2.29915","bright_ti4":"330.94","scan":"0.56","track":"0.52","acq_date":"2026-07-01","acq_time":"115","satellite":"N20","instrument":"VIIRS","confidence":"n","version":"2.0NRT","bright_ti5":"287.55","frp":"5.55","daynight":"N","commune":"Grande-Synthe","code_insee":"59271","departement":"Nord","region":"Hauts-de-France"}},{"type":"Feature","geometry":{"type":"Point","coordinates":[2.32004,51.05112]},"properties":{"latitude":"51.05112","longitude":"2.32004","bright_ti4":"308.35","scan":"0.56","track":"0.52","acq_date":"2026-07-01","acq_time":"115","satellite":"N20","instrument":"VIIRS","confidence":"n","version":"2.0NRT","bright_ti5":"287.42","frp":"3.38","daynight":"N","commune":"Dunkerque","code_insee":"59183","departement":"Nord","region":"Hauts-de-France"}},{"type":"Feature","geometry":{"type":"Point","coordinates":[2.32418,51.05112]},"properties":{"latitude":"51.05112","longitude":"2.32418","bright_ti4":"306.27","scan":"0.56","track":"0.52","acq_date":"2026-07-01","acq_time":"115","satellite":"N20","instrument":"VIIRS","confidence":"n","version":"2.0NRT","bright_ti5":"286.58","frp":"3.38","daynight":"N","commune":"Dunkerque","code_insee":"59183","departement":"Nord","region":"Hauts-de-France"}},{"type":"Feature","geometry":{"type":"Point","coordinates":[4.89959,43.43415]},"properties":{"latitude":"43.43415","longitude":"4.89959","bright_ti4":"306.27","scan":"0.54","track":"0.42","acq_date":"2026-07-01","acq_time":"117","satellite":"N20","instrument":"VIIRS","confidence":"n","version":"2.0NRT","bright_ti5":"294.17","frp":"1.43","daynight":"N","commune":"Fos-sur-Mer","code_insee":"13039","departement":"Bouches-du-Rhône","region":"Provence-Alpes-Côte d'Azur"}},{"type":"Feature","geometry":{"type":"Point","coordinates":[4.89294,43.43485]},"properties":{"latitude":"43.43485","longitude":"4.89294","bright_ti4":"308.09","scan":"0.54","track":"0.42","acq_date":"2026-07-01","acq_time":"117","satellite":"N20","instrument":"VIIRS","confidence":"n","version":"2.0NRT","bright_ti5":"293.65","frp":"1.43","daynight":"N","commune":"Fos-sur-Mer","code_insee":"13039","departement":"Bouches-du-Rhône","region":"Provence-Alpes-Côte d'Azur"}},{"type":"Feature","geometry":{"type":"Point","coordinates":[4.90113,43.44189]},"properties":{"latitude":"43.44189","longitude":"4.90113","bright_ti4":"318.95","scan":"0.54","track":"0.42","acq_date":"2026-07-01","acq_time":"117","satellite":"N20","instrument":"VIIRS","confidence":"n","version":"2.0NRT","bright_ti5":"293.62","frp":"2.93","daynight":"N","commune":"Fos-sur-Mer","code_insee":"13039","departement":"Bouches-du-Rhône","region":"Provence-Alpes-Côte d'Azur"}},{"type":"Feature","geometry":{"type":"Point","coordinates":[4.9019,43.44576]},"properties":{"latitude":"43.44576","longitude":"4.9019","bright_ti4":"323.96","scan":"0.54","track":"0.42","acq_date":"2026-07-01","acq_time":"117","satellite":"N20","instrument":"VIIRS","confidence":"n","version":"2.0NRT","bright_ti5":"294.4","frp":"2.93","daynight":"N","commune":"Fos-sur-Mer","code_insee":"13039","departement":"Bouches-du-Rhône","region":"Provence-Alpes-Côte d'Azur"}},{"type":"Feature","geometry":{"type":"Point","coordinates":[4.89524,43.44645]},"properties":{"latitude":"43.44645","longitude":"4.89524","bright_ti4":"317.11","scan":"0.54","track":"0.42","acq_date":"2026-07-01","acq_time":"117","satellite":"N20","instrument":"VIIRS","confidence":"n","version":"2.0NRT","bright_ti5":"294.08","frp":"2.93","daynight":"N","commune":"Fos-sur-Mer","code_insee":"13039","departement":"Bouches-du-Rhône","region":"Provence-Alpes-Côte d'Azur"}},{"type":"Feature","geometry":{"type":"Point","coordinates":[7.3736,43.79384]},"properties":{"latitude":"43.79384","longitude":"7.3736","bright_ti4":"305.94","scan":"0.44","track":"0.38","acq_date":"2026-07-01","acq_time":"117","satellite":"N20","instrument":"VIIRS","confidence":"n","version":"2.0NRT","bright_ti5":"292.69","frp":"0.95","daynight":"N","commune":"Blausasc","code_insee":"06019","departement":"Alpes-Maritimes","region":"Provence-Alpes-Côte d'Azur"}},{"type":"Feature","geometry":{"type":"Point","coordinates":[5.67036,45.23016]},"properties":{"latitude":"45.23016","longitude":"5.67036","bright_ti4":"303.21","scan":"0.52","track":"0.42","acq_date":"2026-07-01","acq_time":"117","satellite":"N20","instrument":"VIIRS","confidence":"n","version":"2.0NRT","bright_ti5":"291.79","frp":"0.31","daynight":"N","commune":"Saint-Égrève","code_insee":"38382","departement":"Isère","region":"Auvergne-Rhône-Alpes"}},{"type":"Feature","geometry":{"type":"Point","coordinates":[5.8225,45.91156]},"properties":{"latitude":"45.91156","longitude":"5.8225","bright_ti4":"305.1","scan":"0.53","track":"0.42","acq_date":"2026-07-01","acq_time":"117","satellite":"N20","instrument":"VIIRS","confidence":"n","version":"2.0NRT","bright_ti5":"291.53","frp":"1.21","daynight":"N","commune":"Anglefort","code_insee":"01010","departement":"Ain","region":"Auvergne-Rhône-Alpes"}},{"type":"Feature","geometry":{"type":"Point","coordinates":[1.62829,47.41125]},"properties":{"latitude":"47.41125","longitude":"1.62829","bright_ti4":"316.89","scan":"0.56","track":"0.51","acq_date":"2026-07-01","acq_time":"117","satellite":"N20","instrument":"VIIRS","confidence":"n","version":"2.0NRT","bright_ti5":"287.86","frp":"2.21","daynight":"N","commune":"Mur-de-Sologne","code_insee":"41157","departement":"Loir-et-Cher","region":"Centre-Val de Loire"}},{"type":"Feature","geometry":{"type":"Point","coordinates":[2.73927,48.94769]},"properties":{"latitude":"48.94769","longitude":"2.73927","bright_ti4":"300.21","scan":"0.51","track":"0.5","acq_date":"2026-07-01","acq_time":"117","satellite":"N20","instrument":"VIIRS","confidence":"n","version":"2.0NRT","bright_ti5":"286.05","frp":"0.64","daynight":"N","commune":"Fresnes-sur-Marne","code_insee":"77196","departement":"Seine-et-Marne","region":"Île-de-France"}},{"type":"Feature","geometry":{"type":"Point","coordinates":[1.76246,48.98396]},"properties":{"latitude":"48.98396","longitude":"1.76246","bright_ti4":"314.1","scan":"0.57","track":"0.52","acq_date":"2026-07-01","acq_time":"117","satellite":"N20","instrument":"VIIRS","confidence":"n","version":"2.0NRT","bright_ti5":"287.44","frp":"1.61","daynight":"N","commune":"Porcheville","code_insee":"78501","departement":"Yvelines","region":"Île-de-France"}},{"type":"Feature","geometry":{"type":"Point","coordinates":[4.89097,43.43201]},"properties":{"latitude":"43.43201","longitude":"4.89097","bright_ti4":"302.13","scan":"0.73","track":"0.76","acq_date":"2026-07-01","acq_time":"258","satellite":"N20","instrument":"VIIRS","confidence":"n","version":"2.0NRT","bright_ti5":"289.18","frp":"2.93","daynight":"N","commune":"Fos-sur-Mer","code_insee":"13039","departement":"Bouches-du-Rhône","region":"Provence-Alpes-Côte d'Azur"}},{"type":"Feature","geometry":{"type":"Point","coordinates":[4.90149,43.44406]},"properties":{"latitude":"43.44406","longitude":"4.90149","bright_ti4":"317.55","scan":"0.73","track":"0.76","acq_date":"2026-07-01","acq_time":"258","satellite":"N20","instrument":"VIIRS","confidence":"n","version":"2.0NRT","bright_ti5":"289.13","frp":"4.44","daynight":"N","commune":"Fos-sur-Mer","code_insee":"13039","departement":"Bouches-du-Rhône","region":"Provence-Alpes-Côte d'Azur"}},{"type":"Feature","geometry":{"type":"Point","coordinates":[4.89933,43.44467]},"properties":{"latitude":"43.44467","longitude":"4.89933","bright_ti4":"318.94","scan":"0.73","track":"0.76","acq_date":"2026-07-01","acq_time":"258","satellite":"N20","instrument":"VIIRS","confidence":"n","version":"2.0NRT","bright_ti5":"289.42","frp":"3.41","daynight":"N","commune":"Fos-sur-Mer","code_insee":"13039","departement":"Bouches-du-Rhône","region":"Provence-Alpes-Côte d'Azur"}},{"type":"Feature","geometry":{"type":"Point","coordinates":[4.89331,43.44692]},"properties":{"latitude":"43.44692","longitude":"4.89331","bright_ti4":"301.66","scan":"0.73","track":"0.76","acq_date":"2026-07-01","acq_time":"258","satellite":"N20","instrument":"VIIRS","confidence":"n","version":"2.0NRT","bright_ti5":"288.23","frp":"3.03","daynight":"N","commune":"Fos-sur-Mer","code_insee":"13039","departement":"Bouches-du-Rhône","region":"Provence-Alpes-Côte d'Azur"}},{"type":"Feature","geometry":{"type":"Point","coordinates":[4.69292,44.08964]},"properties":{"latitude":"44.08964","longitude":"4.69292","bright_ti4":"303.14","scan":"0.68","track":"0.74","acq_date":"2026-07-01","acq_time":"258","satellite":"N20","instrument":"VIIRS","confidence":"n","version":"2.0NRT","bright_ti5":"288.86","frp":"0.95","daynight":"N","commune":"Laudun-l'Ardoise","code_insee":"30141","departement":"Gard","region":"Occitanie"}},{"type":"Feature","geometry":{"type":"Point","coordinates":[4.69512,44.09302]},"properties":{"latitude":"44.09302","longitude":"4.69512","bright_ti4":"302.38","scan":"0.68","track":"0.74","acq_date":"2026-07-01","acq_time":"258","satellite":"N20","instrument":"VIIRS","confidence":"n","version":"2.0NRT","bright_ti5":"288.97","frp":"1.14","daynight":"N","commune":"Laudun-l'Ardoise","code_insee":"30141","departement":"Gard","region":"Occitanie"}},{"type":"Feature","geometry":{"type":"Point","coordinates":[-1.03501,48.10592]},"properties":{"latitude":"48.10592","longitude":"-1.03501","bright_ti4":"297.71","scan":"0.57","track":"0.52","acq_date":"2026-07-01","acq_time":"258","satellite":"N20","instrument":"VIIRS","confidence":"n","version":"2.0NRT","bright_ti5":"286.71","frp":"1.17","daynight":"N","commune":"Saint-Pierre-la-Cour","code_insee":"53247","departement":"Mayenne","region":"Pays de la Loire"}},{"type":"Feature","geometry":{"type":"Point","coordinates":[2.73643,48.94842]},"properties":{"latitude":"48.94842","longitude":"2.73643","bright_ti4":"295.92","scan":"0.39","track":"0.59","acq_date":"2026-07-01","acq_time":"258","satellite":"N20","instrument":"VIIRS","confidence":"n","version":"2.0NRT","bright_ti5":"285.08","frp":"0.48","daynight":"N","commune":"Fresnes-sur-Marne","code_insee":"77196","departement":"Seine-et-Marne","region":"Île-de-France"}},{"type":"Feature","geometry":{"type":"Point","coordinates":[1.76141,48.98234]},"properties":{"latitude":"48.98234","longitude":"1.76141","bright_ti4":"314.64","scan":"0.35","track":"0.57","acq_date":"2026-07-01","acq_time":"258","satellite":"N20","instrument":"VIIRS","confidence":"n","version":"2.0NRT","bright_ti5":"286.99","frp":"1.47","daynight":"N","commune":"Porcheville","code_insee":"78501","departement":"Yvelines","region":"Île-de-France"}},{"type":"Feature","geometry":{"type":"Point","coordinates":[1.53245,49.18873]},"properties":{"latitude":"49.18873","longitude":"1.53245","bright_ti4":"301.01","scan":"0.34","track":"0.56","acq_date":"2026-07-01","acq_time":"258","satellite":"N20","instrument":"VIIRS","confidence":"n","version":"2.0NRT","bright_ti5":"282.61","frp":"0.43","daynight":"N","commune":"Vexin-sur-Epte","code_insee":"27213","departement":"Eure","region":"Normandie"}},{"type":"Feature","geometry":{"type":"Point","coordinates":[3.56292,50.40072]},"properties":{"latitude":"50.40072","longitude":"3.56292","bright_ti4":"327.06","scan":"0.37","track":"0.58","acq_date":"2026-07-01","acq_time":"258","satellite":"N20","instrument":"VIIRS","confidence":"n","version":"2.0NRT","bright_ti5":"285.98","frp":"1.84","daynight":"N","commune":"Saint-Saulve","code_insee":"59544","departement":"Nord","region":"Hauts-de-France"}},{"type":"Feature","geometry":{"type":"Point","coordinates":[2.28405,51.03074]},"properties":{"latitude":"51.03074","longitude":"2.28405","bright_ti4":"298.12","scan":"0.63","track":"0.54","acq_date":"2026-07-01","acq_time":"258","satellite":"N20","instrument":"VIIRS","confidence":"n","version":"2.0NRT","bright_ti5":"284.92","frp":"2.37","daynight":"N","commune":"Grande-Synthe","code_insee":"59271","departement":"Nord","region":"Hauts-de-France"}},{"type":"Feature","geometry":{"type":"Point","coordinates":[2.28741,51.03531]},"properties":{"latitude":"51.03531","longitude":"2.28741","bright_ti4":"317.92","scan":"0.63","track":"0.54","acq_date":"2026-07-01","acq_time":"258","satellite":"N20","instrument":"VIIRS","confidence":"n","version":"2.0NRT","bright_ti5":"285.88","frp":"2.37","daynight":"N","commune":"Grande-Synthe","code_insee":"59271","departement":"Nord","region":"Hauts-de-France"}},{"type":"Feature","geometry":{"type":"Point","coordinates":[2.2941,51.04445]},"properties":{"latitude":"51.04445","longitude":"2.2941","bright_ti4":"324.11","scan":"0.63","track":"0.54","acq_date":"2026-07-01","acq_time":"258","satellite":"N20","instrument":"VIIRS","confidence":"n","version":"2.0NRT","bright_ti5":"285.24","frp":"3.33","daynight":"N","commune":"Grande-Synthe","code_insee":"59271","departement":"Nord","region":"Hauts-de-France"}},{"type":"Feature","geometry":{"type":"Point","coordinates":[2.32365,51.04698]},"properties":{"latitude":"51.04698","longitude":"2.32365","bright_ti4":"324.23","scan":"0.32","track":"0.54","acq_date":"2026-07-01","acq_time":"258","satellite":"N20","instrument":"VIIRS","confidence":"n","version":"2.0NRT","bright_ti5":"287.63","frp":"3.38","daynight":"N","commune":"Dunkerque","code_insee":"59183","departement":"Nord","region":"Hauts-de-France"}},{"type":"Feature","geometry":{"type":"Point","coordinates":[4.88085,43.44361]},"properties":{"latitude":"43.44361","longitude":"4.88085","bright_ti4":"341","scan":"0.4","track":"0.37","acq_date":"2026-07-01","acq_time":"1244","satellite":"N20","instrument":"VIIRS","confidence":"n","version":"2.0NRT","bright_ti5":"307.48","frp":"6.01","daynight":"D","commune":"Fos-sur-Mer","code_insee":"13039","departement":"Bouches-du-Rhône","region":"Provence-Alpes-Côte d'Azur"}},{"type":"Feature","geometry":{"type":"Point","coordinates":[4.90035,43.44632]},"properties":{"latitude":"43.44632","longitude":"4.90035","bright_ti4":"337.31","scan":"0.4","track":"0.37","acq_date":"2026-07-01","acq_time":"1244","satellite":"N20","instrument":"VIIRS","confidence":"n","version":"2.0NRT","bright_ti5":"307.03","frp":"6.48","daynight":"D","commune":"Fos-sur-Mer","code_insee":"13039","departement":"Bouches-du-Rhône","region":"Provence-Alpes-Côte d'Azur"}},{"type":"Feature","geometry":{"type":"Point","coordinates":[3.98921,43.66048]},"properties":{"latitude":"43.66048","longitude":"3.98921","bright_ti4":"331.75","scan":"0.39","track":"0.36","acq_date":"2026-07-01","acq_time":"1244","satellite":"N20","instrument":"VIIRS","confidence":"l","version":"2.0NRT","bright_ti5":"304.99","frp":"0.71","daynight":"D","commune":"Vendargues","code_insee":"34327","departement":"Hérault","region":"Occitanie"}},{"type":"Feature","geometry":{"type":"Point","coordinates":[4.34057,45.36193]},"properties":{"latitude":"45.36193","longitude":"4.34057","bright_ti4":"333.72","scan":"0.4","track":"0.37","acq_date":"2026-07-01","acq_time":"1244","satellite":"N20","instrument":"VIIRS","confidence":"n","version":"2.0NRT","bright_ti5":"300.9","frp":"3.47","daynight":"D","commune":"Saint-Just-Malmont","code_insee":"43205","departement":"Haute-Loire","region":"Auvergne-Rhône-Alpes"}},{"type":"Feature","geometry":{"type":"Point","coordinates":[4.94789,46.20864]},"properties":{"latitude":"46.20864","longitude":"4.94789","bright_ti4":"337.8","scan":"0.42","track":"0.37","acq_date":"2026-07-01","acq_time":"1244","satellite":"N20","instrument":"VIIRS","confidence":"n","version":"2.0NRT","bright_ti5":"304.21","frp":"4.65","daynight":"D","commune":"Biziat","code_insee":"01046","departement":"Ain","region":"Auvergne-Rhône-Alpes"}},{"type":"Feature","geometry":{"type":"Point","coordinates":[3.16376,46.48473]},"properties":{"latitude":"46.48473","longitude":"3.16376","bright_ti4":"335.43","scan":"0.39","track":"0.36","acq_date":"2026-07-01","acq_time":"1244","satellite":"N20","instrument":"VIIRS","confidence":"n","version":"2.0NRT","bright_ti5":"308.38","frp":"3.89","daynight":"D","commune":"Noyant-d'Allier","code_insee":"03202","departement":"Allier","region":"Auvergne-Rhône-Alpes"}},{"type":"Feature","geometry":{"type":"Point","coordinates":[3.16279,46.48802]},"properties":{"latitude":"46.48802","longitude":"3.16279","bright_ti4":"350.82","scan":"0.39","track":"0.36","acq_date":"2026-07-01","acq_time":"1244","satellite":"N20","instrument":"VIIRS","confidence":"n","version":"2.0NRT","bright_ti5":"311.19","frp":"3.89","daynight":"D","commune":"Noyant-d'Allier","code_insee":"03202","departement":"Allier","region":"Auvergne-Rhône-Alpes"}},{"type":"Feature","geometry":{"type":"Point","coordinates":[3.16781,46.48874]},"properties":{"latitude":"46.48874","longitude":"3.16781","bright_ti4":"335.98","scan":"0.39","track":"0.36","acq_date":"2026-07-01","acq_time":"1244","satellite":"N20","instrument":"VIIRS","confidence":"l","version":"2.0NRT","bright_ti5":"307.5","frp":"3.89","daynight":"D","commune":"Souvigny","code_insee":"03275","departement":"Allier","region":"Auvergne-Rhône-Alpes"}},{"type":"Feature","geometry":{"type":"Point","coordinates":[3.40141,47.56654]},"properties":{"latitude":"47.56654","longitude":"3.40141","bright_ti4":"352.19","scan":"0.4","track":"0.37","acq_date":"2026-07-01","acq_time":"1244","satellite":"N20","instrument":"VIIRS","confidence":"n","version":"2.0NRT","bright_ti5":"308.76","frp":"9.92","daynight":"D","commune":"Druyes-les-Belles-Fontaines","code_insee":"89148","departement":"Yonne","region":"Bourgogne-Franche-Comté"}},{"type":"Feature","geometry":{"type":"Point","coordinates":[2.72694,47.70372]},"properties":{"latitude":"47.70372","longitude":"2.72694","bright_ti4":"331.68","scan":"0.39","track":"0.36","acq_date":"2026-07-01","acq_time":"1244","satellite":"N20","instrument":"VIIRS","confidence":"l","version":"2.0NRT","bright_ti5":"302.44","frp":"3.34","daynight":"D","commune":"Gien","code_insee":"45155","departement":"Loiret","region":"Centre-Val de Loire"}},{"type":"Feature","geometry":{"type":"Point","coordinates":[2.7259,47.70701]},"properties":{"latitude":"47.70701","longitude":"2.7259","bright_ti4":"334.68","scan":"0.39","track":"0.36","acq_date":"2026-07-01","acq_time":"1244","satellite":"N20","instrument":"VIIRS","confidence":"l","version":"2.0NRT","bright_ti5":"306.01","frp":"3.34","daynight":"D","commune":"Gien","code_insee":"45155","departement":"Loiret","region":"Centre-Val de Loire"}},{"type":"Feature","geometry":{"type":"Point","coordinates":[2.73105,47.70774]},"properties":{"latitude":"47.70774","longitude":"2.73105","bright_ti4":"335.48","scan":"0.39","track":"0.36","acq_date":"2026-07-01","acq_time":"1244","satellite":"N20","instrument":"VIIRS","confidence":"n","version":"2.0NRT","bright_ti5":"305","frp":"3.34","daynight":"D","commune":"Gien","code_insee":"45155","departement":"Loiret","region":"Centre-Val de Loire"}},{"type":"Feature","geometry":{"type":"Point","coordinates":[3.0483,48.04154]},"properties":{"latitude":"48.04154","longitude":"3.0483","bright_ti4":"331.72","scan":"0.39","track":"0.37","acq_date":"2026-07-01","acq_time":"1244","satellite":"N20","instrument":"VIIRS","confidence":"n","version":"2.0NRT","bright_ti5":"303.33","frp":"1.14","daynight":"D","commune":"Courtenay","code_insee":"45115","departement":"Loiret","region":"Centre-Val de Loire"}},{"type":"Feature","geometry":{"type":"Point","coordinates":[0.88899,49.84282]},"properties":{"latitude":"49.84282","longitude":"0.88899","bright_ti4":"333.62","scan":"0.38","track":"0.36","acq_date":"2026-07-01","acq_time":"1244","satellite":"N20","instrument":"VIIRS","confidence":"n","version":"2.0NRT","bright_ti5":"291.44","frp":"2.89","daynight":"D","commune":"Saint-Pierre-le-Vieux","code_insee":"76641","departement":"Seine-Maritime","region":"Normandie"}},{"type":"Feature","geometry":{"type":"Point","coordinates":[2.28783,51.03419]},"properties":{"latitude":"51.03419","longitude":"2.28783","bright_ti4":"340.55","scan":"0.4","track":"0.37","acq_date":"2026-07-01","acq_time":"1246","satellite":"N20","instrument":"VIIRS","confidence":"n","version":"2.0NRT","bright_ti5":"302.46","frp":"4.36","daynight":"D","commune":"Grande-Synthe","code_insee":"59271","departement":"Nord","region":"Hauts-de-France"}},{"type":"Feature","geometry":{"type":"Point","coordinates":[4.89791,43.43159]},"properties":{"latitude":"43.43159","longitude":"4.89791","bright_ti4":"307.69","scan":"0.56","track":"0.43","acq_date":"2026-07-01","acq_time":"204","satellite":"N21","instrument":"VIIRS","confidence":"n","version":"2.0NRT","bright_ti5":"294.77","frp":"2","daynight":"N","commune":"Fos-sur-Mer","code_insee":"13039","departement":"Bouches-du-Rhône","region":"Provence-Alpes-Côte d'Azur"}},{"type":"Feature","geometry":{"type":"Point","coordinates":[4.90039,43.43968]},"properties":{"latitude":"43.43968","longitude":"4.90039","bright_ti4":"315.5","scan":"0.56","track":"0.43","acq_date":"2026-07-01","acq_time":"204","satellite":"N21","instrument":"VIIRS","confidence":"n","version":"2.0NRT","bright_ti5":"293.37","frp":"4","daynight":"N","commune":"Fos-sur-Mer","code_insee":"13039","departement":"Bouches-du-Rhône","region":"Provence-Alpes-Côte d'Azur"}},{"type":"Feature","geometry":{"type":"Point","coordinates":[4.90195,43.44348]},"properties":{"latitude":"43.44348","longitude":"4.90195","bright_ti4":"320.26","scan":"0.56","track":"0.43","acq_date":"2026-07-01","acq_time":"204","satellite":"N21","instrument":"VIIRS","confidence":"n","version":"2.0NRT","bright_ti5":"294.36","frp":"4.27","daynight":"N","commune":"Fos-sur-Mer","code_insee":"13039","departement":"Bouches-du-Rhône","region":"Provence-Alpes-Côte d'Azur"}},{"type":"Feature","geometry":{"type":"Point","coordinates":[4.89529,43.44493]},"properties":{"latitude":"43.44493","longitude":"4.89529","bright_ti4":"321.19","scan":"0.56","track":"0.43","acq_date":"2026-07-01","acq_time":"204","satellite":"N21","instrument":"VIIRS","confidence":"n","version":"2.0NRT","bright_ti5":"294.59","frp":"4.27","daynight":"N","commune":"Fos-sur-Mer","code_insee":"13039","departement":"Bouches-du-Rhône","region":"Provence-Alpes-Côte d'Azur"}},{"type":"Feature","geometry":{"type":"Point","coordinates":[4.89686,43.44872]},"properties":{"latitude":"43.44872","longitude":"4.89686","bright_ti4":"328.88","scan":"0.56","track":"0.43","acq_date":"2026-07-01","acq_time":"204","satellite":"N21","instrument":"VIIRS","confidence":"n","version":"2.0NRT","bright_ti5":"293.8","frp":"4.27","daynight":"N","commune":"Fos-sur-Mer","code_insee":"13039","departement":"Bouches-du-Rhône","region":"Provence-Alpes-Côte d'Azur"}},{"type":"Feature","geometry":{"type":"Point","coordinates":[1.62618,47.40965]},"properties":{"latitude":"47.40965","longitude":"1.62618","bright_ti4":"328.88","scan":"0.39","track":"0.37","acq_date":"2026-07-01","acq_time":"204","satellite":"N21","instrument":"VIIRS","confidence":"n","version":"2.0NRT","bright_ti5":"289.43","frp":"3.65","daynight":"N","commune":"Mur-de-Sologne","code_insee":"41157","departement":"Loir-et-Cher","region":"Centre-Val de Loire"}},{"type":"Feature","geometry":{"type":"Point","coordinates":[-1.03572,48.10791]},"properties":{"latitude":"48.10791","longitude":"-1.03572","bright_ti4":"302.5","scan":"0.39","track":"0.36","acq_date":"2026-07-01","acq_time":"204","satellite":"N21","instrument":"VIIRS","confidence":"n","version":"2.0NRT","bright_ti5":"288.83","frp":"0.79","daynight":"N","commune":"Saint-Pierre-la-Cour","code_insee":"53247","departement":"Mayenne","region":"Pays de la Loire"}},{"type":"Feature","geometry":{"type":"Point","coordinates":[2.73538,48.94735]},"properties":{"latitude":"48.94735","longitude":"2.73538","bright_ti4":"302.81","scan":"0.4","track":"0.37","acq_date":"2026-07-01","acq_time":"204","satellite":"N21","instrument":"VIIRS","confidence":"n","version":"2.0NRT","bright_ti5":"286.73","frp":"0.72","daynight":"N","commune":"Fresnes-sur-Marne","code_insee":"77196","departement":"Seine-et-Marne","region":"Île-de-France"}},{"type":"Feature","geometry":{"type":"Point","coordinates":[1.76257,48.98303]},"properties":{"latitude":"48.98303","longitude":"1.76257","bright_ti4":"327.96","scan":"0.39","track":"0.36","acq_date":"2026-07-01","acq_time":"204","satellite":"N21","instrument":"VIIRS","confidence":"n","version":"2.0NRT","bright_ti5":"290.33","frp":"2.47","daynight":"N","commune":"Porcheville","code_insee":"78501","departement":"Yvelines","region":"Île-de-France"}},{"type":"Feature","geometry":{"type":"Point","coordinates":[3.02736,48.99955]},"properties":{"latitude":"48.99955","longitude":"3.02736","bright_ti4":"297.07","scan":"0.4","track":"0.37","acq_date":"2026-07-01","acq_time":"204","satellite":"N21","instrument":"VIIRS","confidence":"n","version":"2.0NRT","bright_ti5":"286.33","frp":"0.41","daynight":"N","commune":"Isles-les-Meldeuses","code_insee":"77231","departement":"Seine-et-Marne","region":"Île-de-France"}},{"type":"Feature","geometry":{"type":"Point","coordinates":[6.14719,49.31627]},"properties":{"latitude":"49.31627","longitude":"6.14719","bright_ti4":"298.53","scan":"0.48","track":"0.4","acq_date":"2026-07-01","acq_time":"204","satellite":"N21","instrument":"VIIRS","confidence":"n","version":"2.0NRT","bright_ti5":"285.11","frp":"0.45","daynight":"N","commune":"Florange","code_insee":"57221","departement":"Moselle","region":"Grand Est"}},{"type":"Feature","geometry":{"type":"Point","coordinates":[3.56148,50.40028]},"properties":{"latitude":"50.40028","longitude":"3.56148","bright_ti4":"302.88","scan":"0.4","track":"0.37","acq_date":"2026-07-01","acq_time":"204","satellite":"N21","instrument":"VIIRS","confidence":"n","version":"2.0NRT","bright_ti5":"287.19","frp":"0.97","daynight":"N","commune":"Saint-Saulve","code_insee":"59544","departement":"Nord","region":"Hauts-de-France"}},{"type":"Feature","geometry":{"type":"Point","coordinates":[1.8936,50.97132]},"properties":{"latitude":"50.97132","longitude":"1.8936","bright_ti4":"305.21","scan":"0.38","track":"0.36","acq_date":"2026-07-01","acq_time":"204","satellite":"N21","instrument":"VIIRS","confidence":"n","version":"2.0NRT","bright_ti5":"286.34","frp":"0.84","daynight":"N","commune":"Calais","code_insee":"62193","departement":"Pas-de-Calais","region":"Hauts-de-France"}},{"type":"Feature","geometry":{"type":"Point","coordinates":[2.28386,51.02874]},"properties":{"latitude":"51.02874","longitude":"2.28386","bright_ti4":"300.09","scan":"0.39","track":"0.36","acq_date":"2026-07-01","acq_time":"204","satellite":"N21","instrument":"VIIRS","confidence":"n","version":"2.0NRT","bright_ti5":"286.9","frp":"1","daynight":"N","commune":"Grande-Synthe","code_insee":"59271","departement":"Nord","region":"Hauts-de-France"}},{"type":"Feature","geometry":{"type":"Point","coordinates":[2.27849,51.02962]},"properties":{"latitude":"51.02962","longitude":"2.27849","bright_ti4":"305.73","scan":"0.39","track":"0.36","acq_date":"2026-07-01","acq_time":"204","satellite":"N21","instrument":"VIIRS","confidence":"n","version":"2.0NRT","bright_ti5":"286.52","frp":"1","daynight":"N","commune":"Grande-Synthe","code_insee":"59271","departement":"Nord","region":"Hauts-de-France"}},{"type":"Feature","geometry":{"type":"Point","coordinates":[2.2852,51.03197]},"properties":{"latitude":"51.03197","longitude":"2.2852","bright_ti4":"301.17","scan":"0.39","track":"0.36","acq_date":"2026-07-01","acq_time":"204","satellite":"N21","instrument":"VIIRS","confidence":"n","version":"2.0NRT","bright_ti5":"286.5","frp":"2.04","daynight":"N","commune":"Grande-Synthe","code_insee":"59271","departement":"Nord","region":"Hauts-de-France"}},{"type":"Feature","geometry":{"type":"Point","coordinates":[2.25702,51.03314]},"properties":{"latitude":"51.03314","longitude":"2.25702","bright_ti4":"296","scan":"0.39","track":"0.36","acq_date":"2026-07-01","acq_time":"204","satellite":"N21","instrument":"VIIRS","confidence":"n","version":"2.0NRT","bright_ti5":"285.71","frp":"0.42","daynight":"N","commune":"Dunkerque","code_insee":"59183","departement":"Nord","region":"Hauts-de-France"}},{"type":"Feature","geometry":{"type":"Point","coordinates":[2.27446,51.03373]},"properties":{"latitude":"51.03373","longitude":"2.27446","bright_ti4":"315.71","scan":"0.39","track":"0.36","acq_date":"2026-07-01","acq_time":"204","satellite":"N21","instrument":"VIIRS","confidence":"n","version":"2.0NRT","bright_ti5":"286.6","frp":"1.22","daynight":"N","commune":"Grande-Synthe","code_insee":"59271","departement":"Nord","region":"Hauts-de-France"}},{"type":"Feature","geometry":{"type":"Point","coordinates":[2.28653,51.0352]},"properties":{"latitude":"51.0352","longitude":"2.28653","bright_ti4":"327.99","scan":"0.39","track":"0.36","acq_date":"2026-07-01","acq_time":"204","satellite":"N21","instrument":"VIIRS","confidence":"n","version":"2.0NRT","bright_ti5":"288.34","frp":"2.04","daynight":"N","commune":"Grande-Synthe","code_insee":"59271","departement":"Nord","region":"Hauts-de-France"}},{"type":"Feature","geometry":{"type":"Point","coordinates":[2.29457,51.04078]},"properties":{"latitude":"51.04078","longitude":"2.29457","bright_ti4":"297.95","scan":"0.39","track":"0.36","acq_date":"2026-07-01","acq_time":"204","satellite":"N21","instrument":"VIIRS","confidence":"n","version":"2.0NRT","bright_ti5":"287.69","frp":"0.65","daynight":"N","commune":"Grande-Synthe","code_insee":"59271","departement":"Nord","region":"Hauts-de-France"}},{"type":"Feature","geometry":{"type":"Point","coordinates":[2.2892,51.04166]},"properties":{"latitude":"51.04166","longitude":"2.2892","bright_ti4":"298.92","scan":"0.39","track":"0.36","acq_date":"2026-07-01","acq_time":"204","satellite":"N21","instrument":"VIIRS","confidence":"n","version":"2.0NRT","bright_ti5":"286.32","frp":"0.62","daynight":"N","commune":"Grande-Synthe","code_insee":"59271","departement":"Nord","region":"Hauts-de-France"}},{"type":"Feature","geometry":{"type":"Point","coordinates":[2.30128,51.04313]},"properties":{"latitude":"51.04313","longitude":"2.30128","bright_ti4":"306.52","scan":"0.39","track":"0.36","acq_date":"2026-07-01","acq_time":"204","satellite":"N21","instrument":"VIIRS","confidence":"n","version":"2.0NRT","bright_ti5":"287.05","frp":"3.66","daynight":"N","commune":"Grande-Synthe","code_insee":"59271","departement":"Nord","region":"Hauts-de-France"}},{"type":"Feature","geometry":{"type":"Point","coordinates":[2.29591,51.04401]},"properties":{"latitude":"51.04401","longitude":"2.29591","bright_ti4":"329.16","scan":"0.39","track":"0.36","acq_date":"2026-07-01","acq_time":"204","satellite":"N21","instrument":"VIIRS","confidence":"n","version":"2.0NRT","bright_ti5":"290.14","frp":"3.66","daynight":"N","commune":"Grande-Synthe","code_insee":"59271","departement":"Nord","region":"Hauts-de-France"}},{"type":"Feature","geometry":{"type":"Point","coordinates":[2.32121,51.04706]},"properties":{"latitude":"51.04706","longitude":"2.32121","bright_ti4":"331.77","scan":"0.39","track":"0.36","acq_date":"2026-07-01","acq_time":"204","satellite":"N21","instrument":"VIIRS","confidence":"n","version":"2.0NRT","bright_ti5":"293.46","frp":"4.95","daynight":"N","commune":"Dunkerque","code_insee":"59183","departement":"Nord","region":"Hauts-de-France"}},{"type":"Feature","geometry":{"type":"Point","coordinates":[2.31584,51.04794]},"properties":{"latitude":"51.04794","longitude":"2.31584","bright_ti4":"299.62","scan":"0.39","track":"0.36","acq_date":"2026-07-01","acq_time":"204","satellite":"N21","instrument":"VIIRS","confidence":"n","version":"2.0NRT","bright_ti5":"286.57","frp":"4.95","daynight":"N","commune":"Dunkerque","code_insee":"59183","departement":"Nord","region":"Hauts-de-France"}},{"type":"Feature","geometry":{"type":"Point","coordinates":[1.23097,43.98594]},"properties":{"latitude":"43.98594","longitude":"1.23097","bright_ti4":"299.97","scan":"0.41","track":"0.37","acq_date":"2026-07-01","acq_time":"206","satellite":"N21","instrument":"VIIRS","confidence":"n","version":"2.0NRT","bright_ti5":"287.71","frp":"0.33","daynight":"N","commune":"Montech","code_insee":"82125","departement":"Tarn-et-Garonne","region":"Occitanie"}},{"type":"Feature","geometry":{"type":"Point","coordinates":[5.05859,45.69726]},"properties":{"latitude":"45.69726","longitude":"5.05859","bright_ti4":"339.26","scan":"0.52","track":"0.5","acq_date":"2026-07-01","acq_time":"1149","satellite":"N21","instrument":"VIIRS","confidence":"n","version":"2.0NRT","bright_ti5":"299.85","frp":"13.18","daynight":"D","commune":"Saint-Laurent-de-Mure","code_insee":"69288","departement":"Rhône","region":"Auvergne-Rhône-Alpes"}},{"type":"Feature","geometry":{"type":"Point","coordinates":[5.06494,45.69885]},"properties":{"latitude":"45.69885","longitude":"5.06494","bright_ti4":"340.18","scan":"0.52","track":"0.5","acq_date":"2026-07-01","acq_time":"1149","satellite":"N21","instrument":"VIIRS","confidence":"n","version":"2.0NRT","bright_ti5":"299.76","frp":"13.18","daynight":"D","commune":"Saint-Laurent-de-Mure","code_insee":"69288","departement":"Rhône","region":"Auvergne-Rhône-Alpes"}},{"type":"Feature","geometry":{"type":"Point","coordinates":[3.15793,46.49118]},"properties":{"latitude":"46.49118","longitude":"3.15793","bright_ti4":"337.32","scan":"0.6","track":"0.53","acq_date":"2026-07-01","acq_time":"1149","satellite":"N21","instrument":"VIIRS","confidence":"n","version":"2.0NRT","bright_ti5":"300.76","frp":"3.88","daynight":"D","commune":"Noyant-d'Allier","code_insee":"03202","departement":"Allier","region":"Auvergne-Rhône-Alpes"}},{"type":"Feature","geometry":{"type":"Point","coordinates":[2.96175,47.70002]},"properties":{"latitude":"47.70002","longitude":"2.96175","bright_ti4":"337.55","scan":"0.57","track":"0.52","acq_date":"2026-07-01","acq_time":"1149","satellite":"N21","instrument":"VIIRS","confidence":"n","version":"2.0NRT","bright_ti5":"303.24","frp":"9.4","daynight":"D","commune":"Bléneau","code_insee":"89046","departement":"Yonne","region":"Bourgogne-Franche-Comté"}},{"type":"Feature","geometry":{"type":"Point","coordinates":[0.99877,47.70053]},"properties":{"latitude":"47.70053","longitude":"0.99877","bright_ti4":"367","scan":"0.34","track":"0.56","acq_date":"2026-07-01","acq_time":"1149","satellite":"N21","instrument":"VIIRS","confidence":"h","version":"2.0NRT","bright_ti5":"298.37","frp":"18.34","daynight":"D","commune":"Saint-Amand-Longpré","code_insee":"41199","departement":"Loir-et-Cher","region":"Centre-Val de Loire"}},{"type":"Feature","geometry":{"type":"Point","coordinates":[2.2896,51.03997]},"properties":{"latitude":"51.03997","longitude":"2.2896","bright_ti4":"330","scan":"0.48","track":"0.48","acq_date":"2026-07-01","acq_time":"1151","satellite":"N21","instrument":"VIIRS","confidence":"l","version":"2.0NRT","bright_ti5":"301.47","frp":"5.65","daynight":"D","commune":"Grande-Synthe","code_insee":"59271","departement":"Nord","region":"Hauts-de-France"}},{"type":"Feature","geometry":{"type":"Point","coordinates":[2.29341,51.04577]},"properties":{"latitude":"51.04577","longitude":"2.29341","bright_ti4":"335.96","scan":"0.48","track":"0.48","acq_date":"2026-07-01","acq_time":"1151","satellite":"N21","instrument":"VIIRS","confidence":"n","version":"2.0NRT","bright_ti5":"296.64","frp":"2.02","daynight":"D","commune":"Grande-Synthe","code_insee":"59271","departement":"Nord","region":"Hauts-de-France"}},{"type":"Feature","geometry":{"type":"Point","coordinates":[2.83614,43.26913]},"properties":{"latitude":"43.26913","longitude":"2.83614","bright_ti4":"340.1","scan":"0.36","track":"0.57","acq_date":"2026-07-01","acq_time":"1329","satellite":"N21","instrument":"VIIRS","confidence":"n","version":"2.0NRT","bright_ti5":"292.82","frp":"5.48","daynight":"D","commune":"Sainte-Valière","code_insee":"11366","departement":"Aude","region":"Occitanie"}},{"type":"Feature","geometry":{"type":"Point","coordinates":[4.89784,43.44449]},"properties":{"latitude":"43.44449","longitude":"4.89784","bright_ti4":"332.95","scan":"0.46","track":"0.64","acq_date":"2026-07-01","acq_time":"1329","satellite":"N21","instrument":"VIIRS","confidence":"n","version":"2.0NRT","bright_ti5":"297.62","frp":"6.31","daynight":"D","commune":"Fos-sur-Mer","code_insee":"13039","departement":"Bouches-du-Rhône","region":"Provence-Alpes-Côte d'Azur"}},{"type":"Feature","geometry":{"type":"Point","coordinates":[0.65949,43.81266]},"properties":{"latitude":"43.81266","longitude":"0.65949","bright_ti4":"331.7","scan":"0.56","track":"0.52","acq_date":"2026-07-01","acq_time":"1329","satellite":"N21","instrument":"VIIRS","confidence":"n","version":"2.0NRT","bright_ti5":"290.68","frp":"2.69","daynight":"D","commune":"Montestruc-sur-Gers","code_insee":"32286","departement":"Gers","region":"Occitanie"}},{"type":"Feature","geometry":{"type":"Point","coordinates":[3.00849,43.97833]},"properties":{"latitude":"43.97833","longitude":"3.00849","bright_ti4":"342.4","scan":"0.37","track":"0.58","acq_date":"2026-07-01","acq_time":"1329","satellite":"N21","instrument":"VIIRS","confidence":"n","version":"2.0NRT","bright_ti5":"297.83","frp":"4.45","daynight":"D","commune":"Roquefort-sur-Soulzon","code_insee":"12203","departement":"Aveyron","region":"Occitanie"}},{"type":"Feature","geometry":{"type":"Point","coordinates":[-1.09922,46.78256]},"properties":{"latitude":"46.78256","longitude":"-1.09922","bright_ti4":"335.66","scan":"0.49","track":"0.49","acq_date":"2026-07-01","acq_time":"1329","satellite":"N21","instrument":"VIIRS","confidence":"n","version":"2.0NRT","bright_ti5":"306.91","frp":"20.06","daynight":"D","commune":"Mouchamps","code_insee":"85153","departement":"Vendée","region":"Pays de la Loire"}},{"type":"Feature","geometry":{"type":"Point","coordinates":[-1.09277,46.78301]},"properties":{"latitude":"46.78301","longitude":"-1.09277","bright_ti4":"340.91","scan":"0.49","track":"0.49","acq_date":"2026-07-01","acq_time":"1329","satellite":"N21","instrument":"VIIRS","confidence":"n","version":"2.0NRT","bright_ti5":"303.36","frp":"20.06","daynight":"D","commune":"Mouchamps","code_insee":"85153","departement":"Vendée","region":"Pays de la Loire"}},{"type":"Feature","geometry":{"type":"Point","coordinates":[0.72063,46.91645]},"properties":{"latitude":"46.91645","longitude":"0.72063","bright_ti4":"337.9","scan":"0.6","track":"0.53","acq_date":"2026-07-01","acq_time":"1329","satellite":"N21","instrument":"VIIRS","confidence":"n","version":"2.0NRT","bright_ti5":"302.35","frp":"8.85","daynight":"D","commune":"Abilly","code_insee":"37001","departement":"Indre-et-Loire","region":"Centre-Val de Loire"}},{"type":"Feature","geometry":{"type":"Point","coordinates":[0.72001,46.92135]},"properties":{"latitude":"46.92135","longitude":"0.72001","bright_ti4":"330.99","scan":"0.6","track":"0.53","acq_date":"2026-07-01","acq_time":"1329","satellite":"N21","instrument":"VIIRS","confidence":"l","version":"2.0NRT","bright_ti5":"301.83","frp":"8.85","daynight":"D","commune":"Abilly","code_insee":"37001","departement":"Indre-et-Loire","region":"Centre-Val de Loire"}},{"type":"Feature","geometry":{"type":"Point","coordinates":[3.89125,47.53786]},"properties":{"latitude":"47.53786","longitude":"3.89125","bright_ti4":"336.41","scan":"0.43","track":"0.62","acq_date":"2026-07-01","acq_time":"1329","satellite":"N21","instrument":"VIIRS","confidence":"n","version":"2.0NRT","bright_ti5":"301.34","frp":"5.66","daynight":"D","commune":"Annay-la-Côte","code_insee":"89009","departement":"Yonne","region":"Bourgogne-Franche-Comté"}},{"type":"Feature","geometry":{"type":"Point","coordinates":[3.897,47.53801]},"properties":{"latitude":"47.53801","longitude":"3.897","bright_ti4":"331.23","scan":"0.43","track":"0.62","acq_date":"2026-07-01","acq_time":"1329","satellite":"N21","instrument":"VIIRS","confidence":"n","version":"2.0NRT","bright_ti5":"297.64","frp":"5.66","daynight":"D","commune":"Annay-la-Côte","code_insee":"89009","departement":"Yonne","region":"Bourgogne-Franche-Comté"}},{"type":"Feature","geometry":{"type":"Point","coordinates":[2.27145,51.02781]},"properties":{"latitude":"51.02781","longitude":"2.27145","bright_ti4":"332.21","scan":"0.38","track":"0.59","acq_date":"2026-07-01","acq_time":"1331","satellite":"N21","instrument":"VIIRS","confidence":"n","version":"2.0NRT","bright_ti5":"298.66","frp":"4.09","daynight":"D","commune":"Grande-Synthe","code_insee":"59271","departement":"Nord","region":"Hauts-de-France"}},{"type":"Feature","geometry":{"type":"Point","coordinates":[2.28757,51.0337]},"properties":{"latitude":"51.0337","longitude":"2.28757","bright_ti4":"343.89","scan":"0.38","track":"0.59","acq_date":"2026-07-01","acq_time":"1331","satellite":"N21","instrument":"VIIRS","confidence":"n","version":"2.0NRT","bright_ti5":"300.85","frp":"6.99","daynight":"D","commune":"Grande-Synthe","code_insee":"59271","departement":"Nord","region":"Hauts-de-France"}},{"type":"Feature","geometry":{"type":"Point","coordinates":[2.29271,51.0393]},"properties":{"latitude":"51.0393","longitude":"2.29271","bright_ti4":"334.91","scan":"0.38","track":"0.59","acq_date":"2026-07-01","acq_time":"1331","satellite":"N21","instrument":"VIIRS","confidence":"n","version":"2.0NRT","bright_ti5":"297.8","frp":"5.18","daynight":"D","commune":"Grande-Synthe","code_insee":"59271","departement":"Nord","region":"Hauts-de-France"}},{"type":"Feature","geometry":{"type":"Point","coordinates":[2.29783,51.04489]},"properties":{"latitude":"51.04489","longitude":"2.29783","bright_ti4":"342.19","scan":"0.38","track":"0.59","acq_date":"2026-07-01","acq_time":"1331","satellite":"N21","instrument":"VIIRS","confidence":"n","version":"2.0NRT","bright_ti5":"297.11","frp":"1.66","daynight":"D","commune":"Grande-Synthe","code_insee":"59271","departement":"Nord","region":"Hauts-de-France"}}]}