{"type":"FeatureCollection","features":[{"type":"Feature","geometry":{"type":"Point","coordinates":[0.52886,49.4792]},"properties":{"latitude":"49.4792","longitude":"0.52886","bright_ti4":"295.07","scan":"0.45","track":"0.63","acq_date":"2026-06-09","acq_time":"109","satellite":"N","instrument":"VIIRS","confidence":"n","version":"2.0NRT","bright_ti5":"280.68","frp":"0.76","daynight":"N","commune":"Lillebonne","code_insee":"76384","departement":"Seine-Maritime","region":"Normandie"}},{"type":"Feature","geometry":{"type":"Point","coordinates":[3.56351,50.40324]},"properties":{"latitude":"50.40324","longitude":"3.56351","bright_ti4":"312.16","scan":"0.56","track":"0.51","acq_date":"2026-06-09","acq_time":"249","satellite":"N","instrument":"VIIRS","confidence":"n","version":"2.0NRT","bright_ti5":"279.82","frp":"1.91","daynight":"N","commune":"Saint-Saulve","code_insee":"59544","departement":"Nord","region":"Hauts-de-France"}},{"type":"Feature","geometry":{"type":"Point","coordinates":[2.27175,51.02856]},"properties":{"latitude":"51.02856","longitude":"2.27175","bright_ti4":"297.22","scan":"0.47","track":"0.48","acq_date":"2026-06-09","acq_time":"249","satellite":"N","instrument":"VIIRS","confidence":"n","version":"2.0NRT","bright_ti5":"279.33","frp":"1.12","daynight":"N","commune":"Grande-Synthe","code_insee":"59271","departement":"Nord","region":"Hauts-de-France"}},{"type":"Feature","geometry":{"type":"Point","coordinates":[2.29806,51.04592]},"properties":{"latitude":"51.04592","longitude":"2.29806","bright_ti4":"326.83","scan":"0.47","track":"0.48","acq_date":"2026-06-09","acq_time":"249","satellite":"N","instrument":"VIIRS","confidence":"n","version":"2.0NRT","bright_ti5":"282.64","frp":"3.35","daynight":"N","commune":"Grande-Synthe","code_insee":"59271","departement":"Nord","region":"Hauts-de-France"}},{"type":"Feature","geometry":{"type":"Point","coordinates":[6.93499,43.58148]},"properties":{"latitude":"43.58148","longitude":"6.93499","bright_ti4":"335.51","scan":"0.39","track":"0.36","acq_date":"2026-06-09","acq_time":"1236","satellite":"N","instrument":"VIIRS","confidence":"n","version":"2.0NRT","bright_ti5":"300.1","frp":"2.15","daynight":"D","commune":"La Roquette-sur-Siagne","code_insee":"06108","departement":"Alpes-Maritimes","region":"Provence-Alpes-Côte d'Azur"}},{"type":"Feature","geometry":{"type":"Point","coordinates":[2.29822,51.04348]},"properties":{"latitude":"51.04348","longitude":"2.29822","bright_ti4":"342.22","scan":"0.39","track":"0.36","acq_date":"2026-06-09","acq_time":"1238","satellite":"N","instrument":"VIIRS","confidence":"n","version":"2.0NRT","bright_ti5":"300.69","frp":"6.06","daynight":"D","commune":"Grande-Synthe","code_insee":"59271","departement":"Nord","region":"Hauts-de-France"}},{"type":"Feature","geometry":{"type":"Point","coordinates":[2.2528,51.03365]},"properties":{"latitude":"51.03365","longitude":"2.2528","bright_ti4":"295.67","scan":"0.42","track":"0.45","acq_date":"2026-06-09","acq_time":"128","satellite":"N20","instrument":"VIIRS","confidence":"n","version":"2.0NRT","bright_ti5":"279.56","frp":"0.8","daynight":"N","commune":"Dunkerque","code_insee":"59183","departement":"Nord","region":"Hauts-de-France"}},{"type":"Feature","geometry":{"type":"Point","coordinates":[2.28966,51.03491]},"properties":{"latitude":"51.03491","longitude":"2.28966","bright_ti4":"303.33","scan":"0.42","track":"0.45","acq_date":"2026-06-09","acq_time":"128","satellite":"N20","instrument":"VIIRS","confidence":"n","version":"2.0NRT","bright_ti5":"276.07","frp":"0.81","daynight":"N","commune":"Grande-Synthe","code_insee":"59271","departement":"Nord","region":"Hauts-de-France"}},{"type":"Feature","geometry":{"type":"Point","coordinates":[2.29741,51.04273]},"properties":{"latitude":"51.04273","longitude":"2.29741","bright_ti4":"297.54","scan":"0.42","track":"0.45","acq_date":"2026-06-09","acq_time":"128","satellite":"N20","instrument":"VIIRS","confidence":"n","version":"2.0NRT","bright_ti5":"284.86","frp":"1.27","daynight":"N","commune":"Grande-Synthe","code_insee":"59271","departement":"Nord","region":"Hauts-de-France"}},{"type":"Feature","geometry":{"type":"Point","coordinates":[2.30426,51.04639]},"properties":{"latitude":"51.04639","longitude":"2.30426","bright_ti4":"298.75","scan":"0.42","track":"0.45","acq_date":"2026-06-09","acq_time":"128","satellite":"N20","instrument":"VIIRS","confidence":"n","version":"2.0NRT","bright_ti5":"280.7","frp":"1.27","daynight":"N","commune":"Grande-Synthe","code_insee":"59271","departement":"Nord","region":"Hauts-de-France"}},{"type":"Feature","geometry":{"type":"Point","coordinates":[2.29828,51.04688]},"properties":{"latitude":"51.04688","longitude":"2.29828","bright_ti4":"316.25","scan":"0.42","track":"0.45","acq_date":"2026-06-09","acq_time":"128","satellite":"N20","instrument":"VIIRS","confidence":"n","version":"2.0NRT","bright_ti5":"281.72","frp":"1.27","daynight":"N","commune":"Grande-Synthe","code_insee":"59271","departement":"Nord","region":"Hauts-de-France"}},{"type":"Feature","geometry":{"type":"Point","coordinates":[2.31709,51.04957]},"properties":{"latitude":"51.04957","longitude":"2.31709","bright_ti4":"297.75","scan":"0.42","track":"0.45","acq_date":"2026-06-09","acq_time":"128","satellite":"N20","instrument":"VIIRS","confidence":"n","version":"2.0NRT","bright_ti5":"282.89","frp":"1.12","daynight":"N","commune":"Dunkerque","code_insee":"59183","departement":"Nord","region":"Hauts-de-France"}},{"type":"Feature","geometry":{"type":"Point","coordinates":[5.11018,43.39105]},"properties":{"latitude":"43.39105","longitude":"5.11018","bright_ti4":"331.98","scan":"0.41","track":"0.37","acq_date":"2026-06-09","acq_time":"130","satellite":"N20","instrument":"VIIRS","confidence":"n","version":"2.0NRT","bright_ti5":"289.08","frp":"2.8","daynight":"N","commune":"Châteauneuf-les-Martigues","code_insee":"13026","departement":"Bouches-du-Rhône","region":"Provence-Alpes-Côte d'Azur"}},{"type":"Feature","geometry":{"type":"Point","coordinates":[4.89377,43.43712]},"properties":{"latitude":"43.43712","longitude":"4.89377","bright_ti4":"301.5","scan":"0.42","track":"0.38","acq_date":"2026-06-09","acq_time":"130","satellite":"N20","instrument":"VIIRS","confidence":"n","version":"2.0NRT","bright_ti5":"289.27","frp":"1.09","daynight":"N","commune":"Fos-sur-Mer","code_insee":"13039","departement":"Bouches-du-Rhône","region":"Provence-Alpes-Côte d'Azur"}},{"type":"Feature","geometry":{"type":"Point","coordinates":[4.89462,43.44055]},"properties":{"latitude":"43.44055","longitude":"4.89462","bright_ti4":"319.79","scan":"0.42","track":"0.38","acq_date":"2026-06-09","acq_time":"130","satellite":"N20","instrument":"VIIRS","confidence":"n","version":"2.0NRT","bright_ti5":"290.4","frp":"1.43","daynight":"N","commune":"Fos-sur-Mer","code_insee":"13039","departement":"Bouches-du-Rhône","region":"Provence-Alpes-Côte d'Azur"}},{"type":"Feature","geometry":{"type":"Point","coordinates":[4.88428,43.44189]},"properties":{"latitude":"43.44189","longitude":"4.88428","bright_ti4":"313.58","scan":"0.42","track":"0.38","acq_date":"2026-06-09","acq_time":"130","satellite":"N20","instrument":"VIIRS","confidence":"n","version":"2.0NRT","bright_ti5":"288.55","frp":"1.74","daynight":"N","commune":"Fos-sur-Mer","code_insee":"13039","departement":"Bouches-du-Rhône","region":"Provence-Alpes-Côte d'Azur"}},{"type":"Feature","geometry":{"type":"Point","coordinates":[4.87912,43.44257]},"properties":{"latitude":"43.44257","longitude":"4.87912","bright_ti4":"326.31","scan":"0.42","track":"0.38","acq_date":"2026-06-09","acq_time":"130","satellite":"N20","instrument":"VIIRS","confidence":"n","version":"2.0NRT","bright_ti5":"289.93","frp":"1.74","daynight":"N","commune":"Fos-sur-Mer","code_insee":"13039","departement":"Bouches-du-Rhône","region":"Provence-Alpes-Côte d'Azur"}},{"type":"Feature","geometry":{"type":"Point","coordinates":[4.89031,43.44465]},"properties":{"latitude":"43.44465","longitude":"4.89031","bright_ti4":"301.97","scan":"0.42","track":"0.38","acq_date":"2026-06-09","acq_time":"130","satellite":"N20","instrument":"VIIRS","confidence":"n","version":"2.0NRT","bright_ti5":"289.28","frp":"1.43","daynight":"N","commune":"Fos-sur-Mer","code_insee":"13039","departement":"Bouches-du-Rhône","region":"Provence-Alpes-Côte d'Azur"}},{"type":"Feature","geometry":{"type":"Point","coordinates":[4.90149,43.44673]},"properties":{"latitude":"43.44673","longitude":"4.90149","bright_ti4":"318.96","scan":"0.42","track":"0.38","acq_date":"2026-06-09","acq_time":"130","satellite":"N20","instrument":"VIIRS","confidence":"n","version":"2.0NRT","bright_ti5":"289.94","frp":"1.46","daynight":"N","commune":"Fos-sur-Mer","code_insee":"13039","departement":"Bouches-du-Rhône","region":"Provence-Alpes-Côte d'Azur"}},{"type":"Feature","geometry":{"type":"Point","coordinates":[4.89633,43.4474]},"properties":{"latitude":"43.4474","longitude":"4.89633","bright_ti4":"338.76","scan":"0.42","track":"0.38","acq_date":"2026-06-09","acq_time":"130","satellite":"N20","instrument":"VIIRS","confidence":"n","version":"2.0NRT","bright_ti5":"290.66","frp":"4.57","daynight":"N","commune":"Fos-sur-Mer","code_insee":"13039","departement":"Bouches-du-Rhône","region":"Provence-Alpes-Côte d'Azur"}},{"type":"Feature","geometry":{"type":"Point","coordinates":[5.46143,43.45245]},"properties":{"latitude":"43.45245","longitude":"5.46143","bright_ti4":"299.58","scan":"0.41","track":"0.37","acq_date":"2026-06-09","acq_time":"130","satellite":"N20","instrument":"VIIRS","confidence":"n","version":"2.0NRT","bright_ti5":"289.07","frp":"0.67","daynight":"N","commune":"Gardanne","code_insee":"13041","departement":"Bouches-du-Rhône","region":"Provence-Alpes-Côte d'Azur"}},{"type":"Feature","geometry":{"type":"Point","coordinates":[7.37227,43.79373]},"properties":{"latitude":"43.79373","longitude":"7.37227","bright_ti4":"310.05","scan":"0.39","track":"0.36","acq_date":"2026-06-09","acq_time":"130","satellite":"N20","instrument":"VIIRS","confidence":"n","version":"2.0NRT","bright_ti5":"288.47","frp":"0.8","daynight":"N","commune":"Blausasc","code_insee":"06019","departement":"Alpes-Maritimes","region":"Provence-Alpes-Côte d'Azur"}},{"type":"Feature","geometry":{"type":"Point","coordinates":[2.73975,50.49592]},"properties":{"latitude":"50.49592","longitude":"2.73975","bright_ti4":"297.92","scan":"0.46","track":"0.63","acq_date":"2026-06-09","acq_time":"308","satellite":"N20","instrument":"VIIRS","confidence":"n","version":"2.0NRT","bright_ti5":"276.56","frp":"0.23","daynight":"N","commune":"Vermelles","code_insee":"62846","departement":"Pas-de-Calais","region":"Hauts-de-France"}},{"type":"Feature","geometry":{"type":"Point","coordinates":[2.29733,51.04451]},"properties":{"latitude":"51.04451","longitude":"2.29733","bright_ti4":"334.55","scan":"0.42","track":"0.61","acq_date":"2026-06-09","acq_time":"308","satellite":"N20","instrument":"VIIRS","confidence":"n","version":"2.0NRT","bright_ti5":"283.6","frp":"4.1","daynight":"N","commune":"Grande-Synthe","code_insee":"59271","departement":"Nord","region":"Hauts-de-France"}},{"type":"Feature","geometry":{"type":"Point","coordinates":[0.53904,49.4796]},"properties":{"latitude":"49.4796","longitude":"0.53904","bright_ti4":"295.27","scan":"0.4","track":"0.6","acq_date":"2026-06-09","acq_time":"310","satellite":"N20","instrument":"VIIRS","confidence":"n","version":"2.0NRT","bright_ti5":"280.63","frp":"0.8","daynight":"N","commune":"Port-Jérôme-sur-Seine","code_insee":"76476","departement":"Seine-Maritime","region":"Normandie"}},{"type":"Feature","geometry":{"type":"Point","coordinates":[4.84012,43.44466]},"properties":{"latitude":"43.44466","longitude":"4.84012","bright_ti4":"330.94","scan":"0.48","track":"0.4","acq_date":"2026-06-09","acq_time":"1255","satellite":"N20","instrument":"VIIRS","confidence":"l","version":"2.0NRT","bright_ti5":"304.85","frp":"3.48","daynight":"D","commune":"Fos-sur-Mer","code_insee":"13039","departement":"Bouches-du-Rhône","region":"Provence-Alpes-Côte d'Azur"}},{"type":"Feature","geometry":{"type":"Point","coordinates":[0.63064,44.43758]},"properties":{"latitude":"44.43758","longitude":"0.63064","bright_ti4":"328.54","scan":"0.39","track":"0.36","acq_date":"2026-06-09","acq_time":"1255","satellite":"N20","instrument":"VIIRS","confidence":"l","version":"2.0NRT","bright_ti5":"303.04","frp":"1.5","daynight":"D","commune":"Casseneuil","code_insee":"47049","departement":"Lot-et-Garonne","region":"Nouvelle-Aquitaine"}},{"type":"Feature","geometry":{"type":"Point","coordinates":[0.26132,44.61881]},"properties":{"latitude":"44.61881","longitude":"0.26132","bright_ti4":"333.12","scan":"0.39","track":"0.36","acq_date":"2026-06-09","acq_time":"1255","satellite":"N20","instrument":"VIIRS","confidence":"n","version":"2.0NRT","bright_ti5":"297.72","frp":"2.35","daynight":"D","commune":"Monteton","code_insee":"47187","departement":"Lot-et-Garonne","region":"Nouvelle-Aquitaine"}},{"type":"Feature","geometry":{"type":"Point","coordinates":[0.31706,44.76339]},"properties":{"latitude":"44.76339","longitude":"0.31706","bright_ti4":"345.69","scan":"0.39","track":"0.36","acq_date":"2026-06-09","acq_time":"1255","satellite":"N20","instrument":"VIIRS","confidence":"n","version":"2.0NRT","bright_ti5":"298.5","frp":"3.07","daynight":"D","commune":"Thénac","code_insee":"24549","departement":"Dordogne","region":"Nouvelle-Aquitaine"}},{"type":"Feature","geometry":{"type":"Point","coordinates":[7.37325,43.79476]},"properties":{"latitude":"43.79476","longitude":"7.37325","bright_ti4":"304.76","scan":"0.41","track":"0.61","acq_date":"2026-06-09","acq_time":"37","satellite":"N21","instrument":"VIIRS","confidence":"n","version":"2.0NRT","bright_ti5":"286.69","frp":"0.79","daynight":"N","commune":"Blausasc","code_insee":"06019","departement":"Alpes-Maritimes","region":"Provence-Alpes-Côte d'Azur"}},{"type":"Feature","geometry":{"type":"Point","coordinates":[-1.03848,48.10617]},"properties":{"latitude":"48.10617","longitude":"-1.03848","bright_ti4":"301.47","scan":"0.4","track":"0.37","acq_date":"2026-06-09","acq_time":"215","satellite":"N21","instrument":"VIIRS","confidence":"n","version":"2.0NRT","bright_ti5":"281.95","frp":"0.84","daynight":"N","commune":"Saint-Pierre-la-Cour","code_insee":"53247","departement":"Mayenne","region":"Pays de la Loire"}},{"type":"Feature","geometry":{"type":"Point","coordinates":[0.54211,49.46789]},"properties":{"latitude":"49.46789","longitude":"0.54211","bright_ti4":"295.77","scan":"0.41","track":"0.37","acq_date":"2026-06-09","acq_time":"215","satellite":"N21","instrument":"VIIRS","confidence":"n","version":"2.0NRT","bright_ti5":"282.91","frp":"0.55","daynight":"N","commune":"Port-Jérôme-sur-Seine","code_insee":"76476","departement":"Seine-Maritime","region":"Normandie"}},{"type":"Feature","geometry":{"type":"Point","coordinates":[0.53395,49.47654]},"properties":{"latitude":"49.47654","longitude":"0.53395","bright_ti4":"307.17","scan":"0.41","track":"0.37","acq_date":"2026-06-09","acq_time":"215","satellite":"N21","instrument":"VIIRS","confidence":"n","version":"2.0NRT","bright_ti5":"283.36","frp":"1.21","daynight":"N","commune":"Lillebonne","code_insee":"76384","departement":"Seine-Maritime","region":"Normandie"}},{"type":"Feature","geometry":{"type":"Point","coordinates":[2.27328,51.02631]},"properties":{"latitude":"51.02631","longitude":"2.27328","bright_ti4":"322.03","scan":"0.43","track":"0.38","acq_date":"2026-06-09","acq_time":"215","satellite":"N21","instrument":"VIIRS","confidence":"n","version":"2.0NRT","bright_ti5":"283.06","frp":"2.3","daynight":"N","commune":"Grande-Synthe","code_insee":"59271","departement":"Nord","region":"Hauts-de-France"}},{"type":"Feature","geometry":{"type":"Point","coordinates":[2.26735,51.02745]},"properties":{"latitude":"51.02745","longitude":"2.26735","bright_ti4":"302","scan":"0.43","track":"0.38","acq_date":"2026-06-09","acq_time":"215","satellite":"N21","instrument":"VIIRS","confidence":"n","version":"2.0NRT","bright_ti5":"283.01","frp":"1.94","daynight":"N","commune":"Grande-Synthe","code_insee":"59271","departement":"Nord","region":"Hauts-de-France"}},{"type":"Feature","geometry":{"type":"Point","coordinates":[2.27656,51.03304]},"properties":{"latitude":"51.03304","longitude":"2.27656","bright_ti4":"298.34","scan":"0.43","track":"0.38","acq_date":"2026-06-09","acq_time":"215","satellite":"N21","instrument":"VIIRS","confidence":"n","version":"2.0NRT","bright_ti5":"283.25","frp":"2.18","daynight":"N","commune":"Grande-Synthe","code_insee":"59271","departement":"Nord","region":"Hauts-de-France"}},{"type":"Feature","geometry":{"type":"Point","coordinates":[2.29006,51.03411]},"properties":{"latitude":"51.03411","longitude":"2.29006","bright_ti4":"321.42","scan":"0.43","track":"0.38","acq_date":"2026-06-09","acq_time":"215","satellite":"N21","instrument":"VIIRS","confidence":"n","version":"2.0NRT","bright_ti5":"284.44","frp":"3.4","daynight":"N","commune":"Grande-Synthe","code_insee":"59271","departement":"Nord","region":"Hauts-de-France"}},{"type":"Feature","geometry":{"type":"Point","coordinates":[2.28413,51.03526]},"properties":{"latitude":"51.03526","longitude":"2.28413","bright_ti4":"326.38","scan":"0.43","track":"0.38","acq_date":"2026-06-09","acq_time":"215","satellite":"N21","instrument":"VIIRS","confidence":"n","version":"2.0NRT","bright_ti5":"283.54","frp":"2.18","daynight":"N","commune":"Grande-Synthe","code_insee":"59271","departement":"Nord","region":"Hauts-de-France"}},{"type":"Feature","geometry":{"type":"Point","coordinates":[2.29335,51.04085]},"properties":{"latitude":"51.04085","longitude":"2.29335","bright_ti4":"303","scan":"0.43","track":"0.38","acq_date":"2026-06-09","acq_time":"215","satellite":"N21","instrument":"VIIRS","confidence":"n","version":"2.0NRT","bright_ti5":"285.48","frp":"1.06","daynight":"N","commune":"Grande-Synthe","code_insee":"59271","departement":"Nord","region":"Hauts-de-France"}},{"type":"Feature","geometry":{"type":"Point","coordinates":[2.30093,51.04307]},"properties":{"latitude":"51.04307","longitude":"2.30093","bright_ti4":"302.99","scan":"0.43","track":"0.38","acq_date":"2026-06-09","acq_time":"215","satellite":"N21","instrument":"VIIRS","confidence":"n","version":"2.0NRT","bright_ti5":"283.85","frp":"2.98","daynight":"N","commune":"Grande-Synthe","code_insee":"59271","departement":"Nord","region":"Hauts-de-France"}},{"type":"Feature","geometry":{"type":"Point","coordinates":[2.29499,51.04421]},"properties":{"latitude":"51.04421","longitude":"2.29499","bright_ti4":"332.15","scan":"0.43","track":"0.38","acq_date":"2026-06-09","acq_time":"215","satellite":"N21","instrument":"VIIRS","confidence":"n","version":"2.0NRT","bright_ti5":"285.26","frp":"2.98","daynight":"N","commune":"Grande-Synthe","code_insee":"59271","departement":"Nord","region":"Hauts-de-France"}},{"type":"Feature","geometry":{"type":"Point","coordinates":[4.87908,43.44428]},"properties":{"latitude":"43.44428","longitude":"4.87908","bright_ti4":"297.85","scan":"0.52","track":"0.5","acq_date":"2026-06-09","acq_time":"217","satellite":"N21","instrument":"VIIRS","confidence":"n","version":"2.0NRT","bright_ti5":"284.67","frp":"1.36","daynight":"N","commune":"Fos-sur-Mer","code_insee":"13039","departement":"Bouches-du-Rhône","region":"Provence-Alpes-Côte d'Azur"}},{"type":"Feature","geometry":{"type":"Point","coordinates":[5.00858,43.37727]},"properties":{"latitude":"43.37727","longitude":"5.00858","bright_ti4":"335.3","scan":"0.43","track":"0.46","acq_date":"2026-06-09","acq_time":"1202","satellite":"N21","instrument":"VIIRS","confidence":"n","version":"2.0NRT","bright_ti5":"300.13","frp":"7.3","daynight":"D","commune":"Martigues","code_insee":"13056","departement":"Bouches-du-Rhône","region":"Provence-Alpes-Côte d'Azur"}},{"type":"Feature","geometry":{"type":"Point","coordinates":[2.29859,51.04649]},"properties":{"latitude":"51.04649","longitude":"2.29859","bright_ti4":"331.08","scan":"0.55","track":"0.43","acq_date":"2026-06-09","acq_time":"1204","satellite":"N21","instrument":"VIIRS","confidence":"n","version":"2.0NRT","bright_ti5":"296.71","frp":"5.91","daynight":"D","commune":"Grande-Synthe","code_insee":"59271","departement":"Nord","region":"Hauts-de-France"}},{"type":"Feature","geometry":{"type":"Point","coordinates":[4.87808,43.44367]},"properties":{"latitude":"43.44367","longitude":"4.87808","bright_ti4":"344.03","scan":"0.66","track":"0.73","acq_date":"2026-06-09","acq_time":"1342","satellite":"N21","instrument":"VIIRS","confidence":"n","version":"2.0NRT","bright_ti5":"292.31","frp":"9.57","daynight":"D","commune":"Fos-sur-Mer","code_insee":"13039","departement":"Bouches-du-Rhône","region":"Provence-Alpes-Côte d'Azur"}},{"type":"Feature","geometry":{"type":"Point","coordinates":[4.87902,43.44534]},"properties":{"latitude":"43.44534","longitude":"4.87902","bright_ti4":"345.77","scan":"0.66","track":"0.73","acq_date":"2026-06-09","acq_time":"1342","satellite":"N21","instrument":"VIIRS","confidence":"n","version":"2.0NRT","bright_ti5":"292.73","frp":"10.97","daynight":"D","commune":"Fos-sur-Mer","code_insee":"13039","departement":"Bouches-du-Rhône","region":"Provence-Alpes-Côte d'Azur"}}]}