{"type":"FeatureCollection","features":[{"type":"Feature","geometry":{"type":"Point","coordinates":[0.21683,49.49115]},"properties":{"latitude":"49.49115","longitude":"0.21683","bright_ti4":"302.06","scan":"0.39","track":"0.59","acq_date":"2026-06-30","acq_time":"115","satellite":"N","instrument":"VIIRS","confidence":"n","version":"2.0NRT","bright_ti5":"278.06","frp":"0.55","daynight":"N","commune":"Gonfreville-l'Orcher","code_insee":"76305","departement":"Seine-Maritime","region":"Normandie"}},{"type":"Feature","geometry":{"type":"Point","coordinates":[2.26698,51.01745]},"properties":{"latitude":"51.01745","longitude":"2.26698","bright_ti4":"306.13","scan":"0.33","track":"0.55","acq_date":"2026-06-30","acq_time":"115","satellite":"N","instrument":"VIIRS","confidence":"n","version":"2.0NRT","bright_ti5":"282.41","frp":"0.43","daynight":"N","commune":"Grande-Synthe","code_insee":"59271","departement":"Nord","region":"Hauts-de-France"}},{"type":"Feature","geometry":{"type":"Point","coordinates":[2.28792,51.03206]},"properties":{"latitude":"51.03206","longitude":"2.28792","bright_ti4":"296.91","scan":"0.32","track":"0.55","acq_date":"2026-06-30","acq_time":"115","satellite":"N","instrument":"VIIRS","confidence":"n","version":"2.0NRT","bright_ti5":"283.23","frp":"0.71","daynight":"N","commune":"Grande-Synthe","code_insee":"59271","departement":"Nord","region":"Hauts-de-France"}},{"type":"Feature","geometry":{"type":"Point","coordinates":[2.28316,51.03226]},"properties":{"latitude":"51.03226","longitude":"2.28316","bright_ti4":"306.44","scan":"0.32","track":"0.55","acq_date":"2026-06-30","acq_time":"115","satellite":"N","instrument":"VIIRS","confidence":"n","version":"2.0NRT","bright_ti5":"285.43","frp":"1.47","daynight":"N","commune":"Grande-Synthe","code_insee":"59271","departement":"Nord","region":"Hauts-de-France"}},{"type":"Feature","geometry":{"type":"Point","coordinates":[2.28848,51.0372]},"properties":{"latitude":"51.0372","longitude":"2.28848","bright_ti4":"313.27","scan":"0.32","track":"0.55","acq_date":"2026-06-30","acq_time":"115","satellite":"N","instrument":"VIIRS","confidence":"n","version":"2.0NRT","bright_ti5":"283.98","frp":"0.96","daynight":"N","commune":"Grande-Synthe","code_insee":"59271","departement":"Nord","region":"Hauts-de-France"}},{"type":"Feature","geometry":{"type":"Point","coordinates":[2.28372,51.0374]},"properties":{"latitude":"51.0374","longitude":"2.28372","bright_ti4":"317.56","scan":"0.32","track":"0.55","acq_date":"2026-06-30","acq_time":"115","satellite":"N","instrument":"VIIRS","confidence":"n","version":"2.0NRT","bright_ti5":"285.28","frp":"2.28","daynight":"N","commune":"Grande-Synthe","code_insee":"59271","departement":"Nord","region":"Hauts-de-France"}},{"type":"Feature","geometry":{"type":"Point","coordinates":[2.29385,51.04213]},"properties":{"latitude":"51.04213","longitude":"2.29385","bright_ti4":"311.33","scan":"0.32","track":"0.55","acq_date":"2026-06-30","acq_time":"115","satellite":"N","instrument":"VIIRS","confidence":"n","version":"2.0NRT","bright_ti5":"286.9","frp":"0.96","daynight":"N","commune":"Grande-Synthe","code_insee":"59271","departement":"Nord","region":"Hauts-de-France"}},{"type":"Feature","geometry":{"type":"Point","coordinates":[2.28906,51.04234]},"properties":{"latitude":"51.04234","longitude":"2.28906","bright_ti4":"297.48","scan":"0.32","track":"0.55","acq_date":"2026-06-30","acq_time":"115","satellite":"N","instrument":"VIIRS","confidence":"n","version":"2.0NRT","bright_ti5":"285.38","frp":"0.96","daynight":"N","commune":"Grande-Synthe","code_insee":"59271","departement":"Nord","region":"Hauts-de-France"}},{"type":"Feature","geometry":{"type":"Point","coordinates":[2.323,51.04604]},"properties":{"latitude":"51.04604","longitude":"2.323","bright_ti4":"295.55","scan":"0.32","track":"0.55","acq_date":"2026-06-30","acq_time":"115","satellite":"N","instrument":"VIIRS","confidence":"n","version":"2.0NRT","bright_ti5":"283.86","frp":"1.06","daynight":"N","commune":"Dunkerque","code_insee":"59183","departement":"Nord","region":"Hauts-de-France"}},{"type":"Feature","geometry":{"type":"Point","coordinates":[2.31826,51.04624]},"properties":{"latitude":"51.04624","longitude":"2.31826","bright_ti4":"317.58","scan":"0.32","track":"0.55","acq_date":"2026-06-30","acq_time":"115","satellite":"N","instrument":"VIIRS","confidence":"n","version":"2.0NRT","bright_ti5":"285.93","frp":"1.06","daynight":"N","commune":"Dunkerque","code_insee":"59183","departement":"Nord","region":"Hauts-de-France"}},{"type":"Feature","geometry":{"type":"Point","coordinates":[2.29441,51.04727]},"properties":{"latitude":"51.04727","longitude":"2.29441","bright_ti4":"344.62","scan":"0.32","track":"0.55","acq_date":"2026-06-30","acq_time":"115","satellite":"N","instrument":"VIIRS","confidence":"n","version":"2.0NRT","bright_ti5":"287.94","frp":"4.04","daynight":"N","commune":"Grande-Synthe","code_insee":"59271","departement":"Nord","region":"Hauts-de-France"}},{"type":"Feature","geometry":{"type":"Point","coordinates":[2.31874,51.05138]},"properties":{"latitude":"51.05138","longitude":"2.31874","bright_ti4":"312.63","scan":"0.32","track":"0.55","acq_date":"2026-06-30","acq_time":"115","satellite":"N","instrument":"VIIRS","confidence":"n","version":"2.0NRT","bright_ti5":"286.85","frp":"1.06","daynight":"N","commune":"Dunkerque","code_insee":"59183","departement":"Nord","region":"Hauts-de-France"}},{"type":"Feature","geometry":{"type":"Point","coordinates":[4.89388,43.43362]},"properties":{"latitude":"43.43362","longitude":"4.89388","bright_ti4":"308.26","scan":"0.42","track":"0.45","acq_date":"2026-06-30","acq_time":"117","satellite":"N","instrument":"VIIRS","confidence":"n","version":"2.0NRT","bright_ti5":"294.24","frp":"1.94","daynight":"N","commune":"Fos-sur-Mer","code_insee":"13039","departement":"Bouches-du-Rhône","region":"Provence-Alpes-Côte d'Azur"}},{"type":"Feature","geometry":{"type":"Point","coordinates":[4.88938,43.43829]},"properties":{"latitude":"43.43829","longitude":"4.88938","bright_ti4":"312.11","scan":"0.42","track":"0.45","acq_date":"2026-06-30","acq_time":"117","satellite":"N","instrument":"VIIRS","confidence":"n","version":"2.0NRT","bright_ti5":"294.03","frp":"2.19","daynight":"N","commune":"Fos-sur-Mer","code_insee":"13039","departement":"Bouches-du-Rhône","region":"Provence-Alpes-Côte d'Azur"}},{"type":"Feature","geometry":{"type":"Point","coordinates":[4.89068,43.43853]},"properties":{"latitude":"43.43853","longitude":"4.89068","bright_ti4":"313.14","scan":"0.42","track":"0.45","acq_date":"2026-06-30","acq_time":"117","satellite":"N","instrument":"VIIRS","confidence":"n","version":"2.0NRT","bright_ti5":"294.37","frp":"2.27","daynight":"N","commune":"Fos-sur-Mer","code_insee":"13039","departement":"Bouches-du-Rhône","region":"Provence-Alpes-Côte d'Azur"}},{"type":"Feature","geometry":{"type":"Point","coordinates":[4.87964,43.44346]},"properties":{"latitude":"43.44346","longitude":"4.87964","bright_ti4":"330.21","scan":"0.42","track":"0.45","acq_date":"2026-06-30","acq_time":"117","satellite":"N","instrument":"VIIRS","confidence":"n","version":"2.0NRT","bright_ti5":"293.79","frp":"3.12","daynight":"N","commune":"Fos-sur-Mer","code_insee":"13039","departement":"Bouches-du-Rhône","region":"Provence-Alpes-Côte d'Azur"}},{"type":"Feature","geometry":{"type":"Point","coordinates":[4.88092,43.44365]},"properties":{"latitude":"43.44365","longitude":"4.88092","bright_ti4":"336.12","scan":"0.42","track":"0.45","acq_date":"2026-06-30","acq_time":"117","satellite":"N","instrument":"VIIRS","confidence":"n","version":"2.0NRT","bright_ti5":"294.3","frp":"3.83","daynight":"N","commune":"Fos-sur-Mer","code_insee":"13039","departement":"Bouches-du-Rhône","region":"Provence-Alpes-Côte d'Azur"}},{"type":"Feature","geometry":{"type":"Point","coordinates":[4.89607,43.44617]},"properties":{"latitude":"43.44617","longitude":"4.89607","bright_ti4":"310.45","scan":"0.42","track":"0.45","acq_date":"2026-06-30","acq_time":"117","satellite":"N","instrument":"VIIRS","confidence":"n","version":"2.0NRT","bright_ti5":"294.61","frp":"1.88","daynight":"N","commune":"Fos-sur-Mer","code_insee":"13039","departement":"Bouches-du-Rhône","region":"Provence-Alpes-Côte d'Azur"}},{"type":"Feature","geometry":{"type":"Point","coordinates":[4.89737,43.44645]},"properties":{"latitude":"43.44645","longitude":"4.89737","bright_ti4":"310.32","scan":"0.42","track":"0.45","acq_date":"2026-06-30","acq_time":"117","satellite":"N","instrument":"VIIRS","confidence":"n","version":"2.0NRT","bright_ti5":"294.49","frp":"1.82","daynight":"N","commune":"Fos-sur-Mer","code_insee":"13039","departement":"Bouches-du-Rhône","region":"Provence-Alpes-Côte d'Azur"}},{"type":"Feature","geometry":{"type":"Point","coordinates":[0.85896,43.80703]},"properties":{"latitude":"43.80703","longitude":"0.85896","bright_ti4":"304.39","scan":"0.33","track":"0.55","acq_date":"2026-06-30","acq_time":"117","satellite":"N","instrument":"VIIRS","confidence":"n","version":"2.0NRT","bright_ti5":"288.16","frp":"0.87","daynight":"N","commune":"Homps","code_insee":"32154","departement":"Gers","region":"Occitanie"}},{"type":"Feature","geometry":{"type":"Point","coordinates":[0.85972,43.81219]},"properties":{"latitude":"43.81219","longitude":"0.85972","bright_ti4":"329.26","scan":"0.33","track":"0.55","acq_date":"2026-06-30","acq_time":"117","satellite":"N","instrument":"VIIRS","confidence":"n","version":"2.0NRT","bright_ti5":"289.14","frp":"2.72","daynight":"N","commune":"Homps","code_insee":"32154","departement":"Gers","region":"Occitanie"}},{"type":"Feature","geometry":{"type":"Point","coordinates":[5.6687,45.23148]},"properties":{"latitude":"45.23148","longitude":"5.6687","bright_ti4":"296.63","scan":"0.4","track":"0.44","acq_date":"2026-06-30","acq_time":"117","satellite":"N","instrument":"VIIRS","confidence":"n","version":"2.0NRT","bright_ti5":"282.96","frp":"0.22","daynight":"N","commune":"Saint-Égrève","code_insee":"38382","departement":"Isère","region":"Auvergne-Rhône-Alpes"}},{"type":"Feature","geometry":{"type":"Point","coordinates":[6.10901,48.61265]},"properties":{"latitude":"48.61265","longitude":"6.10901","bright_ti4":"301.5","scan":"0.42","track":"0.45","acq_date":"2026-06-30","acq_time":"117","satellite":"N","instrument":"VIIRS","confidence":"n","version":"2.0NRT","bright_ti5":"288.48","frp":"1.06","daynight":"N","commune":"Neuves-Maisons","code_insee":"54397","departement":"Meurthe-et-Moselle","region":"Grand Est"}},{"type":"Feature","geometry":{"type":"Point","coordinates":[0.98875,43.18484]},"properties":{"latitude":"43.18484","longitude":"0.98875","bright_ti4":"299.99","scan":"0.32","track":"0.55","acq_date":"2026-06-30","acq_time":"120","satellite":"N","instrument":"VIIRS","confidence":"n","version":"2.0NRT","bright_ti5":"289.24","frp":"0.43","daynight":"N","commune":"Martres-Tolosane","code_insee":"31324","departement":"Haute-Garonne","region":"Occitanie"}},{"type":"Feature","geometry":{"type":"Point","coordinates":[4.87799,43.44599]},"properties":{"latitude":"43.44599","longitude":"4.87799","bright_ti4":"321.76","scan":"0.6","track":"0.71","acq_date":"2026-06-30","acq_time":"258","satellite":"N","instrument":"VIIRS","confidence":"n","version":"2.0NRT","bright_ti5":"288.03","frp":"3.01","daynight":"N","commune":"Fos-sur-Mer","code_insee":"13039","departement":"Bouches-du-Rhône","region":"Provence-Alpes-Côte d'Azur"}},{"type":"Feature","geometry":{"type":"Point","coordinates":[4.89597,43.4473]},"properties":{"latitude":"43.4473","longitude":"4.89597","bright_ti4":"307.67","scan":"0.61","track":"0.71","acq_date":"2026-06-30","acq_time":"258","satellite":"N","instrument":"VIIRS","confidence":"n","version":"2.0NRT","bright_ti5":"288.66","frp":"1.49","daynight":"N","commune":"Fos-sur-Mer","code_insee":"13039","departement":"Bouches-du-Rhône","region":"Provence-Alpes-Côte d'Azur"}},{"type":"Feature","geometry":{"type":"Point","coordinates":[0.858,43.81054]},"properties":{"latitude":"43.81054","longitude":"0.858","bright_ti4":"320.06","scan":"0.39","track":"0.59","acq_date":"2026-06-30","acq_time":"258","satellite":"N","instrument":"VIIRS","confidence":"n","version":"2.0NRT","bright_ti5":"288.42","frp":"2.22","daynight":"N","commune":"Homps","code_insee":"32154","departement":"Gers","region":"Occitanie"}},{"type":"Feature","geometry":{"type":"Point","coordinates":[-0.00352,44.65148]},"properties":{"latitude":"44.65148","longitude":"-0.00352","bright_ti4":"300.54","scan":"0.34","track":"0.56","acq_date":"2026-06-30","acq_time":"258","satellite":"N","instrument":"VIIRS","confidence":"n","version":"2.0NRT","bright_ti5":"287.33","frp":"0.29","daynight":"N","commune":"Mesterrieux","code_insee":"33283","departement":"Gironde","region":"Nouvelle-Aquitaine"}},{"type":"Feature","geometry":{"type":"Point","coordinates":[-0.00509,44.65429]},"properties":{"latitude":"44.65429","longitude":"-0.00509","bright_ti4":"297.16","scan":"0.34","track":"0.56","acq_date":"2026-06-30","acq_time":"258","satellite":"N","instrument":"VIIRS","confidence":"n","version":"2.0NRT","bright_ti5":"287.12","frp":"0.43","daynight":"N","commune":"Rimons","code_insee":"33353","departement":"Gironde","region":"Nouvelle-Aquitaine"}},{"type":"Feature","geometry":{"type":"Point","coordinates":[-2.05736,47.31727]},"properties":{"latitude":"47.31727","longitude":"-2.05736","bright_ti4":"297.99","scan":"0.46","track":"0.47","acq_date":"2026-06-30","acq_time":"258","satellite":"N","instrument":"VIIRS","confidence":"n","version":"2.0NRT","bright_ti5":"283.85","frp":"0.53","daynight":"N","commune":"Donges","code_insee":"44052","departement":"Loire-Atlantique","region":"Pays de la Loire"}},{"type":"Feature","geometry":{"type":"Point","coordinates":[2.84937,48.37903]},"properties":{"latitude":"48.37903","longitude":"2.84937","bright_ti4":"301.11","scan":"0.35","track":"0.56","acq_date":"2026-06-30","acq_time":"258","satellite":"N","instrument":"VIIRS","confidence":"n","version":"2.0NRT","bright_ti5":"288.24","frp":"0.72","daynight":"N","commune":"La Grande-Paroisse","code_insee":"77210","departement":"Seine-et-Marne","region":"Île-de-France"}},{"type":"Feature","geometry":{"type":"Point","coordinates":[4.56176,48.76973]},"properties":{"latitude":"48.76973","longitude":"4.56176","bright_ti4":"297.49","scan":"0.4","track":"0.6","acq_date":"2026-06-30","acq_time":"258","satellite":"N","instrument":"VIIRS","confidence":"n","version":"2.0NRT","bright_ti5":"282.8","frp":"0.65","daynight":"N","commune":"Couvrot","code_insee":"51195","departement":"Marne","region":"Grand Est"}},{"type":"Feature","geometry":{"type":"Point","coordinates":[5.09673,48.86266]},"properties":{"latitude":"48.86266","longitude":"5.09673","bright_ti4":"336.2","scan":"0.76","track":"0.77","acq_date":"2026-06-30","acq_time":"1104","satellite":"N","instrument":"VIIRS","confidence":"n","version":"2.0NRT","bright_ti5":"288.6","frp":"9.18","daynight":"D","commune":"Louppy-le-Château","code_insee":"55304","departement":"Meuse","region":"Grand Est"}},{"type":"Feature","geometry":{"type":"Point","coordinates":[5.10636,48.86647]},"properties":{"latitude":"48.86647","longitude":"5.10636","bright_ti4":"340.99","scan":"0.76","track":"0.77","acq_date":"2026-06-30","acq_time":"1104","satellite":"N","instrument":"VIIRS","confidence":"n","version":"2.0NRT","bright_ti5":"287.61","frp":"9.18","daynight":"D","commune":"Les Hauts-de-Chée","code_insee":"55123","departement":"Meuse","region":"Grand Est"}},{"type":"Feature","geometry":{"type":"Point","coordinates":[5.1016,48.86879]},"properties":{"latitude":"48.86879","longitude":"5.1016","bright_ti4":"367","scan":"0.76","track":"0.77","acq_date":"2026-06-30","acq_time":"1104","satellite":"N","instrument":"VIIRS","confidence":"h","version":"2.0NRT","bright_ti5":"291.57","frp":"31.56","daynight":"D","commune":"Louppy-le-Château","code_insee":"55304","departement":"Meuse","region":"Grand Est"}},{"type":"Feature","geometry":{"type":"Point","coordinates":[5.09112,48.86892]},"properties":{"latitude":"48.86892","longitude":"5.09112","bright_ti4":"330.27","scan":"0.76","track":"0.77","acq_date":"2026-06-30","acq_time":"1104","satellite":"N","instrument":"VIIRS","confidence":"n","version":"2.0NRT","bright_ti5":"289.65","frp":"7.55","daynight":"D","commune":"Louppy-le-Château","code_insee":"55304","departement":"Meuse","region":"Grand Est"}},{"type":"Feature","geometry":{"type":"Point","coordinates":[5.10082,48.87275]},"properties":{"latitude":"48.87275","longitude":"5.10082","bright_ti4":"331.17","scan":"0.76","track":"0.77","acq_date":"2026-06-30","acq_time":"1104","satellite":"N","instrument":"VIIRS","confidence":"n","version":"2.0NRT","bright_ti5":"289.55","frp":"7.55","daynight":"D","commune":"Louppy-le-Château","code_insee":"55304","departement":"Meuse","region":"Grand Est"}},{"type":"Feature","geometry":{"type":"Point","coordinates":[1.26605,42.90646]},"properties":{"latitude":"42.90646","longitude":"1.26605","bright_ti4":"330.89","scan":"0.43","track":"0.38","acq_date":"2026-06-30","acq_time":"1244","satellite":"N","instrument":"VIIRS","confidence":"n","version":"2.0NRT","bright_ti5":"293.23","frp":"2.93","daynight":"D","commune":"Aleu","code_insee":"09005","departement":"Ariège","region":"Occitanie"}},{"type":"Feature","geometry":{"type":"Point","coordinates":[4.89898,43.44361]},"properties":{"latitude":"43.44361","longitude":"4.89898","bright_ti4":"339.67","scan":"0.38","track":"0.36","acq_date":"2026-06-30","acq_time":"1244","satellite":"N","instrument":"VIIRS","confidence":"n","version":"2.0NRT","bright_ti5":"308.68","frp":"3.76","daynight":"D","commune":"Fos-sur-Mer","code_insee":"13039","departement":"Bouches-du-Rhône","region":"Provence-Alpes-Côte d'Azur"}},{"type":"Feature","geometry":{"type":"Point","coordinates":[4.89805,43.4469]},"properties":{"latitude":"43.4469","longitude":"4.89805","bright_ti4":"340.05","scan":"0.38","track":"0.36","acq_date":"2026-06-30","acq_time":"1244","satellite":"N","instrument":"VIIRS","confidence":"n","version":"2.0NRT","bright_ti5":"309.63","frp":"5.54","daynight":"D","commune":"Fos-sur-Mer","code_insee":"13039","departement":"Bouches-du-Rhône","region":"Provence-Alpes-Côte d'Azur"}},{"type":"Feature","geometry":{"type":"Point","coordinates":[2.62816,47.6985]},"properties":{"latitude":"47.6985","longitude":"2.62816","bright_ti4":"344.39","scan":"0.38","track":"0.36","acq_date":"2026-06-30","acq_time":"1244","satellite":"N","instrument":"VIIRS","confidence":"n","version":"2.0NRT","bright_ti5":"309.95","frp":"4.87","daynight":"D","commune":"Gien","code_insee":"45155","departement":"Loiret","region":"Centre-Val de Loire"}},{"type":"Feature","geometry":{"type":"Point","coordinates":[6.11109,48.60892]},"properties":{"latitude":"48.60892","longitude":"6.11109","bright_ti4":"334.7","scan":"0.43","track":"0.38","acq_date":"2026-06-30","acq_time":"1244","satellite":"N","instrument":"VIIRS","confidence":"n","version":"2.0NRT","bright_ti5":"301.82","frp":"5.54","daynight":"D","commune":"Neuves-Maisons","code_insee":"54397","departement":"Meurthe-et-Moselle","region":"Grand Est"}},{"type":"Feature","geometry":{"type":"Point","coordinates":[1.92813,48.75618]},"properties":{"latitude":"48.75618","longitude":"1.92813","bright_ti4":"330.69","scan":"0.38","track":"0.36","acq_date":"2026-06-30","acq_time":"1244","satellite":"N","instrument":"VIIRS","confidence":"l","version":"2.0NRT","bright_ti5":"305.3","frp":"3.68","daynight":"D","commune":"Coignières","code_insee":"78168","departement":"Yvelines","region":"Île-de-France"}},{"type":"Feature","geometry":{"type":"Point","coordinates":[2.7916,48.87659]},"properties":{"latitude":"48.87659","longitude":"2.7916","bright_ti4":"331.6","scan":"0.38","track":"0.36","acq_date":"2026-06-30","acq_time":"1244","satellite":"N","instrument":"VIIRS","confidence":"l","version":"2.0NRT","bright_ti5":"303.66","frp":"5.06","daynight":"D","commune":"Coupvray","code_insee":"77132","departement":"Seine-et-Marne","region":"Île-de-France"}},{"type":"Feature","geometry":{"type":"Point","coordinates":[2.85376,48.38082]},"properties":{"latitude":"48.38082","longitude":"2.85376","bright_ti4":"301.97","scan":"0.48","track":"0.4","acq_date":"2026-06-30","acq_time":"137","satellite":"N20","instrument":"VIIRS","confidence":"n","version":"2.0NRT","bright_ti5":"289.4","frp":"1.49","daynight":"N","commune":"Vernou-la-Celle-sur-Seine","code_insee":"77494","departement":"Seine-et-Marne","region":"Île-de-France"}},{"type":"Feature","geometry":{"type":"Point","coordinates":[6.12018,48.61111]},"properties":{"latitude":"48.61111","longitude":"6.12018","bright_ti4":"310.18","scan":"0.4","track":"0.37","acq_date":"2026-06-30","acq_time":"137","satellite":"N20","instrument":"VIIRS","confidence":"n","version":"2.0NRT","bright_ti5":"290.34","frp":"1.34","daynight":"N","commune":"Neuves-Maisons","code_insee":"54397","departement":"Meurthe-et-Moselle","region":"Grand Est"}},{"type":"Feature","geometry":{"type":"Point","coordinates":[6.96738,48.69102]},"properties":{"latitude":"48.69102","longitude":"6.96738","bright_ti4":"302.84","scan":"0.39","track":"0.36","acq_date":"2026-06-30","acq_time":"137","satellite":"N20","instrument":"VIIRS","confidence":"n","version":"2.0NRT","bright_ti5":"289.69","frp":"0.82","daynight":"N","commune":"Héming","code_insee":"57314","departement":"Moselle","region":"Grand Est"}},{"type":"Feature","geometry":{"type":"Point","coordinates":[5.68472,48.71647]},"properties":{"latitude":"48.71647","longitude":"5.68472","bright_ti4":"304.17","scan":"0.41","track":"0.37","acq_date":"2026-06-30","acq_time":"137","satellite":"N20","instrument":"VIIRS","confidence":"n","version":"2.0NRT","bright_ti5":"288.83","frp":"0.52","daynight":"N","commune":"Sorcy-Saint-Martin","code_insee":"55496","departement":"Meuse","region":"Grand Est"}},{"type":"Feature","geometry":{"type":"Point","coordinates":[2.73918,48.94757]},"properties":{"latitude":"48.94757","longitude":"2.73918","bright_ti4":"299.86","scan":"0.49","track":"0.4","acq_date":"2026-06-30","acq_time":"137","satellite":"N20","instrument":"VIIRS","confidence":"n","version":"2.0NRT","bright_ti5":"286.23","frp":"0.52","daynight":"N","commune":"Fresnes-sur-Marne","code_insee":"77196","departement":"Seine-et-Marne","region":"Île-de-France"}},{"type":"Feature","geometry":{"type":"Point","coordinates":[0.5332,49.4781]},"properties":{"latitude":"49.4781","longitude":"0.5332","bright_ti4":"305.92","scan":"0.4","track":"0.45","acq_date":"2026-06-30","acq_time":"137","satellite":"N20","instrument":"VIIRS","confidence":"n","version":"2.0NRT","bright_ti5":"284.26","frp":"1.33","daynight":"N","commune":"Lillebonne","code_insee":"76384","departement":"Seine-Maritime","region":"Normandie"}},{"type":"Feature","geometry":{"type":"Point","coordinates":[2.26687,51.01567]},"properties":{"latitude":"51.01567","longitude":"2.26687","bright_ti4":"296.87","scan":"0.54","track":"0.42","acq_date":"2026-06-30","acq_time":"137","satellite":"N20","instrument":"VIIRS","confidence":"n","version":"2.0NRT","bright_ti5":"283.19","frp":"0.73","daynight":"N","commune":"Grande-Synthe","code_insee":"59271","departement":"Nord","region":"Hauts-de-France"}},{"type":"Feature","geometry":{"type":"Point","coordinates":[2.25527,51.03265]},"properties":{"latitude":"51.03265","longitude":"2.25527","bright_ti4":"304.19","scan":"0.54","track":"0.42","acq_date":"2026-06-30","acq_time":"137","satellite":"N20","instrument":"VIIRS","confidence":"n","version":"2.0NRT","bright_ti5":"284.79","frp":"1.62","daynight":"N","commune":"Dunkerque","code_insee":"59183","departement":"Nord","region":"Hauts-de-France"}},{"type":"Feature","geometry":{"type":"Point","coordinates":[2.28709,51.03351]},"properties":{"latitude":"51.03351","longitude":"2.28709","bright_ti4":"318.66","scan":"0.54","track":"0.42","acq_date":"2026-06-30","acq_time":"137","satellite":"N20","instrument":"VIIRS","confidence":"n","version":"2.0NRT","bright_ti5":"284.91","frp":"2.18","daynight":"N","commune":"Grande-Synthe","code_insee":"59271","departement":"Nord","region":"Hauts-de-France"}},{"type":"Feature","geometry":{"type":"Point","coordinates":[2.28803,51.03739]},"properties":{"latitude":"51.03739","longitude":"2.28803","bright_ti4":"311.24","scan":"0.54","track":"0.42","acq_date":"2026-06-30","acq_time":"137","satellite":"N20","instrument":"VIIRS","confidence":"n","version":"2.0NRT","bright_ti5":"284.3","frp":"2.18","daynight":"N","commune":"Grande-Synthe","code_insee":"59271","departement":"Nord","region":"Hauts-de-France"}},{"type":"Feature","geometry":{"type":"Point","coordinates":[2.29765,51.04437]},"properties":{"latitude":"51.04437","longitude":"2.29765","bright_ti4":"334.43","scan":"0.54","track":"0.42","acq_date":"2026-06-30","acq_time":"137","satellite":"N20","instrument":"VIIRS","confidence":"n","version":"2.0NRT","bright_ti5":"285.35","frp":"4.93","daynight":"N","commune":"Grande-Synthe","code_insee":"59271","departement":"Nord","region":"Hauts-de-France"}},{"type":"Feature","geometry":{"type":"Point","coordinates":[2.32169,51.04596]},"properties":{"latitude":"51.04596","longitude":"2.32169","bright_ti4":"296.48","scan":"0.54","track":"0.42","acq_date":"2026-06-30","acq_time":"137","satellite":"N20","instrument":"VIIRS","confidence":"n","version":"2.0NRT","bright_ti5":"278.87","frp":"1.26","daynight":"N","commune":"Dunkerque","code_insee":"59183","departement":"Nord","region":"Hauts-de-France"}},{"type":"Feature","geometry":{"type":"Point","coordinates":[2.32261,51.04983]},"properties":{"latitude":"51.04983","longitude":"2.32261","bright_ti4":"315.58","scan":"0.54","track":"0.42","acq_date":"2026-06-30","acq_time":"137","satellite":"N20","instrument":"VIIRS","confidence":"n","version":"2.0NRT","bright_ti5":"280.42","frp":"1.26","daynight":"N","commune":"Dunkerque","code_insee":"59183","departement":"Nord","region":"Hauts-de-France"}},{"type":"Feature","geometry":{"type":"Point","coordinates":[4.88985,43.43857]},"properties":{"latitude":"43.43857","longitude":"4.88985","bright_ti4":"312.38","scan":"0.39","track":"0.36","acq_date":"2026-06-30","acq_time":"139","satellite":"N20","instrument":"VIIRS","confidence":"n","version":"2.0NRT","bright_ti5":"294.78","frp":"1.7","daynight":"N","commune":"Fos-sur-Mer","code_insee":"13039","departement":"Bouches-du-Rhône","region":"Provence-Alpes-Côte d'Azur"}},{"type":"Feature","geometry":{"type":"Point","coordinates":[4.8812,43.44327]},"properties":{"latitude":"43.44327","longitude":"4.8812","bright_ti4":"329.79","scan":"0.39","track":"0.36","acq_date":"2026-06-30","acq_time":"139","satellite":"N20","instrument":"VIIRS","confidence":"n","version":"2.0NRT","bright_ti5":"295.38","frp":"3.09","daynight":"N","commune":"Fos-sur-Mer","code_insee":"13039","departement":"Bouches-du-Rhône","region":"Provence-Alpes-Côte d'Azur"}},{"type":"Feature","geometry":{"type":"Point","coordinates":[4.89167,43.44517]},"properties":{"latitude":"43.44517","longitude":"4.89167","bright_ti4":"306.62","scan":"0.39","track":"0.36","acq_date":"2026-06-30","acq_time":"139","satellite":"N20","instrument":"VIIRS","confidence":"n","version":"2.0NRT","bright_ti5":"294.32","frp":"1.19","daynight":"N","commune":"Fos-sur-Mer","code_insee":"13039","departement":"Bouches-du-Rhône","region":"Provence-Alpes-Côte d'Azur"}},{"type":"Feature","geometry":{"type":"Point","coordinates":[4.89737,43.44777]},"properties":{"latitude":"43.44777","longitude":"4.89737","bright_ti4":"311.02","scan":"0.39","track":"0.36","acq_date":"2026-06-30","acq_time":"139","satellite":"N20","instrument":"VIIRS","confidence":"n","version":"2.0NRT","bright_ti5":"295.56","frp":"2.09","daynight":"N","commune":"Fos-sur-Mer","code_insee":"13039","departement":"Bouches-du-Rhône","region":"Provence-Alpes-Côte d'Azur"}},{"type":"Feature","geometry":{"type":"Point","coordinates":[7.37524,43.79312]},"properties":{"latitude":"43.79312","longitude":"7.37524","bright_ti4":"310.31","scan":"0.39","track":"0.36","acq_date":"2026-06-30","acq_time":"139","satellite":"N20","instrument":"VIIRS","confidence":"n","version":"2.0NRT","bright_ti5":"293.6","frp":"1.19","daynight":"N","commune":"Blausasc","code_insee":"06019","departement":"Alpes-Maritimes","region":"Provence-Alpes-Côte d'Azur"}},{"type":"Feature","geometry":{"type":"Point","coordinates":[0.86278,43.80834]},"properties":{"latitude":"43.80834","longitude":"0.86278","bright_ti4":"327.28","scan":"0.51","track":"0.41","acq_date":"2026-06-30","acq_time":"139","satellite":"N20","instrument":"VIIRS","confidence":"n","version":"2.0NRT","bright_ti5":"290.95","frp":"2.87","daynight":"N","commune":"Homps","code_insee":"32154","departement":"Gers","region":"Occitanie"}},{"type":"Feature","geometry":{"type":"Point","coordinates":[0.86263,43.8086]},"properties":{"latitude":"43.8086","longitude":"0.86263","bright_ti4":"328.42","scan":"0.51","track":"0.41","acq_date":"2026-06-30","acq_time":"139","satellite":"N20","instrument":"VIIRS","confidence":"n","version":"2.0NRT","bright_ti5":"291.22","frp":"4.25","daynight":"N","commune":"Homps","code_insee":"32154","departement":"Gers","region":"Occitanie"}},{"type":"Feature","geometry":{"type":"Point","coordinates":[0.85635,43.80902]},"properties":{"latitude":"43.80902","longitude":"0.85635","bright_ti4":"307.36","scan":"0.51","track":"0.41","acq_date":"2026-06-30","acq_time":"139","satellite":"N20","instrument":"VIIRS","confidence":"n","version":"2.0NRT","bright_ti5":"289.49","frp":"2.87","daynight":"N","commune":"Homps","code_insee":"32154","departement":"Gers","region":"Occitanie"}},{"type":"Feature","geometry":{"type":"Point","coordinates":[5.82235,45.91279]},"properties":{"latitude":"45.91279","longitude":"5.82235","bright_ti4":"300.61","scan":"0.39","track":"0.36","acq_date":"2026-06-30","acq_time":"139","satellite":"N20","instrument":"VIIRS","confidence":"n","version":"2.0NRT","bright_ti5":"283.54","frp":"0.77","daynight":"N","commune":"Anglefort","code_insee":"01010","departement":"Ain","region":"Auvergne-Rhône-Alpes"}},{"type":"Feature","geometry":{"type":"Point","coordinates":[3.5635,50.40115]},"properties":{"latitude":"50.40115","longitude":"3.5635","bright_ti4":"310.43","scan":"0.57","track":"0.69","acq_date":"2026-06-30","acq_time":"315","satellite":"N20","instrument":"VIIRS","confidence":"n","version":"2.0NRT","bright_ti5":"284.46","frp":"1.59","daynight":"N","commune":"Saint-Saulve","code_insee":"59544","departement":"Nord","region":"Hauts-de-France"}},{"type":"Feature","geometry":{"type":"Point","coordinates":[3.56753,50.4038]},"properties":{"latitude":"50.4038","longitude":"3.56753","bright_ti4":"307.03","scan":"0.57","track":"0.69","acq_date":"2026-06-30","acq_time":"315","satellite":"N20","instrument":"VIIRS","confidence":"n","version":"2.0NRT","bright_ti5":"283.28","frp":"2.17","daynight":"N","commune":"Onnaing","code_insee":"59447","departement":"Nord","region":"Hauts-de-France"}},{"type":"Feature","geometry":{"type":"Point","coordinates":[0.85745,43.80805]},"properties":{"latitude":"43.80805","longitude":"0.85745","bright_ti4":"302.9","scan":"0.76","track":"0.77","acq_date":"2026-06-30","acq_time":"317","satellite":"N20","instrument":"VIIRS","confidence":"n","version":"2.0NRT","bright_ti5":"287.05","frp":"0.89","daynight":"N","commune":"Homps","code_insee":"32154","departement":"Gers","region":"Occitanie"}},{"type":"Feature","geometry":{"type":"Point","coordinates":[2.99479,42.65715]},"properties":{"latitude":"42.65715","longitude":"2.99479","bright_ti4":"341.19","scan":"0.47","track":"0.39","acq_date":"2026-06-30","acq_time":"1301","satellite":"N20","instrument":"VIIRS","confidence":"n","version":"2.0NRT","bright_ti5":"305.73","frp":"3.22","daynight":"D","commune":"Saint-Nazaire","code_insee":"66186","departement":"Pyrénées-Orientales","region":"Occitanie"}},{"type":"Feature","geometry":{"type":"Point","coordinates":[4.89614,43.43358]},"properties":{"latitude":"43.43358","longitude":"4.89614","bright_ti4":"335.34","scan":"0.57","track":"0.43","acq_date":"2026-06-30","acq_time":"1301","satellite":"N20","instrument":"VIIRS","confidence":"l","version":"2.0NRT","bright_ti5":"310.15","frp":"11.63","daynight":"D","commune":"Fos-sur-Mer","code_insee":"13039","departement":"Bouches-du-Rhône","region":"Provence-Alpes-Côte d'Azur"}},{"type":"Feature","geometry":{"type":"Point","coordinates":[4.32756,43.79526]},"properties":{"latitude":"43.79526","longitude":"4.32756","bright_ti4":"334.26","scan":"0.54","track":"0.42","acq_date":"2026-06-30","acq_time":"1301","satellite":"N20","instrument":"VIIRS","confidence":"n","version":"2.0NRT","bright_ti5":"302.06","frp":"15.41","daynight":"D","commune":"Milhaud","code_insee":"30169","departement":"Gard","region":"Occitanie"}},{"type":"Feature","geometry":{"type":"Point","coordinates":[4.32003,43.79848]},"properties":{"latitude":"43.79848","longitude":"4.32003","bright_ti4":"331.99","scan":"0.54","track":"0.42","acq_date":"2026-06-30","acq_time":"1301","satellite":"N20","instrument":"VIIRS","confidence":"l","version":"2.0NRT","bright_ti5":"306.46","frp":"16.68","daynight":"D","commune":"Milhaud","code_insee":"30169","departement":"Gard","region":"Occitanie"}},{"type":"Feature","geometry":{"type":"Point","coordinates":[4.3268,43.79914]},"properties":{"latitude":"43.79914","longitude":"4.3268","bright_ti4":"337.95","scan":"0.54","track":"0.42","acq_date":"2026-06-30","acq_time":"1301","satellite":"N20","instrument":"VIIRS","confidence":"n","version":"2.0NRT","bright_ti5":"307.14","frp":"15.41","daynight":"D","commune":"Milhaud","code_insee":"30169","departement":"Gard","region":"Occitanie"}},{"type":"Feature","geometry":{"type":"Point","coordinates":[0.57934,44.40172]},"properties":{"latitude":"44.40172","longitude":"0.57934","bright_ti4":"345.09","scan":"0.41","track":"0.37","acq_date":"2026-06-30","acq_time":"1301","satellite":"N20","instrument":"VIIRS","confidence":"n","version":"2.0NRT","bright_ti5":"302.9","frp":"12.78","daynight":"D","commune":"Sainte-Livrade-sur-Lot","code_insee":"47252","departement":"Lot-et-Garonne","region":"Nouvelle-Aquitaine"}},{"type":"Feature","geometry":{"type":"Point","coordinates":[0.58447,44.40239]},"properties":{"latitude":"44.40239","longitude":"0.58447","bright_ti4":"334.08","scan":"0.41","track":"0.37","acq_date":"2026-06-30","acq_time":"1301","satellite":"N20","instrument":"VIIRS","confidence":"n","version":"2.0NRT","bright_ti5":"300.95","frp":"3.39","daynight":"D","commune":"Sainte-Livrade-sur-Lot","code_insee":"47252","departement":"Lot-et-Garonne","region":"Nouvelle-Aquitaine"}},{"type":"Feature","geometry":{"type":"Point","coordinates":[-0.01511,45.03019]},"properties":{"latitude":"45.03019","longitude":"-0.01511","bright_ti4":"331.91","scan":"0.4","track":"0.37","acq_date":"2026-06-30","acq_time":"1301","satellite":"N20","instrument":"VIIRS","confidence":"l","version":"2.0NRT","bright_ti5":"303.97","frp":"2.42","daynight":"D","commune":"Porchères","code_insee":"33332","departement":"Gironde","region":"Nouvelle-Aquitaine"}},{"type":"Feature","geometry":{"type":"Point","coordinates":[-0.52174,45.95384]},"properties":{"latitude":"45.95384","longitude":"-0.52174","bright_ti4":"348.77","scan":"0.4","track":"0.37","acq_date":"2026-06-30","acq_time":"1301","satellite":"N20","instrument":"VIIRS","confidence":"n","version":"2.0NRT","bright_ti5":"317.01","frp":"33.71","daynight":"D","commune":"Saint-Jean-d'Angély","code_insee":"17347","departement":"Charente-Maritime","region":"Nouvelle-Aquitaine"}},{"type":"Feature","geometry":{"type":"Point","coordinates":[-1.25014,46.63259]},"properties":{"latitude":"46.63259","longitude":"-1.25014","bright_ti4":"336.75","scan":"0.39","track":"0.36","acq_date":"2026-06-30","acq_time":"1301","satellite":"N20","instrument":"VIIRS","confidence":"l","version":"2.0NRT","bright_ti5":"308.19","frp":"0.78","daynight":"D","commune":"Thorigny","code_insee":"85291","departement":"Vendée","region":"Pays de la Loire"}},{"type":"Feature","geometry":{"type":"Point","coordinates":[-1.69074,47.15679]},"properties":{"latitude":"47.15679","longitude":"-1.69074","bright_ti4":"335.3","scan":"0.39","track":"0.36","acq_date":"2026-06-30","acq_time":"1304","satellite":"N20","instrument":"VIIRS","confidence":"n","version":"2.0NRT","bright_ti5":"299.55","frp":"0.65","daynight":"D","commune":"Bouaye","code_insee":"44018","departement":"Loire-Atlantique","region":"Pays de la Loire"}},{"type":"Feature","geometry":{"type":"Point","coordinates":[2.28239,51.03412]},"properties":{"latitude":"51.03412","longitude":"2.28239","bright_ti4":"314.6","scan":"0.65","track":"0.73","acq_date":"2026-06-30","acq_time":"39","satellite":"N21","instrument":"VIIRS","confidence":"n","version":"2.0NRT","bright_ti5":"284.74","frp":"3.26","daynight":"N","commune":"Grande-Synthe","code_insee":"59271","departement":"Nord","region":"Hauts-de-France"}},{"type":"Feature","geometry":{"type":"Point","coordinates":[2.29167,51.03426]},"properties":{"latitude":"51.03426","longitude":"2.29167","bright_ti4":"301.03","scan":"0.65","track":"0.73","acq_date":"2026-06-30","acq_time":"39","satellite":"N21","instrument":"VIIRS","confidence":"n","version":"2.0NRT","bright_ti5":"283.69","frp":"3.26","daynight":"N","commune":"Grande-Synthe","code_insee":"59271","departement":"Nord","region":"Hauts-de-France"}},{"type":"Feature","geometry":{"type":"Point","coordinates":[2.29136,51.04096]},"properties":{"latitude":"51.04096","longitude":"2.29136","bright_ti4":"297.61","scan":"0.65","track":"0.73","acq_date":"2026-06-30","acq_time":"39","satellite":"N21","instrument":"VIIRS","confidence":"n","version":"2.0NRT","bright_ti5":"285.08","frp":"2.07","daynight":"N","commune":"Grande-Synthe","code_insee":"59271","departement":"Nord","region":"Hauts-de-France"}},{"type":"Feature","geometry":{"type":"Point","coordinates":[2.291,51.04766]},"properties":{"latitude":"51.04766","longitude":"2.291","bright_ti4":"300.62","scan":"0.65","track":"0.73","acq_date":"2026-06-30","acq_time":"39","satellite":"N21","instrument":"VIIRS","confidence":"n","version":"2.0NRT","bright_ti5":"284.81","frp":"2.07","daynight":"N","commune":"Grande-Synthe","code_insee":"59271","departement":"Nord","region":"Hauts-de-France"}},{"type":"Feature","geometry":{"type":"Point","coordinates":[2.31896,51.04809]},"properties":{"latitude":"51.04809","longitude":"2.31896","bright_ti4":"296.89","scan":"0.65","track":"0.73","acq_date":"2026-06-30","acq_time":"39","satellite":"N21","instrument":"VIIRS","confidence":"n","version":"2.0NRT","bright_ti5":"283.04","frp":"1.2","daynight":"N","commune":"Dunkerque","code_insee":"59183","departement":"Nord","region":"Hauts-de-France"}},{"type":"Feature","geometry":{"type":"Point","coordinates":[5.66691,45.22879]},"properties":{"latitude":"45.22879","longitude":"5.66691","bright_ti4":"300.05","scan":"0.43","track":"0.62","acq_date":"2026-06-30","acq_time":"41","satellite":"N21","instrument":"VIIRS","confidence":"n","version":"2.0NRT","bright_ti5":"285.67","frp":"0.66","daynight":"N","commune":"Saint-Égrève","code_insee":"38382","departement":"Isère","region":"Auvergne-Rhône-Alpes"}},{"type":"Feature","geometry":{"type":"Point","coordinates":[3.4228,46.24975]},"properties":{"latitude":"46.24975","longitude":"3.4228","bright_ti4":"298.74","scan":"0.56","track":"0.69","acq_date":"2026-06-30","acq_time":"41","satellite":"N21","instrument":"VIIRS","confidence":"n","version":"2.0NRT","bright_ti5":"287.72","frp":"1.25","daynight":"N","commune":"Créchy","code_insee":"03091","departement":"Allier","region":"Auvergne-Rhône-Alpes"}},{"type":"Feature","geometry":{"type":"Point","coordinates":[6.11226,48.60788]},"properties":{"latitude":"48.60788","longitude":"6.11226","bright_ti4":"300.24","scan":"0.42","track":"0.61","acq_date":"2026-06-30","acq_time":"41","satellite":"N21","instrument":"VIIRS","confidence":"n","version":"2.0NRT","bright_ti5":"287.96","frp":"1.49","daynight":"N","commune":"Neuves-Maisons","code_insee":"54397","departement":"Meurthe-et-Moselle","region":"Grand Est"}},{"type":"Feature","geometry":{"type":"Point","coordinates":[6.11686,48.61025]},"properties":{"latitude":"48.61025","longitude":"6.11686","bright_ti4":"299.94","scan":"0.43","track":"0.62","acq_date":"2026-06-30","acq_time":"41","satellite":"N21","instrument":"VIIRS","confidence":"n","version":"2.0NRT","bright_ti5":"287.84","frp":"1.01","daynight":"N","commune":"Neuves-Maisons","code_insee":"54397","departement":"Meurthe-et-Moselle","region":"Grand Est"}},{"type":"Feature","geometry":{"type":"Point","coordinates":[6.111,48.61039]},"properties":{"latitude":"48.61039","longitude":"6.111","bright_ti4":"303.36","scan":"0.43","track":"0.62","acq_date":"2026-06-30","acq_time":"41","satellite":"N21","instrument":"VIIRS","confidence":"n","version":"2.0NRT","bright_ti5":"288.16","frp":"1.17","daynight":"N","commune":"Neuves-Maisons","code_insee":"54397","departement":"Meurthe-et-Moselle","region":"Grand Est"}},{"type":"Feature","geometry":{"type":"Point","coordinates":[5.68215,48.71829]},"properties":{"latitude":"48.71829","longitude":"5.68215","bright_ti4":"297.57","scan":"0.45","track":"0.63","acq_date":"2026-06-30","acq_time":"41","satellite":"N21","instrument":"VIIRS","confidence":"n","version":"2.0NRT","bright_ti5":"287.18","frp":"0.62","daynight":"N","commune":"Sorcy-Saint-Martin","code_insee":"55496","departement":"Meuse","region":"Grand Est"}},{"type":"Feature","geometry":{"type":"Point","coordinates":[2.26709,51.01747]},"properties":{"latitude":"51.01747","longitude":"2.26709","bright_ti4":"299.1","scan":"0.65","track":"0.73","acq_date":"2026-06-30","acq_time":"41","satellite":"N21","instrument":"VIIRS","confidence":"n","version":"2.0NRT","bright_ti5":"282.35","frp":"1.28","daynight":"N","commune":"Grande-Synthe","code_insee":"59271","departement":"Nord","region":"Hauts-de-France"}},{"type":"Feature","geometry":{"type":"Point","coordinates":[2.2852,51.0311]},"properties":{"latitude":"51.0311","longitude":"2.2852","bright_ti4":"323.72","scan":"0.65","track":"0.73","acq_date":"2026-06-30","acq_time":"41","satellite":"N21","instrument":"VIIRS","confidence":"n","version":"2.0NRT","bright_ti5":"284.92","frp":"3.3","daynight":"N","commune":"Grande-Synthe","code_insee":"59271","departement":"Nord","region":"Hauts-de-France"}},{"type":"Feature","geometry":{"type":"Point","coordinates":[2.28482,51.0378]},"properties":{"latitude":"51.0378","longitude":"2.28482","bright_ti4":"296.06","scan":"0.65","track":"0.73","acq_date":"2026-06-30","acq_time":"41","satellite":"N21","instrument":"VIIRS","confidence":"n","version":"2.0NRT","bright_ti5":"284.39","frp":"3.3","daynight":"N","commune":"Grande-Synthe","code_insee":"59271","departement":"Nord","region":"Hauts-de-France"}},{"type":"Feature","geometry":{"type":"Point","coordinates":[4.89455,43.43228]},"properties":{"latitude":"43.43228","longitude":"4.89455","bright_ti4":"305.13","scan":"0.45","track":"0.63","acq_date":"2026-06-30","acq_time":"43","satellite":"N21","instrument":"VIIRS","confidence":"n","version":"2.0NRT","bright_ti5":"292.93","frp":"1.61","daynight":"N","commune":"Fos-sur-Mer","code_insee":"13039","departement":"Bouches-du-Rhône","region":"Provence-Alpes-Côte d'Azur"}},{"type":"Feature","geometry":{"type":"Point","coordinates":[4.88925,43.43827]},"properties":{"latitude":"43.43827","longitude":"4.88925","bright_ti4":"305.38","scan":"0.45","track":"0.63","acq_date":"2026-06-30","acq_time":"43","satellite":"N21","instrument":"VIIRS","confidence":"n","version":"2.0NRT","bright_ti5":"292.56","frp":"1.61","daynight":"N","commune":"Fos-sur-Mer","code_insee":"13039","departement":"Bouches-du-Rhône","region":"Provence-Alpes-Côte d'Azur"}},{"type":"Feature","geometry":{"type":"Point","coordinates":[7.37261,43.79255]},"properties":{"latitude":"43.79255","longitude":"7.37261","bright_ti4":"303.34","scan":"0.34","track":"0.56","acq_date":"2026-06-30","acq_time":"43","satellite":"N21","instrument":"VIIRS","confidence":"n","version":"2.0NRT","bright_ti5":"290.79","frp":"0.84","daynight":"N","commune":"Blausasc","code_insee":"06019","departement":"Alpes-Maritimes","region":"Provence-Alpes-Côte d'Azur"}},{"type":"Feature","geometry":{"type":"Point","coordinates":[5.68018,48.71453]},"properties":{"latitude":"48.71453","longitude":"5.68018","bright_ti4":"297.38","scan":"0.48","track":"0.48","acq_date":"2026-06-30","acq_time":"221","satellite":"N21","instrument":"VIIRS","confidence":"n","version":"2.0NRT","bright_ti5":"287.35","frp":"0.83","daynight":"N","commune":"Troussey","code_insee":"55520","departement":"Meuse","region":"Grand Est"}},{"type":"Feature","geometry":{"type":"Point","coordinates":[2.73732,48.94801]},"properties":{"latitude":"48.94801","longitude":"2.73732","bright_ti4":"302.89","scan":"0.54","track":"0.42","acq_date":"2026-06-30","acq_time":"221","satellite":"N21","instrument":"VIIRS","confidence":"n","version":"2.0NRT","bright_ti5":"286.77","frp":"1.28","daynight":"N","commune":"Fresnes-sur-Marne","code_insee":"77196","departement":"Seine-et-Marne","region":"Île-de-France"}},{"type":"Feature","geometry":{"type":"Point","coordinates":[2.73954,48.94988]},"properties":{"latitude":"48.94988","longitude":"2.73954","bright_ti4":"298.06","scan":"0.54","track":"0.42","acq_date":"2026-06-30","acq_time":"221","satellite":"N21","instrument":"VIIRS","confidence":"n","version":"2.0NRT","bright_ti5":"286.88","frp":"1.01","daynight":"N","commune":"Fresnes-sur-Marne","code_insee":"77196","departement":"Seine-et-Marne","region":"Île-de-France"}},{"type":"Feature","geometry":{"type":"Point","coordinates":[0.2186,49.48885]},"properties":{"latitude":"49.48885","longitude":"0.2186","bright_ti4":"297.41","scan":"0.44","track":"0.38","acq_date":"2026-06-30","acq_time":"221","satellite":"N21","instrument":"VIIRS","confidence":"n","version":"2.0NRT","bright_ti5":"274.86","frp":"0.39","daynight":"N","commune":"Gonfreville-l'Orcher","code_insee":"76305","departement":"Seine-Maritime","region":"Normandie"}},{"type":"Feature","geometry":{"type":"Point","coordinates":[2.32424,51.04623]},"properties":{"latitude":"51.04623","longitude":"2.32424","bright_ti4":"310.42","scan":"0.48","track":"0.4","acq_date":"2026-06-30","acq_time":"221","satellite":"N21","instrument":"VIIRS","confidence":"n","version":"2.0NRT","bright_ti5":"267.28","frp":"1.29","daynight":"N","commune":"Dunkerque","code_insee":"59183","departement":"Nord","region":"Hauts-de-France"}},{"type":"Feature","geometry":{"type":"Point","coordinates":[4.88281,43.44257]},"properties":{"latitude":"43.44257","longitude":"4.88281","bright_ti4":"305.89","scan":"0.62","track":"0.54","acq_date":"2026-06-30","acq_time":"224","satellite":"N21","instrument":"VIIRS","confidence":"n","version":"2.0NRT","bright_ti5":"292.04","frp":"1.91","daynight":"N","commune":"Fos-sur-Mer","code_insee":"13039","departement":"Bouches-du-Rhône","region":"Provence-Alpes-Côte d'Azur"}},{"type":"Feature","geometry":{"type":"Point","coordinates":[4.88397,43.4444]},"properties":{"latitude":"43.4444","longitude":"4.88397","bright_ti4":"304.36","scan":"0.62","track":"0.54","acq_date":"2026-06-30","acq_time":"224","satellite":"N21","instrument":"VIIRS","confidence":"n","version":"2.0NRT","bright_ti5":"292.03","frp":"2.89","daynight":"N","commune":"Fos-sur-Mer","code_insee":"13039","departement":"Bouches-du-Rhône","region":"Provence-Alpes-Côte d'Azur"}},{"type":"Feature","geometry":{"type":"Point","coordinates":[0.86214,43.80861]},"properties":{"latitude":"43.80861","longitude":"0.86214","bright_ti4":"311.31","scan":"0.39","track":"0.44","acq_date":"2026-06-30","acq_time":"224","satellite":"N21","instrument":"VIIRS","confidence":"n","version":"2.0NRT","bright_ti5":"289.67","frp":"2.83","daynight":"N","commune":"Homps","code_insee":"32154","departement":"Gers","region":"Occitanie"}},{"type":"Feature","geometry":{"type":"Point","coordinates":[0.85753,43.80962]},"properties":{"latitude":"43.80962","longitude":"0.85753","bright_ti4":"328.71","scan":"0.39","track":"0.44","acq_date":"2026-06-30","acq_time":"224","satellite":"N21","instrument":"VIIRS","confidence":"n","version":"2.0NRT","bright_ti5":"290.21","frp":"2.83","daynight":"N","commune":"Homps","code_insee":"32154","departement":"Gers","region":"Occitanie"}},{"type":"Feature","geometry":{"type":"Point","coordinates":[1.22986,43.98548]},"properties":{"latitude":"43.98548","longitude":"1.22986","bright_ti4":"300.49","scan":"0.41","track":"0.45","acq_date":"2026-06-30","acq_time":"224","satellite":"N21","instrument":"VIIRS","confidence":"n","version":"2.0NRT","bright_ti5":"290.05","frp":"0.46","daynight":"N","commune":"Montech","code_insee":"82125","departement":"Tarn-et-Garonne","region":"Occitanie"}},{"type":"Feature","geometry":{"type":"Point","coordinates":[-0.0058,44.65177]},"properties":{"latitude":"44.65177","longitude":"-0.0058","bright_ti4":"298.72","scan":"0.52","track":"0.42","acq_date":"2026-06-30","acq_time":"224","satellite":"N21","instrument":"VIIRS","confidence":"n","version":"2.0NRT","bright_ti5":"288.63","frp":"0.91","daynight":"N","commune":"Mesterrieux","code_insee":"33283","departement":"Gironde","region":"Nouvelle-Aquitaine"}},{"type":"Feature","geometry":{"type":"Point","coordinates":[4.89819,43.44788]},"properties":{"latitude":"43.44788","longitude":"4.89819","bright_ti4":"338.97","scan":"0.55","track":"0.43","acq_date":"2026-06-30","acq_time":"1208","satellite":"N21","instrument":"VIIRS","confidence":"n","version":"2.0NRT","bright_ti5":"307.29","frp":"6.81","daynight":"D","commune":"Fos-sur-Mer","code_insee":"13039","departement":"Bouches-du-Rhône","region":"Provence-Alpes-Côte d'Azur"}},{"type":"Feature","geometry":{"type":"Point","coordinates":[4.32346,43.79596]},"properties":{"latitude":"43.79596","longitude":"4.32346","bright_ti4":"341.2","scan":"0.38","track":"0.43","acq_date":"2026-06-30","acq_time":"1208","satellite":"N21","instrument":"VIIRS","confidence":"n","version":"2.0NRT","bright_ti5":"302.95","frp":"16.61","daynight":"D","commune":"Milhaud","code_insee":"30169","departement":"Gard","region":"Occitanie"}},{"type":"Feature","geometry":{"type":"Point","coordinates":[4.32192,43.79981]},"properties":{"latitude":"43.79981","longitude":"4.32192","bright_ti4":"341.3","scan":"0.38","track":"0.43","acq_date":"2026-06-30","acq_time":"1208","satellite":"N21","instrument":"VIIRS","confidence":"n","version":"2.0NRT","bright_ti5":"302.74","frp":"16.61","daynight":"D","commune":"Milhaud","code_insee":"30169","departement":"Gard","region":"Occitanie"}},{"type":"Feature","geometry":{"type":"Point","coordinates":[6.11376,48.61035]},"properties":{"latitude":"48.61035","longitude":"6.11376","bright_ti4":"336.54","scan":"0.42","track":"0.37","acq_date":"2026-06-30","acq_time":"1210","satellite":"N21","instrument":"VIIRS","confidence":"n","version":"2.0NRT","bright_ti5":"304.5","frp":"6.35","daynight":"D","commune":"Neuves-Maisons","code_insee":"54397","departement":"Meurthe-et-Moselle","region":"Grand Est"}},{"type":"Feature","geometry":{"type":"Point","coordinates":[4.32255,43.79543]},"properties":{"latitude":"43.79543","longitude":"4.32255","bright_ti4":"340.17","scan":"0.75","track":"0.77","acq_date":"2026-06-30","acq_time":"1348","satellite":"N21","instrument":"VIIRS","confidence":"n","version":"2.0NRT","bright_ti5":"296.72","frp":"12.04","daynight":"D","commune":"Milhaud","code_insee":"30169","departement":"Gard","region":"Occitanie"}},{"type":"Feature","geometry":{"type":"Point","coordinates":[4.32429,43.79912]},"properties":{"latitude":"43.79912","longitude":"4.32429","bright_ti4":"342.56","scan":"0.75","track":"0.77","acq_date":"2026-06-30","acq_time":"1348","satellite":"N21","instrument":"VIIRS","confidence":"n","version":"2.0NRT","bright_ti5":"296.17","frp":"11.83","daynight":"D","commune":"Milhaud","code_insee":"30169","departement":"Gard","region":"Occitanie"}},{"type":"Feature","geometry":{"type":"Point","coordinates":[-2.8816,47.66406]},"properties":{"latitude":"47.66406","longitude":"-2.8816","bright_ti4":"367","scan":"0.35","track":"0.57","acq_date":"2026-06-30","acq_time":"1350","satellite":"N21","instrument":"VIIRS","confidence":"h","version":"2.0NRT","bright_ti5":"299.21","frp":"13.01","daynight":"D","commune":"Plougoumelen","code_insee":"56167","departement":"Morbihan","region":"Bretagne"}}]}