{"type":"FeatureCollection","features":[{"type":"Feature","geometry":{"type":"Point","coordinates":[6.55013,45.39615]},"properties":{"latitude":"45.39615","longitude":"6.55013","bright_ti4":"298.32","scan":"0.54","track":"0.68","acq_date":"2026-08-23","acq_time":"30","satellite":"N21","instrument":"VIIRS","confidence":"n","version":"2.0NRT","bright_ti5":"278.42","frp":"1.18","daynight":"N","commune":"Les Allues","code_insee":"73015","departement":"Savoie","region":"Auvergne-Rhône-Alpes"}},{"type":"Feature","geometry":{"type":"Point","coordinates":[6.11673,48.60904]},"properties":{"latitude":"48.60904","longitude":"6.11673","bright_ti4":"296.87","scan":"0.58","track":"0.7","acq_date":"2026-08-23","acq_time":"30","satellite":"N21","instrument":"VIIRS","confidence":"n","version":"2.0NRT","bright_ti5":"283.29","frp":"1.46","daynight":"N","commune":"Neuves-Maisons","code_insee":"54397","departement":"Meurthe-et-Moselle","region":"Grand Est"}},{"type":"Feature","geometry":{"type":"Point","coordinates":[6.10868,48.60905]},"properties":{"latitude":"48.60905","longitude":"6.10868","bright_ti4":"295.02","scan":"0.58","track":"0.7","acq_date":"2026-08-23","acq_time":"30","satellite":"N21","instrument":"VIIRS","confidence":"n","version":"2.0NRT","bright_ti5":"284.2","frp":"1.47","daynight":"N","commune":"Neuves-Maisons","code_insee":"54397","departement":"Meurthe-et-Moselle","region":"Grand Est"}},{"type":"Feature","geometry":{"type":"Point","coordinates":[6.10982,48.60965]},"properties":{"latitude":"48.60965","longitude":"6.10982","bright_ti4":"296.41","scan":"0.58","track":"0.7","acq_date":"2026-08-23","acq_time":"30","satellite":"N21","instrument":"VIIRS","confidence":"n","version":"2.0NRT","bright_ti5":"284.01","frp":"1.83","daynight":"N","commune":"Neuves-Maisons","code_insee":"54397","departement":"Meurthe-et-Moselle","region":"Grand Est"}},{"type":"Feature","geometry":{"type":"Point","coordinates":[4.88859,43.4352]},"properties":{"latitude":"43.4352","longitude":"4.88859","bright_ti4":"299.22","scan":"0.64","track":"0.72","acq_date":"2026-08-23","acq_time":"33","satellite":"N21","instrument":"VIIRS","confidence":"n","version":"2.0NRT","bright_ti5":"288.36","frp":"3.32","daynight":"N","commune":"Fos-sur-Mer","code_insee":"13039","departement":"Bouches-du-Rhône","region":"Provence-Alpes-Côte d'Azur"}},{"type":"Feature","geometry":{"type":"Point","coordinates":[4.89668,43.44185]},"properties":{"latitude":"43.44185","longitude":"4.89668","bright_ti4":"302.62","scan":"0.64","track":"0.72","acq_date":"2026-08-23","acq_time":"33","satellite":"N21","instrument":"VIIRS","confidence":"n","version":"2.0NRT","bright_ti5":"288.24","frp":"4.12","daynight":"N","commune":"Fos-sur-Mer","code_insee":"13039","departement":"Bouches-du-Rhône","region":"Provence-Alpes-Côte d'Azur"}},{"type":"Feature","geometry":{"type":"Point","coordinates":[4.88064,43.4419]},"properties":{"latitude":"43.4419","longitude":"4.88064","bright_ti4":"301.71","scan":"0.64","track":"0.72","acq_date":"2026-08-23","acq_time":"33","satellite":"N21","instrument":"VIIRS","confidence":"n","version":"2.0NRT","bright_ti5":"287.6","frp":"2.14","daynight":"N","commune":"Fos-sur-Mer","code_insee":"13039","departement":"Bouches-du-Rhône","region":"Provence-Alpes-Côte d'Azur"}},{"type":"Feature","geometry":{"type":"Point","coordinates":[4.89802,43.44491]},"properties":{"latitude":"43.44491","longitude":"4.89802","bright_ti4":"300.29","scan":"0.64","track":"0.72","acq_date":"2026-08-23","acq_time":"33","satellite":"N21","instrument":"VIIRS","confidence":"n","version":"2.0NRT","bright_ti5":"288.26","frp":"1.62","daynight":"N","commune":"Fos-sur-Mer","code_insee":"13039","departement":"Bouches-du-Rhône","region":"Provence-Alpes-Côte d'Azur"}},{"type":"Feature","geometry":{"type":"Point","coordinates":[4.89,43.44497]},"properties":{"latitude":"43.44497","longitude":"4.89","bright_ti4":"302.68","scan":"0.64","track":"0.72","acq_date":"2026-08-23","acq_time":"33","satellite":"N21","instrument":"VIIRS","confidence":"n","version":"2.0NRT","bright_ti5":"288.05","frp":"3.15","daynight":"N","commune":"Fos-sur-Mer","code_insee":"13039","departement":"Bouches-du-Rhône","region":"Provence-Alpes-Côte d'Azur"}}]}