{"type":"FeatureCollection","features":[{"type":"Feature","geometry":{"type":"Point","coordinates":[3.56353,50.40137]},"properties":{"latitude":"50.40137","longitude":"3.56353","bright_ti4":"312.82","scan":"0.4","track":"0.37","acq_date":"2026-06-11","acq_time":"211","satellite":"N","instrument":"VIIRS","confidence":"n","version":"2.0NRT","bright_ti5":"282.19","frp":"1.42","daynight":"N","commune":"Saint-Saulve","code_insee":"59544","departement":"Nord","region":"Hauts-de-France"}},{"type":"Feature","geometry":{"type":"Point","coordinates":[2.2875,51.03224]},"properties":{"latitude":"51.03224","longitude":"2.2875","bright_ti4":"299.07","scan":"0.39","track":"0.36","acq_date":"2026-06-11","acq_time":"211","satellite":"N","instrument":"VIIRS","confidence":"n","version":"2.0NRT","bright_ti5":"282.25","frp":"1.42","daynight":"N","commune":"Grande-Synthe","code_insee":"59271","departement":"Nord","region":"Hauts-de-France"}},{"type":"Feature","geometry":{"type":"Point","coordinates":[2.2536,51.03446]},"properties":{"latitude":"51.03446","longitude":"2.2536","bright_ti4":"300.14","scan":"0.39","track":"0.36","acq_date":"2026-06-11","acq_time":"211","satellite":"N","instrument":"VIIRS","confidence":"n","version":"2.0NRT","bright_ti5":"282.48","frp":"0.59","daynight":"N","commune":"Dunkerque","code_insee":"59183","departement":"Nord","region":"Hauts-de-France"}},{"type":"Feature","geometry":{"type":"Point","coordinates":[2.28888,51.0355]},"properties":{"latitude":"51.0355","longitude":"2.28888","bright_ti4":"326.97","scan":"0.39","track":"0.36","acq_date":"2026-06-11","acq_time":"211","satellite":"N","instrument":"VIIRS","confidence":"n","version":"2.0NRT","bright_ti5":"283.93","frp":"1.42","daynight":"N","commune":"Grande-Synthe","code_insee":"59271","departement":"Nord","region":"Hauts-de-France"}},{"type":"Feature","geometry":{"type":"Point","coordinates":[2.28346,51.03642]},"properties":{"latitude":"51.03642","longitude":"2.28346","bright_ti4":"308.42","scan":"0.39","track":"0.36","acq_date":"2026-06-11","acq_time":"211","satellite":"N","instrument":"VIIRS","confidence":"n","version":"2.0NRT","bright_ti5":"281.8","frp":"1.42","daynight":"N","commune":"Grande-Synthe","code_insee":"59271","departement":"Nord","region":"Hauts-de-France"}},{"type":"Feature","geometry":{"type":"Point","coordinates":[2.29164,51.04202]},"properties":{"latitude":"51.04202","longitude":"2.29164","bright_ti4":"305.13","scan":"0.39","track":"0.36","acq_date":"2026-06-11","acq_time":"211","satellite":"N","instrument":"VIIRS","confidence":"n","version":"2.0NRT","bright_ti5":"284.64","frp":"0.9","daynight":"N","commune":"Grande-Synthe","code_insee":"59271","departement":"Nord","region":"Hauts-de-France"}},{"type":"Feature","geometry":{"type":"Point","coordinates":[2.29844,51.04437]},"properties":{"latitude":"51.04437","longitude":"2.29844","bright_ti4":"329.74","scan":"0.39","track":"0.36","acq_date":"2026-06-11","acq_time":"211","satellite":"N","instrument":"VIIRS","confidence":"n","version":"2.0NRT","bright_ti5":"285.37","frp":"4.79","daynight":"N","commune":"Grande-Synthe","code_insee":"59271","departement":"Nord","region":"Hauts-de-France"}},{"type":"Feature","geometry":{"type":"Point","coordinates":[2.29302,51.04528]},"properties":{"latitude":"51.04528","longitude":"2.29302","bright_ti4":"327.42","scan":"0.39","track":"0.36","acq_date":"2026-06-11","acq_time":"211","satellite":"N","instrument":"VIIRS","confidence":"n","version":"2.0NRT","bright_ti5":"284.23","frp":"3.26","daynight":"N","commune":"Grande-Synthe","code_insee":"59271","departement":"Nord","region":"Hauts-de-France"}},{"type":"Feature","geometry":{"type":"Point","coordinates":[2.3229,51.04723]},"properties":{"latitude":"51.04723","longitude":"2.3229","bright_ti4":"295.41","scan":"0.39","track":"0.36","acq_date":"2026-06-11","acq_time":"211","satellite":"N","instrument":"VIIRS","confidence":"n","version":"2.0NRT","bright_ti5":"283","frp":"0.35","daynight":"N","commune":"Dunkerque","code_insee":"59183","departement":"Nord","region":"Hauts-de-France"}},{"type":"Feature","geometry":{"type":"Point","coordinates":[2.31748,51.04814]},"properties":{"latitude":"51.04814","longitude":"2.31748","bright_ti4":"297.92","scan":"0.39","track":"0.36","acq_date":"2026-06-11","acq_time":"211","satellite":"N","instrument":"VIIRS","confidence":"n","version":"2.0NRT","bright_ti5":"284.24","frp":"1.22","daynight":"N","commune":"Dunkerque","code_insee":"59183","departement":"Nord","region":"Hauts-de-France"}},{"type":"Feature","geometry":{"type":"Point","coordinates":[2.2944,51.04854]},"properties":{"latitude":"51.04854","longitude":"2.2944","bright_ti4":"305.14","scan":"0.39","track":"0.36","acq_date":"2026-06-11","acq_time":"211","satellite":"N","instrument":"VIIRS","confidence":"n","version":"2.0NRT","bright_ti5":"286.1","frp":"3.26","daynight":"N","commune":"Grande-Synthe","code_insee":"59271","departement":"Nord","region":"Hauts-de-France"}},{"type":"Feature","geometry":{"type":"Point","coordinates":[1.23084,43.98741]},"properties":{"latitude":"43.98741","longitude":"1.23084","bright_ti4":"300.01","scan":"0.42","track":"0.37","acq_date":"2026-06-11","acq_time":"213","satellite":"N","instrument":"VIIRS","confidence":"n","version":"2.0NRT","bright_ti5":"275.22","frp":"0.31","daynight":"N","commune":"Montech","code_insee":"82125","departement":"Tarn-et-Garonne","region":"Occitanie"}},{"type":"Feature","geometry":{"type":"Point","coordinates":[1.71311,46.7972]},"properties":{"latitude":"46.7972","longitude":"1.71311","bright_ti4":"301.63","scan":"0.4","track":"0.37","acq_date":"2026-06-11","acq_time":"213","satellite":"N","instrument":"VIIRS","confidence":"n","version":"2.0NRT","bright_ti5":"280.65","frp":"0.87","daynight":"N","commune":"Châteauroux","code_insee":"36044","departement":"Indre","region":"Centre-Val de Loire"}},{"type":"Feature","geometry":{"type":"Point","coordinates":[-0.14042,46.80864]},"properties":{"latitude":"46.80864","longitude":"-0.14042","bright_ti4":"296.5","scan":"0.38","track":"0.36","acq_date":"2026-06-11","acq_time":"213","satellite":"N","instrument":"VIIRS","confidence":"n","version":"2.0NRT","bright_ti5":"279.87","frp":"0.67","daynight":"N","commune":"Airvault","code_insee":"79005","departement":"Deux-Sèvres","region":"Nouvelle-Aquitaine"}},{"type":"Feature","geometry":{"type":"Point","coordinates":[-1.03818,48.10854]},"properties":{"latitude":"48.10854","longitude":"-1.03818","bright_ti4":"299.72","scan":"0.39","track":"0.36","acq_date":"2026-06-11","acq_time":"213","satellite":"N","instrument":"VIIRS","confidence":"n","version":"2.0NRT","bright_ti5":"282.29","frp":"0.9","daynight":"N","commune":"Saint-Pierre-la-Cour","code_insee":"53247","departement":"Mayenne","region":"Pays de la Loire"}},{"type":"Feature","geometry":{"type":"Point","coordinates":[2.98084,48.38776]},"properties":{"latitude":"48.38776","longitude":"2.98084","bright_ti4":"303.46","scan":"0.41","track":"0.37","acq_date":"2026-06-11","acq_time":"213","satellite":"N","instrument":"VIIRS","confidence":"n","version":"2.0NRT","bright_ti5":"283.65","frp":"1.38","daynight":"N","commune":"Montereau-Fault-Yonne","code_insee":"77305","departement":"Seine-et-Marne","region":"Île-de-France"}},{"type":"Feature","geometry":{"type":"Point","coordinates":[1.75806,48.98362]},"properties":{"latitude":"48.98362","longitude":"1.75806","bright_ti4":"328.55","scan":"0.39","track":"0.36","acq_date":"2026-06-11","acq_time":"213","satellite":"N","instrument":"VIIRS","confidence":"n","version":"2.0NRT","bright_ti5":"281.37","frp":"4.17","daynight":"N","commune":"Limay","code_insee":"78335","departement":"Yvelines","region":"Île-de-France"}},{"type":"Feature","geometry":{"type":"Point","coordinates":[4.87923,43.43983]},"properties":{"latitude":"43.43983","longitude":"4.87923","bright_ti4":"341.43","scan":"0.58","track":"0.52","acq_date":"2026-06-11","acq_time":"1157","satellite":"N","instrument":"VIIRS","confidence":"n","version":"2.0NRT","bright_ti5":"297.55","frp":"12.13","daynight":"D","commune":"Fos-sur-Mer","code_insee":"13039","departement":"Bouches-du-Rhône","region":"Provence-Alpes-Côte d'Azur"}},{"type":"Feature","geometry":{"type":"Point","coordinates":[4.87701,43.44443]},"properties":{"latitude":"43.44443","longitude":"4.87701","bright_ti4":"340.65","scan":"0.58","track":"0.52","acq_date":"2026-06-11","acq_time":"1157","satellite":"N","instrument":"VIIRS","confidence":"n","version":"2.0NRT","bright_ti5":"292.66","frp":"8.79","daynight":"D","commune":"Fos-sur-Mer","code_insee":"13039","departement":"Bouches-du-Rhône","region":"Provence-Alpes-Côte d'Azur"}},{"type":"Feature","geometry":{"type":"Point","coordinates":[4.88308,43.44091]},"properties":{"latitude":"43.44091","longitude":"4.88308","bright_ti4":"340.63","scan":"0.47","track":"0.64","acq_date":"2026-06-11","acq_time":"1340","satellite":"N","instrument":"VIIRS","confidence":"n","version":"2.0NRT","bright_ti5":"296.17","frp":"6.88","daynight":"D","commune":"Fos-sur-Mer","code_insee":"13039","departement":"Bouches-du-Rhône","region":"Provence-Alpes-Côte d'Azur"}},{"type":"Feature","geometry":{"type":"Point","coordinates":[4.69588,44.08918]},"properties":{"latitude":"44.08918","longitude":"4.69588","bright_ti4":"325.61","scan":"0.46","track":"0.64","acq_date":"2026-06-11","acq_time":"1340","satellite":"N","instrument":"VIIRS","confidence":"n","version":"2.0NRT","bright_ti5":"296.12","frp":"2.66","daynight":"D","commune":"Laudun-l'Ardoise","code_insee":"30141","departement":"Gard","region":"Occitanie"}},{"type":"Feature","geometry":{"type":"Point","coordinates":[2.27503,51.03299]},"properties":{"latitude":"51.03299","longitude":"2.27503","bright_ti4":"297.89","scan":"0.54","track":"0.68","acq_date":"2026-06-11","acq_time":"50","satellite":"N20","instrument":"VIIRS","confidence":"n","version":"2.0NRT","bright_ti5":"278.91","frp":"1.5","daynight":"N","commune":"Grande-Synthe","code_insee":"59271","departement":"Nord","region":"Hauts-de-France"}},{"type":"Feature","geometry":{"type":"Point","coordinates":[2.28298,51.03299]},"properties":{"latitude":"51.03299","longitude":"2.28298","bright_ti4":"302.38","scan":"0.54","track":"0.68","acq_date":"2026-06-11","acq_time":"50","satellite":"N20","instrument":"VIIRS","confidence":"n","version":"2.0NRT","bright_ti5":"279.98","frp":"1.5","daynight":"N","commune":"Grande-Synthe","code_insee":"59271","departement":"Nord","region":"Hauts-de-France"}},{"type":"Feature","geometry":{"type":"Point","coordinates":[2.29887,51.04558]},"properties":{"latitude":"51.04558","longitude":"2.29887","bright_ti4":"321.93","scan":"0.54","track":"0.68","acq_date":"2026-06-11","acq_time":"50","satellite":"N20","instrument":"VIIRS","confidence":"n","version":"2.0NRT","bright_ti5":"282.3","frp":"2.34","daynight":"N","commune":"Grande-Synthe","code_insee":"59271","departement":"Nord","region":"Hauts-de-France"}},{"type":"Feature","geometry":{"type":"Point","coordinates":[2.29092,51.04559]},"properties":{"latitude":"51.04559","longitude":"2.29092","bright_ti4":"298.22","scan":"0.54","track":"0.68","acq_date":"2026-06-11","acq_time":"50","satellite":"N20","instrument":"VIIRS","confidence":"n","version":"2.0NRT","bright_ti5":"280.87","frp":"2.34","daynight":"N","commune":"Grande-Synthe","code_insee":"59271","departement":"Nord","region":"Hauts-de-France"}},{"type":"Feature","geometry":{"type":"Point","coordinates":[5.82091,45.91438]},"properties":{"latitude":"45.91438","longitude":"5.82091","bright_ti4":"296.05","scan":"0.35","track":"0.56","acq_date":"2026-06-11","acq_time":"52","satellite":"N20","instrument":"VIIRS","confidence":"n","version":"2.0NRT","bright_ti5":"282.36","frp":"0.59","daynight":"N","commune":"Anglefort","code_insee":"01010","departement":"Ain","region":"Auvergne-Rhône-Alpes"}},{"type":"Feature","geometry":{"type":"Point","coordinates":[-1.03511,48.10937]},"properties":{"latitude":"48.10937","longitude":"-1.03511","bright_ti4":"298.12","scan":"0.47","track":"0.4","acq_date":"2026-06-11","acq_time":"232","satellite":"N20","instrument":"VIIRS","confidence":"n","version":"2.0NRT","bright_ti5":"281.68","frp":"0.72","daynight":"N","commune":"Saint-Pierre-la-Cour","code_insee":"53247","departement":"Mayenne","region":"Pays de la Loire"}},{"type":"Feature","geometry":{"type":"Point","coordinates":[2.98405,48.38675]},"properties":{"latitude":"48.38675","longitude":"2.98405","bright_ti4":"304.89","scan":"0.44","track":"0.46","acq_date":"2026-06-11","acq_time":"232","satellite":"N20","instrument":"VIIRS","confidence":"n","version":"2.0NRT","bright_ti5":"282.72","frp":"1.05","daynight":"N","commune":"Montereau-Fault-Yonne","code_insee":"77305","departement":"Seine-et-Marne","region":"Île-de-France"}},{"type":"Feature","geometry":{"type":"Point","coordinates":[1.76379,48.98103]},"properties":{"latitude":"48.98103","longitude":"1.76379","bright_ti4":"309.38","scan":"0.57","track":"0.43","acq_date":"2026-06-11","acq_time":"232","satellite":"N20","instrument":"VIIRS","confidence":"n","version":"2.0NRT","bright_ti5":"274.58","frp":"1.34","daynight":"N","commune":"Porcheville","code_insee":"78501","departement":"Yvelines","region":"Île-de-France"}},{"type":"Feature","geometry":{"type":"Point","coordinates":[1.75629,48.98276]},"properties":{"latitude":"48.98276","longitude":"1.75629","bright_ti4":"301.32","scan":"0.57","track":"0.43","acq_date":"2026-06-11","acq_time":"232","satellite":"N20","instrument":"VIIRS","confidence":"n","version":"2.0NRT","bright_ti5":"273.98","frp":"1.34","daynight":"N","commune":"Limay","code_insee":"78335","departement":"Yvelines","region":"Île-de-France"}},{"type":"Feature","geometry":{"type":"Point","coordinates":[6.10028,49.32621]},"properties":{"latitude":"49.32621","longitude":"6.10028","bright_ti4":"297.21","scan":"0.56","track":"0.52","acq_date":"2026-06-11","acq_time":"232","satellite":"N20","instrument":"VIIRS","confidence":"n","version":"2.0NRT","bright_ti5":"280.29","frp":"1.44","daynight":"N","commune":"Serémange-Erzange","code_insee":"57647","departement":"Moselle","region":"Grand Est"}},{"type":"Feature","geometry":{"type":"Point","coordinates":[3.56111,50.40395]},"properties":{"latitude":"50.40395","longitude":"3.56111","bright_ti4":"297.45","scan":"0.41","track":"0.45","acq_date":"2026-06-11","acq_time":"232","satellite":"N20","instrument":"VIIRS","confidence":"n","version":"2.0NRT","bright_ti5":"280.79","frp":"1.35","daynight":"N","commune":"Saint-Saulve","code_insee":"59544","departement":"Nord","region":"Hauts-de-France"}},{"type":"Feature","geometry":{"type":"Point","coordinates":[2.28992,51.03342]},"properties":{"latitude":"51.03342","longitude":"2.28992","bright_ti4":"322.65","scan":"0.54","track":"0.42","acq_date":"2026-06-11","acq_time":"232","satellite":"N20","instrument":"VIIRS","confidence":"n","version":"2.0NRT","bright_ti5":"279.85","frp":"1.96","daynight":"N","commune":"Grande-Synthe","code_insee":"59271","departement":"Nord","region":"Hauts-de-France"}},{"type":"Feature","geometry":{"type":"Point","coordinates":[2.3035,51.04282]},"properties":{"latitude":"51.04282","longitude":"2.3035","bright_ti4":"300.82","scan":"0.54","track":"0.42","acq_date":"2026-06-11","acq_time":"232","satellite":"N20","instrument":"VIIRS","confidence":"n","version":"2.0NRT","bright_ti5":"280.61","frp":"3.23","daynight":"N","commune":"Grande-Synthe","code_insee":"59271","departement":"Nord","region":"Hauts-de-France"}},{"type":"Feature","geometry":{"type":"Point","coordinates":[2.29619,51.04446]},"properties":{"latitude":"51.04446","longitude":"2.29619","bright_ti4":"330.19","scan":"0.54","track":"0.42","acq_date":"2026-06-11","acq_time":"232","satellite":"N20","instrument":"VIIRS","confidence":"n","version":"2.0NRT","bright_ti5":"281.53","frp":"3.23","daynight":"N","commune":"Grande-Synthe","code_insee":"59271","departement":"Nord","region":"Hauts-de-France"}},{"type":"Feature","geometry":{"type":"Point","coordinates":[2.32231,51.04689]},"properties":{"latitude":"51.04689","longitude":"2.32231","bright_ti4":"295.4","scan":"0.54","track":"0.42","acq_date":"2026-06-11","acq_time":"232","satellite":"N20","instrument":"VIIRS","confidence":"n","version":"2.0NRT","bright_ti5":"281.46","frp":"1.6","daynight":"N","commune":"Dunkerque","code_insee":"59183","departement":"Nord","region":"Hauts-de-France"}},{"type":"Feature","geometry":{"type":"Point","coordinates":[2.29829,51.04815]},"properties":{"latitude":"51.04815","longitude":"2.29829","bright_ti4":"312.91","scan":"0.54","track":"0.42","acq_date":"2026-06-11","acq_time":"232","satellite":"N20","instrument":"VIIRS","confidence":"n","version":"2.0NRT","bright_ti5":"284.11","frp":"3.23","daynight":"N","commune":"Grande-Synthe","code_insee":"59271","departement":"Nord","region":"Hauts-de-France"}},{"type":"Feature","geometry":{"type":"Point","coordinates":[4.69603,44.09301]},"properties":{"latitude":"44.09301","longitude":"4.69603","bright_ti4":"312.35","scan":"0.35","track":"0.56","acq_date":"2026-06-11","acq_time":"234","satellite":"N20","instrument":"VIIRS","confidence":"n","version":"2.0NRT","bright_ti5":"285","frp":"0.78","daynight":"N","commune":"Laudun-l'Ardoise","code_insee":"30141","departement":"Gard","region":"Occitanie"}},{"type":"Feature","geometry":{"type":"Point","coordinates":[-0.48471,45.18872]},"properties":{"latitude":"45.18872","longitude":"-0.48471","bright_ti4":"330.78","scan":"0.48","track":"0.48","acq_date":"2026-06-11","acq_time":"1217","satellite":"N20","instrument":"VIIRS","confidence":"n","version":"2.0NRT","bright_ti5":"292.5","frp":"3.16","daynight":"D","commune":"Saugon","code_insee":"33502","departement":"Gironde","region":"Nouvelle-Aquitaine"}},{"type":"Feature","geometry":{"type":"Point","coordinates":[4.88056,43.44095]},"properties":{"latitude":"43.44095","longitude":"4.88056","bright_ti4":"336.28","scan":"0.47","track":"0.4","acq_date":"2026-06-11","acq_time":"1219","satellite":"N20","instrument":"VIIRS","confidence":"n","version":"2.0NRT","bright_ti5":"299.22","frp":"12.14","daynight":"D","commune":"Fos-sur-Mer","code_insee":"13039","departement":"Bouches-du-Rhône","region":"Provence-Alpes-Côte d'Azur"}},{"type":"Feature","geometry":{"type":"Point","coordinates":[-0.16023,46.97033]},"properties":{"latitude":"46.97033","longitude":"-0.16023","bright_ti4":"348.93","scan":"0.56","track":"0.69","acq_date":"2026-06-11","acq_time":"1359","satellite":"N20","instrument":"VIIRS","confidence":"n","version":"2.0NRT","bright_ti5":"283.95","frp":"7.73","daynight":"D","commune":"Saint-Léger-de-Montbrun","code_insee":"79265","departement":"Deux-Sèvres","region":"Nouvelle-Aquitaine"}},{"type":"Feature","geometry":{"type":"Point","coordinates":[2.97955,48.38656]},"properties":{"latitude":"48.38656","longitude":"2.97955","bright_ti4":"307.01","scan":"0.43","track":"0.38","acq_date":"2026-06-11","acq_time":"137","satellite":"N21","instrument":"VIIRS","confidence":"n","version":"2.0NRT","bright_ti5":"283.95","frp":"1.28","daynight":"N","commune":"Montereau-Fault-Yonne","code_insee":"77305","departement":"Seine-et-Marne","region":"Île-de-France"}},{"type":"Feature","geometry":{"type":"Point","coordinates":[1.75963,48.98296]},"properties":{"latitude":"48.98296","longitude":"1.75963","bright_ti4":"333.17","scan":"0.48","track":"0.4","acq_date":"2026-06-11","acq_time":"137","satellite":"N21","instrument":"VIIRS","confidence":"n","version":"2.0NRT","bright_ti5":"284.27","frp":"5.07","daynight":"N","commune":"Porcheville","code_insee":"78501","departement":"Yvelines","region":"Île-de-France"}},{"type":"Feature","geometry":{"type":"Point","coordinates":[3.56518,50.40224]},"properties":{"latitude":"50.40224","longitude":"3.56518","bright_ti4":"318.58","scan":"0.43","track":"0.38","acq_date":"2026-06-11","acq_time":"137","satellite":"N21","instrument":"VIIRS","confidence":"n","version":"2.0NRT","bright_ti5":"281.46","frp":"2.43","daynight":"N","commune":"Saint-Saulve","code_insee":"59544","departement":"Nord","region":"Hauts-de-France"}},{"type":"Feature","geometry":{"type":"Point","coordinates":[2.28991,51.03347]},"properties":{"latitude":"51.03347","longitude":"2.28991","bright_ti4":"302.75","scan":"0.48","track":"0.4","acq_date":"2026-06-11","acq_time":"137","satellite":"N21","instrument":"VIIRS","confidence":"n","version":"2.0NRT","bright_ti5":"283.29","frp":"2.22","daynight":"N","commune":"Grande-Synthe","code_insee":"59271","departement":"Nord","region":"Hauts-de-France"}},{"type":"Feature","geometry":{"type":"Point","coordinates":[2.25484,51.03354]},"properties":{"latitude":"51.03354","longitude":"2.25484","bright_ti4":"303.67","scan":"0.48","track":"0.4","acq_date":"2026-06-11","acq_time":"137","satellite":"N21","instrument":"VIIRS","confidence":"n","version":"2.0NRT","bright_ti5":"282.61","frp":"1.6","daynight":"N","commune":"Dunkerque","code_insee":"59183","departement":"Nord","region":"Hauts-de-France"}},{"type":"Feature","geometry":{"type":"Point","coordinates":[2.29867,51.04002]},"properties":{"latitude":"51.04002","longitude":"2.29867","bright_ti4":"295.69","scan":"0.48","track":"0.4","acq_date":"2026-06-11","acq_time":"137","satellite":"N21","instrument":"VIIRS","confidence":"n","version":"2.0NRT","bright_ti5":"283.37","frp":"0.49","daynight":"N","commune":"Grande-Synthe","code_insee":"59271","departement":"Nord","region":"Hauts-de-France"}},{"type":"Feature","geometry":{"type":"Point","coordinates":[2.29186,51.04076]},"properties":{"latitude":"51.04076","longitude":"2.29186","bright_ti4":"298.26","scan":"0.48","track":"0.4","acq_date":"2026-06-11","acq_time":"137","satellite":"N21","instrument":"VIIRS","confidence":"n","version":"2.0NRT","bright_ti5":"284.07","frp":"1.36","daynight":"N","commune":"Grande-Synthe","code_insee":"59271","departement":"Nord","region":"Hauts-de-France"}},{"type":"Feature","geometry":{"type":"Point","coordinates":[2.29965,51.04367]},"properties":{"latitude":"51.04367","longitude":"2.29965","bright_ti4":"331.58","scan":"0.48","track":"0.4","acq_date":"2026-06-11","acq_time":"137","satellite":"N21","instrument":"VIIRS","confidence":"n","version":"2.0NRT","bright_ti5":"286.51","frp":"5.27","daynight":"N","commune":"Grande-Synthe","code_insee":"59271","departement":"Nord","region":"Hauts-de-France"}},{"type":"Feature","geometry":{"type":"Point","coordinates":[2.29284,51.04441]},"properties":{"latitude":"51.04441","longitude":"2.29284","bright_ti4":"322.67","scan":"0.48","track":"0.4","acq_date":"2026-06-11","acq_time":"137","satellite":"N21","instrument":"VIIRS","confidence":"n","version":"2.0NRT","bright_ti5":"283.58","frp":"4.38","daynight":"N","commune":"Grande-Synthe","code_insee":"59271","departement":"Nord","region":"Hauts-de-France"}},{"type":"Feature","geometry":{"type":"Point","coordinates":[2.31424,51.04582]},"properties":{"latitude":"51.04582","longitude":"2.31424","bright_ti4":"301.86","scan":"0.48","track":"0.4","acq_date":"2026-06-11","acq_time":"137","satellite":"N21","instrument":"VIIRS","confidence":"n","version":"2.0NRT","bright_ti5":"283.25","frp":"0.83","daynight":"N","commune":"Dunkerque","code_insee":"59183","departement":"Nord","region":"Hauts-de-France"}},{"type":"Feature","geometry":{"type":"Point","coordinates":[2.29466,51.04717]},"properties":{"latitude":"51.04717","longitude":"2.29466","bright_ti4":"324.63","scan":"0.48","track":"0.4","acq_date":"2026-06-11","acq_time":"137","satellite":"N21","instrument":"VIIRS","confidence":"n","version":"2.0NRT","bright_ti5":"286.08","frp":"4.2","daynight":"N","commune":"Grande-Synthe","code_insee":"59271","departement":"Nord","region":"Hauts-de-France"}},{"type":"Feature","geometry":{"type":"Point","coordinates":[2.32201,51.04871]},"properties":{"latitude":"51.04871","longitude":"2.32201","bright_ti4":"296.05","scan":"0.48","track":"0.4","acq_date":"2026-06-11","acq_time":"137","satellite":"N21","instrument":"VIIRS","confidence":"n","version":"2.0NRT","bright_ti5":"283.72","frp":"1.07","daynight":"N","commune":"Dunkerque","code_insee":"59183","departement":"Nord","region":"Hauts-de-France"}},{"type":"Feature","geometry":{"type":"Point","coordinates":[4.87942,43.43652]},"properties":{"latitude":"43.43652","longitude":"4.87942","bright_ti4":"301.56","scan":"0.38","track":"0.36","acq_date":"2026-06-11","acq_time":"139","satellite":"N21","instrument":"VIIRS","confidence":"n","version":"2.0NRT","bright_ti5":"286.47","frp":"1.21","daynight":"N","commune":"Fos-sur-Mer","code_insee":"13039","departement":"Bouches-du-Rhône","region":"Provence-Alpes-Côte d'Azur"}},{"type":"Feature","geometry":{"type":"Point","coordinates":[4.88973,43.4383]},"properties":{"latitude":"43.4383","longitude":"4.88973","bright_ti4":"300.13","scan":"0.38","track":"0.36","acq_date":"2026-06-11","acq_time":"139","satellite":"N21","instrument":"VIIRS","confidence":"n","version":"2.0NRT","bright_ti5":"285.04","frp":"1.05","daynight":"N","commune":"Fos-sur-Mer","code_insee":"13039","departement":"Bouches-du-Rhône","region":"Provence-Alpes-Côte d'Azur"}},{"type":"Feature","geometry":{"type":"Point","coordinates":[4.88135,43.44304]},"properties":{"latitude":"43.44304","longitude":"4.88135","bright_ti4":"325.17","scan":"0.38","track":"0.36","acq_date":"2026-06-11","acq_time":"139","satellite":"N21","instrument":"VIIRS","confidence":"n","version":"2.0NRT","bright_ti5":"284.71","frp":"6.3","daynight":"N","commune":"Fos-sur-Mer","code_insee":"13039","departement":"Bouches-du-Rhône","region":"Provence-Alpes-Côte d'Azur"}},{"type":"Feature","geometry":{"type":"Point","coordinates":[4.901,43.44335]},"properties":{"latitude":"43.44335","longitude":"4.901","bright_ti4":"304.68","scan":"0.38","track":"0.36","acq_date":"2026-06-11","acq_time":"139","satellite":"N21","instrument":"VIIRS","confidence":"n","version":"2.0NRT","bright_ti5":"285.17","frp":"1.04","daynight":"N","commune":"Fos-sur-Mer","code_insee":"13039","departement":"Bouches-du-Rhône","region":"Provence-Alpes-Côte d'Azur"}},{"type":"Feature","geometry":{"type":"Point","coordinates":[4.87668,43.44378]},"properties":{"latitude":"43.44378","longitude":"4.87668","bright_ti4":"328.73","scan":"0.38","track":"0.36","acq_date":"2026-06-11","acq_time":"139","satellite":"N21","instrument":"VIIRS","confidence":"n","version":"2.0NRT","bright_ti5":"288.83","frp":"9.49","daynight":"N","commune":"Fos-sur-Mer","code_insee":"13039","departement":"Bouches-du-Rhône","region":"Provence-Alpes-Côte d'Azur"}},{"type":"Feature","geometry":{"type":"Point","coordinates":[4.89633,43.44408]},"properties":{"latitude":"43.44408","longitude":"4.89633","bright_ti4":"306.43","scan":"0.38","track":"0.36","acq_date":"2026-06-11","acq_time":"139","satellite":"N21","instrument":"VIIRS","confidence":"n","version":"2.0NRT","bright_ti5":"285.7","frp":"1.28","daynight":"N","commune":"Fos-sur-Mer","code_insee":"13039","departement":"Bouches-du-Rhône","region":"Provence-Alpes-Côte d'Azur"}},{"type":"Feature","geometry":{"type":"Point","coordinates":[4.8973,43.44734]},"properties":{"latitude":"43.44734","longitude":"4.8973","bright_ti4":"299.38","scan":"0.38","track":"0.36","acq_date":"2026-06-11","acq_time":"139","satellite":"N21","instrument":"VIIRS","confidence":"n","version":"2.0NRT","bright_ti5":"284.95","frp":"0.7","daynight":"N","commune":"Fos-sur-Mer","code_insee":"13039","departement":"Bouches-du-Rhône","region":"Provence-Alpes-Côte d'Azur"}},{"type":"Feature","geometry":{"type":"Point","coordinates":[1.75815,48.98064]},"properties":{"latitude":"48.98064","longitude":"1.75815","bright_ti4":"313.04","scan":"0.63","track":"0.72","acq_date":"2026-06-11","acq_time":"317","satellite":"N21","instrument":"VIIRS","confidence":"n","version":"2.0NRT","bright_ti5":"279.87","frp":"2.87","daynight":"N","commune":"Porcheville","code_insee":"78501","departement":"Yvelines","region":"Île-de-France"}},{"type":"Feature","geometry":{"type":"Point","coordinates":[2.19933,49.61539]},"properties":{"latitude":"49.61539","longitude":"2.19933","bright_ti4":"308.01","scan":"0.62","track":"0.72","acq_date":"2026-06-11","acq_time":"317","satellite":"N21","instrument":"VIIRS","confidence":"n","version":"2.0NRT","bright_ti5":"278.56","frp":"2.18","daynight":"N","commune":"Le Crocq","code_insee":"60182","departement":"Oise","region":"Hauts-de-France"}},{"type":"Feature","geometry":{"type":"Point","coordinates":[2.19572,49.61663]},"properties":{"latitude":"49.61663","longitude":"2.19572","bright_ti4":"298.48","scan":"0.62","track":"0.72","acq_date":"2026-06-11","acq_time":"317","satellite":"N21","instrument":"VIIRS","confidence":"n","version":"2.0NRT","bright_ti5":"278.3","frp":"2.64","daynight":"N","commune":"Le Crocq","code_insee":"60182","departement":"Oise","region":"Hauts-de-France"}},{"type":"Feature","geometry":{"type":"Point","coordinates":[4.88077,43.44151]},"properties":{"latitude":"43.44151","longitude":"4.88077","bright_ti4":"340.57","scan":"0.44","track":"0.46","acq_date":"2026-06-11","acq_time":"1304","satellite":"N21","instrument":"VIIRS","confidence":"n","version":"2.0NRT","bright_ti5":"298.54","frp":"21.44","daynight":"D","commune":"Fos-sur-Mer","code_insee":"13039","departement":"Bouches-du-Rhône","region":"Provence-Alpes-Côte d'Azur"}},{"type":"Feature","geometry":{"type":"Point","coordinates":[4.87742,43.44173]},"properties":{"latitude":"43.44173","longitude":"4.87742","bright_ti4":"337.16","scan":"0.44","track":"0.46","acq_date":"2026-06-11","acq_time":"1304","satellite":"N21","instrument":"VIIRS","confidence":"n","version":"2.0NRT","bright_ti5":"296.9","frp":"12.32","daynight":"D","commune":"Fos-sur-Mer","code_insee":"13039","departement":"Bouches-du-Rhône","region":"Provence-Alpes-Côte d'Azur"}},{"type":"Feature","geometry":{"type":"Point","coordinates":[1.11642,43.49579]},"properties":{"latitude":"43.49579","longitude":"1.11642","bright_ti4":"331.4","scan":"0.45","track":"0.39","acq_date":"2026-06-11","acq_time":"1304","satellite":"N21","instrument":"VIIRS","confidence":"n","version":"2.0NRT","bright_ti5":"297.63","frp":"2.81","daynight":"D","commune":"Sainte-Foy-de-Peyrolières","code_insee":"31481","departement":"Haute-Garonne","region":"Occitanie"}},{"type":"Feature","geometry":{"type":"Point","coordinates":[1.11503,43.49761]},"properties":{"latitude":"43.49761","longitude":"1.11503","bright_ti4":"331.59","scan":"0.46","track":"0.39","acq_date":"2026-06-11","acq_time":"1304","satellite":"N21","instrument":"VIIRS","confidence":"n","version":"2.0NRT","bright_ti5":"297.31","frp":"3.55","daynight":"D","commune":"Sainte-Foy-de-Peyrolières","code_insee":"31481","departement":"Haute-Garonne","region":"Occitanie"}},{"type":"Feature","geometry":{"type":"Point","coordinates":[4.87815,43.83039]},"properties":{"latitude":"43.83039","longitude":"4.87815","bright_ti4":"343.58","scan":"0.44","track":"0.46","acq_date":"2026-06-11","acq_time":"1304","satellite":"N21","instrument":"VIIRS","confidence":"n","version":"2.0NRT","bright_ti5":"300.17","frp":"6.81","daynight":"D","commune":"Noves","code_insee":"13066","departement":"Bouches-du-Rhône","region":"Provence-Alpes-Côte d'Azur"}},{"type":"Feature","geometry":{"type":"Point","coordinates":[0.84248,46.48095]},"properties":{"latitude":"46.48095","longitude":"0.84248","bright_ti4":"367","scan":"0.48","track":"0.4","acq_date":"2026-06-11","acq_time":"1306","satellite":"N21","instrument":"VIIRS","confidence":"h","version":"2.0NRT","bright_ti5":"329.47","frp":"68.34","daynight":"D","commune":"Jouhet","code_insee":"86117","departement":"Vienne","region":"Nouvelle-Aquitaine"}},{"type":"Feature","geometry":{"type":"Point","coordinates":[0.83725,46.48103]},"properties":{"latitude":"46.48103","longitude":"0.83725","bright_ti4":"331.12","scan":"0.48","track":"0.4","acq_date":"2026-06-11","acq_time":"1306","satellite":"N21","instrument":"VIIRS","confidence":"n","version":"2.0NRT","bright_ti5":"298.4","frp":"59.06","daynight":"D","commune":"Jouhet","code_insee":"86117","departement":"Vienne","region":"Nouvelle-Aquitaine"}},{"type":"Feature","geometry":{"type":"Point","coordinates":[0.84347,46.48172]},"properties":{"latitude":"46.48172","longitude":"0.84347","bright_ti4":"367","scan":"0.48","track":"0.4","acq_date":"2026-06-11","acq_time":"1306","satellite":"N21","instrument":"VIIRS","confidence":"l","version":"2.0NRT","bright_ti5":"335.07","frp":"59.06","daynight":"D","commune":"Jouhet","code_insee":"86117","departement":"Vienne","region":"Nouvelle-Aquitaine"}},{"type":"Feature","geometry":{"type":"Point","coordinates":[0.84164,46.4846]},"properties":{"latitude":"46.4846","longitude":"0.84164","bright_ti4":"344.49","scan":"0.48","track":"0.4","acq_date":"2026-06-11","acq_time":"1306","satellite":"N21","instrument":"VIIRS","confidence":"n","version":"2.0NRT","bright_ti5":"301.49","frp":"68.34","daynight":"D","commune":"Jouhet","code_insee":"86117","departement":"Vienne","region":"Nouvelle-Aquitaine"}}]}