{"type":"FeatureCollection","features":[{"type":"Feature","geometry":{"type":"Point","coordinates":[7.23696,47.6289]},"properties":{"latitude":"47.6289","longitude":"7.23696","bright_ti4":"300.74","scan":"0.48","track":"0.4","acq_date":"2026-08-06","acq_time":"124","satellite":"N","instrument":"VIIRS","confidence":"n","version":"2.0NRT","bright_ti5":"290.3","frp":"0.61","daynight":"N","commune":"Altkirch","code_insee":"68004","departement":"Haut-Rhin","region":"Grand Est"}},{"type":"Feature","geometry":{"type":"Point","coordinates":[6.1082,48.61012]},"properties":{"latitude":"48.61012","longitude":"6.1082","bright_ti4":"315.19","scan":"0.55","track":"0.42","acq_date":"2026-08-06","acq_time":"124","satellite":"N","instrument":"VIIRS","confidence":"n","version":"2.0NRT","bright_ti5":"289.17","frp":"1.62","daynight":"N","commune":"Neuves-Maisons","code_insee":"54397","departement":"Meurthe-et-Moselle","region":"Grand Est"}},{"type":"Feature","geometry":{"type":"Point","coordinates":[6.1093,48.61091]},"properties":{"latitude":"48.61091","longitude":"6.1093","bright_ti4":"324","scan":"0.55","track":"0.42","acq_date":"2026-08-06","acq_time":"124","satellite":"N","instrument":"VIIRS","confidence":"n","version":"2.0NRT","bright_ti5":"289.21","frp":"3.88","daynight":"N","commune":"Neuves-Maisons","code_insee":"54397","departement":"Meurthe-et-Moselle","region":"Grand Est"}},{"type":"Feature","geometry":{"type":"Point","coordinates":[5.67973,48.71537]},"properties":{"latitude":"48.71537","longitude":"5.67973","bright_ti4":"299.82","scan":"0.57","track":"0.43","acq_date":"2026-08-06","acq_time":"124","satellite":"N","instrument":"VIIRS","confidence":"n","version":"2.0NRT","bright_ti5":"285","frp":"1","daynight":"N","commune":"Sorcy-Saint-Martin","code_insee":"55496","departement":"Meuse","region":"Grand Est"}},{"type":"Feature","geometry":{"type":"Point","coordinates":[4.3788,48.82624]},"properties":{"latitude":"48.82624","longitude":"4.3788","bright_ti4":"314.12","scan":"0.43","track":"0.46","acq_date":"2026-08-06","acq_time":"124","satellite":"N","instrument":"VIIRS","confidence":"n","version":"2.0NRT","bright_ti5":"289.57","frp":"17.57","daynight":"N","commune":"Coupetz","code_insee":"51178","departement":"Marne","region":"Grand Est"}},{"type":"Feature","geometry":{"type":"Point","coordinates":[4.37276,48.82674]},"properties":{"latitude":"48.82674","longitude":"4.37276","bright_ti4":"337.47","scan":"0.43","track":"0.46","acq_date":"2026-08-06","acq_time":"124","satellite":"N","instrument":"VIIRS","confidence":"n","version":"2.0NRT","bright_ti5":"285.66","frp":"19.04","daynight":"N","commune":"Coupetz","code_insee":"51178","departement":"Marne","region":"Grand Est"}},{"type":"Feature","geometry":{"type":"Point","coordinates":[6.81905,48.95613]},"properties":{"latitude":"48.95613","longitude":"6.81905","bright_ti4":"300.73","scan":"0.52","track":"0.41","acq_date":"2026-08-06","acq_time":"124","satellite":"N","instrument":"VIIRS","confidence":"n","version":"2.0NRT","bright_ti5":"285.09","frp":"0.96","daynight":"N","commune":"Léning","code_insee":"57394","departement":"Moselle","region":"Grand Est"}},{"type":"Feature","geometry":{"type":"Point","coordinates":[6.82035,48.95804]},"properties":{"latitude":"48.95804","longitude":"6.82035","bright_ti4":"322.43","scan":"0.52","track":"0.41","acq_date":"2026-08-06","acq_time":"124","satellite":"N","instrument":"VIIRS","confidence":"n","version":"2.0NRT","bright_ti5":"284.3","frp":"3.46","daynight":"N","commune":"Léning","code_insee":"57394","departement":"Moselle","region":"Grand Est"}},{"type":"Feature","geometry":{"type":"Point","coordinates":[6.81998,48.95995]},"properties":{"latitude":"48.95995","longitude":"6.81998","bright_ti4":"313.57","scan":"0.52","track":"0.41","acq_date":"2026-08-06","acq_time":"124","satellite":"N","instrument":"VIIRS","confidence":"n","version":"2.0NRT","bright_ti5":"282.91","frp":"1.43","daynight":"N","commune":"Léning","code_insee":"57394","departement":"Moselle","region":"Grand Est"}},{"type":"Feature","geometry":{"type":"Point","coordinates":[1.11861,49.36258]},"properties":{"latitude":"49.36258","longitude":"1.11861","bright_ti4":"298.82","scan":"0.61","track":"0.53","acq_date":"2026-08-06","acq_time":"124","satellite":"N","instrument":"VIIRS","confidence":"n","version":"2.0NRT","bright_ti5":"286.07","frp":"1.14","daynight":"N","commune":"Oissel-sur-Seine","code_insee":"76484","departement":"Seine-Maritime","region":"Normandie"}},{"type":"Feature","geometry":{"type":"Point","coordinates":[1.1192,49.36755]},"properties":{"latitude":"49.36755","longitude":"1.1192","bright_ti4":"310.59","scan":"0.61","track":"0.53","acq_date":"2026-08-06","acq_time":"124","satellite":"N","instrument":"VIIRS","confidence":"n","version":"2.0NRT","bright_ti5":"285.36","frp":"2.03","daynight":"N","commune":"Saint-Étienne-du-Rouvray","code_insee":"76575","departement":"Seine-Maritime","region":"Normandie"}},{"type":"Feature","geometry":{"type":"Point","coordinates":[0.53392,49.47625]},"properties":{"latitude":"49.47625","longitude":"0.53392","bright_ti4":"304.3","scan":"0.32","track":"0.55","acq_date":"2026-08-06","acq_time":"124","satellite":"N","instrument":"VIIRS","confidence":"n","version":"2.0NRT","bright_ti5":"287.33","frp":"1.29","daynight":"N","commune":"Lillebonne","code_insee":"76384","departement":"Seine-Maritime","region":"Normandie"}},{"type":"Feature","geometry":{"type":"Point","coordinates":[2.26963,51.02473]},"properties":{"latitude":"51.02473","longitude":"2.26963","bright_ti4":"301.74","scan":"0.56","track":"0.51","acq_date":"2026-08-06","acq_time":"124","satellite":"N","instrument":"VIIRS","confidence":"n","version":"2.0NRT","bright_ti5":"285.55","frp":"4.08","daynight":"N","commune":"Grande-Synthe","code_insee":"59271","departement":"Nord","region":"Hauts-de-France"}},{"type":"Feature","geometry":{"type":"Point","coordinates":[2.2696,51.02553]},"properties":{"latitude":"51.02553","longitude":"2.2696","bright_ti4":"316.11","scan":"0.56","track":"0.51","acq_date":"2026-08-06","acq_time":"124","satellite":"N","instrument":"VIIRS","confidence":"n","version":"2.0NRT","bright_ti5":"285.91","frp":"2.47","daynight":"N","commune":"Grande-Synthe","code_insee":"59271","departement":"Nord","region":"Hauts-de-France"}},{"type":"Feature","geometry":{"type":"Point","coordinates":[2.27852,51.02907]},"properties":{"latitude":"51.02907","longitude":"2.27852","bright_ti4":"341.27","scan":"0.56","track":"0.51","acq_date":"2026-08-06","acq_time":"124","satellite":"N","instrument":"VIIRS","confidence":"n","version":"2.0NRT","bright_ti5":"287.77","frp":"4.08","daynight":"N","commune":"Grande-Synthe","code_insee":"59271","departement":"Nord","region":"Hauts-de-France"}},{"type":"Feature","geometry":{"type":"Point","coordinates":[2.27033,51.02951]},"properties":{"latitude":"51.02951","longitude":"2.27033","bright_ti4":"323.81","scan":"0.56","track":"0.51","acq_date":"2026-08-06","acq_time":"124","satellite":"N","instrument":"VIIRS","confidence":"n","version":"2.0NRT","bright_ti5":"288.24","frp":"4.08","daynight":"N","commune":"Grande-Synthe","code_insee":"59271","departement":"Nord","region":"Hauts-de-France"}},{"type":"Feature","geometry":{"type":"Point","coordinates":[2.27846,51.02984]},"properties":{"latitude":"51.02984","longitude":"2.27846","bright_ti4":"339.84","scan":"0.56","track":"0.51","acq_date":"2026-08-06","acq_time":"124","satellite":"N","instrument":"VIIRS","confidence":"n","version":"2.0NRT","bright_ti5":"288.44","frp":"9.51","daynight":"N","commune":"Grande-Synthe","code_insee":"59271","departement":"Nord","region":"Hauts-de-France"}},{"type":"Feature","geometry":{"type":"Point","coordinates":[2.27028,51.03032]},"properties":{"latitude":"51.03032","longitude":"2.27028","bright_ti4":"312.43","scan":"0.56","track":"0.51","acq_date":"2026-08-06","acq_time":"124","satellite":"N","instrument":"VIIRS","confidence":"n","version":"2.0NRT","bright_ti5":"288.32","frp":"2.47","daynight":"N","commune":"Grande-Synthe","code_insee":"59271","departement":"Nord","region":"Hauts-de-France"}},{"type":"Feature","geometry":{"type":"Point","coordinates":[2.2955,51.03297]},"properties":{"latitude":"51.03297","longitude":"2.2955","bright_ti4":"314.8","scan":"0.56","track":"0.51","acq_date":"2026-08-06","acq_time":"124","satellite":"N","instrument":"VIIRS","confidence":"n","version":"2.0NRT","bright_ti5":"287.3","frp":"2.5","daynight":"N","commune":"Grande-Synthe","code_insee":"59271","departement":"Nord","region":"Hauts-de-France"}},{"type":"Feature","geometry":{"type":"Point","coordinates":[2.28737,51.03341]},"properties":{"latitude":"51.03341","longitude":"2.28737","bright_ti4":"303.36","scan":"0.56","track":"0.51","acq_date":"2026-08-06","acq_time":"124","satellite":"N","instrument":"VIIRS","confidence":"n","version":"2.0NRT","bright_ti5":"287.36","frp":"2.5","daynight":"N","commune":"Grande-Synthe","code_insee":"59271","departement":"Nord","region":"Hauts-de-France"}},{"type":"Feature","geometry":{"type":"Point","coordinates":[2.27921,51.03386]},"properties":{"latitude":"51.03386","longitude":"2.27921","bright_ti4":"318.12","scan":"0.56","track":"0.51","acq_date":"2026-08-06","acq_time":"124","satellite":"N","instrument":"VIIRS","confidence":"n","version":"2.0NRT","bright_ti5":"288.06","frp":"2.08","daynight":"N","commune":"Grande-Synthe","code_insee":"59271","departement":"Nord","region":"Hauts-de-France"}},{"type":"Feature","geometry":{"type":"Point","coordinates":[2.2799,51.03865]},"properties":{"latitude":"51.03865","longitude":"2.2799","bright_ti4":"316.44","scan":"0.56","track":"0.51","acq_date":"2026-08-06","acq_time":"124","satellite":"N","instrument":"VIIRS","confidence":"n","version":"2.0NRT","bright_ti5":"287.35","frp":"2.08","daynight":"N","commune":"Grande-Synthe","code_insee":"59271","departement":"Nord","region":"Hauts-de-France"}},{"type":"Feature","geometry":{"type":"Point","coordinates":[2.29692,51.04254]},"properties":{"latitude":"51.04254","longitude":"2.29692","bright_ti4":"321.68","scan":"0.56","track":"0.51","acq_date":"2026-08-06","acq_time":"124","satellite":"N","instrument":"VIIRS","confidence":"n","version":"2.0NRT","bright_ti5":"288.91","frp":"3.59","daynight":"N","commune":"Grande-Synthe","code_insee":"59271","departement":"Nord","region":"Hauts-de-France"}},{"type":"Feature","geometry":{"type":"Point","coordinates":[2.2976,51.04733]},"properties":{"latitude":"51.04733","longitude":"2.2976","bright_ti4":"316.27","scan":"0.56","track":"0.51","acq_date":"2026-08-06","acq_time":"124","satellite":"N","instrument":"VIIRS","confidence":"n","version":"2.0NRT","bright_ti5":"289.24","frp":"3.59","daynight":"N","commune":"Grande-Synthe","code_insee":"59271","departement":"Nord","region":"Hauts-de-France"}},{"type":"Feature","geometry":{"type":"Point","coordinates":[4.89397,43.43977]},"properties":{"latitude":"43.43977","longitude":"4.89397","bright_ti4":"309.9","scan":"0.54","track":"0.42","acq_date":"2026-08-06","acq_time":"126","satellite":"N","instrument":"VIIRS","confidence":"n","version":"2.0NRT","bright_ti5":"296.01","frp":"3.07","daynight":"N","commune":"Fos-sur-Mer","code_insee":"13039","departement":"Bouches-du-Rhône","region":"Provence-Alpes-Côte d'Azur"}},{"type":"Feature","geometry":{"type":"Point","coordinates":[4.90138,43.44295]},"properties":{"latitude":"43.44295","longitude":"4.90138","bright_ti4":"320.27","scan":"0.54","track":"0.42","acq_date":"2026-08-06","acq_time":"126","satellite":"N","instrument":"VIIRS","confidence":"n","version":"2.0NRT","bright_ti5":"295.34","frp":"1.96","daynight":"N","commune":"Fos-sur-Mer","code_insee":"13039","departement":"Bouches-du-Rhône","region":"Provence-Alpes-Côte d'Azur"}},{"type":"Feature","geometry":{"type":"Point","coordinates":[4.89474,43.44365]},"properties":{"latitude":"43.44365","longitude":"4.89474","bright_ti4":"311.09","scan":"0.54","track":"0.42","acq_date":"2026-08-06","acq_time":"126","satellite":"N","instrument":"VIIRS","confidence":"n","version":"2.0NRT","bright_ti5":"294.82","frp":"4.98","daynight":"N","commune":"Fos-sur-Mer","code_insee":"13039","departement":"Bouches-du-Rhône","region":"Provence-Alpes-Côte d'Azur"}},{"type":"Feature","geometry":{"type":"Point","coordinates":[4.90216,43.44682]},"properties":{"latitude":"43.44682","longitude":"4.90216","bright_ti4":"310.52","scan":"0.54","track":"0.42","acq_date":"2026-08-06","acq_time":"126","satellite":"N","instrument":"VIIRS","confidence":"n","version":"2.0NRT","bright_ti5":"294.93","frp":"1.96","daynight":"N","commune":"Fos-sur-Mer","code_insee":"13039","departement":"Bouches-du-Rhône","region":"Provence-Alpes-Côte d'Azur"}},{"type":"Feature","geometry":{"type":"Point","coordinates":[4.89551,43.44752]},"properties":{"latitude":"43.44752","longitude":"4.89551","bright_ti4":"336.61","scan":"0.54","track":"0.42","acq_date":"2026-08-06","acq_time":"126","satellite":"N","instrument":"VIIRS","confidence":"n","version":"2.0NRT","bright_ti5":"295.72","frp":"4.98","daynight":"N","commune":"Fos-sur-Mer","code_insee":"13039","departement":"Bouches-du-Rhône","region":"Provence-Alpes-Côte d'Azur"}},{"type":"Feature","geometry":{"type":"Point","coordinates":[4.84876,43.45243]},"properties":{"latitude":"43.45243","longitude":"4.84876","bright_ti4":"308.33","scan":"0.54","track":"0.42","acq_date":"2026-08-06","acq_time":"126","satellite":"N","instrument":"VIIRS","confidence":"n","version":"2.0NRT","bright_ti5":"293.88","frp":"1.62","daynight":"N","commune":"Fos-sur-Mer","code_insee":"13039","departement":"Bouches-du-Rhône","region":"Provence-Alpes-Côte d'Azur"}},{"type":"Feature","geometry":{"type":"Point","coordinates":[7.37307,43.79449]},"properties":{"latitude":"43.79449","longitude":"7.37307","bright_ti4":"312.45","scan":"0.44","track":"0.38","acq_date":"2026-08-06","acq_time":"126","satellite":"N","instrument":"VIIRS","confidence":"n","version":"2.0NRT","bright_ti5":"294.32","frp":"1.54","daynight":"N","commune":"Blausasc","code_insee":"06019","departement":"Alpes-Maritimes","region":"Provence-Alpes-Côte d'Azur"}},{"type":"Feature","geometry":{"type":"Point","coordinates":[3.206,45.7952]},"properties":{"latitude":"45.7952","longitude":"3.206","bright_ti4":"302.91","scan":"0.45","track":"0.47","acq_date":"2026-08-06","acq_time":"126","satellite":"N","instrument":"VIIRS","confidence":"n","version":"2.0NRT","bright_ti5":"284.83","frp":"1.76","daynight":"N","commune":"Pont-du-Château","code_insee":"63284","departement":"Puy-de-Dôme","region":"Auvergne-Rhône-Alpes"}},{"type":"Feature","geometry":{"type":"Point","coordinates":[0.15466,46.80868]},"properties":{"latitude":"46.80868","longitude":"0.15466","bright_ti4":"296.96","scan":"0.32","track":"0.55","acq_date":"2026-08-06","acq_time":"126","satellite":"N","instrument":"VIIRS","confidence":"n","version":"2.0NRT","bright_ti5":"285.28","frp":"0.39","daynight":"N","commune":"Chouppes","code_insee":"86075","departement":"Vienne","region":"Nouvelle-Aquitaine"}},{"type":"Feature","geometry":{"type":"Point","coordinates":[7.37499,43.79471]},"properties":{"latitude":"43.79471","longitude":"7.37499","bright_ti4":"312.23","scan":"0.41","track":"0.37","acq_date":"2026-08-06","acq_time":"143","satellite":"N20","instrument":"VIIRS","confidence":"n","version":"2.0NRT","bright_ti5":"294.65","frp":"1.07","daynight":"N","commune":"Blausasc","code_insee":"06019","departement":"Alpes-Maritimes","region":"Provence-Alpes-Côte d'Azur"}},{"type":"Feature","geometry":{"type":"Point","coordinates":[6.09435,45.90818]},"properties":{"latitude":"45.90818","longitude":"6.09435","bright_ti4":"300.38","scan":"0.39","track":"0.36","acq_date":"2026-08-06","acq_time":"143","satellite":"N20","instrument":"VIIRS","confidence":"n","version":"2.0NRT","bright_ti5":"290.17","frp":"0.43","daynight":"N","commune":"Annecy","code_insee":"74010","departement":"Haute-Savoie","region":"Auvergne-Rhône-Alpes"}},{"type":"Feature","geometry":{"type":"Point","coordinates":[0.15311,46.80758]},"properties":{"latitude":"46.80758","longitude":"0.15311","bright_ti4":"296.77","scan":"0.5","track":"0.41","acq_date":"2026-08-06","acq_time":"143","satellite":"N20","instrument":"VIIRS","confidence":"n","version":"2.0NRT","bright_ti5":"286.12","frp":"0.51","daynight":"N","commune":"Chouppes","code_insee":"86075","departement":"Vienne","region":"Nouvelle-Aquitaine"}},{"type":"Feature","geometry":{"type":"Point","coordinates":[7.23797,47.63033]},"properties":{"latitude":"47.63033","longitude":"7.23797","bright_ti4":"306.68","scan":"0.39","track":"0.36","acq_date":"2026-08-06","acq_time":"143","satellite":"N20","instrument":"VIIRS","confidence":"n","version":"2.0NRT","bright_ti5":"290.72","frp":"0.96","daynight":"N","commune":"Altkirch","code_insee":"68004","departement":"Haut-Rhin","region":"Grand Est"}},{"type":"Feature","geometry":{"type":"Point","coordinates":[4.19684,47.9827]},"properties":{"latitude":"47.9827","longitude":"4.19684","bright_ti4":"319.18","scan":"0.4","track":"0.37","acq_date":"2026-08-06","acq_time":"143","satellite":"N20","instrument":"VIIRS","confidence":"n","version":"2.0NRT","bright_ti5":"286.89","frp":"6.17","daynight":"N","commune":"Balnot-la-Grange","code_insee":"10028","departement":"Aube","region":"Grand Est"}},{"type":"Feature","geometry":{"type":"Point","coordinates":[4.19154,47.98344]},"properties":{"latitude":"47.98344","longitude":"4.19154","bright_ti4":"327.44","scan":"0.4","track":"0.37","acq_date":"2026-08-06","acq_time":"143","satellite":"N20","instrument":"VIIRS","confidence":"n","version":"2.0NRT","bright_ti5":"286.6","frp":"6.17","daynight":"N","commune":"Balnot-la-Grange","code_insee":"10028","departement":"Aube","region":"Grand Est"}},{"type":"Feature","geometry":{"type":"Point","coordinates":[6.10852,48.56192]},"properties":{"latitude":"48.56192","longitude":"6.10852","bright_ti4":"303.22","scan":"0.38","track":"0.36","acq_date":"2026-08-06","acq_time":"143","satellite":"N20","instrument":"VIIRS","confidence":"n","version":"2.0NRT","bright_ti5":"289.05","frp":"0.62","daynight":"N","commune":"Xeuilley","code_insee":"54596","departement":"Meurthe-et-Moselle","region":"Grand Est"}},{"type":"Feature","geometry":{"type":"Point","coordinates":[6.11542,48.60895]},"properties":{"latitude":"48.60895","longitude":"6.11542","bright_ti4":"304.56","scan":"0.38","track":"0.36","acq_date":"2026-08-06","acq_time":"143","satellite":"N20","instrument":"VIIRS","confidence":"n","version":"2.0NRT","bright_ti5":"290.6","frp":"1.11","daynight":"N","commune":"Neuves-Maisons","code_insee":"54397","departement":"Meurthe-et-Moselle","region":"Grand Est"}},{"type":"Feature","geometry":{"type":"Point","coordinates":[6.11029,48.60974]},"properties":{"latitude":"48.60974","longitude":"6.11029","bright_ti4":"316.65","scan":"0.38","track":"0.36","acq_date":"2026-08-06","acq_time":"143","satellite":"N20","instrument":"VIIRS","confidence":"n","version":"2.0NRT","bright_ti5":"290.22","frp":"1.86","daynight":"N","commune":"Neuves-Maisons","code_insee":"54397","departement":"Meurthe-et-Moselle","region":"Grand Est"}},{"type":"Feature","geometry":{"type":"Point","coordinates":[6.11657,48.6122]},"properties":{"latitude":"48.6122","longitude":"6.11657","bright_ti4":"300.27","scan":"0.38","track":"0.36","acq_date":"2026-08-06","acq_time":"143","satellite":"N20","instrument":"VIIRS","confidence":"n","version":"2.0NRT","bright_ti5":"288.89","frp":"0.3","daynight":"N","commune":"Neuves-Maisons","code_insee":"54397","departement":"Meurthe-et-Moselle","region":"Grand Est"}},{"type":"Feature","geometry":{"type":"Point","coordinates":[6.96596,48.69064]},"properties":{"latitude":"48.69064","longitude":"6.96596","bright_ti4":"308.21","scan":"0.38","track":"0.36","acq_date":"2026-08-06","acq_time":"143","satellite":"N20","instrument":"VIIRS","confidence":"n","version":"2.0NRT","bright_ti5":"290.06","frp":"1.38","daynight":"N","commune":"Héming","code_insee":"57314","departement":"Moselle","region":"Grand Est"}},{"type":"Feature","geometry":{"type":"Point","coordinates":[5.68075,48.71634]},"properties":{"latitude":"48.71634","longitude":"5.68075","bright_ti4":"310.93","scan":"0.39","track":"0.36","acq_date":"2026-08-06","acq_time":"143","satellite":"N20","instrument":"VIIRS","confidence":"n","version":"2.0NRT","bright_ti5":"286.67","frp":"0.82","daynight":"N","commune":"Sorcy-Saint-Martin","code_insee":"55496","departement":"Meuse","region":"Grand Est"}},{"type":"Feature","geometry":{"type":"Point","coordinates":[4.56173,48.76933]},"properties":{"latitude":"48.76933","longitude":"4.56173","bright_ti4":"300.65","scan":"0.4","track":"0.37","acq_date":"2026-08-06","acq_time":"143","satellite":"N20","instrument":"VIIRS","confidence":"n","version":"2.0NRT","bright_ti5":"287.22","frp":"0.94","daynight":"N","commune":"Couvrot","code_insee":"51195","departement":"Marne","region":"Grand Est"}},{"type":"Feature","geometry":{"type":"Point","coordinates":[4.37768,48.82627]},"properties":{"latitude":"48.82627","longitude":"4.37768","bright_ti4":"333.11","scan":"0.4","track":"0.37","acq_date":"2026-08-06","acq_time":"143","satellite":"N20","instrument":"VIIRS","confidence":"n","version":"2.0NRT","bright_ti5":"295.41","frp":"35.18","daynight":"N","commune":"Coupetz","code_insee":"51178","departement":"Marne","region":"Grand Est"}},{"type":"Feature","geometry":{"type":"Point","coordinates":[4.37225,48.82702]},"properties":{"latitude":"48.82702","longitude":"4.37225","bright_ti4":"296.03","scan":"0.4","track":"0.37","acq_date":"2026-08-06","acq_time":"143","satellite":"N20","instrument":"VIIRS","confidence":"n","version":"2.0NRT","bright_ti5":"283.19","frp":"6.85","daynight":"N","commune":"Coupetz","code_insee":"51178","departement":"Marne","region":"Grand Est"}},{"type":"Feature","geometry":{"type":"Point","coordinates":[1.12379,49.36352]},"properties":{"latitude":"49.36352","longitude":"1.12379","bright_ti4":"303.65","scan":"0.5","track":"0.41","acq_date":"2026-08-06","acq_time":"143","satellite":"N20","instrument":"VIIRS","confidence":"n","version":"2.0NRT","bright_ti5":"288","frp":"1.05","daynight":"N","commune":"Oissel-sur-Seine","code_insee":"76484","departement":"Seine-Maritime","region":"Normandie"}},{"type":"Feature","geometry":{"type":"Point","coordinates":[1.11691,49.36427]},"properties":{"latitude":"49.36427","longitude":"1.11691","bright_ti4":"300.85","scan":"0.5","track":"0.41","acq_date":"2026-08-06","acq_time":"143","satellite":"N20","instrument":"VIIRS","confidence":"n","version":"2.0NRT","bright_ti5":"286.76","frp":"1.05","daynight":"N","commune":"Oissel-sur-Seine","code_insee":"76484","departement":"Seine-Maritime","region":"Normandie"}},{"type":"Feature","geometry":{"type":"Point","coordinates":[1.12359,49.36446]},"properties":{"latitude":"49.36446","longitude":"1.12359","bright_ti4":"320.31","scan":"0.5","track":"0.41","acq_date":"2026-08-06","acq_time":"143","satellite":"N20","instrument":"VIIRS","confidence":"n","version":"2.0NRT","bright_ti5":"288.03","frp":"3.23","daynight":"N","commune":"Oissel-sur-Seine","code_insee":"76484","departement":"Seine-Maritime","region":"Normandie"}},{"type":"Feature","geometry":{"type":"Point","coordinates":[1.1167,49.36518]},"properties":{"latitude":"49.36518","longitude":"1.1167","bright_ti4":"318.62","scan":"0.5","track":"0.41","acq_date":"2026-08-06","acq_time":"143","satellite":"N20","instrument":"VIIRS","confidence":"n","version":"2.0NRT","bright_ti5":"286.43","frp":"2.83","daynight":"N","commune":"Saint-Étienne-du-Rouvray","code_insee":"76575","departement":"Seine-Maritime","region":"Normandie"}},{"type":"Feature","geometry":{"type":"Point","coordinates":[2.27498,51.02851]},"properties":{"latitude":"51.02851","longitude":"2.27498","bright_ti4":"302.52","scan":"0.47","track":"0.4","acq_date":"2026-08-06","acq_time":"143","satellite":"N20","instrument":"VIIRS","confidence":"n","version":"2.0NRT","bright_ti5":"286.8","frp":"4.3","daynight":"N","commune":"Grande-Synthe","code_insee":"59271","departement":"Nord","region":"Hauts-de-France"}},{"type":"Feature","geometry":{"type":"Point","coordinates":[2.26825,51.02927]},"properties":{"latitude":"51.02927","longitude":"2.26825","bright_ti4":"327.67","scan":"0.47","track":"0.4","acq_date":"2026-08-06","acq_time":"143","satellite":"N20","instrument":"VIIRS","confidence":"n","version":"2.0NRT","bright_ti5":"288.56","frp":"3.24","daynight":"N","commune":"Grande-Synthe","code_insee":"59271","departement":"Nord","region":"Hauts-de-France"}},{"type":"Feature","geometry":{"type":"Point","coordinates":[2.28273,51.03138]},"properties":{"latitude":"51.03138","longitude":"2.28273","bright_ti4":"323.1","scan":"0.47","track":"0.4","acq_date":"2026-08-06","acq_time":"143","satellite":"N20","instrument":"VIIRS","confidence":"n","version":"2.0NRT","bright_ti5":"292.4","frp":"4.3","daynight":"N","commune":"Grande-Synthe","code_insee":"59271","departement":"Nord","region":"Hauts-de-France"}},{"type":"Feature","geometry":{"type":"Point","coordinates":[2.276,51.03214]},"properties":{"latitude":"51.03214","longitude":"2.276","bright_ti4":"309.48","scan":"0.47","track":"0.4","acq_date":"2026-08-06","acq_time":"143","satellite":"N20","instrument":"VIIRS","confidence":"n","version":"2.0NRT","bright_ti5":"286.56","frp":"4.3","daynight":"N","commune":"Grande-Synthe","code_insee":"59271","departement":"Nord","region":"Hauts-de-France"}},{"type":"Feature","geometry":{"type":"Point","coordinates":[2.29047,51.03425]},"properties":{"latitude":"51.03425","longitude":"2.29047","bright_ti4":"327.01","scan":"0.47","track":"0.4","acq_date":"2026-08-06","acq_time":"143","satellite":"N20","instrument":"VIIRS","confidence":"n","version":"2.0NRT","bright_ti5":"289.31","frp":"3.53","daynight":"N","commune":"Grande-Synthe","code_insee":"59271","departement":"Nord","region":"Hauts-de-France"}},{"type":"Feature","geometry":{"type":"Point","coordinates":[2.2558,51.0344]},"properties":{"latitude":"51.0344","longitude":"2.2558","bright_ti4":"299.78","scan":"0.47","track":"0.4","acq_date":"2026-08-06","acq_time":"143","satellite":"N20","instrument":"VIIRS","confidence":"n","version":"2.0NRT","bright_ti5":"287.66","frp":"0.95","daynight":"N","commune":"Dunkerque","code_insee":"59183","departement":"Nord","region":"Hauts-de-France"}},{"type":"Feature","geometry":{"type":"Point","coordinates":[2.28375,51.03501]},"properties":{"latitude":"51.03501","longitude":"2.28375","bright_ti4":"302.79","scan":"0.47","track":"0.4","acq_date":"2026-08-06","acq_time":"143","satellite":"N20","instrument":"VIIRS","confidence":"n","version":"2.0NRT","bright_ti5":"287.19","frp":"1.91","daynight":"N","commune":"Grande-Synthe","code_insee":"59271","departement":"Nord","region":"Hauts-de-France"}},{"type":"Feature","geometry":{"type":"Point","coordinates":[2.28476,51.03864]},"properties":{"latitude":"51.03864","longitude":"2.28476","bright_ti4":"328.3","scan":"0.47","track":"0.4","acq_date":"2026-08-06","acq_time":"143","satellite":"N20","instrument":"VIIRS","confidence":"n","version":"2.0NRT","bright_ti5":"288.86","frp":"1.91","daynight":"N","commune":"Grande-Synthe","code_insee":"59271","departement":"Nord","region":"Hauts-de-France"}},{"type":"Feature","geometry":{"type":"Point","coordinates":[2.29251,51.0415]},"properties":{"latitude":"51.0415","longitude":"2.29251","bright_ti4":"303.03","scan":"0.47","track":"0.4","acq_date":"2026-08-06","acq_time":"143","satellite":"N20","instrument":"VIIRS","confidence":"n","version":"2.0NRT","bright_ti5":"289.44","frp":"2.86","daynight":"N","commune":"Grande-Synthe","code_insee":"59271","departement":"Nord","region":"Hauts-de-France"}},{"type":"Feature","geometry":{"type":"Point","coordinates":[2.30025,51.04437]},"properties":{"latitude":"51.04437","longitude":"2.30025","bright_ti4":"309.27","scan":"0.47","track":"0.4","acq_date":"2026-08-06","acq_time":"143","satellite":"N20","instrument":"VIIRS","confidence":"n","version":"2.0NRT","bright_ti5":"289.44","frp":"2.86","daynight":"N","commune":"Grande-Synthe","code_insee":"59271","departement":"Nord","region":"Hauts-de-France"}},{"type":"Feature","geometry":{"type":"Point","coordinates":[2.29352,51.04513]},"properties":{"latitude":"51.04513","longitude":"2.29352","bright_ti4":"327.88","scan":"0.47","track":"0.4","acq_date":"2026-08-06","acq_time":"143","satellite":"N20","instrument":"VIIRS","confidence":"n","version":"2.0NRT","bright_ti5":"288.93","frp":"2.86","daynight":"N","commune":"Grande-Synthe","code_insee":"59271","departement":"Nord","region":"Hauts-de-France"}},{"type":"Feature","geometry":{"type":"Point","coordinates":[4.89104,43.43285]},"properties":{"latitude":"43.43285","longitude":"4.89104","bright_ti4":"328.65","scan":"0.38","track":"0.36","acq_date":"2026-08-06","acq_time":"145","satellite":"N20","instrument":"VIIRS","confidence":"n","version":"2.0NRT","bright_ti5":"297.35","frp":"2.62","daynight":"N","commune":"Fos-sur-Mer","code_insee":"13039","departement":"Bouches-du-Rhône","region":"Provence-Alpes-Côte d'Azur"}},{"type":"Feature","geometry":{"type":"Point","coordinates":[4.88636,43.4336]},"properties":{"latitude":"43.4336","longitude":"4.88636","bright_ti4":"310.28","scan":"0.38","track":"0.36","acq_date":"2026-08-06","acq_time":"145","satellite":"N20","instrument":"VIIRS","confidence":"n","version":"2.0NRT","bright_ti5":"294.51","frp":"3.03","daynight":"N","commune":"Fos-sur-Mer","code_insee":"13039","departement":"Bouches-du-Rhône","region":"Provence-Alpes-Côte d'Azur"}},{"type":"Feature","geometry":{"type":"Point","coordinates":[4.89203,43.43611]},"properties":{"latitude":"43.43611","longitude":"4.89203","bright_ti4":"317.27","scan":"0.38","track":"0.36","acq_date":"2026-08-06","acq_time":"145","satellite":"N20","instrument":"VIIRS","confidence":"n","version":"2.0NRT","bright_ti5":"295.86","frp":"2.62","daynight":"N","commune":"Fos-sur-Mer","code_insee":"13039","departement":"Bouches-du-Rhône","region":"Provence-Alpes-Côte d'Azur"}},{"type":"Feature","geometry":{"type":"Point","coordinates":[4.89302,43.43937]},"properties":{"latitude":"43.43937","longitude":"4.89302","bright_ti4":"311.32","scan":"0.38","track":"0.36","acq_date":"2026-08-06","acq_time":"145","satellite":"N20","instrument":"VIIRS","confidence":"n","version":"2.0NRT","bright_ti5":"296.78","frp":"1.19","daynight":"N","commune":"Fos-sur-Mer","code_insee":"13039","departement":"Bouches-du-Rhône","region":"Provence-Alpes-Côte d'Azur"}},{"type":"Feature","geometry":{"type":"Point","coordinates":[4.89869,43.44187]},"properties":{"latitude":"43.44187","longitude":"4.89869","bright_ti4":"313.01","scan":"0.38","track":"0.36","acq_date":"2026-08-06","acq_time":"145","satellite":"N20","instrument":"VIIRS","confidence":"n","version":"2.0NRT","bright_ti5":"295.5","frp":"1.19","daynight":"N","commune":"Fos-sur-Mer","code_insee":"13039","departement":"Bouches-du-Rhône","region":"Provence-Alpes-Côte d'Azur"}},{"type":"Feature","geometry":{"type":"Point","coordinates":[4.89969,43.44513]},"properties":{"latitude":"43.44513","longitude":"4.89969","bright_ti4":"337.97","scan":"0.38","track":"0.36","acq_date":"2026-08-06","acq_time":"145","satellite":"N20","instrument":"VIIRS","confidence":"n","version":"2.0NRT","bright_ti5":"297.53","frp":"3.86","daynight":"N","commune":"Fos-sur-Mer","code_insee":"13039","departement":"Bouches-du-Rhône","region":"Provence-Alpes-Côte d'Azur"}},{"type":"Feature","geometry":{"type":"Point","coordinates":[4.896,43.44915]},"properties":{"latitude":"43.44915","longitude":"4.896","bright_ti4":"329.93","scan":"0.38","track":"0.36","acq_date":"2026-08-06","acq_time":"145","satellite":"N20","instrument":"VIIRS","confidence":"n","version":"2.0NRT","bright_ti5":"295.86","frp":"3.86","daynight":"N","commune":"Fos-sur-Mer","code_insee":"13039","departement":"Bouches-du-Rhône","region":"Provence-Alpes-Côte d'Azur"}},{"type":"Feature","geometry":{"type":"Point","coordinates":[4.85291,43.45269]},"properties":{"latitude":"43.45269","longitude":"4.85291","bright_ti4":"308.31","scan":"0.38","track":"0.36","acq_date":"2026-08-06","acq_time":"145","satellite":"N20","instrument":"VIIRS","confidence":"n","version":"2.0NRT","bright_ti5":"294.94","frp":"1.07","daynight":"N","commune":"Fos-sur-Mer","code_insee":"13039","departement":"Bouches-du-Rhône","region":"Provence-Alpes-Côte d'Azur"}},{"type":"Feature","geometry":{"type":"Point","coordinates":[7.23737,47.62755]},"properties":{"latitude":"47.62755","longitude":"7.23737","bright_ti4":"300.61","scan":"0.61","track":"0.53","acq_date":"2026-08-06","acq_time":"48","satellite":"N21","instrument":"VIIRS","confidence":"n","version":"2.0NRT","bright_ti5":"289.81","frp":"1.33","daynight":"N","commune":"Altkirch","code_insee":"68004","departement":"Haut-Rhin","region":"Grand Est"}},{"type":"Feature","geometry":{"type":"Point","coordinates":[6.10897,48.60846]},"properties":{"latitude":"48.60846","longitude":"6.10897","bright_ti4":"307.5","scan":"0.35","track":"0.57","acq_date":"2026-08-06","acq_time":"48","satellite":"N21","instrument":"VIIRS","confidence":"n","version":"2.0NRT","bright_ti5":"287.82","frp":"1.49","daynight":"N","commune":"Neuves-Maisons","code_insee":"54397","departement":"Meurthe-et-Moselle","region":"Grand Est"}},{"type":"Feature","geometry":{"type":"Point","coordinates":[6.9661,48.69217]},"properties":{"latitude":"48.69217","longitude":"6.9661","bright_ti4":"305.92","scan":"0.32","track":"0.55","acq_date":"2026-08-06","acq_time":"48","satellite":"N21","instrument":"VIIRS","confidence":"n","version":"2.0NRT","bright_ti5":"288.5","frp":"0.84","daynight":"N","commune":"Héming","code_insee":"57314","departement":"Moselle","region":"Grand Est"}},{"type":"Feature","geometry":{"type":"Point","coordinates":[5.68102,48.71359]},"properties":{"latitude":"48.71359","longitude":"5.68102","bright_ti4":"297.04","scan":"0.37","track":"0.58","acq_date":"2026-08-06","acq_time":"48","satellite":"N21","instrument":"VIIRS","confidence":"n","version":"2.0NRT","bright_ti5":"284.34","frp":"0.88","daynight":"N","commune":"Troussey","code_insee":"55520","departement":"Meuse","region":"Grand Est"}},{"type":"Feature","geometry":{"type":"Point","coordinates":[4.37891,48.82504]},"properties":{"latitude":"48.82504","longitude":"4.37891","bright_ti4":"350.5","scan":"0.42","track":"0.61","acq_date":"2026-08-06","acq_time":"48","satellite":"N21","instrument":"VIIRS","confidence":"n","version":"2.0NRT","bright_ti5":"284.92","frp":"20.75","daynight":"N","commune":"Coupetz","code_insee":"51178","departement":"Marne","region":"Grand Est"}},{"type":"Feature","geometry":{"type":"Point","coordinates":[4.37289,48.8252]},"properties":{"latitude":"48.8252","longitude":"4.37289","bright_ti4":"367","scan":"0.42","track":"0.61","acq_date":"2026-08-06","acq_time":"48","satellite":"N21","instrument":"VIIRS","confidence":"h","version":"2.0NRT","bright_ti5":"287.11","frp":"24.53","daynight":"N","commune":"Coupetz","code_insee":"51178","departement":"Marne","region":"Grand Est"}},{"type":"Feature","geometry":{"type":"Point","coordinates":[6.09915,49.32384]},"properties":{"latitude":"49.32384","longitude":"6.09915","bright_ti4":"297.46","scan":"0.36","track":"0.57","acq_date":"2026-08-06","acq_time":"48","satellite":"N21","instrument":"VIIRS","confidence":"n","version":"2.0NRT","bright_ti5":"286.99","frp":"0.46","daynight":"N","commune":"Serémange-Erzange","code_insee":"57647","departement":"Moselle","region":"Grand Est"}},{"type":"Feature","geometry":{"type":"Point","coordinates":[1.11831,49.36332]},"properties":{"latitude":"49.36332","longitude":"1.11831","bright_ti4":"301.54","scan":"0.6","track":"0.71","acq_date":"2026-08-06","acq_time":"48","satellite":"N21","instrument":"VIIRS","confidence":"n","version":"2.0NRT","bright_ti5":"284.51","frp":"1.53","daynight":"N","commune":"Oissel-sur-Seine","code_insee":"76484","departement":"Seine-Maritime","region":"Normandie"}},{"type":"Feature","geometry":{"type":"Point","coordinates":[2.26764,51.02451]},"properties":{"latitude":"51.02451","longitude":"2.26764","bright_ti4":"302.44","scan":"0.54","track":"0.68","acq_date":"2026-08-06","acq_time":"48","satellite":"N21","instrument":"VIIRS","confidence":"n","version":"2.0NRT","bright_ti5":"286.09","frp":"3.41","daynight":"N","commune":"Grande-Synthe","code_insee":"59271","departement":"Nord","region":"Hauts-de-France"}},{"type":"Feature","geometry":{"type":"Point","coordinates":[2.2832,51.03075]},"properties":{"latitude":"51.03075","longitude":"2.2832","bright_ti4":"322.51","scan":"0.54","track":"0.68","acq_date":"2026-08-06","acq_time":"48","satellite":"N21","instrument":"VIIRS","confidence":"n","version":"2.0NRT","bright_ti5":"286.15","frp":"10.18","daynight":"N","commune":"Grande-Synthe","code_insee":"59271","departement":"Nord","region":"Hauts-de-France"}},{"type":"Feature","geometry":{"type":"Point","coordinates":[2.26759,51.03077]},"properties":{"latitude":"51.03077","longitude":"2.26759","bright_ti4":"303.54","scan":"0.54","track":"0.68","acq_date":"2026-08-06","acq_time":"48","satellite":"N21","instrument":"VIIRS","confidence":"n","version":"2.0NRT","bright_ti5":"286.66","frp":"3.41","daynight":"N","commune":"Grande-Synthe","code_insee":"59271","departement":"Nord","region":"Hauts-de-France"}},{"type":"Feature","geometry":{"type":"Point","coordinates":[2.27538,51.03077]},"properties":{"latitude":"51.03077","longitude":"2.27538","bright_ti4":"350.16","scan":"0.54","track":"0.68","acq_date":"2026-08-06","acq_time":"48","satellite":"N21","instrument":"VIIRS","confidence":"n","version":"2.0NRT","bright_ti5":"288.34","frp":"10.18","daynight":"N","commune":"Grande-Synthe","code_insee":"59271","departement":"Nord","region":"Hauts-de-France"}},{"type":"Feature","geometry":{"type":"Point","coordinates":[2.29089,51.037]},"properties":{"latitude":"51.037","longitude":"2.29089","bright_ti4":"321.14","scan":"0.54","track":"0.68","acq_date":"2026-08-06","acq_time":"48","satellite":"N21","instrument":"VIIRS","confidence":"n","version":"2.0NRT","bright_ti5":"287.71","frp":"3.37","daynight":"N","commune":"Grande-Synthe","code_insee":"59271","departement":"Nord","region":"Hauts-de-France"}},{"type":"Feature","geometry":{"type":"Point","coordinates":[2.28311,51.03702]},"properties":{"latitude":"51.03702","longitude":"2.28311","bright_ti4":"317.72","scan":"0.54","track":"0.68","acq_date":"2026-08-06","acq_time":"48","satellite":"N21","instrument":"VIIRS","confidence":"n","version":"2.0NRT","bright_ti5":"287.54","frp":"3.07","daynight":"N","commune":"Grande-Synthe","code_insee":"59271","departement":"Nord","region":"Hauts-de-France"}},{"type":"Feature","geometry":{"type":"Point","coordinates":[2.27529,51.03703]},"properties":{"latitude":"51.03703","longitude":"2.27529","bright_ti4":"297.26","scan":"0.54","track":"0.68","acq_date":"2026-08-06","acq_time":"48","satellite":"N21","instrument":"VIIRS","confidence":"n","version":"2.0NRT","bright_ti5":"286.23","frp":"3.07","daynight":"N","commune":"Grande-Synthe","code_insee":"59271","departement":"Nord","region":"Hauts-de-France"}},{"type":"Feature","geometry":{"type":"Point","coordinates":[2.2892,51.04086]},"properties":{"latitude":"51.04086","longitude":"2.2892","bright_ti4":"299.46","scan":"0.54","track":"0.68","acq_date":"2026-08-06","acq_time":"48","satellite":"N21","instrument":"VIIRS","confidence":"n","version":"2.0NRT","bright_ti5":"286.93","frp":"2.81","daynight":"N","commune":"Grande-Synthe","code_insee":"59271","departement":"Nord","region":"Hauts-de-France"}},{"type":"Feature","geometry":{"type":"Point","coordinates":[2.29864,51.04325]},"properties":{"latitude":"51.04325","longitude":"2.29864","bright_ti4":"312.88","scan":"0.54","track":"0.68","acq_date":"2026-08-06","acq_time":"48","satellite":"N21","instrument":"VIIRS","confidence":"n","version":"2.0NRT","bright_ti5":"287.73","frp":"3.37","daynight":"N","commune":"Grande-Synthe","code_insee":"59271","departement":"Nord","region":"Hauts-de-France"}},{"type":"Feature","geometry":{"type":"Point","coordinates":[2.29083,51.04326]},"properties":{"latitude":"51.04326","longitude":"2.29083","bright_ti4":"310.33","scan":"0.54","track":"0.68","acq_date":"2026-08-06","acq_time":"48","satellite":"N21","instrument":"VIIRS","confidence":"n","version":"2.0NRT","bright_ti5":"287.46","frp":"3.37","daynight":"N","commune":"Grande-Synthe","code_insee":"59271","departement":"Nord","region":"Hauts-de-France"}},{"type":"Feature","geometry":{"type":"Point","coordinates":[2.29697,51.04714]},"properties":{"latitude":"51.04714","longitude":"2.29697","bright_ti4":"317.08","scan":"0.54","track":"0.68","acq_date":"2026-08-06","acq_time":"48","satellite":"N21","instrument":"VIIRS","confidence":"n","version":"2.0NRT","bright_ti5":"287.57","frp":"4.01","daynight":"N","commune":"Grande-Synthe","code_insee":"59271","departement":"Nord","region":"Hauts-de-France"}},{"type":"Feature","geometry":{"type":"Point","coordinates":[4.89674,43.42991]},"properties":{"latitude":"43.42991","longitude":"4.89674","bright_ti4":"306.1","scan":"0.37","track":"0.58","acq_date":"2026-08-06","acq_time":"50","satellite":"N21","instrument":"VIIRS","confidence":"n","version":"2.0NRT","bright_ti5":"294.14","frp":"1.87","daynight":"N","commune":"Fos-sur-Mer","code_insee":"13039","departement":"Bouches-du-Rhône","region":"Provence-Alpes-Côte d'Azur"}},{"type":"Feature","geometry":{"type":"Point","coordinates":[4.8881,43.43568]},"properties":{"latitude":"43.43568","longitude":"4.8881","bright_ti4":"308.75","scan":"0.37","track":"0.58","acq_date":"2026-08-06","acq_time":"50","satellite":"N21","instrument":"VIIRS","confidence":"n","version":"2.0NRT","bright_ti5":"294.31","frp":"2.94","daynight":"N","commune":"Fos-sur-Mer","code_insee":"13039","departement":"Bouches-du-Rhône","region":"Provence-Alpes-Côte d'Azur"}},{"type":"Feature","geometry":{"type":"Point","coordinates":[4.8977,43.44058]},"properties":{"latitude":"43.44058","longitude":"4.8977","bright_ti4":"310.97","scan":"0.37","track":"0.58","acq_date":"2026-08-06","acq_time":"50","satellite":"N21","instrument":"VIIRS","confidence":"n","version":"2.0NRT","bright_ti5":"293.93","frp":"2.1","daynight":"N","commune":"Fos-sur-Mer","code_insee":"13039","departement":"Bouches-du-Rhône","region":"Provence-Alpes-Côte d'Azur"}},{"type":"Feature","geometry":{"type":"Point","coordinates":[4.89814,43.44591]},"properties":{"latitude":"43.44591","longitude":"4.89814","bright_ti4":"327.34","scan":"0.37","track":"0.58","acq_date":"2026-08-06","acq_time":"50","satellite":"N21","instrument":"VIIRS","confidence":"n","version":"2.0NRT","bright_ti5":"294.66","frp":"3.15","daynight":"N","commune":"Fos-sur-Mer","code_insee":"13039","departement":"Bouches-du-Rhône","region":"Provence-Alpes-Côte d'Azur"}},{"type":"Feature","geometry":{"type":"Point","coordinates":[7.23464,47.62909]},"properties":{"latitude":"47.62909","longitude":"7.23464","bright_ti4":"300.27","scan":"0.36","track":"0.57","acq_date":"2026-08-06","acq_time":"228","satellite":"N21","instrument":"VIIRS","confidence":"n","version":"2.0NRT","bright_ti5":"288.21","frp":"0.77","daynight":"N","commune":"Altkirch","code_insee":"68004","departement":"Haut-Rhin","region":"Grand Est"}},{"type":"Feature","geometry":{"type":"Point","coordinates":[7.23485,47.63031]},"properties":{"latitude":"47.63031","longitude":"7.23485","bright_ti4":"297.85","scan":"0.36","track":"0.57","acq_date":"2026-08-06","acq_time":"228","satellite":"N21","instrument":"VIIRS","confidence":"n","version":"2.0NRT","bright_ti5":"287.34","frp":"0.74","daynight":"N","commune":"Altkirch","code_insee":"68004","departement":"Haut-Rhin","region":"Grand Est"}},{"type":"Feature","geometry":{"type":"Point","coordinates":[6.11566,48.6084]},"properties":{"latitude":"48.6084","longitude":"6.11566","bright_ti4":"301.54","scan":"0.6","track":"0.53","acq_date":"2026-08-06","acq_time":"228","satellite":"N21","instrument":"VIIRS","confidence":"n","version":"2.0NRT","bright_ti5":"288.59","frp":"1.54","daynight":"N","commune":"Neuves-Maisons","code_insee":"54397","departement":"Meurthe-et-Moselle","region":"Grand Est"}},{"type":"Feature","geometry":{"type":"Point","coordinates":[6.96421,48.68836]},"properties":{"latitude":"48.68836","longitude":"6.96421","bright_ti4":"302.5","scan":"0.32","track":"0.55","acq_date":"2026-08-06","acq_time":"228","satellite":"N21","instrument":"VIIRS","confidence":"n","version":"2.0NRT","bright_ti5":"288.34","frp":"1.05","daynight":"N","commune":"Héming","code_insee":"57314","departement":"Moselle","region":"Grand Est"}},{"type":"Feature","geometry":{"type":"Point","coordinates":[5.68085,48.71533]},"properties":{"latitude":"48.71533","longitude":"5.68085","bright_ti4":"295.7","scan":"0.57","track":"0.52","acq_date":"2026-08-06","acq_time":"228","satellite":"N21","instrument":"VIIRS","confidence":"n","version":"2.0NRT","bright_ti5":"284.28","frp":"1.37","daynight":"N","commune":"Sorcy-Saint-Martin","code_insee":"55496","departement":"Meuse","region":"Grand Est"}},{"type":"Feature","geometry":{"type":"Point","coordinates":[4.56447,48.76792]},"properties":{"latitude":"48.76792","longitude":"4.56447","bright_ti4":"298.24","scan":"0.51","track":"0.49","acq_date":"2026-08-06","acq_time":"228","satellite":"N21","instrument":"VIIRS","confidence":"n","version":"2.0NRT","bright_ti5":"286.89","frp":"1.26","daynight":"N","commune":"Couvrot","code_insee":"51195","departement":"Marne","region":"Grand Est"}},{"type":"Feature","geometry":{"type":"Point","coordinates":[1.12278,49.3648]},"properties":{"latitude":"49.3648","longitude":"1.12278","bright_ti4":"327.89","scan":"0.54","track":"0.42","acq_date":"2026-08-06","acq_time":"228","satellite":"N21","instrument":"VIIRS","confidence":"n","version":"2.0NRT","bright_ti5":"288.8","frp":"6.62","daynight":"N","commune":"Saint-Étienne-du-Rouvray","code_insee":"76575","departement":"Seine-Maritime","region":"Normandie"}},{"type":"Feature","geometry":{"type":"Point","coordinates":[0.53539,49.47641]},"properties":{"latitude":"49.47641","longitude":"0.53539","bright_ti4":"299.49","scan":"0.51","track":"0.41","acq_date":"2026-08-06","acq_time":"228","satellite":"N21","instrument":"VIIRS","confidence":"n","version":"2.0NRT","bright_ti5":"284.88","frp":"1.67","daynight":"N","commune":"Port-Jérôme-sur-Seine","code_insee":"76476","departement":"Seine-Maritime","region":"Normandie"}},{"type":"Feature","geometry":{"type":"Point","coordinates":[2.26855,51.02553]},"properties":{"latitude":"51.02553","longitude":"2.26855","bright_ti4":"299.37","scan":"0.54","track":"0.42","acq_date":"2026-08-06","acq_time":"228","satellite":"N21","instrument":"VIIRS","confidence":"n","version":"2.0NRT","bright_ti5":"274.6","frp":"1.53","daynight":"N","commune":"Grande-Synthe","code_insee":"59271","departement":"Nord","region":"Hauts-de-France"}},{"type":"Feature","geometry":{"type":"Point","coordinates":[2.27801,51.02757]},"properties":{"latitude":"51.02757","longitude":"2.27801","bright_ti4":"296.48","scan":"0.54","track":"0.42","acq_date":"2026-08-06","acq_time":"228","satellite":"N21","instrument":"VIIRS","confidence":"n","version":"2.0NRT","bright_ti5":"269.81","frp":"0.71","daynight":"N","commune":"Grande-Synthe","code_insee":"59271","departement":"Nord","region":"Hauts-de-France"}},{"type":"Feature","geometry":{"type":"Point","coordinates":[2.27066,51.02921]},"properties":{"latitude":"51.02921","longitude":"2.27066","bright_ti4":"306.1","scan":"0.54","track":"0.42","acq_date":"2026-08-06","acq_time":"228","satellite":"N21","instrument":"VIIRS","confidence":"n","version":"2.0NRT","bright_ti5":"275.92","frp":"1.53","daynight":"N","commune":"Grande-Synthe","code_insee":"59271","departement":"Nord","region":"Hauts-de-France"}},{"type":"Feature","geometry":{"type":"Point","coordinates":[2.28011,51.03125]},"properties":{"latitude":"51.03125","longitude":"2.28011","bright_ti4":"325.38","scan":"0.54","track":"0.42","acq_date":"2026-08-06","acq_time":"228","satellite":"N21","instrument":"VIIRS","confidence":"n","version":"2.0NRT","bright_ti5":"276.29","frp":"2.65","daynight":"N","commune":"Grande-Synthe","code_insee":"59271","departement":"Nord","region":"Hauts-de-France"}},{"type":"Feature","geometry":{"type":"Point","coordinates":[2.28959,51.03328]},"properties":{"latitude":"51.03328","longitude":"2.28959","bright_ti4":"319.54","scan":"0.54","track":"0.42","acq_date":"2026-08-06","acq_time":"228","satellite":"N21","instrument":"VIIRS","confidence":"n","version":"2.0NRT","bright_ti5":"274.08","frp":"2.65","daynight":"N","commune":"Grande-Synthe","code_insee":"59271","departement":"Nord","region":"Hauts-de-France"}},{"type":"Feature","geometry":{"type":"Point","coordinates":[2.28221,51.03493]},"properties":{"latitude":"51.03493","longitude":"2.28221","bright_ti4":"309.59","scan":"0.54","track":"0.42","acq_date":"2026-08-06","acq_time":"228","satellite":"N21","instrument":"VIIRS","confidence":"n","version":"2.0NRT","bright_ti5":"277.3","frp":"2.65","daynight":"N","commune":"Grande-Synthe","code_insee":"59271","departement":"Nord","region":"Hauts-de-France"}},{"type":"Feature","geometry":{"type":"Point","coordinates":[2.29591,51.04434]},"properties":{"latitude":"51.04434","longitude":"2.29591","bright_ti4":"332.01","scan":"0.54","track":"0.42","acq_date":"2026-08-06","acq_time":"228","satellite":"N21","instrument":"VIIRS","confidence":"n","version":"2.0NRT","bright_ti5":"276.79","frp":"9.06","daynight":"N","commune":"Grande-Synthe","code_insee":"59271","departement":"Nord","region":"Hauts-de-France"}},{"type":"Feature","geometry":{"type":"Point","coordinates":[4.89636,43.43148]},"properties":{"latitude":"43.43148","longitude":"4.89636","bright_ti4":"312.98","scan":"0.38","track":"0.58","acq_date":"2026-08-06","acq_time":"230","satellite":"N21","instrument":"VIIRS","confidence":"n","version":"2.0NRT","bright_ti5":"293.33","frp":"1.8","daynight":"N","commune":"Fos-sur-Mer","code_insee":"13039","departement":"Bouches-du-Rhône","region":"Provence-Alpes-Côte d'Azur"}},{"type":"Feature","geometry":{"type":"Point","coordinates":[4.892,43.4327]},"properties":{"latitude":"43.4327","longitude":"4.892","bright_ti4":"305.82","scan":"0.37","track":"0.58","acq_date":"2026-08-06","acq_time":"230","satellite":"N21","instrument":"VIIRS","confidence":"n","version":"2.0NRT","bright_ti5":"292.77","frp":"1.8","daynight":"N","commune":"Fos-sur-Mer","code_insee":"13039","departement":"Bouches-du-Rhône","region":"Provence-Alpes-Côte d'Azur"}},{"type":"Feature","geometry":{"type":"Point","coordinates":[4.88766,43.43391]},"properties":{"latitude":"43.43391","longitude":"4.88766","bright_ti4":"310.03","scan":"0.37","track":"0.58","acq_date":"2026-08-06","acq_time":"230","satellite":"N21","instrument":"VIIRS","confidence":"n","version":"2.0NRT","bright_ti5":"293.37","frp":"1.58","daynight":"N","commune":"Fos-sur-Mer","code_insee":"13039","departement":"Bouches-du-Rhône","region":"Provence-Alpes-Côte d'Azur"}},{"type":"Feature","geometry":{"type":"Point","coordinates":[4.89037,43.43892]},"properties":{"latitude":"43.43892","longitude":"4.89037","bright_ti4":"313.96","scan":"0.37","track":"0.58","acq_date":"2026-08-06","acq_time":"230","satellite":"N21","instrument":"VIIRS","confidence":"n","version":"2.0NRT","bright_ti5":"293.19","frp":"1.58","daynight":"N","commune":"Fos-sur-Mer","code_insee":"13039","departement":"Bouches-du-Rhône","region":"Provence-Alpes-Côte d'Azur"}},{"type":"Feature","geometry":{"type":"Point","coordinates":[4.8974,43.44273]},"properties":{"latitude":"43.44273","longitude":"4.8974","bright_ti4":"332.06","scan":"0.37","track":"0.58","acq_date":"2026-08-06","acq_time":"230","satellite":"N21","instrument":"VIIRS","confidence":"n","version":"2.0NRT","bright_ti5":"293.46","frp":"4.47","daynight":"N","commune":"Fos-sur-Mer","code_insee":"13039","departement":"Bouches-du-Rhône","region":"Provence-Alpes-Côte d'Azur"}},{"type":"Feature","geometry":{"type":"Point","coordinates":[4.89582,43.44893]},"properties":{"latitude":"43.44893","longitude":"4.89582","bright_ti4":"308.68","scan":"0.37","track":"0.58","acq_date":"2026-08-06","acq_time":"230","satellite":"N21","instrument":"VIIRS","confidence":"n","version":"2.0NRT","bright_ti5":"292.25","frp":"3.39","daynight":"N","commune":"Fos-sur-Mer","code_insee":"13039","departement":"Bouches-du-Rhône","region":"Provence-Alpes-Côte d'Azur"}},{"type":"Feature","geometry":{"type":"Point","coordinates":[6.08925,45.90602]},"properties":{"latitude":"45.90602","longitude":"6.08925","bright_ti4":"303.2","scan":"0.36","track":"0.57","acq_date":"2026-08-06","acq_time":"230","satellite":"N21","instrument":"VIIRS","confidence":"n","version":"2.0NRT","bright_ti5":"287.9","frp":"1.51","daynight":"N","commune":"Annecy","code_insee":"74010","departement":"Haute-Savoie","region":"Auvergne-Rhône-Alpes"}},{"type":"Feature","geometry":{"type":"Point","coordinates":[4.19617,47.98454]},"properties":{"latitude":"47.98454","longitude":"4.19617","bright_ti4":"336.43","scan":"0.52","track":"0.5","acq_date":"2026-08-06","acq_time":"230","satellite":"N21","instrument":"VIIRS","confidence":"n","version":"2.0NRT","bright_ti5":"285.8","frp":"4.25","daynight":"N","commune":"Balnot-la-Grange","code_insee":"10028","departement":"Aube","region":"Grand Est"}},{"type":"Feature","geometry":{"type":"Point","coordinates":[6.11585,48.60979]},"properties":{"latitude":"48.60979","longitude":"6.11585","bright_ti4":"297.39","scan":"0.54","track":"0.68","acq_date":"2026-08-06","acq_time":"304","satellite":"N","instrument":"VIIRS","confidence":"n","version":"2.0NRT","bright_ti5":"286.49","frp":"0.61","daynight":"N","commune":"Neuves-Maisons","code_insee":"54397","departement":"Meurthe-et-Moselle","region":"Grand Est"}},{"type":"Feature","geometry":{"type":"Point","coordinates":[6.96846,48.69248]},"properties":{"latitude":"48.69248","longitude":"6.96846","bright_ti4":"296.59","scan":"0.58","track":"0.69","acq_date":"2026-08-06","acq_time":"304","satellite":"N","instrument":"VIIRS","confidence":"n","version":"2.0NRT","bright_ti5":"285.71","frp":"1.08","daynight":"N","commune":"Héming","code_insee":"57314","departement":"Moselle","region":"Grand Est"}},{"type":"Feature","geometry":{"type":"Point","coordinates":[4.37816,48.82875]},"properties":{"latitude":"48.82875","longitude":"4.37816","bright_ti4":"302.28","scan":"0.45","track":"0.63","acq_date":"2026-08-06","acq_time":"304","satellite":"N","instrument":"VIIRS","confidence":"n","version":"2.0NRT","bright_ti5":"275.74","frp":"0.53","daynight":"N","commune":"Coupetz","code_insee":"51178","departement":"Marne","region":"Grand Est"}},{"type":"Feature","geometry":{"type":"Point","coordinates":[1.12043,49.36489]},"properties":{"latitude":"49.36489","longitude":"1.12043","bright_ti4":"327.1","scan":"0.32","track":"0.54","acq_date":"2026-08-06","acq_time":"304","satellite":"N","instrument":"VIIRS","confidence":"n","version":"2.0NRT","bright_ti5":"277.33","frp":"1.39","daynight":"N","commune":"Saint-Étienne-du-Rouvray","code_insee":"76575","departement":"Seine-Maritime","region":"Normandie"}},{"type":"Feature","geometry":{"type":"Point","coordinates":[2.26955,51.02888]},"properties":{"latitude":"51.02888","longitude":"2.26955","bright_ti4":"313.21","scan":"0.63","track":"0.54","acq_date":"2026-08-06","acq_time":"304","satellite":"N","instrument":"VIIRS","confidence":"n","version":"2.0NRT","bright_ti5":"284.96","frp":"3.63","daynight":"N","commune":"Grande-Synthe","code_insee":"59271","departement":"Nord","region":"Hauts-de-France"}},{"type":"Feature","geometry":{"type":"Point","coordinates":[2.26933,51.02923]},"properties":{"latitude":"51.02923","longitude":"2.26933","bright_ti4":"313.67","scan":"0.63","track":"0.54","acq_date":"2026-08-06","acq_time":"304","satellite":"N","instrument":"VIIRS","confidence":"n","version":"2.0NRT","bright_ti5":"285.42","frp":"2.01","daynight":"N","commune":"Grande-Synthe","code_insee":"59271","departement":"Nord","region":"Hauts-de-France"}},{"type":"Feature","geometry":{"type":"Point","coordinates":[2.28128,51.03107]},"properties":{"latitude":"51.03107","longitude":"2.28128","bright_ti4":"324.35","scan":"0.63","track":"0.54","acq_date":"2026-08-06","acq_time":"304","satellite":"N","instrument":"VIIRS","confidence":"n","version":"2.0NRT","bright_ti5":"286.23","frp":"3.63","daynight":"N","commune":"Grande-Synthe","code_insee":"59271","departement":"Nord","region":"Hauts-de-France"}},{"type":"Feature","geometry":{"type":"Point","coordinates":[2.28101,51.03138]},"properties":{"latitude":"51.03138","longitude":"2.28101","bright_ti4":"322.86","scan":"0.63","track":"0.54","acq_date":"2026-08-06","acq_time":"304","satellite":"N","instrument":"VIIRS","confidence":"n","version":"2.0NRT","bright_ti5":"286.21","frp":"2.95","daynight":"N","commune":"Grande-Synthe","code_insee":"59271","departement":"Nord","region":"Hauts-de-France"}},{"type":"Feature","geometry":{"type":"Point","coordinates":[2.29307,51.03324]},"properties":{"latitude":"51.03324","longitude":"2.29307","bright_ti4":"306.07","scan":"0.63","track":"0.54","acq_date":"2026-08-06","acq_time":"304","satellite":"N","instrument":"VIIRS","confidence":"n","version":"2.0NRT","bright_ti5":"284.04","frp":"2.59","daynight":"N","commune":"Grande-Synthe","code_insee":"59271","departement":"Nord","region":"Hauts-de-France"}},{"type":"Feature","geometry":{"type":"Point","coordinates":[2.29273,51.03353]},"properties":{"latitude":"51.03353","longitude":"2.29273","bright_ti4":"305.98","scan":"0.63","track":"0.54","acq_date":"2026-08-06","acq_time":"304","satellite":"N","instrument":"VIIRS","confidence":"n","version":"2.0NRT","bright_ti5":"284.09","frp":"2.95","daynight":"N","commune":"Grande-Synthe","code_insee":"59271","departement":"Nord","region":"Hauts-de-France"}},{"type":"Feature","geometry":{"type":"Point","coordinates":[2.28468,51.03566]},"properties":{"latitude":"51.03566","longitude":"2.28468","bright_ti4":"331.25","scan":"0.63","track":"0.54","acq_date":"2026-08-06","acq_time":"304","satellite":"N","instrument":"VIIRS","confidence":"n","version":"2.0NRT","bright_ti5":"286.63","frp":"5.71","daynight":"N","commune":"Grande-Synthe","code_insee":"59271","departement":"Nord","region":"Hauts-de-France"}},{"type":"Feature","geometry":{"type":"Point","coordinates":[2.28438,51.03598]},"properties":{"latitude":"51.03598","longitude":"2.28438","bright_ti4":"330.01","scan":"0.63","track":"0.54","acq_date":"2026-08-06","acq_time":"304","satellite":"N","instrument":"VIIRS","confidence":"n","version":"2.0NRT","bright_ti5":"287.06","frp":"2.95","daynight":"N","commune":"Grande-Synthe","code_insee":"59271","departement":"Nord","region":"Hauts-de-France"}},{"type":"Feature","geometry":{"type":"Point","coordinates":[2.29986,51.04243]},"properties":{"latitude":"51.04243","longitude":"2.29986","bright_ti4":"297.17","scan":"0.63","track":"0.54","acq_date":"2026-08-06","acq_time":"304","satellite":"N","instrument":"VIIRS","confidence":"n","version":"2.0NRT","bright_ti5":"285.56","frp":"2.14","daynight":"N","commune":"Grande-Synthe","code_insee":"59271","departement":"Nord","region":"Hauts-de-France"}},{"type":"Feature","geometry":{"type":"Point","coordinates":[2.29949,51.04272]},"properties":{"latitude":"51.04272","longitude":"2.29949","bright_ti4":"300.79","scan":"0.63","track":"0.54","acq_date":"2026-08-06","acq_time":"304","satellite":"N","instrument":"VIIRS","confidence":"n","version":"2.0NRT","bright_ti5":"285.6","frp":"2.08","daynight":"N","commune":"Grande-Synthe","code_insee":"59271","departement":"Nord","region":"Hauts-de-France"}},{"type":"Feature","geometry":{"type":"Point","coordinates":[2.29149,51.04483]},"properties":{"latitude":"51.04483","longitude":"2.29149","bright_ti4":"310.93","scan":"0.63","track":"0.54","acq_date":"2026-08-06","acq_time":"304","satellite":"N","instrument":"VIIRS","confidence":"n","version":"2.0NRT","bright_ti5":"286.42","frp":"3.88","daynight":"N","commune":"Grande-Synthe","code_insee":"59271","departement":"Nord","region":"Hauts-de-France"}},{"type":"Feature","geometry":{"type":"Point","coordinates":[2.29116,51.04516]},"properties":{"latitude":"51.04516","longitude":"2.29116","bright_ti4":"307.6","scan":"0.63","track":"0.54","acq_date":"2026-08-06","acq_time":"304","satellite":"N","instrument":"VIIRS","confidence":"n","version":"2.0NRT","bright_ti5":"286.27","frp":"2.08","daynight":"N","commune":"Grande-Synthe","code_insee":"59271","departement":"Nord","region":"Hauts-de-France"}},{"type":"Feature","geometry":{"type":"Point","coordinates":[4.89295,43.43159]},"properties":{"latitude":"43.43159","longitude":"4.89295","bright_ti4":"308.07","scan":"0.71","track":"0.75","acq_date":"2026-08-06","acq_time":"306","satellite":"N","instrument":"VIIRS","confidence":"n","version":"2.0NRT","bright_ti5":"289.84","frp":"4.25","daynight":"N","commune":"Fos-sur-Mer","code_insee":"13039","departement":"Bouches-du-Rhône","region":"Provence-Alpes-Côte d'Azur"}},{"type":"Feature","geometry":{"type":"Point","coordinates":[4.89359,43.43846]},"properties":{"latitude":"43.43846","longitude":"4.89359","bright_ti4":"303.56","scan":"0.71","track":"0.75","acq_date":"2026-08-06","acq_time":"306","satellite":"N","instrument":"VIIRS","confidence":"n","version":"2.0NRT","bright_ti5":"289.62","frp":"3.73","daynight":"N","commune":"Fos-sur-Mer","code_insee":"13039","departement":"Bouches-du-Rhône","region":"Provence-Alpes-Côte d'Azur"}},{"type":"Feature","geometry":{"type":"Point","coordinates":[4.89787,43.44481]},"properties":{"latitude":"43.44481","longitude":"4.89787","bright_ti4":"338.23","scan":"0.71","track":"0.75","acq_date":"2026-08-06","acq_time":"306","satellite":"N","instrument":"VIIRS","confidence":"n","version":"2.0NRT","bright_ti5":"290.33","frp":"3.73","daynight":"N","commune":"Fos-sur-Mer","code_insee":"13039","departement":"Bouches-du-Rhône","region":"Provence-Alpes-Côte d'Azur"}},{"type":"Feature","geometry":{"type":"Point","coordinates":[2.27865,51.02816]},"properties":{"latitude":"51.02816","longitude":"2.27865","bright_ti4":"306.21","scan":"0.56","track":"0.69","acq_date":"2026-08-06","acq_time":"321","satellite":"N20","instrument":"VIIRS","confidence":"n","version":"2.0NRT","bright_ti5":"281.06","frp":"2.06","daynight":"N","commune":"Grande-Synthe","code_insee":"59271","departement":"Nord","region":"Hauts-de-France"}},{"type":"Feature","geometry":{"type":"Point","coordinates":[2.27165,51.03069]},"properties":{"latitude":"51.03069","longitude":"2.27165","bright_ti4":"305","scan":"0.56","track":"0.69","acq_date":"2026-08-06","acq_time":"321","satellite":"N20","instrument":"VIIRS","confidence":"n","version":"2.0NRT","bright_ti5":"281.43","frp":"2.06","daynight":"N","commune":"Grande-Synthe","code_insee":"59271","departement":"Nord","region":"Hauts-de-France"}},{"type":"Feature","geometry":{"type":"Point","coordinates":[2.2837,51.03369]},"properties":{"latitude":"51.03369","longitude":"2.2837","bright_ti4":"319.83","scan":"0.56","track":"0.69","acq_date":"2026-08-06","acq_time":"321","satellite":"N20","instrument":"VIIRS","confidence":"n","version":"2.0NRT","bright_ti5":"282.49","frp":"2.06","daynight":"N","commune":"Grande-Synthe","code_insee":"59271","departement":"Nord","region":"Hauts-de-France"}},{"type":"Feature","geometry":{"type":"Point","coordinates":[2.29583,51.03666]},"properties":{"latitude":"51.03666","longitude":"2.29583","bright_ti4":"307.78","scan":"0.56","track":"0.69","acq_date":"2026-08-06","acq_time":"321","satellite":"N20","instrument":"VIIRS","confidence":"n","version":"2.0NRT","bright_ti5":"281.91","frp":"2.62","daynight":"N","commune":"Grande-Synthe","code_insee":"59271","departement":"Nord","region":"Hauts-de-France"}},{"type":"Feature","geometry":{"type":"Point","coordinates":[2.28881,51.03919]},"properties":{"latitude":"51.03919","longitude":"2.28881","bright_ti4":"297.49","scan":"0.56","track":"0.69","acq_date":"2026-08-06","acq_time":"321","satellite":"N20","instrument":"VIIRS","confidence":"n","version":"2.0NRT","bright_ti5":"282.55","frp":"1.54","daynight":"N","commune":"Grande-Synthe","code_insee":"59271","departement":"Nord","region":"Hauts-de-France"}},{"type":"Feature","geometry":{"type":"Point","coordinates":[2.29386,51.04472]},"properties":{"latitude":"51.04472","longitude":"2.29386","bright_ti4":"307.72","scan":"0.56","track":"0.69","acq_date":"2026-08-06","acq_time":"321","satellite":"N20","instrument":"VIIRS","confidence":"n","version":"2.0NRT","bright_ti5":"283.18","frp":"1.54","daynight":"N","commune":"Grande-Synthe","code_insee":"59271","departement":"Nord","region":"Hauts-de-France"}},{"type":"Feature","geometry":{"type":"Point","coordinates":[1.12284,49.36572]},"properties":{"latitude":"49.36572","longitude":"1.12284","bright_ti4":"312.09","scan":"0.59","track":"0.7","acq_date":"2026-08-06","acq_time":"323","satellite":"N20","instrument":"VIIRS","confidence":"n","version":"2.0NRT","bright_ti5":"280.63","frp":"3.03","daynight":"N","commune":"Saint-Étienne-du-Rouvray","code_insee":"76575","departement":"Seine-Maritime","region":"Normandie"}},{"type":"Feature","geometry":{"type":"Point","coordinates":[4.3778,48.82562]},"properties":{"latitude":"48.82562","longitude":"4.3778","bright_ti4":"354.67","scan":"0.71","track":"0.75","acq_date":"2026-08-06","acq_time":"1113","satellite":"N","instrument":"VIIRS","confidence":"n","version":"2.0NRT","bright_ti5":"292.26","frp":"10.74","daynight":"D","commune":"Coupetz","code_insee":"51178","departement":"Marne","region":"Grand Est"}},{"type":"Feature","geometry":{"type":"Point","coordinates":[4.37216,48.82242]},"properties":{"latitude":"48.82242","longitude":"4.37216","bright_ti4":"340.36","scan":"0.71","track":"0.75","acq_date":"2026-08-06","acq_time":"1110","satellite":"N","instrument":"VIIRS","confidence":"n","version":"2.0NRT","bright_ti5":"290.99","frp":"6.4","daynight":"D","commune":"Coupetz","code_insee":"51178","departement":"Marne","region":"Grand Est"}},{"type":"Feature","geometry":{"type":"Point","coordinates":[4.38121,48.82591]},"properties":{"latitude":"48.82591","longitude":"4.38121","bright_ti4":"330.34","scan":"0.71","track":"0.75","acq_date":"2026-08-06","acq_time":"1110","satellite":"N","instrument":"VIIRS","confidence":"n","version":"2.0NRT","bright_ti5":"291.42","frp":"6.4","daynight":"D","commune":"Coupetz","code_insee":"51178","departement":"Marne","region":"Grand Est"}},{"type":"Feature","geometry":{"type":"Point","coordinates":[2.28643,51.03529]},"properties":{"latitude":"51.03529","longitude":"2.28643","bright_ti4":"326.25","scan":"0.7","track":"0.75","acq_date":"2026-08-06","acq_time":"1110","satellite":"N","instrument":"VIIRS","confidence":"l","version":"2.0NRT","bright_ti5":"297.48","frp":"8.44","daynight":"D","commune":"Grande-Synthe","code_insee":"59271","departement":"Nord","region":"Hauts-de-France"}},{"type":"Feature","geometry":{"type":"Point","coordinates":[2.29519,51.04574]},"properties":{"latitude":"51.04574","longitude":"2.29519","bright_ti4":"330.61","scan":"0.7","track":"0.75","acq_date":"2026-08-06","acq_time":"1110","satellite":"N","instrument":"VIIRS","confidence":"n","version":"2.0NRT","bright_ti5":"293.1","frp":"6.4","daynight":"D","commune":"Grande-Synthe","code_insee":"59271","departement":"Nord","region":"Hauts-de-France"}},{"type":"Feature","geometry":{"type":"Point","coordinates":[6.08436,43.22599]},"properties":{"latitude":"43.22599","longitude":"6.08436","bright_ti4":"342.67","scan":"0.42","track":"0.38","acq_date":"2026-08-06","acq_time":"1251","satellite":"N","instrument":"VIIRS","confidence":"l","version":"2.0NRT","bright_ti5":"314.89","frp":"4.72","daynight":"D","commune":"Cuers","code_insee":"83049","departement":"Var","region":"Provence-Alpes-Côte d'Azur"}},{"type":"Feature","geometry":{"type":"Point","coordinates":[6.08353,43.22944]},"properties":{"latitude":"43.22944","longitude":"6.08353","bright_ti4":"344.04","scan":"0.42","track":"0.38","acq_date":"2026-08-06","acq_time":"1251","satellite":"N","instrument":"VIIRS","confidence":"n","version":"2.0NRT","bright_ti5":"316.74","frp":"14.8","daynight":"D","commune":"Cuers","code_insee":"83049","departement":"Var","region":"Provence-Alpes-Côte d'Azur"}},{"type":"Feature","geometry":{"type":"Point","coordinates":[4.90032,43.44497]},"properties":{"latitude":"43.44497","longitude":"4.90032","bright_ti4":"348.56","scan":"0.4","track":"0.37","acq_date":"2026-08-06","acq_time":"1251","satellite":"N","instrument":"VIIRS","confidence":"n","version":"2.0NRT","bright_ti5":"316.96","frp":"6.35","daynight":"D","commune":"Fos-sur-Mer","code_insee":"13039","departement":"Bouches-du-Rhône","region":"Provence-Alpes-Côte d'Azur"}},{"type":"Feature","geometry":{"type":"Point","coordinates":[6.02169,43.52338]},"properties":{"latitude":"43.52338","longitude":"6.02169","bright_ti4":"339.49","scan":"0.42","track":"0.38","acq_date":"2026-08-06","acq_time":"1251","satellite":"N","instrument":"VIIRS","confidence":"l","version":"2.0NRT","bright_ti5":"314.09","frp":"6.63","daynight":"D","commune":"Barjols","code_insee":"83012","departement":"Var","region":"Provence-Alpes-Côte d'Azur"}},{"type":"Feature","geometry":{"type":"Point","coordinates":[5.08338,44.02067]},"properties":{"latitude":"44.02067","longitude":"5.08338","bright_ti4":"348.83","scan":"0.41","track":"0.37","acq_date":"2026-08-06","acq_time":"1251","satellite":"N","instrument":"VIIRS","confidence":"n","version":"2.0NRT","bright_ti5":"310.25","frp":"4.36","daynight":"D","commune":"Pernes-les-Fontaines","code_insee":"84088","departement":"Vaucluse","region":"Provence-Alpes-Côte d'Azur"}},{"type":"Feature","geometry":{"type":"Point","coordinates":[1.93989,44.39051]},"properties":{"latitude":"44.39051","longitude":"1.93989","bright_ti4":"337.09","scan":"0.39","track":"0.36","acq_date":"2026-08-06","acq_time":"1251","satellite":"N","instrument":"VIIRS","confidence":"n","version":"2.0NRT","bright_ti5":"303.49","frp":"3.16","daynight":"D","commune":"Martiel","code_insee":"12140","departement":"Aveyron","region":"Occitanie"}},{"type":"Feature","geometry":{"type":"Point","coordinates":[5.99441,44.51192]},"properties":{"latitude":"44.51192","longitude":"5.99441","bright_ti4":"338.88","scan":"0.43","track":"0.38","acq_date":"2026-08-06","acq_time":"1251","satellite":"N","instrument":"VIIRS","confidence":"n","version":"2.0NRT","bright_ti5":"312.02","frp":"3.85","daynight":"D","commune":"Pelleautier","code_insee":"05100","departement":"Hautes-Alpes","region":"Provence-Alpes-Côte d'Azur"}},{"type":"Feature","geometry":{"type":"Point","coordinates":[5.99347,44.51538]},"properties":{"latitude":"44.51538","longitude":"5.99347","bright_ti4":"338.9","scan":"0.43","track":"0.38","acq_date":"2026-08-06","acq_time":"1251","satellite":"N","instrument":"VIIRS","confidence":"n","version":"2.0NRT","bright_ti5":"310.55","frp":"3.85","daynight":"D","commune":"Pelleautier","code_insee":"05100","departement":"Hautes-Alpes","region":"Provence-Alpes-Côte d'Azur"}},{"type":"Feature","geometry":{"type":"Point","coordinates":[0.55023,45.81766]},"properties":{"latitude":"45.81766","longitude":"0.55023","bright_ti4":"350.88","scan":"0.39","track":"0.36","acq_date":"2026-08-06","acq_time":"1253","satellite":"N","instrument":"VIIRS","confidence":"n","version":"2.0NRT","bright_ti5":"306.36","frp":"8.29","daynight":"D","commune":"Cherves-Châtelars","code_insee":"16096","departement":"Charente","region":"Nouvelle-Aquitaine"}},{"type":"Feature","geometry":{"type":"Point","coordinates":[0.55524,45.81851]},"properties":{"latitude":"45.81851","longitude":"0.55524","bright_ti4":"345.07","scan":"0.39","track":"0.36","acq_date":"2026-08-06","acq_time":"1253","satellite":"N","instrument":"VIIRS","confidence":"n","version":"2.0NRT","bright_ti5":"306.31","frp":"8.29","daynight":"D","commune":"Cherves-Châtelars","code_insee":"16096","departement":"Charente","region":"Nouvelle-Aquitaine"}},{"type":"Feature","geometry":{"type":"Point","coordinates":[0.5491,45.82096]},"properties":{"latitude":"45.82096","longitude":"0.5491","bright_ti4":"347","scan":"0.39","track":"0.36","acq_date":"2026-08-06","acq_time":"1253","satellite":"N","instrument":"VIIRS","confidence":"n","version":"2.0NRT","bright_ti5":"301.74","frp":"8.29","daynight":"D","commune":"Cherves-Châtelars","code_insee":"16096","departement":"Charente","region":"Nouvelle-Aquitaine"}},{"type":"Feature","geometry":{"type":"Point","coordinates":[0.5541,45.8218]},"properties":{"latitude":"45.8218","longitude":"0.5541","bright_ti4":"335.66","scan":"0.39","track":"0.36","acq_date":"2026-08-06","acq_time":"1253","satellite":"N","instrument":"VIIRS","confidence":"n","version":"2.0NRT","bright_ti5":"303.87","frp":"8.29","daynight":"D","commune":"Cherves-Châtelars","code_insee":"16096","departement":"Charente","region":"Nouvelle-Aquitaine"}},{"type":"Feature","geometry":{"type":"Point","coordinates":[-0.0434,46.24608]},"properties":{"latitude":"46.24608","longitude":"-0.0434","bright_ti4":"336.63","scan":"0.4","track":"0.37","acq_date":"2026-08-06","acq_time":"1253","satellite":"N","instrument":"VIIRS","confidence":"n","version":"2.0NRT","bright_ti5":"306.46","frp":"1.5","daynight":"D","commune":"Lezay","code_insee":"79148","departement":"Deux-Sèvres","region":"Nouvelle-Aquitaine"}},{"type":"Feature","geometry":{"type":"Point","coordinates":[-1.22021,46.65816]},"properties":{"latitude":"46.65816","longitude":"-1.22021","bright_ti4":"337.31","scan":"0.42","track":"0.37","acq_date":"2026-08-06","acq_time":"1253","satellite":"N","instrument":"VIIRS","confidence":"n","version":"2.0NRT","bright_ti5":"306.54","frp":"3.46","daynight":"D","commune":"Fougeré","code_insee":"85093","departement":"Vendée","region":"Pays de la Loire"}},{"type":"Feature","geometry":{"type":"Point","coordinates":[0.158,46.80754]},"properties":{"latitude":"46.80754","longitude":"0.158","bright_ti4":"335.99","scan":"0.39","track":"0.36","acq_date":"2026-08-06","acq_time":"1253","satellite":"N","instrument":"VIIRS","confidence":"n","version":"2.0NRT","bright_ti5":"307.19","frp":"4.64","daynight":"D","commune":"Chouppes","code_insee":"86075","departement":"Vienne","region":"Nouvelle-Aquitaine"}},{"type":"Feature","geometry":{"type":"Point","coordinates":[0.67827,46.83161]},"properties":{"latitude":"46.83161","longitude":"0.67827","bright_ti4":"347.27","scan":"0.39","track":"0.36","acq_date":"2026-08-06","acq_time":"1253","satellite":"N","instrument":"VIIRS","confidence":"n","version":"2.0NRT","bright_ti5":"303.61","frp":"2.37","daynight":"D","commune":"Coussay-les-Bois","code_insee":"86086","departement":"Vienne","region":"Nouvelle-Aquitaine"}},{"type":"Feature","geometry":{"type":"Point","coordinates":[-1.76699,46.83698]},"properties":{"latitude":"46.83698","longitude":"-1.76699","bright_ti4":"337.47","scan":"0.43","track":"0.38","acq_date":"2026-08-06","acq_time":"1253","satellite":"N","instrument":"VIIRS","confidence":"n","version":"2.0NRT","bright_ti5":"302.96","frp":"2.04","daynight":"D","commune":"Saint-Christophe-du-Ligneron","code_insee":"85204","departement":"Vendée","region":"Pays de la Loire"}},{"type":"Feature","geometry":{"type":"Point","coordinates":[0.0252,47.68362]},"properties":{"latitude":"47.68362","longitude":"0.0252","bright_ti4":"344.99","scan":"0.39","track":"0.36","acq_date":"2026-08-06","acq_time":"1253","satellite":"N","instrument":"VIIRS","confidence":"n","version":"2.0NRT","bright_ti5":"301.67","frp":"4.34","daynight":"D","commune":"Thorée-les-Pins","code_insee":"72357","departement":"Sarthe","region":"Pays de la Loire"}},{"type":"Feature","geometry":{"type":"Point","coordinates":[-0.63535,48.0651]},"properties":{"latitude":"48.0651","longitude":"-0.63535","bright_ti4":"342.37","scan":"0.4","track":"0.37","acq_date":"2026-08-06","acq_time":"1253","satellite":"N","instrument":"VIIRS","confidence":"n","version":"2.0NRT","bright_ti5":"305.96","frp":"3.18","daynight":"D","commune":"Argentré","code_insee":"53007","departement":"Mayenne","region":"Pays de la Loire"}},{"type":"Feature","geometry":{"type":"Point","coordinates":[-0.06051,48.30648]},"properties":{"latitude":"48.30648","longitude":"-0.06051","bright_ti4":"337.49","scan":"0.39","track":"0.36","acq_date":"2026-08-06","acq_time":"1253","satellite":"N","instrument":"VIIRS","confidence":"n","version":"2.0NRT","bright_ti5":"309.38","frp":"2.99","daynight":"D","commune":"Sougé-le-Ganelon","code_insee":"72337","departement":"Sarthe","region":"Pays de la Loire"}},{"type":"Feature","geometry":{"type":"Point","coordinates":[-0.05533,48.30733]},"properties":{"latitude":"48.30733","longitude":"-0.05533","bright_ti4":"336.16","scan":"0.39","track":"0.36","acq_date":"2026-08-06","acq_time":"1253","satellite":"N","instrument":"VIIRS","confidence":"l","version":"2.0NRT","bright_ti5":"308.97","frp":"2.99","daynight":"D","commune":"Sougé-le-Ganelon","code_insee":"72337","departement":"Sarthe","region":"Pays de la Loire"}},{"type":"Feature","geometry":{"type":"Point","coordinates":[2.28886,51.03437]},"properties":{"latitude":"51.03437","longitude":"2.28886","bright_ti4":"337.06","scan":"0.4","track":"0.37","acq_date":"2026-08-06","acq_time":"1253","satellite":"N","instrument":"VIIRS","confidence":"l","version":"2.0NRT","bright_ti5":"308.96","frp":"3.16","daynight":"D","commune":"Grande-Synthe","code_insee":"59271","departement":"Nord","region":"Hauts-de-France"}},{"type":"Feature","geometry":{"type":"Point","coordinates":[2.29456,51.03514]},"properties":{"latitude":"51.03514","longitude":"2.29456","bright_ti4":"335.68","scan":"0.4","track":"0.37","acq_date":"2026-08-06","acq_time":"1253","satellite":"N","instrument":"VIIRS","confidence":"l","version":"2.0NRT","bright_ti5":"305.7","frp":"3.16","daynight":"D","commune":"Grande-Synthe","code_insee":"59271","departement":"Nord","region":"Hauts-de-France"}},{"type":"Feature","geometry":{"type":"Point","coordinates":[2.298,51.04262]},"properties":{"latitude":"51.04262","longitude":"2.298","bright_ti4":"339.73","scan":"0.4","track":"0.37","acq_date":"2026-08-06","acq_time":"1253","satellite":"N","instrument":"VIIRS","confidence":"n","version":"2.0NRT","bright_ti5":"307.53","frp":"6.64","daynight":"D","commune":"Grande-Synthe","code_insee":"59271","departement":"Nord","region":"Hauts-de-France"}},{"type":"Feature","geometry":{"type":"Point","coordinates":[2.32082,51.04567]},"properties":{"latitude":"51.04567","longitude":"2.32082","bright_ti4":"337.24","scan":"0.4","track":"0.37","acq_date":"2026-08-06","acq_time":"1253","satellite":"N","instrument":"VIIRS","confidence":"n","version":"2.0NRT","bright_ti5":"305.58","frp":"7.87","daynight":"D","commune":"Dunkerque","code_insee":"59183","departement":"Nord","region":"Hauts-de-France"}},{"type":"Feature","geometry":{"type":"Point","coordinates":[2.29485,51.03337]},"properties":{"latitude":"51.03337","longitude":"2.29485","bright_ti4":"334.96","scan":"0.42","track":"0.61","acq_date":"2026-08-06","acq_time":"1132","satellite":"N20","instrument":"VIIRS","confidence":"n","version":"2.0NRT","bright_ti5":"301","frp":"4.98","daynight":"D","commune":"Grande-Synthe","code_insee":"59271","departement":"Nord","region":"Hauts-de-France"}},{"type":"Feature","geometry":{"type":"Point","coordinates":[2.28543,51.03669]},"properties":{"latitude":"51.03669","longitude":"2.28543","bright_ti4":"328.75","scan":"0.42","track":"0.61","acq_date":"2026-08-06","acq_time":"1132","satellite":"N20","instrument":"VIIRS","confidence":"l","version":"2.0NRT","bright_ti5":"301.95","frp":"3.21","daynight":"D","commune":"Grande-Synthe","code_insee":"59271","departement":"Nord","region":"Hauts-de-France"}},{"type":"Feature","geometry":{"type":"Point","coordinates":[2.29742,51.04687]},"properties":{"latitude":"51.04687","longitude":"2.29742","bright_ti4":"367","scan":"0.42","track":"0.61","acq_date":"2026-08-06","acq_time":"1132","satellite":"N20","instrument":"VIIRS","confidence":"h","version":"2.0NRT","bright_ti5":"296.7","frp":"10.92","daynight":"D","commune":"Grande-Synthe","code_insee":"59271","departement":"Nord","region":"Hauts-de-France"}},{"type":"Feature","geometry":{"type":"Point","coordinates":[4.89182,43.43637]},"properties":{"latitude":"43.43637","longitude":"4.89182","bright_ti4":"341.68","scan":"0.45","track":"0.47","acq_date":"2026-08-06","acq_time":"1310","satellite":"N20","instrument":"VIIRS","confidence":"l","version":"2.0NRT","bright_ti5":"314.54","frp":"11.29","daynight":"D","commune":"Fos-sur-Mer","code_insee":"13039","departement":"Bouches-du-Rhône","region":"Provence-Alpes-Côte d'Azur"}},{"type":"Feature","geometry":{"type":"Point","coordinates":[4.89615,43.44547]},"properties":{"latitude":"43.44547","longitude":"4.89615","bright_ti4":"344.59","scan":"0.45","track":"0.47","acq_date":"2026-08-06","acq_time":"1310","satellite":"N20","instrument":"VIIRS","confidence":"n","version":"2.0NRT","bright_ti5":"314.03","frp":"19.38","daynight":"D","commune":"Fos-sur-Mer","code_insee":"13039","departement":"Bouches-du-Rhône","region":"Provence-Alpes-Côte d'Azur"}},{"type":"Feature","geometry":{"type":"Point","coordinates":[1.93818,44.38747]},"properties":{"latitude":"44.38747","longitude":"1.93818","bright_ti4":"337.77","scan":"0.51","track":"0.41","acq_date":"2026-08-06","acq_time":"1310","satellite":"N20","instrument":"VIIRS","confidence":"n","version":"2.0NRT","bright_ti5":"304.26","frp":"3.68","daynight":"D","commune":"Martiel","code_insee":"12140","departement":"Aveyron","region":"Occitanie"}},{"type":"Feature","geometry":{"type":"Point","coordinates":[1.93992,44.38826]},"properties":{"latitude":"44.38826","longitude":"1.93992","bright_ti4":"336.76","scan":"0.51","track":"0.41","acq_date":"2026-08-06","acq_time":"1310","satellite":"N20","instrument":"VIIRS","confidence":"n","version":"2.0NRT","bright_ti5":"304.15","frp":"4.52","daynight":"D","commune":"Martiel","code_insee":"12140","departement":"Aveyron","region":"Occitanie"}},{"type":"Feature","geometry":{"type":"Point","coordinates":[0.15724,46.80633]},"properties":{"latitude":"46.80633","longitude":"0.15724","bright_ti4":"333.39","scan":"0.47","track":"0.4","acq_date":"2026-08-06","acq_time":"1310","satellite":"N20","instrument":"VIIRS","confidence":"l","version":"2.0NRT","bright_ti5":"303.51","frp":"1.56","daynight":"D","commune":"Chouppes","code_insee":"86075","departement":"Vienne","region":"Nouvelle-Aquitaine"}},{"type":"Feature","geometry":{"type":"Point","coordinates":[-2.7127,47.65697]},"properties":{"latitude":"47.65697","longitude":"-2.7127","bright_ti4":"343.76","scan":"0.4","track":"0.37","acq_date":"2026-08-06","acq_time":"1310","satellite":"N20","instrument":"VIIRS","confidence":"n","version":"2.0NRT","bright_ti5":"307.33","frp":"4.71","daynight":"D","commune":"Vannes","code_insee":"56260","departement":"Morbihan","region":"Bretagne"}},{"type":"Feature","geometry":{"type":"Point","coordinates":[-1.2684,48.64843]},"properties":{"latitude":"48.64843","longitude":"-1.2684","bright_ti4":"335.04","scan":"0.44","track":"0.39","acq_date":"2026-08-06","acq_time":"1310","satellite":"N20","instrument":"VIIRS","confidence":"n","version":"2.0NRT","bright_ti5":"303.54","frp":"14.33","daynight":"D","commune":"Saint-Quentin-sur-le-Homme","code_insee":"50543","departement":"Manche","region":"Normandie"}},{"type":"Feature","geometry":{"type":"Point","coordinates":[2.29148,51.03238]},"properties":{"latitude":"51.03238","longitude":"2.29148","bright_ti4":"335.01","scan":"0.42","track":"0.45","acq_date":"2026-08-06","acq_time":"1312","satellite":"N20","instrument":"VIIRS","confidence":"l","version":"2.0NRT","bright_ti5":"305.72","frp":"4.12","daynight":"D","commune":"Grande-Synthe","code_insee":"59271","departement":"Nord","region":"Hauts-de-France"}},{"type":"Feature","geometry":{"type":"Point","coordinates":[2.28465,51.03607]},"properties":{"latitude":"51.03607","longitude":"2.28465","bright_ti4":"340.28","scan":"0.42","track":"0.45","acq_date":"2026-08-06","acq_time":"1312","satellite":"N20","instrument":"VIIRS","confidence":"n","version":"2.0NRT","bright_ti5":"305.57","frp":"3.91","daynight":"D","commune":"Grande-Synthe","code_insee":"59271","departement":"Nord","region":"Hauts-de-France"}},{"type":"Feature","geometry":{"type":"Point","coordinates":[2.29511,51.04538]},"properties":{"latitude":"51.04538","longitude":"2.29511","bright_ti4":"337.02","scan":"0.42","track":"0.45","acq_date":"2026-08-06","acq_time":"1312","satellite":"N20","instrument":"VIIRS","confidence":"n","version":"2.0NRT","bright_ti5":"299.41","frp":"1.12","daynight":"D","commune":"Grande-Synthe","code_insee":"59271","departement":"Nord","region":"Hauts-de-France"}},{"type":"Feature","geometry":{"type":"Point","coordinates":[2.31923,51.04733]},"properties":{"latitude":"51.04733","longitude":"2.31923","bright_ti4":"340.17","scan":"0.42","track":"0.45","acq_date":"2026-08-06","acq_time":"1312","satellite":"N20","instrument":"VIIRS","confidence":"n","version":"2.0NRT","bright_ti5":"303.2","frp":"2.46","daynight":"D","commune":"Dunkerque","code_insee":"59183","departement":"Nord","region":"Hauts-de-France"}},{"type":"Feature","geometry":{"type":"Point","coordinates":[2.32529,51.04782]},"properties":{"latitude":"51.04782","longitude":"2.32529","bright_ti4":"330.47","scan":"0.42","track":"0.45","acq_date":"2026-08-06","acq_time":"1312","satellite":"N20","instrument":"VIIRS","confidence":"l","version":"2.0NRT","bright_ti5":"303.45","frp":"2.51","daynight":"D","commune":"Dunkerque","code_insee":"59183","departement":"Nord","region":"Hauts-de-France"}},{"type":"Feature","geometry":{"type":"Point","coordinates":[4.88922,43.43294]},"properties":{"latitude":"43.43294","longitude":"4.88922","bright_ti4":"339.8","scan":"0.47","track":"0.4","acq_date":"2026-08-06","acq_time":"1214","satellite":"N21","instrument":"VIIRS","confidence":"l","version":"2.0NRT","bright_ti5":"313.16","frp":"12.84","daynight":"D","commune":"Fos-sur-Mer","code_insee":"13039","departement":"Bouches-du-Rhône","region":"Provence-Alpes-Côte d'Azur"}},{"type":"Feature","geometry":{"type":"Point","coordinates":[4.89666,43.44579]},"properties":{"latitude":"43.44579","longitude":"4.89666","bright_ti4":"347.48","scan":"0.47","track":"0.4","acq_date":"2026-08-06","acq_time":"1214","satellite":"N21","instrument":"VIIRS","confidence":"n","version":"2.0NRT","bright_ti5":"313.96","frp":"12.74","daynight":"D","commune":"Fos-sur-Mer","code_insee":"13039","departement":"Bouches-du-Rhône","region":"Provence-Alpes-Côte d'Azur"}},{"type":"Feature","geometry":{"type":"Point","coordinates":[3.46599,46.36903]},"properties":{"latitude":"46.36903","longitude":"3.46599","bright_ti4":"336.55","scan":"0.47","track":"0.4","acq_date":"2026-08-06","acq_time":"1217","satellite":"N21","instrument":"VIIRS","confidence":"n","version":"2.0NRT","bright_ti5":"307.43","frp":"5.39","daynight":"D","commune":"Treteau","code_insee":"03289","departement":"Allier","region":"Auvergne-Rhône-Alpes"}},{"type":"Feature","geometry":{"type":"Point","coordinates":[4.02256,46.41645]},"properties":{"latitude":"46.41645","longitude":"4.02256","bright_ti4":"349.44","scan":"0.45","track":"0.39","acq_date":"2026-08-06","acq_time":"1217","satellite":"N21","instrument":"VIIRS","confidence":"n","version":"2.0NRT","bright_ti5":"309.41","frp":"15.89","daynight":"D","commune":"Saint-Yan","code_insee":"71491","departement":"Saône-et-Loire","region":"Bourgogne-Franche-Comté"}},{"type":"Feature","geometry":{"type":"Point","coordinates":[4.01543,46.4188]},"properties":{"latitude":"46.4188","longitude":"4.01543","bright_ti4":"340.05","scan":"0.45","track":"0.39","acq_date":"2026-08-06","acq_time":"1217","satellite":"N21","instrument":"VIIRS","confidence":"l","version":"2.0NRT","bright_ti5":"310.08","frp":"11.97","daynight":"D","commune":"Saint-Yan","code_insee":"71491","departement":"Saône-et-Loire","region":"Bourgogne-Franche-Comté"}},{"type":"Feature","geometry":{"type":"Point","coordinates":[4.02116,46.41991]},"properties":{"latitude":"46.41991","longitude":"4.02116","bright_ti4":"346.76","scan":"0.45","track":"0.39","acq_date":"2026-08-06","acq_time":"1217","satellite":"N21","instrument":"VIIRS","confidence":"n","version":"2.0NRT","bright_ti5":"308.92","frp":"11.97","daynight":"D","commune":"Varenne-Saint-Germain","code_insee":"71557","departement":"Saône-et-Loire","region":"Bourgogne-Franche-Comté"}},{"type":"Feature","geometry":{"type":"Point","coordinates":[4.01402,46.42227]},"properties":{"latitude":"46.42227","longitude":"4.01402","bright_ti4":"349.6","scan":"0.45","track":"0.39","acq_date":"2026-08-06","acq_time":"1217","satellite":"N21","instrument":"VIIRS","confidence":"n","version":"2.0NRT","bright_ti5":"309.94","frp":"11.97","daynight":"D","commune":"Saint-Yan","code_insee":"71491","departement":"Saône-et-Loire","region":"Bourgogne-Franche-Comté"}},{"type":"Feature","geometry":{"type":"Point","coordinates":[6.63132,47.98453]},"properties":{"latitude":"47.98453","longitude":"6.63132","bright_ti4":"336.8","scan":"0.39","track":"0.36","acq_date":"2026-08-06","acq_time":"1217","satellite":"N21","instrument":"VIIRS","confidence":"n","version":"2.0NRT","bright_ti5":"301.54","frp":"5.48","daynight":"D","commune":"Dommartin-lès-Remiremont","code_insee":"88148","departement":"Vosges","region":"Grand Est"}},{"type":"Feature","geometry":{"type":"Point","coordinates":[6.63013,47.98778]},"properties":{"latitude":"47.98778","longitude":"6.63013","bright_ti4":"342.29","scan":"0.39","track":"0.36","acq_date":"2026-08-06","acq_time":"1217","satellite":"N21","instrument":"VIIRS","confidence":"n","version":"2.0NRT","bright_ti5":"304.53","frp":"5.22","daynight":"D","commune":"Dommartin-lès-Remiremont","code_insee":"88148","departement":"Vosges","region":"Grand Est"}},{"type":"Feature","geometry":{"type":"Point","coordinates":[7.5629,48.05078]},"properties":{"latitude":"48.05078","longitude":"7.5629","bright_ti4":"339.17","scan":"0.38","track":"0.36","acq_date":"2026-08-06","acq_time":"1217","satellite":"N21","instrument":"VIIRS","confidence":"n","version":"2.0NRT","bright_ti5":"300.07","frp":"3.91","daynight":"D","commune":"Biesheim","code_insee":"68036","departement":"Haut-Rhin","region":"Grand Est"}},{"type":"Feature","geometry":{"type":"Point","coordinates":[-1.20725,48.13718]},"properties":{"latitude":"48.13718","longitude":"-1.20725","bright_ti4":"339.84","scan":"0.44","track":"0.46","acq_date":"2026-08-06","acq_time":"1217","satellite":"N21","instrument":"VIIRS","confidence":"n","version":"2.0NRT","bright_ti5":"302.8","frp":"4.53","daynight":"D","commune":"Vitré","code_insee":"35360","departement":"Ille-et-Vilaine","region":"Bretagne"}},{"type":"Feature","geometry":{"type":"Point","coordinates":[-1.20166,48.13853]},"properties":{"latitude":"48.13853","longitude":"-1.20166","bright_ti4":"333.67","scan":"0.44","track":"0.46","acq_date":"2026-08-06","acq_time":"1217","satellite":"N21","instrument":"VIIRS","confidence":"n","version":"2.0NRT","bright_ti5":"301.4","frp":"4.53","daynight":"D","commune":"Vitré","code_insee":"35360","departement":"Ille-et-Vilaine","region":"Bretagne"}},{"type":"Feature","geometry":{"type":"Point","coordinates":[-1.7509,48.16952]},"properties":{"latitude":"48.16952","longitude":"-1.7509","bright_ti4":"330.65","scan":"0.46","track":"0.47","acq_date":"2026-08-06","acq_time":"1217","satellite":"N21","instrument":"VIIRS","confidence":"n","version":"2.0NRT","bright_ti5":"298.78","frp":"4.04","daynight":"D","commune":"La Chapelle-des-Fougeretz","code_insee":"35059","departement":"Ille-et-Vilaine","region":"Bretagne"}},{"type":"Feature","geometry":{"type":"Point","coordinates":[7.53181,49.05614]},"properties":{"latitude":"49.05614","longitude":"7.53181","bright_ti4":"333.78","scan":"0.38","track":"0.36","acq_date":"2026-08-06","acq_time":"1217","satellite":"N21","instrument":"VIIRS","confidence":"n","version":"2.0NRT","bright_ti5":"304.46","frp":"5.34","daynight":"D","commune":"Haspelschiedt","code_insee":"57301","departement":"Moselle","region":"Grand Est"}},{"type":"Feature","geometry":{"type":"Point","coordinates":[5.00616,49.70824]},"properties":{"latitude":"49.70824","longitude":"5.00616","bright_ti4":"347.53","scan":"0.4","track":"0.37","acq_date":"2026-08-06","acq_time":"1217","satellite":"N21","instrument":"VIIRS","confidence":"n","version":"2.0NRT","bright_ti5":"300.71","frp":"13.91","daynight":"D","commune":"Daigny","code_insee":"08136","departement":"Ardennes","region":"Grand Est"}},{"type":"Feature","geometry":{"type":"Point","coordinates":[3.48078,50.4699]},"properties":{"latitude":"50.4699","longitude":"3.48078","bright_ti4":"338.04","scan":"0.42","track":"0.37","acq_date":"2026-08-06","acq_time":"1217","satellite":"N21","instrument":"VIIRS","confidence":"n","version":"2.0NRT","bright_ti5":"306.91","frp":"5.34","daynight":"D","commune":"Nivelle","code_insee":"59434","departement":"Nord","region":"Hauts-de-France"}},{"type":"Feature","geometry":{"type":"Point","coordinates":[2.29453,51.03396]},"properties":{"latitude":"51.03396","longitude":"2.29453","bright_ti4":"334.35","scan":"0.44","track":"0.38","acq_date":"2026-08-06","acq_time":"1217","satellite":"N21","instrument":"VIIRS","confidence":"l","version":"2.0NRT","bright_ti5":"305.1","frp":"2.97","daynight":"D","commune":"Grande-Synthe","code_insee":"59271","departement":"Nord","region":"Hauts-de-France"}},{"type":"Feature","geometry":{"type":"Point","coordinates":[2.29301,51.0351]},"properties":{"latitude":"51.0351","longitude":"2.29301","bright_ti4":"336.39","scan":"0.44","track":"0.38","acq_date":"2026-08-06","acq_time":"1217","satellite":"N21","instrument":"VIIRS","confidence":"l","version":"2.0NRT","bright_ti5":"307.49","frp":"6.47","daynight":"D","commune":"Grande-Synthe","code_insee":"59271","departement":"Nord","region":"Hauts-de-France"}},{"type":"Feature","geometry":{"type":"Point","coordinates":[2.29573,51.04301]},"properties":{"latitude":"51.04301","longitude":"2.29573","bright_ti4":"337.55","scan":"0.44","track":"0.38","acq_date":"2026-08-06","acq_time":"1217","satellite":"N21","instrument":"VIIRS","confidence":"l","version":"2.0NRT","bright_ti5":"310.64","frp":"7.93","daynight":"D","commune":"Grande-Synthe","code_insee":"59271","departement":"Nord","region":"Hauts-de-France"}},{"type":"Feature","geometry":{"type":"Point","coordinates":[2.31961,51.04763]},"properties":{"latitude":"51.04763","longitude":"2.31961","bright_ti4":"335.32","scan":"0.43","track":"0.38","acq_date":"2026-08-06","acq_time":"1217","satellite":"N21","instrument":"VIIRS","confidence":"n","version":"2.0NRT","bright_ti5":"304.78","frp":"7.87","daynight":"D","commune":"Dunkerque","code_insee":"59183","departement":"Nord","region":"Hauts-de-France"}}]}