{"type":"FeatureCollection","features":[{"type":"Feature","geometry":{"type":"Point","coordinates":[7.23364,47.62949]},"properties":{"latitude":"47.62949","longitude":"7.23364","bright_ti4":"301.29","scan":"0.38","track":"0.36","acq_date":"2026-08-09","acq_time":"132","satellite":"N21","instrument":"VIIRS","confidence":"n","version":"2.0NRT","bright_ti5":"283.52","frp":"0.62","daynight":"N","commune":"Altkirch","code_insee":"68004","departement":"Haut-Rhin","region":"Grand Est"}},{"type":"Feature","geometry":{"type":"Point","coordinates":[6.11354,48.60863]},"properties":{"latitude":"48.60863","longitude":"6.11354","bright_ti4":"300.37","scan":"0.4","track":"0.37","acq_date":"2026-08-09","acq_time":"132","satellite":"N21","instrument":"VIIRS","confidence":"n","version":"2.0NRT","bright_ti5":"289.56","frp":"1.99","daynight":"N","commune":"Neuves-Maisons","code_insee":"54397","departement":"Meurthe-et-Moselle","region":"Grand Est"}},{"type":"Feature","geometry":{"type":"Point","coordinates":[6.1082,48.60937]},"properties":{"latitude":"48.60937","longitude":"6.1082","bright_ti4":"325.15","scan":"0.4","track":"0.37","acq_date":"2026-08-09","acq_time":"132","satellite":"N21","instrument":"VIIRS","confidence":"n","version":"2.0NRT","bright_ti5":"289.73","frp":"2.33","daynight":"N","commune":"Neuves-Maisons","code_insee":"54397","departement":"Meurthe-et-Moselle","region":"Grand Est"}},{"type":"Feature","geometry":{"type":"Point","coordinates":[6.9682,48.68991]},"properties":{"latitude":"48.68991","longitude":"6.9682","bright_ti4":"309.02","scan":"0.39","track":"0.36","acq_date":"2026-08-09","acq_time":"132","satellite":"N21","instrument":"VIIRS","confidence":"n","version":"2.0NRT","bright_ti5":"288.75","frp":"1.46","daynight":"N","commune":"Héming","code_insee":"57314","departement":"Moselle","region":"Grand Est"}},{"type":"Feature","geometry":{"type":"Point","coordinates":[5.6804,48.71601]},"properties":{"latitude":"48.71601","longitude":"5.6804","bright_ti4":"305.09","scan":"0.41","track":"0.37","acq_date":"2026-08-09","acq_time":"132","satellite":"N21","instrument":"VIIRS","confidence":"n","version":"2.0NRT","bright_ti5":"286.22","frp":"0.71","daynight":"N","commune":"Sorcy-Saint-Martin","code_insee":"55496","departement":"Meuse","region":"Grand Est"}},{"type":"Feature","geometry":{"type":"Point","coordinates":[4.56377,48.76904]},"properties":{"latitude":"48.76904","longitude":"4.56377","bright_ti4":"297.84","scan":"0.43","track":"0.38","acq_date":"2026-08-09","acq_time":"132","satellite":"N21","instrument":"VIIRS","confidence":"n","version":"2.0NRT","bright_ti5":"283.72","frp":"0.67","daynight":"N","commune":"Couvrot","code_insee":"51195","departement":"Marne","region":"Grand Est"}},{"type":"Feature","geometry":{"type":"Point","coordinates":[0.53338,49.47521]},"properties":{"latitude":"49.47521","longitude":"0.53338","bright_ti4":"301.12","scan":"0.4","track":"0.44","acq_date":"2026-08-09","acq_time":"132","satellite":"N21","instrument":"VIIRS","confidence":"n","version":"2.0NRT","bright_ti5":"285.29","frp":"1.14","daynight":"N","commune":"Lillebonne","code_insee":"76384","departement":"Seine-Maritime","region":"Normandie"}},{"type":"Feature","geometry":{"type":"Point","coordinates":[2.26877,51.027]},"properties":{"latitude":"51.027","longitude":"2.26877","bright_ti4":"322.37","scan":"0.54","track":"0.42","acq_date":"2026-08-09","acq_time":"132","satellite":"N21","instrument":"VIIRS","confidence":"n","version":"2.0NRT","bright_ti5":"289.12","frp":"4.06","daynight":"N","commune":"Grande-Synthe","code_insee":"59271","departement":"Nord","region":"Hauts-de-France"}},{"type":"Feature","geometry":{"type":"Point","coordinates":[2.25435,51.0323]},"properties":{"latitude":"51.0323","longitude":"2.25435","bright_ti4":"299.15","scan":"0.54","track":"0.42","acq_date":"2026-08-09","acq_time":"132","satellite":"N21","instrument":"VIIRS","confidence":"n","version":"2.0NRT","bright_ti5":"288.12","frp":"1.31","daynight":"N","commune":"Dunkerque","code_insee":"59183","departement":"Nord","region":"Hauts-de-France"}},{"type":"Feature","geometry":{"type":"Point","coordinates":[2.28592,51.03326]},"properties":{"latitude":"51.03326","longitude":"2.28592","bright_ti4":"312.94","scan":"0.54","track":"0.42","acq_date":"2026-08-09","acq_time":"132","satellite":"N21","instrument":"VIIRS","confidence":"n","version":"2.0NRT","bright_ti5":"288.54","frp":"2.06","daynight":"N","commune":"Grande-Synthe","code_insee":"59271","departement":"Nord","region":"Hauts-de-France"}},{"type":"Feature","geometry":{"type":"Point","coordinates":[2.29448,51.03639]},"properties":{"latitude":"51.03639","longitude":"2.29448","bright_ti4":"311.24","scan":"0.54","track":"0.42","acq_date":"2026-08-09","acq_time":"132","satellite":"N21","instrument":"VIIRS","confidence":"n","version":"2.0NRT","bright_ti5":"286.09","frp":"1.9","daynight":"N","commune":"Grande-Synthe","code_insee":"59271","departement":"Nord","region":"Hauts-de-France"}},{"type":"Feature","geometry":{"type":"Point","coordinates":[2.28682,51.03712]},"properties":{"latitude":"51.03712","longitude":"2.28682","bright_ti4":"313.4","scan":"0.54","track":"0.42","acq_date":"2026-08-09","acq_time":"132","satellite":"N21","instrument":"VIIRS","confidence":"n","version":"2.0NRT","bright_ti5":"288.56","frp":"2.06","daynight":"N","commune":"Grande-Synthe","code_insee":"59271","departement":"Nord","region":"Hauts-de-France"}},{"type":"Feature","geometry":{"type":"Point","coordinates":[2.27917,51.03785]},"properties":{"latitude":"51.03785","longitude":"2.27917","bright_ti4":"307.91","scan":"0.54","track":"0.42","acq_date":"2026-08-09","acq_time":"132","satellite":"N21","instrument":"VIIRS","confidence":"n","version":"2.0NRT","bright_ti5":"288.2","frp":"2.06","daynight":"N","commune":"Grande-Synthe","code_insee":"59271","departement":"Nord","region":"Hauts-de-France"}},{"type":"Feature","geometry":{"type":"Point","coordinates":[2.2954,51.04025]},"properties":{"latitude":"51.04025","longitude":"2.2954","bright_ti4":"302.37","scan":"0.54","track":"0.42","acq_date":"2026-08-09","acq_time":"132","satellite":"N21","instrument":"VIIRS","confidence":"n","version":"2.0NRT","bright_ti5":"289.86","frp":"3.88","daynight":"N","commune":"Grande-Synthe","code_insee":"59271","departement":"Nord","region":"Hauts-de-France"}},{"type":"Feature","geometry":{"type":"Point","coordinates":[2.30396,51.04337]},"properties":{"latitude":"51.04337","longitude":"2.30396","bright_ti4":"302.16","scan":"0.54","track":"0.42","acq_date":"2026-08-09","acq_time":"132","satellite":"N21","instrument":"VIIRS","confidence":"n","version":"2.0NRT","bright_ti5":"287.7","frp":"3.88","daynight":"N","commune":"Grande-Synthe","code_insee":"59271","departement":"Nord","region":"Hauts-de-France"}},{"type":"Feature","geometry":{"type":"Point","coordinates":[2.29631,51.0441]},"properties":{"latitude":"51.0441","longitude":"2.29631","bright_ti4":"330.21","scan":"0.54","track":"0.42","acq_date":"2026-08-09","acq_time":"132","satellite":"N21","instrument":"VIIRS","confidence":"n","version":"2.0NRT","bright_ti5":"293.23","frp":"3.88","daynight":"N","commune":"Grande-Synthe","code_insee":"59271","departement":"Nord","region":"Hauts-de-France"}},{"type":"Feature","geometry":{"type":"Point","coordinates":[5.3977,43.38629]},"properties":{"latitude":"43.38629","longitude":"5.3977","bright_ti4":"303.32","scan":"0.39","track":"0.36","acq_date":"2026-08-09","acq_time":"134","satellite":"N21","instrument":"VIIRS","confidence":"n","version":"2.0NRT","bright_ti5":"285.27","frp":"0.42","daynight":"N","commune":"Septèmes-les-Vallons","code_insee":"13106","departement":"Bouches-du-Rhône","region":"Provence-Alpes-Côte d'Azur"}},{"type":"Feature","geometry":{"type":"Point","coordinates":[4.88833,43.43383]},"properties":{"latitude":"43.43383","longitude":"4.88833","bright_ti4":"334.83","scan":"0.39","track":"0.36","acq_date":"2026-08-09","acq_time":"134","satellite":"N21","instrument":"VIIRS","confidence":"n","version":"2.0NRT","bright_ti5":"283.49","frp":"5.84","daynight":"N","commune":"Fos-sur-Mer","code_insee":"13039","departement":"Bouches-du-Rhône","region":"Provence-Alpes-Côte d'Azur"}},{"type":"Feature","geometry":{"type":"Point","coordinates":[4.89579,43.44303]},"properties":{"latitude":"43.44303","longitude":"4.89579","bright_ti4":"306.49","scan":"0.39","track":"0.36","acq_date":"2026-08-09","acq_time":"134","satellite":"N21","instrument":"VIIRS","confidence":"n","version":"2.0NRT","bright_ti5":"283.99","frp":"2.06","daynight":"N","commune":"Fos-sur-Mer","code_insee":"13039","departement":"Bouches-du-Rhône","region":"Provence-Alpes-Côte d'Azur"}},{"type":"Feature","geometry":{"type":"Point","coordinates":[4.90145,43.44563]},"properties":{"latitude":"43.44563","longitude":"4.90145","bright_ti4":"307.74","scan":"0.39","track":"0.36","acq_date":"2026-08-09","acq_time":"134","satellite":"N21","instrument":"VIIRS","confidence":"n","version":"2.0NRT","bright_ti5":"284.08","frp":"1.27","daynight":"N","commune":"Fos-sur-Mer","code_insee":"13039","departement":"Bouches-du-Rhône","region":"Provence-Alpes-Côte d'Azur"}},{"type":"Feature","geometry":{"type":"Point","coordinates":[4.89668,43.44632]},"properties":{"latitude":"43.44632","longitude":"4.89668","bright_ti4":"324.38","scan":"0.39","track":"0.36","acq_date":"2026-08-09","acq_time":"134","satellite":"N21","instrument":"VIIRS","confidence":"n","version":"2.0NRT","bright_ti5":"286.26","frp":"2.06","daynight":"N","commune":"Fos-sur-Mer","code_insee":"13039","departement":"Bouches-du-Rhône","region":"Provence-Alpes-Côte d'Azur"}},{"type":"Feature","geometry":{"type":"Point","coordinates":[7.37302,43.79372]},"properties":{"latitude":"43.79372","longitude":"7.37302","bright_ti4":"313.46","scan":"0.39","track":"0.36","acq_date":"2026-08-09","acq_time":"134","satellite":"N21","instrument":"VIIRS","confidence":"n","version":"2.0NRT","bright_ti5":"295.62","frp":"1.62","daynight":"N","commune":"Blausasc","code_insee":"06019","departement":"Alpes-Maritimes","region":"Provence-Alpes-Côte d'Azur"}},{"type":"Feature","geometry":{"type":"Point","coordinates":[4.62021,43.8026]},"properties":{"latitude":"43.8026","longitude":"4.62021","bright_ti4":"305.47","scan":"0.4","track":"0.37","acq_date":"2026-08-09","acq_time":"134","satellite":"N21","instrument":"VIIRS","confidence":"n","version":"2.0NRT","bright_ti5":"294.31","frp":"0.76","daynight":"N","commune":"Beaucaire","code_insee":"30032","departement":"Gard","region":"Occitanie"}},{"type":"Feature","geometry":{"type":"Point","coordinates":[4.69233,44.08961]},"properties":{"latitude":"44.08961","longitude":"4.69233","bright_ti4":"303.89","scan":"0.4","track":"0.37","acq_date":"2026-08-09","acq_time":"134","satellite":"N21","instrument":"VIIRS","confidence":"n","version":"2.0NRT","bright_ti5":"293.76","frp":"0.62","daynight":"N","commune":"Laudun-l'Ardoise","code_insee":"30141","departement":"Gard","region":"Occitanie"}},{"type":"Feature","geometry":{"type":"Point","coordinates":[-0.38409,44.22643]},"properties":{"latitude":"44.22643","longitude":"-0.38409","bright_ti4":"339.1","scan":"0.39","track":"0.44","acq_date":"2026-08-09","acq_time":"134","satellite":"N21","instrument":"VIIRS","confidence":"n","version":"2.0NRT","bright_ti5":"291.82","frp":"10.85","daynight":"N","commune":"Lucmau","code_insee":"33255","departement":"Gironde","region":"Nouvelle-Aquitaine"}},{"type":"Feature","geometry":{"type":"Point","coordinates":[-0.38893,44.22689]},"properties":{"latitude":"44.22689","longitude":"-0.38893","bright_ti4":"336.94","scan":"0.39","track":"0.44","acq_date":"2026-08-09","acq_time":"134","satellite":"N21","instrument":"VIIRS","confidence":"n","version":"2.0NRT","bright_ti5":"291.47","frp":"10.85","daynight":"N","commune":"Lucmau","code_insee":"33255","departement":"Gironde","region":"Nouvelle-Aquitaine"}},{"type":"Feature","geometry":{"type":"Point","coordinates":[-0.38337,44.23042]},"properties":{"latitude":"44.23042","longitude":"-0.38337","bright_ti4":"347.65","scan":"0.39","track":"0.44","acq_date":"2026-08-09","acq_time":"134","satellite":"N21","instrument":"VIIRS","confidence":"n","version":"2.0NRT","bright_ti5":"291.37","frp":"10.85","daynight":"N","commune":"Lucmau","code_insee":"33255","departement":"Gironde","region":"Nouvelle-Aquitaine"}},{"type":"Feature","geometry":{"type":"Point","coordinates":[5.47271,44.52615]},"properties":{"latitude":"44.52615","longitude":"5.47271","bright_ti4":"302.95","scan":"0.39","track":"0.36","acq_date":"2026-08-09","acq_time":"134","satellite":"N21","instrument":"VIIRS","confidence":"n","version":"2.0NRT","bright_ti5":"291.59","frp":"0.75","daynight":"N","commune":"Saint-Dizier-en-Diois","code_insee":"26300","departement":"Drôme","region":"Auvergne-Rhône-Alpes"}},{"type":"Feature","geometry":{"type":"Point","coordinates":[5.46784,44.52686]},"properties":{"latitude":"44.52686","longitude":"5.46784","bright_ti4":"303.05","scan":"0.39","track":"0.36","acq_date":"2026-08-09","acq_time":"134","satellite":"N21","instrument":"VIIRS","confidence":"n","version":"2.0NRT","bright_ti5":"290.98","frp":"0.75","daynight":"N","commune":"Bellegarde-en-Diois","code_insee":"26047","departement":"Drôme","region":"Auvergne-Rhône-Alpes"}},{"type":"Feature","geometry":{"type":"Point","coordinates":[5.48701,44.54113]},"properties":{"latitude":"44.54113","longitude":"5.48701","bright_ti4":"302.67","scan":"0.39","track":"0.36","acq_date":"2026-08-09","acq_time":"134","satellite":"N21","instrument":"VIIRS","confidence":"n","version":"2.0NRT","bright_ti5":"291.65","frp":"1.03","daynight":"N","commune":"Beaumont-en-Diois","code_insee":"26036","departement":"Drôme","region":"Auvergne-Rhône-Alpes"}}]}