{"type":"FeatureCollection","features":[{"type":"Feature","geometry":{"type":"Point","coordinates":[4.8881,43.44142]},"properties":{"latitude":"43.44142","longitude":"4.8881","bright_ti4":"304.72","scan":"0.6","track":"0.53","acq_date":"2026-06-20","acq_time":"105","satellite":"N","instrument":"VIIRS","confidence":"n","version":"2.0NRT","bright_ti5":"290.61","frp":"2.52","daynight":"N","commune":"Fos-sur-Mer","code_insee":"13039","departement":"Bouches-du-Rhône","region":"Provence-Alpes-Côte d'Azur"}},{"type":"Feature","geometry":{"type":"Point","coordinates":[4.88057,43.44191]},"properties":{"latitude":"43.44191","longitude":"4.88057","bright_ti4":"314.47","scan":"0.6","track":"0.53","acq_date":"2026-06-20","acq_time":"105","satellite":"N","instrument":"VIIRS","confidence":"n","version":"2.0NRT","bright_ti5":"290.55","frp":"2.57","daynight":"N","commune":"Fos-sur-Mer","code_insee":"13039","departement":"Bouches-du-Rhône","region":"Provence-Alpes-Côte d'Azur"}},{"type":"Feature","geometry":{"type":"Point","coordinates":[4.87301,43.44241]},"properties":{"latitude":"43.44241","longitude":"4.87301","bright_ti4":"302.62","scan":"0.6","track":"0.53","acq_date":"2026-06-20","acq_time":"105","satellite":"N","instrument":"VIIRS","confidence":"n","version":"2.0NRT","bright_ti5":"287.98","frp":"2.57","daynight":"N","commune":"Fos-sur-Mer","code_insee":"13039","departement":"Bouches-du-Rhône","region":"Provence-Alpes-Côte d'Azur"}},{"type":"Feature","geometry":{"type":"Point","coordinates":[4.89626,43.44585]},"properties":{"latitude":"43.44585","longitude":"4.89626","bright_ti4":"327.16","scan":"0.59","track":"0.53","acq_date":"2026-06-20","acq_time":"105","satellite":"N","instrument":"VIIRS","confidence":"n","version":"2.0NRT","bright_ti5":"291.96","frp":"5.13","daynight":"N","commune":"Fos-sur-Mer","code_insee":"13039","departement":"Bouches-du-Rhône","region":"Provence-Alpes-Côte d'Azur"}},{"type":"Feature","geometry":{"type":"Point","coordinates":[4.92421,49.32009]},"properties":{"latitude":"49.32009","longitude":"4.92421","bright_ti4":"316.15","scan":"0.33","track":"0.55","acq_date":"2026-06-20","acq_time":"105","satellite":"N","instrument":"VIIRS","confidence":"n","version":"2.0NRT","bright_ti5":"288.69","frp":"0.86","daynight":"N","commune":"Marcq","code_insee":"08274","departement":"Ardennes","region":"Grand Est"}},{"type":"Feature","geometry":{"type":"Point","coordinates":[4.92572,49.32063]},"properties":{"latitude":"49.32063","longitude":"4.92572","bright_ti4":"322.49","scan":"0.33","track":"0.55","acq_date":"2026-06-20","acq_time":"105","satellite":"N","instrument":"VIIRS","confidence":"n","version":"2.0NRT","bright_ti5":"288.62","frp":"1.85","daynight":"N","commune":"Marcq","code_insee":"08274","departement":"Ardennes","region":"Grand Est"}},{"type":"Feature","geometry":{"type":"Point","coordinates":[4.92091,49.32082]},"properties":{"latitude":"49.32082","longitude":"4.92091","bright_ti4":"302.31","scan":"0.33","track":"0.56","acq_date":"2026-06-20","acq_time":"105","satellite":"N","instrument":"VIIRS","confidence":"n","version":"2.0NRT","bright_ti5":"288.29","frp":"1.74","daynight":"N","commune":"Marcq","code_insee":"08274","departement":"Ardennes","region":"Grand Est"}},{"type":"Feature","geometry":{"type":"Point","coordinates":[4.92441,49.32529]},"properties":{"latitude":"49.32529","longitude":"4.92441","bright_ti4":"331.86","scan":"0.33","track":"0.55","acq_date":"2026-06-20","acq_time":"105","satellite":"N","instrument":"VIIRS","confidence":"n","version":"2.0NRT","bright_ti5":"288.53","frp":"1.76","daynight":"N","commune":"Marcq","code_insee":"08274","departement":"Ardennes","region":"Grand Est"}},{"type":"Feature","geometry":{"type":"Point","coordinates":[4.92589,49.32583]},"properties":{"latitude":"49.32583","longitude":"4.92589","bright_ti4":"304.35","scan":"0.33","track":"0.55","acq_date":"2026-06-20","acq_time":"105","satellite":"N","instrument":"VIIRS","confidence":"n","version":"2.0NRT","bright_ti5":"287.13","frp":"0.52","daynight":"N","commune":"Marcq","code_insee":"08274","departement":"Ardennes","region":"Grand Est"}},{"type":"Feature","geometry":{"type":"Point","coordinates":[2.29483,51.04284]},"properties":{"latitude":"51.04284","longitude":"2.29483","bright_ti4":"306.3","scan":"0.45","track":"0.63","acq_date":"2026-06-20","acq_time":"105","satellite":"N","instrument":"VIIRS","confidence":"n","version":"2.0NRT","bright_ti5":"283.28","frp":"2.23","daynight":"N","commune":"Grande-Synthe","code_insee":"59271","departement":"Nord","region":"Hauts-de-France"}},{"type":"Feature","geometry":{"type":"Point","coordinates":[4.88822,43.43762]},"properties":{"latitude":"43.43762","longitude":"4.88822","bright_ti4":"302.89","scan":"0.6","track":"0.53","acq_date":"2026-06-20","acq_time":"107","satellite":"N","instrument":"VIIRS","confidence":"n","version":"2.0NRT","bright_ti5":"291.32","frp":"2.74","daynight":"N","commune":"Fos-sur-Mer","code_insee":"13039","departement":"Bouches-du-Rhône","region":"Provence-Alpes-Côte d'Azur"}},{"type":"Feature","geometry":{"type":"Point","coordinates":[4.88128,43.44301]},"properties":{"latitude":"43.44301","longitude":"4.88128","bright_ti4":"300.05","scan":"0.6","track":"0.53","acq_date":"2026-06-20","acq_time":"107","satellite":"N","instrument":"VIIRS","confidence":"n","version":"2.0NRT","bright_ti5":"289.51","frp":"3.76","daynight":"N","commune":"Fos-sur-Mer","code_insee":"13039","departement":"Bouches-du-Rhône","region":"Provence-Alpes-Côte d'Azur"}},{"type":"Feature","geometry":{"type":"Point","coordinates":[4.87372,43.44346]},"properties":{"latitude":"43.44346","longitude":"4.87372","bright_ti4":"317.04","scan":"0.6","track":"0.53","acq_date":"2026-06-20","acq_time":"107","satellite":"N","instrument":"VIIRS","confidence":"n","version":"2.0NRT","bright_ti5":"288.78","frp":"2.6","daynight":"N","commune":"Fos-sur-Mer","code_insee":"13039","departement":"Bouches-du-Rhône","region":"Provence-Alpes-Côte d'Azur"}},{"type":"Feature","geometry":{"type":"Point","coordinates":[4.897,43.44703]},"properties":{"latitude":"43.44703","longitude":"4.897","bright_ti4":"325.28","scan":"0.6","track":"0.53","acq_date":"2026-06-20","acq_time":"107","satellite":"N","instrument":"VIIRS","confidence":"n","version":"2.0NRT","bright_ti5":"292.04","frp":"4.03","daynight":"N","commune":"Fos-sur-Mer","code_insee":"13039","departement":"Bouches-du-Rhône","region":"Provence-Alpes-Côte d'Azur"}},{"type":"Feature","geometry":{"type":"Point","coordinates":[7.37389,43.79492]},"properties":{"latitude":"43.79492","longitude":"7.37389","bright_ti4":"307.08","scan":"0.45","track":"0.47","acq_date":"2026-06-20","acq_time":"107","satellite":"N","instrument":"VIIRS","confidence":"n","version":"2.0NRT","bright_ti5":"292.84","frp":"0.44","daynight":"N","commune":"Blausasc","code_insee":"06019","departement":"Alpes-Maritimes","region":"Provence-Alpes-Côte d'Azur"}},{"type":"Feature","geometry":{"type":"Point","coordinates":[7.37244,43.79508]},"properties":{"latitude":"43.79508","longitude":"7.37244","bright_ti4":"307.85","scan":"0.45","track":"0.47","acq_date":"2026-06-20","acq_time":"107","satellite":"N","instrument":"VIIRS","confidence":"n","version":"2.0NRT","bright_ti5":"292.78","frp":"1.03","daynight":"N","commune":"Blausasc","code_insee":"06019","departement":"Alpes-Maritimes","region":"Provence-Alpes-Côte d'Azur"}},{"type":"Feature","geometry":{"type":"Point","coordinates":[6.96432,48.69102]},"properties":{"latitude":"48.69102","longitude":"6.96432","bright_ti4":"301.79","scan":"0.37","track":"0.58","acq_date":"2026-06-20","acq_time":"243","satellite":"N","instrument":"VIIRS","confidence":"n","version":"2.0NRT","bright_ti5":"290.31","frp":"0.57","daynight":"N","commune":"Héming","code_insee":"57314","departement":"Moselle","region":"Grand Est"}},{"type":"Feature","geometry":{"type":"Point","coordinates":[6.96576,48.69273]},"properties":{"latitude":"48.69273","longitude":"6.96576","bright_ti4":"302.6","scan":"0.37","track":"0.58","acq_date":"2026-06-20","acq_time":"243","satellite":"N","instrument":"VIIRS","confidence":"n","version":"2.0NRT","bright_ti5":"290.44","frp":"0.68","daynight":"N","commune":"Héming","code_insee":"57314","departement":"Moselle","region":"Grand Est"}},{"type":"Feature","geometry":{"type":"Point","coordinates":[5.68189,48.71786]},"properties":{"latitude":"48.71786","longitude":"5.68189","bright_ti4":"301.5","scan":"0.33","track":"0.55","acq_date":"2026-06-20","acq_time":"243","satellite":"N","instrument":"VIIRS","confidence":"n","version":"2.0NRT","bright_ti5":"288.83","frp":"0.51","daynight":"N","commune":"Sorcy-Saint-Martin","code_insee":"55496","departement":"Meuse","region":"Grand Est"}},{"type":"Feature","geometry":{"type":"Point","coordinates":[4.56511,48.76778]},"properties":{"latitude":"48.76778","longitude":"4.56511","bright_ti4":"300.57","scan":"0.59","track":"0.53","acq_date":"2026-06-20","acq_time":"243","satellite":"N","instrument":"VIIRS","confidence":"n","version":"2.0NRT","bright_ti5":"288.16","frp":"1.49","daynight":"N","commune":"Couvrot","code_insee":"51195","departement":"Marne","region":"Grand Est"}},{"type":"Feature","geometry":{"type":"Point","coordinates":[1.75881,48.98618]},"properties":{"latitude":"48.98618","longitude":"1.75881","bright_ti4":"316.26","scan":"0.44","track":"0.46","acq_date":"2026-06-20","acq_time":"243","satellite":"N","instrument":"VIIRS","confidence":"n","version":"2.0NRT","bright_ti5":"291.35","frp":"1.72","daynight":"N","commune":"Limay","code_insee":"78335","departement":"Yvelines","region":"Île-de-France"}},{"type":"Feature","geometry":{"type":"Point","coordinates":[4.92777,49.3216]},"properties":{"latitude":"49.3216","longitude":"4.92777","bright_ti4":"316.4","scan":"0.59","track":"0.53","acq_date":"2026-06-20","acq_time":"243","satellite":"N","instrument":"VIIRS","confidence":"n","version":"2.0NRT","bright_ti5":"285.47","frp":"2.72","daynight":"N","commune":"Marcq","code_insee":"08274","departement":"Ardennes","region":"Grand Est"}},{"type":"Feature","geometry":{"type":"Point","coordinates":[0.53594,49.47821]},"properties":{"latitude":"49.47821","longitude":"0.53594","bright_ti4":"309.54","scan":"0.39","track":"0.44","acq_date":"2026-06-20","acq_time":"243","satellite":"N","instrument":"VIIRS","confidence":"n","version":"2.0NRT","bright_ti5":"288.15","frp":"0.89","daynight":"N","commune":"Port-Jérôme-sur-Seine","code_insee":"76476","departement":"Seine-Maritime","region":"Normandie"}},{"type":"Feature","geometry":{"type":"Point","coordinates":[1.74799,50.26818]},"properties":{"latitude":"50.26818","longitude":"1.74799","bright_ti4":"296.51","scan":"0.41","track":"0.45","acq_date":"2026-06-20","acq_time":"243","satellite":"N","instrument":"VIIRS","confidence":"n","version":"2.0NRT","bright_ti5":"286.16","frp":"0.24","daynight":"N","commune":"Bernay-en-Ponthieu","code_insee":"80087","departement":"Somme","region":"Hauts-de-France"}},{"type":"Feature","geometry":{"type":"Point","coordinates":[2.27163,51.02552]},"properties":{"latitude":"51.02552","longitude":"2.27163","bright_ti4":"304.26","scan":"0.41","track":"0.45","acq_date":"2026-06-20","acq_time":"243","satellite":"N","instrument":"VIIRS","confidence":"n","version":"2.0NRT","bright_ti5":"287.22","frp":"0.66","daynight":"N","commune":"Grande-Synthe","code_insee":"59271","departement":"Nord","region":"Hauts-de-France"}},{"type":"Feature","geometry":{"type":"Point","coordinates":[2.27403,51.02944]},"properties":{"latitude":"51.02944","longitude":"2.27403","bright_ti4":"315.47","scan":"0.41","track":"0.45","acq_date":"2026-06-20","acq_time":"243","satellite":"N","instrument":"VIIRS","confidence":"n","version":"2.0NRT","bright_ti5":"287.97","frp":"1.47","daynight":"N","commune":"Grande-Synthe","code_insee":"59271","departement":"Nord","region":"Hauts-de-France"}},{"type":"Feature","geometry":{"type":"Point","coordinates":[2.26842,51.03081]},"properties":{"latitude":"51.03081","longitude":"2.26842","bright_ti4":"298.02","scan":"0.41","track":"0.45","acq_date":"2026-06-20","acq_time":"243","satellite":"N","instrument":"VIIRS","confidence":"n","version":"2.0NRT","bright_ti5":"287.92","frp":"1.29","daynight":"N","commune":"Grande-Synthe","code_insee":"59271","departement":"Nord","region":"Hauts-de-France"}},{"type":"Feature","geometry":{"type":"Point","coordinates":[2.29003,51.03454]},"properties":{"latitude":"51.03454","longitude":"2.29003","bright_ti4":"313.55","scan":"0.41","track":"0.45","acq_date":"2026-06-20","acq_time":"243","satellite":"N","instrument":"VIIRS","confidence":"n","version":"2.0NRT","bright_ti5":"288.74","frp":"1.42","daynight":"N","commune":"Grande-Synthe","code_insee":"59271","departement":"Nord","region":"Hauts-de-France"}},{"type":"Feature","geometry":{"type":"Point","coordinates":[2.28442,51.03591]},"properties":{"latitude":"51.03591","longitude":"2.28442","bright_ti4":"309.46","scan":"0.41","track":"0.45","acq_date":"2026-06-20","acq_time":"243","satellite":"N","instrument":"VIIRS","confidence":"n","version":"2.0NRT","bright_ti5":"288.49","frp":"1.88","daynight":"N","commune":"Grande-Synthe","code_insee":"59271","departement":"Nord","region":"Hauts-de-France"}},{"type":"Feature","geometry":{"type":"Point","coordinates":[2.29484,51.04238]},"properties":{"latitude":"51.04238","longitude":"2.29484","bright_ti4":"312.58","scan":"0.41","track":"0.45","acq_date":"2026-06-20","acq_time":"243","satellite":"N","instrument":"VIIRS","confidence":"n","version":"2.0NRT","bright_ti5":"289.53","frp":"5.96","daynight":"N","commune":"Grande-Synthe","code_insee":"59271","departement":"Nord","region":"Hauts-de-France"}},{"type":"Feature","geometry":{"type":"Point","coordinates":[2.32215,51.04474]},"properties":{"latitude":"51.04474","longitude":"2.32215","bright_ti4":"300.5","scan":"0.41","track":"0.45","acq_date":"2026-06-20","acq_time":"243","satellite":"N","instrument":"VIIRS","confidence":"n","version":"2.0NRT","bright_ti5":"287.78","frp":"0.65","daynight":"N","commune":"Dunkerque","code_insee":"59183","departement":"Nord","region":"Hauts-de-France"}},{"type":"Feature","geometry":{"type":"Point","coordinates":[2.30287,51.04493]},"properties":{"latitude":"51.04493","longitude":"2.30287","bright_ti4":"302.45","scan":"0.41","track":"0.45","acq_date":"2026-06-20","acq_time":"243","satellite":"N","instrument":"VIIRS","confidence":"n","version":"2.0NRT","bright_ti5":"288.07","frp":"5.96","daynight":"N","commune":"Grande-Synthe","code_insee":"59271","departement":"Nord","region":"Hauts-de-France"}},{"type":"Feature","geometry":{"type":"Point","coordinates":[2.31652,51.04612]},"properties":{"latitude":"51.04612","longitude":"2.31652","bright_ti4":"299.67","scan":"0.41","track":"0.45","acq_date":"2026-06-20","acq_time":"243","satellite":"N","instrument":"VIIRS","confidence":"n","version":"2.0NRT","bright_ti5":"288.14","frp":"1.01","daynight":"N","commune":"Dunkerque","code_insee":"59183","departement":"Nord","region":"Hauts-de-France"}},{"type":"Feature","geometry":{"type":"Point","coordinates":[2.29726,51.0463]},"properties":{"latitude":"51.0463","longitude":"2.29726","bright_ti4":"349.92","scan":"0.41","track":"0.45","acq_date":"2026-06-20","acq_time":"243","satellite":"N","instrument":"VIIRS","confidence":"n","version":"2.0NRT","bright_ti5":"291.14","frp":"5.96","daynight":"N","commune":"Grande-Synthe","code_insee":"59271","departement":"Nord","region":"Hauts-de-France"}},{"type":"Feature","geometry":{"type":"Point","coordinates":[2.32459,51.04866]},"properties":{"latitude":"51.04866","longitude":"2.32459","bright_ti4":"308.51","scan":"0.41","track":"0.45","acq_date":"2026-06-20","acq_time":"243","satellite":"N","instrument":"VIIRS","confidence":"n","version":"2.0NRT","bright_ti5":"288.78","frp":"0.65","daynight":"N","commune":"Dunkerque","code_insee":"59183","departement":"Nord","region":"Hauts-de-France"}},{"type":"Feature","geometry":{"type":"Point","coordinates":[2.31896,51.05003]},"properties":{"latitude":"51.05003","longitude":"2.31896","bright_ti4":"299.34","scan":"0.41","track":"0.45","acq_date":"2026-06-20","acq_time":"243","satellite":"N","instrument":"VIIRS","confidence":"n","version":"2.0NRT","bright_ti5":"288.62","frp":"1.01","daynight":"N","commune":"Dunkerque","code_insee":"59183","departement":"Nord","region":"Hauts-de-France"}},{"type":"Feature","geometry":{"type":"Point","coordinates":[3.0278,43.02398]},"properties":{"latitude":"43.02398","longitude":"3.0278","bright_ti4":"300.76","scan":"0.37","track":"0.58","acq_date":"2026-06-20","acq_time":"245","satellite":"N","instrument":"VIIRS","confidence":"n","version":"2.0NRT","bright_ti5":"289.08","frp":"0.46","daynight":"N","commune":"Port-la-Nouvelle","code_insee":"11266","departement":"Aude","region":"Occitanie"}},{"type":"Feature","geometry":{"type":"Point","coordinates":[4.89292,43.43293]},"properties":{"latitude":"43.43293","longitude":"4.89292","bright_ti4":"305.63","scan":"0.44","track":"0.62","acq_date":"2026-06-20","acq_time":"245","satellite":"N","instrument":"VIIRS","confidence":"n","version":"2.0NRT","bright_ti5":"290.77","frp":"1.71","daynight":"N","commune":"Fos-sur-Mer","code_insee":"13039","departement":"Bouches-du-Rhône","region":"Provence-Alpes-Côte d'Azur"}},{"type":"Feature","geometry":{"type":"Point","coordinates":[4.89007,43.43896]},"properties":{"latitude":"43.43896","longitude":"4.89007","bright_ti4":"301.79","scan":"0.44","track":"0.62","acq_date":"2026-06-20","acq_time":"245","satellite":"N","instrument":"VIIRS","confidence":"n","version":"2.0NRT","bright_ti5":"289.83","frp":"1.2","daynight":"N","commune":"Fos-sur-Mer","code_insee":"13039","departement":"Bouches-du-Rhône","region":"Provence-Alpes-Côte d'Azur"}},{"type":"Feature","geometry":{"type":"Point","coordinates":[4.89084,43.43989]},"properties":{"latitude":"43.43989","longitude":"4.89084","bright_ti4":"300.48","scan":"0.44","track":"0.62","acq_date":"2026-06-20","acq_time":"245","satellite":"N","instrument":"VIIRS","confidence":"n","version":"2.0NRT","bright_ti5":"289.83","frp":"1.33","daynight":"N","commune":"Fos-sur-Mer","code_insee":"13039","departement":"Bouches-du-Rhône","region":"Provence-Alpes-Côte d'Azur"}},{"type":"Feature","geometry":{"type":"Point","coordinates":[4.87978,43.44202]},"properties":{"latitude":"43.44202","longitude":"4.87978","bright_ti4":"300.21","scan":"0.44","track":"0.62","acq_date":"2026-06-20","acq_time":"245","satellite":"N","instrument":"VIIRS","confidence":"n","version":"2.0NRT","bright_ti5":"289.06","frp":"0.88","daynight":"N","commune":"Fos-sur-Mer","code_insee":"13039","departement":"Bouches-du-Rhône","region":"Provence-Alpes-Côte d'Azur"}},{"type":"Feature","geometry":{"type":"Point","coordinates":[4.89833,43.44282]},"properties":{"latitude":"43.44282","longitude":"4.89833","bright_ti4":"306.63","scan":"0.44","track":"0.62","acq_date":"2026-06-20","acq_time":"245","satellite":"N","instrument":"VIIRS","confidence":"n","version":"2.0NRT","bright_ti5":"287.88","frp":"1.03","daynight":"N","commune":"Fos-sur-Mer","code_insee":"13039","departement":"Bouches-du-Rhône","region":"Provence-Alpes-Côte d'Azur"}},{"type":"Feature","geometry":{"type":"Point","coordinates":[4.87465,43.44355]},"properties":{"latitude":"43.44355","longitude":"4.87465","bright_ti4":"306.47","scan":"0.44","track":"0.62","acq_date":"2026-06-20","acq_time":"245","satellite":"N","instrument":"VIIRS","confidence":"n","version":"2.0NRT","bright_ti5":"287.43","frp":"0.88","daynight":"N","commune":"Fos-sur-Mer","code_insee":"13039","departement":"Bouches-du-Rhône","region":"Provence-Alpes-Côte d'Azur"}},{"type":"Feature","geometry":{"type":"Point","coordinates":[4.89906,43.44372]},"properties":{"latitude":"43.44372","longitude":"4.89906","bright_ti4":"301.12","scan":"0.44","track":"0.62","acq_date":"2026-06-20","acq_time":"245","satellite":"N","instrument":"VIIRS","confidence":"n","version":"2.0NRT","bright_ti5":"287.99","frp":"1.33","daynight":"N","commune":"Fos-sur-Mer","code_insee":"13039","departement":"Bouches-du-Rhône","region":"Provence-Alpes-Côte d'Azur"}},{"type":"Feature","geometry":{"type":"Point","coordinates":[4.89316,43.44435]},"properties":{"latitude":"43.44435","longitude":"4.89316","bright_ti4":"301.61","scan":"0.44","track":"0.62","acq_date":"2026-06-20","acq_time":"245","satellite":"N","instrument":"VIIRS","confidence":"n","version":"2.0NRT","bright_ti5":"289.79","frp":"1.2","daynight":"N","commune":"Fos-sur-Mer","code_insee":"13039","departement":"Bouches-du-Rhône","region":"Provence-Alpes-Côte d'Azur"}},{"type":"Feature","geometry":{"type":"Point","coordinates":[4.87545,43.44456]},"properties":{"latitude":"43.44456","longitude":"4.87545","bright_ti4":"314.07","scan":"0.44","track":"0.62","acq_date":"2026-06-20","acq_time":"245","satellite":"N","instrument":"VIIRS","confidence":"n","version":"2.0NRT","bright_ti5":"288.17","frp":"1.39","daynight":"N","commune":"Fos-sur-Mer","code_insee":"13039","departement":"Bouches-du-Rhône","region":"Provence-Alpes-Côte d'Azur"}},{"type":"Feature","geometry":{"type":"Point","coordinates":[4.89391,43.44529]},"properties":{"latitude":"43.44529","longitude":"4.89391","bright_ti4":"329.4","scan":"0.44","track":"0.62","acq_date":"2026-06-20","acq_time":"245","satellite":"N","instrument":"VIIRS","confidence":"n","version":"2.0NRT","bright_ti5":"289.92","frp":"1.33","daynight":"N","commune":"Fos-sur-Mer","code_insee":"13039","departement":"Bouches-du-Rhône","region":"Provence-Alpes-Côte d'Azur"}},{"type":"Feature","geometry":{"type":"Point","coordinates":[4.897,43.45067]},"properties":{"latitude":"43.45067","longitude":"4.897","bright_ti4":"367","scan":"0.44","track":"0.62","acq_date":"2026-06-20","acq_time":"245","satellite":"N","instrument":"VIIRS","confidence":"h","version":"2.0NRT","bright_ti5":"290.29","frp":"6.89","daynight":"N","commune":"Fos-sur-Mer","code_insee":"13039","departement":"Bouches-du-Rhône","region":"Provence-Alpes-Côte d'Azur"}},{"type":"Feature","geometry":{"type":"Point","coordinates":[4.89187,43.45222]},"properties":{"latitude":"43.45222","longitude":"4.89187","bright_ti4":"298.25","scan":"0.44","track":"0.62","acq_date":"2026-06-20","acq_time":"245","satellite":"N","instrument":"VIIRS","confidence":"n","version":"2.0NRT","bright_ti5":"287.4","frp":"5.38","daynight":"N","commune":"Fos-sur-Mer","code_insee":"13039","departement":"Bouches-du-Rhône","region":"Provence-Alpes-Côte d'Azur"}},{"type":"Feature","geometry":{"type":"Point","coordinates":[5.66537,45.23288]},"properties":{"latitude":"45.23288","longitude":"5.66537","bright_ti4":"299.23","scan":"0.42","track":"0.61","acq_date":"2026-06-20","acq_time":"245","satellite":"N","instrument":"VIIRS","confidence":"n","version":"2.0NRT","bright_ti5":"288.35","frp":"0.56","daynight":"N","commune":"Saint-Égrève","code_insee":"38382","departement":"Isère","region":"Auvergne-Rhône-Alpes"}},{"type":"Feature","geometry":{"type":"Point","coordinates":[5.81906,45.91331]},"properties":{"latitude":"45.91331","longitude":"5.81906","bright_ti4":"301.41","scan":"0.41","track":"0.6","acq_date":"2026-06-20","acq_time":"245","satellite":"N","instrument":"VIIRS","confidence":"n","version":"2.0NRT","bright_ti5":"288.44","frp":"0.71","daynight":"N","commune":"Anglefort","code_insee":"01010","departement":"Ain","region":"Auvergne-Rhône-Alpes"}},{"type":"Feature","geometry":{"type":"Point","coordinates":[4.89826,43.44761]},"properties":{"latitude":"43.44761","longitude":"4.89826","bright_ti4":"338.36","scan":"0.42","track":"0.37","acq_date":"2026-06-20","acq_time":"1229","satellite":"N","instrument":"VIIRS","confidence":"l","version":"2.0NRT","bright_ti5":"312.72","frp":"5.03","daynight":"D","commune":"Fos-sur-Mer","code_insee":"13039","departement":"Bouches-du-Rhône","region":"Provence-Alpes-Côte d'Azur"}},{"type":"Feature","geometry":{"type":"Point","coordinates":[0.97413,46.17192]},"properties":{"latitude":"46.17192","longitude":"0.97413","bright_ti4":"344.22","scan":"0.5","track":"0.41","acq_date":"2026-06-20","acq_time":"1232","satellite":"N","instrument":"VIIRS","confidence":"n","version":"2.0NRT","bright_ti5":"307.73","frp":"5.23","daynight":"D","commune":"La Croix-sur-Gartempe","code_insee":"87052","departement":"Haute-Vienne","region":"Nouvelle-Aquitaine"}},{"type":"Feature","geometry":{"type":"Point","coordinates":[6.93388,49.16303]},"properties":{"latitude":"49.16303","longitude":"6.93388","bright_ti4":"335.95","scan":"0.39","track":"0.36","acq_date":"2026-06-20","acq_time":"1232","satellite":"N","instrument":"VIIRS","confidence":"l","version":"2.0NRT","bright_ti5":"310.85","frp":"6.05","daynight":"D","commune":"Behren-lès-Forbach","code_insee":"57058","departement":"Moselle","region":"Grand Est"}},{"type":"Feature","geometry":{"type":"Point","coordinates":[1.05173,49.3173]},"properties":{"latitude":"49.3173","longitude":"1.05173","bright_ti4":"333.28","scan":"0.44","track":"0.39","acq_date":"2026-06-20","acq_time":"1232","satellite":"N","instrument":"VIIRS","confidence":"l","version":"2.0NRT","bright_ti5":"307.36","frp":"6.94","daynight":"D","commune":"Cléon","code_insee":"76178","departement":"Seine-Maritime","region":"Normandie"}},{"type":"Feature","geometry":{"type":"Point","coordinates":[4.92541,49.32217]},"properties":{"latitude":"49.32217","longitude":"4.92541","bright_ti4":"334.31","scan":"0.38","track":"0.36","acq_date":"2026-06-20","acq_time":"1232","satellite":"N","instrument":"VIIRS","confidence":"n","version":"2.0NRT","bright_ti5":"303.97","frp":"2.18","daynight":"D","commune":"Marcq","code_insee":"08274","departement":"Ardennes","region":"Grand Est"}},{"type":"Feature","geometry":{"type":"Point","coordinates":[2.27347,51.02783]},"properties":{"latitude":"51.02783","longitude":"2.27347","bright_ti4":"339.04","scan":"0.4","track":"0.37","acq_date":"2026-06-20","acq_time":"1232","satellite":"N","instrument":"VIIRS","confidence":"n","version":"2.0NRT","bright_ti5":"300.32","frp":"3.34","daynight":"D","commune":"Grande-Synthe","code_insee":"59271","departement":"Nord","region":"Hauts-de-France"}},{"type":"Feature","geometry":{"type":"Point","coordinates":[2.29875,51.04669]},"properties":{"latitude":"51.04669","longitude":"2.29875","bright_ti4":"331.89","scan":"0.4","track":"0.37","acq_date":"2026-06-20","acq_time":"1232","satellite":"N","instrument":"VIIRS","confidence":"n","version":"2.0NRT","bright_ti5":"291.13","frp":"10.82","daynight":"D","commune":"Grande-Synthe","code_insee":"59271","departement":"Nord","region":"Hauts-de-France"}},{"type":"Feature","geometry":{"type":"Point","coordinates":[4.9267,49.32334]},"properties":{"latitude":"49.32334","longitude":"4.9267","bright_ti4":"328.74","scan":"0.54","track":"0.42","acq_date":"2026-06-20","acq_time":"122","satellite":"N20","instrument":"VIIRS","confidence":"n","version":"2.0NRT","bright_ti5":"288.93","frp":"5.71","daynight":"N","commune":"Marcq","code_insee":"08274","departement":"Ardennes","region":"Grand Est"}},{"type":"Feature","geometry":{"type":"Point","coordinates":[2.15679,49.73804]},"properties":{"latitude":"49.73804","longitude":"2.15679","bright_ti4":"299.03","scan":"0.47","track":"0.48","acq_date":"2026-06-20","acq_time":"122","satellite":"N20","instrument":"VIIRS","confidence":"n","version":"2.0NRT","bright_ti5":"286.69","frp":"0.84","daynight":"N","commune":"Conty","code_insee":"80211","departement":"Somme","region":"Hauts-de-France"}},{"type":"Feature","geometry":{"type":"Point","coordinates":[2.27521,51.03094]},"properties":{"latitude":"51.03094","longitude":"2.27521","bright_ti4":"300.31","scan":"0.48","track":"0.48","acq_date":"2026-06-20","acq_time":"122","satellite":"N20","instrument":"VIIRS","confidence":"n","version":"2.0NRT","bright_ti5":"287.04","frp":"1.34","daynight":"N","commune":"Grande-Synthe","code_insee":"59271","departement":"Nord","region":"Hauts-de-France"}},{"type":"Feature","geometry":{"type":"Point","coordinates":[2.28994,51.03442]},"properties":{"latitude":"51.03442","longitude":"2.28994","bright_ti4":"326.36","scan":"0.48","track":"0.48","acq_date":"2026-06-20","acq_time":"122","satellite":"N20","instrument":"VIIRS","confidence":"n","version":"2.0NRT","bright_ti5":"288.69","frp":"2.04","daynight":"N","commune":"Grande-Synthe","code_insee":"59271","departement":"Nord","region":"Hauts-de-France"}},{"type":"Feature","geometry":{"type":"Point","coordinates":[2.29072,51.03888]},"properties":{"latitude":"51.03888","longitude":"2.29072","bright_ti4":"298.57","scan":"0.48","track":"0.48","acq_date":"2026-06-20","acq_time":"122","satellite":"N20","instrument":"VIIRS","confidence":"n","version":"2.0NRT","bright_ti5":"287.08","frp":"2.04","daynight":"N","commune":"Grande-Synthe","code_insee":"59271","departement":"Nord","region":"Hauts-de-France"}},{"type":"Feature","geometry":{"type":"Point","coordinates":[2.28375,51.03936]},"properties":{"latitude":"51.03936","longitude":"2.28375","bright_ti4":"315.65","scan":"0.48","track":"0.48","acq_date":"2026-06-20","acq_time":"122","satellite":"N20","instrument":"VIIRS","confidence":"n","version":"2.0NRT","bright_ti5":"286.82","frp":"2.88","daynight":"N","commune":"Grande-Synthe","code_insee":"59271","departement":"Nord","region":"Hauts-de-France"}},{"type":"Feature","geometry":{"type":"Point","coordinates":[2.29848,51.04284]},"properties":{"latitude":"51.04284","longitude":"2.29848","bright_ti4":"311.17","scan":"0.48","track":"0.48","acq_date":"2026-06-20","acq_time":"122","satellite":"N20","instrument":"VIIRS","confidence":"n","version":"2.0NRT","bright_ti5":"288.55","frp":"4.17","daynight":"N","commune":"Grande-Synthe","code_insee":"59271","departement":"Nord","region":"Hauts-de-France"}},{"type":"Feature","geometry":{"type":"Point","coordinates":[2.29927,51.04729]},"properties":{"latitude":"51.04729","longitude":"2.29927","bright_ti4":"337.4","scan":"0.48","track":"0.48","acq_date":"2026-06-20","acq_time":"122","satellite":"N20","instrument":"VIIRS","confidence":"n","version":"2.0NRT","bright_ti5":"287.57","frp":"4.17","daynight":"N","commune":"Grande-Synthe","code_insee":"59271","departement":"Nord","region":"Hauts-de-France"}},{"type":"Feature","geometry":{"type":"Point","coordinates":[5.31971,43.38639]},"properties":{"latitude":"43.38639","longitude":"5.31971","bright_ti4":"302.43","scan":"0.45","track":"0.39","acq_date":"2026-06-20","acq_time":"124","satellite":"N20","instrument":"VIIRS","confidence":"n","version":"2.0NRT","bright_ti5":"290.87","frp":"0.46","daynight":"N","commune":"Les Pennes-Mirabeau","code_insee":"13071","departement":"Bouches-du-Rhône","region":"Provence-Alpes-Côte d'Azur"}},{"type":"Feature","geometry":{"type":"Point","coordinates":[4.89848,43.43384]},"properties":{"latitude":"43.43384","longitude":"4.89848","bright_ti4":"304.46","scan":"0.47","track":"0.4","acq_date":"2026-06-20","acq_time":"124","satellite":"N20","instrument":"VIIRS","confidence":"n","version":"2.0NRT","bright_ti5":"292.42","frp":"1.05","daynight":"N","commune":"Fos-sur-Mer","code_insee":"13039","departement":"Bouches-du-Rhône","region":"Provence-Alpes-Côte d'Azur"}},{"type":"Feature","geometry":{"type":"Point","coordinates":[4.89353,43.43815]},"properties":{"latitude":"43.43815","longitude":"4.89353","bright_ti4":"309.29","scan":"0.47","track":"0.4","acq_date":"2026-06-20","acq_time":"124","satellite":"N20","instrument":"VIIRS","confidence":"n","version":"2.0NRT","bright_ti5":"292.16","frp":"1.05","daynight":"N","commune":"Fos-sur-Mer","code_insee":"13039","departement":"Bouches-du-Rhône","region":"Provence-Alpes-Côte d'Azur"}},{"type":"Feature","geometry":{"type":"Point","coordinates":[4.88196,43.43953]},"properties":{"latitude":"43.43953","longitude":"4.88196","bright_ti4":"302.63","scan":"0.47","track":"0.4","acq_date":"2026-06-20","acq_time":"124","satellite":"N20","instrument":"VIIRS","confidence":"n","version":"2.0NRT","bright_ti5":"291.96","frp":"1.8","daynight":"N","commune":"Fos-sur-Mer","code_insee":"13039","departement":"Bouches-du-Rhône","region":"Provence-Alpes-Côte d'Azur"}},{"type":"Feature","geometry":{"type":"Point","coordinates":[4.85303,43.44298]},"properties":{"latitude":"43.44298","longitude":"4.85303","bright_ti4":"301.46","scan":"0.47","track":"0.4","acq_date":"2026-06-20","acq_time":"124","satellite":"N20","instrument":"VIIRS","confidence":"n","version":"2.0NRT","bright_ti5":"291.4","frp":"0.81","daynight":"N","commune":"Fos-sur-Mer","code_insee":"13039","departement":"Bouches-du-Rhône","region":"Provence-Alpes-Côte d'Azur"}},{"type":"Feature","geometry":{"type":"Point","coordinates":[4.87699,43.44384]},"properties":{"latitude":"43.44384","longitude":"4.87699","bright_ti4":"327.13","scan":"0.47","track":"0.4","acq_date":"2026-06-20","acq_time":"124","satellite":"N20","instrument":"VIIRS","confidence":"n","version":"2.0NRT","bright_ti5":"289.23","frp":"2.46","daynight":"N","commune":"Fos-sur-Mer","code_insee":"13039","departement":"Bouches-du-Rhône","region":"Provence-Alpes-Côte d'Azur"}},{"type":"Feature","geometry":{"type":"Point","coordinates":[4.90091,43.44469]},"properties":{"latitude":"43.44469","longitude":"4.90091","bright_ti4":"333.48","scan":"0.47","track":"0.4","acq_date":"2026-06-20","acq_time":"124","satellite":"N20","instrument":"VIIRS","confidence":"n","version":"2.0NRT","bright_ti5":"293.2","frp":"5.21","daynight":"N","commune":"Fos-sur-Mer","code_insee":"13039","departement":"Bouches-du-Rhône","region":"Provence-Alpes-Côte d'Azur"}},{"type":"Feature","geometry":{"type":"Point","coordinates":[4.90233,43.44481]},"properties":{"latitude":"43.44481","longitude":"4.90233","bright_ti4":"317.51","scan":"0.47","track":"0.4","acq_date":"2026-06-20","acq_time":"124","satellite":"N20","instrument":"VIIRS","confidence":"n","version":"2.0NRT","bright_ti5":"292.08","frp":"2.27","daynight":"N","commune":"Fos-sur-Mer","code_insee":"13039","departement":"Bouches-du-Rhône","region":"Provence-Alpes-Côte d'Azur"}},{"type":"Feature","geometry":{"type":"Point","coordinates":[4.89656,43.44548]},"properties":{"latitude":"43.44548","longitude":"4.89656","bright_ti4":"326.36","scan":"0.47","track":"0.4","acq_date":"2026-06-20","acq_time":"124","satellite":"N20","instrument":"VIIRS","confidence":"n","version":"2.0NRT","bright_ti5":"292.65","frp":"1.61","daynight":"N","commune":"Fos-sur-Mer","code_insee":"13039","departement":"Bouches-du-Rhône","region":"Provence-Alpes-Côte d'Azur"}},{"type":"Feature","geometry":{"type":"Point","coordinates":[4.88936,43.44608]},"properties":{"latitude":"43.44608","longitude":"4.88936","bright_ti4":"302.84","scan":"0.47","track":"0.4","acq_date":"2026-06-20","acq_time":"124","satellite":"N20","instrument":"VIIRS","confidence":"n","version":"2.0NRT","bright_ti5":"290.31","frp":"2.89","daynight":"N","commune":"Fos-sur-Mer","code_insee":"13039","departement":"Bouches-du-Rhône","region":"Provence-Alpes-Côte d'Azur"}},{"type":"Feature","geometry":{"type":"Point","coordinates":[4.89077,43.44615]},"properties":{"latitude":"43.44615","longitude":"4.89077","bright_ti4":"304.08","scan":"0.47","track":"0.4","acq_date":"2026-06-20","acq_time":"124","satellite":"N20","instrument":"VIIRS","confidence":"n","version":"2.0NRT","bright_ti5":"290.3","frp":"1.61","daynight":"N","commune":"Fos-sur-Mer","code_insee":"13039","departement":"Bouches-du-Rhône","region":"Provence-Alpes-Côte d'Azur"}},{"type":"Feature","geometry":{"type":"Point","coordinates":[4.89595,43.449]},"properties":{"latitude":"43.449","longitude":"4.89595","bright_ti4":"312.38","scan":"0.47","track":"0.4","acq_date":"2026-06-20","acq_time":"124","satellite":"N20","instrument":"VIIRS","confidence":"n","version":"2.0NRT","bright_ti5":"290.56","frp":"1.39","daynight":"N","commune":"Fos-sur-Mer","code_insee":"13039","departement":"Bouches-du-Rhône","region":"Provence-Alpes-Côte d'Azur"}},{"type":"Feature","geometry":{"type":"Point","coordinates":[4.89736,43.4491]},"properties":{"latitude":"43.4491","longitude":"4.89736","bright_ti4":"311.01","scan":"0.47","track":"0.4","acq_date":"2026-06-20","acq_time":"124","satellite":"N20","instrument":"VIIRS","confidence":"n","version":"2.0NRT","bright_ti5":"290.51","frp":"1.61","daynight":"N","commune":"Fos-sur-Mer","code_insee":"13039","departement":"Bouches-du-Rhône","region":"Provence-Alpes-Côte d'Azur"}},{"type":"Feature","geometry":{"type":"Point","coordinates":[7.37488,43.79526]},"properties":{"latitude":"43.79526","longitude":"7.37488","bright_ti4":"313.52","scan":"0.4","track":"0.37","acq_date":"2026-06-20","acq_time":"124","satellite":"N20","instrument":"VIIRS","confidence":"n","version":"2.0NRT","bright_ti5":"293.77","frp":"0.94","daynight":"N","commune":"Blausasc","code_insee":"06019","departement":"Alpes-Maritimes","region":"Provence-Alpes-Côte d'Azur"}},{"type":"Feature","geometry":{"type":"Point","coordinates":[2.98143,48.38875]},"properties":{"latitude":"48.38875","longitude":"2.98143","bright_ti4":"308.2","scan":"0.42","track":"0.45","acq_date":"2026-06-20","acq_time":"124","satellite":"N20","instrument":"VIIRS","confidence":"n","version":"2.0NRT","bright_ti5":"292.04","frp":"0.91","daynight":"N","commune":"Montereau-Fault-Yonne","code_insee":"77305","departement":"Seine-et-Marne","region":"Île-de-France"}},{"type":"Feature","geometry":{"type":"Point","coordinates":[1.76409,48.98396]},"properties":{"latitude":"48.98396","longitude":"1.76409","bright_ti4":"311.14","scan":"0.49","track":"0.48","acq_date":"2026-06-20","acq_time":"124","satellite":"N20","instrument":"VIIRS","confidence":"n","version":"2.0NRT","bright_ti5":"291.13","frp":"1.21","daynight":"N","commune":"Porcheville","code_insee":"78501","departement":"Yvelines","region":"Île-de-France"}},{"type":"Feature","geometry":{"type":"Point","coordinates":[1.76411,48.98625]},"properties":{"latitude":"48.98625","longitude":"1.76411","bright_ti4":"308.49","scan":"0.49","track":"0.48","acq_date":"2026-06-20","acq_time":"124","satellite":"N20","instrument":"VIIRS","confidence":"n","version":"2.0NRT","bright_ti5":"290.31","frp":"2.27","daynight":"N","commune":"Porcheville","code_insee":"78501","departement":"Yvelines","region":"Île-de-France"}},{"type":"Feature","geometry":{"type":"Point","coordinates":[0.53317,49.4766]},"properties":{"latitude":"49.4766","longitude":"0.53317","bright_ti4":"306.27","scan":"0.56","track":"0.51","acq_date":"2026-06-20","acq_time":"124","satellite":"N20","instrument":"VIIRS","confidence":"n","version":"2.0NRT","bright_ti5":"288.58","frp":"1.63","daynight":"N","commune":"Lillebonne","code_insee":"76384","departement":"Seine-Maritime","region":"Normandie"}},{"type":"Feature","geometry":{"type":"Point","coordinates":[8.80574,41.95174]},"properties":{"latitude":"41.95174","longitude":"8.80574","bright_ti4":"302.94","scan":"0.38","track":"0.36","acq_date":"2026-06-20","acq_time":"126","satellite":"N20","instrument":"VIIRS","confidence":"n","version":"2.0NRT","bright_ti5":"292.19","frp":"0.7","daynight":"N","commune":"Sarrola-Carcopino","code_insee":"2A271","departement":"Corse-du-Sud","region":"Corse"}},{"type":"Feature","geometry":{"type":"Point","coordinates":[3.55987,50.40178]},"properties":{"latitude":"50.40178","longitude":"3.55987","bright_ti4":"302.9","scan":"0.43","track":"0.62","acq_date":"2026-06-20","acq_time":"302","satellite":"N20","instrument":"VIIRS","confidence":"n","version":"2.0NRT","bright_ti5":"285.53","frp":"0.88","daynight":"N","commune":"Saint-Saulve","code_insee":"59544","departement":"Nord","region":"Hauts-de-France"}},{"type":"Feature","geometry":{"type":"Point","coordinates":[2.27373,51.02961]},"properties":{"latitude":"51.02961","longitude":"2.27373","bright_ti4":"326.48","scan":"0.36","track":"0.58","acq_date":"2026-06-20","acq_time":"302","satellite":"N20","instrument":"VIIRS","confidence":"n","version":"2.0NRT","bright_ti5":"288.77","frp":"2.09","daynight":"N","commune":"Grande-Synthe","code_insee":"59271","departement":"Nord","region":"Hauts-de-France"}},{"type":"Feature","geometry":{"type":"Point","coordinates":[2.27525,51.02989]},"properties":{"latitude":"51.02989","longitude":"2.27525","bright_ti4":"320.92","scan":"0.36","track":"0.58","acq_date":"2026-06-20","acq_time":"302","satellite":"N20","instrument":"VIIRS","confidence":"n","version":"2.0NRT","bright_ti5":"288.29","frp":"2.72","daynight":"N","commune":"Grande-Synthe","code_insee":"59271","departement":"Nord","region":"Hauts-de-France"}},{"type":"Feature","geometry":{"type":"Point","coordinates":[2.29058,51.03632]},"properties":{"latitude":"51.03632","longitude":"2.29058","bright_ti4":"324.12","scan":"0.37","track":"0.58","acq_date":"2026-06-20","acq_time":"302","satellite":"N20","instrument":"VIIRS","confidence":"n","version":"2.0NRT","bright_ti5":"289.48","frp":"2.2","daynight":"N","commune":"Grande-Synthe","code_insee":"59271","departement":"Nord","region":"Hauts-de-France"}},{"type":"Feature","geometry":{"type":"Point","coordinates":[2.29429,51.04113]},"properties":{"latitude":"51.04113","longitude":"2.29429","bright_ti4":"302.54","scan":"0.37","track":"0.58","acq_date":"2026-06-20","acq_time":"302","satellite":"N20","instrument":"VIIRS","confidence":"n","version":"2.0NRT","bright_ti5":"288.61","frp":"1.84","daynight":"N","commune":"Grande-Synthe","code_insee":"59271","departement":"Nord","region":"Hauts-de-France"}},{"type":"Feature","geometry":{"type":"Point","coordinates":[2.30274,51.04448]},"properties":{"latitude":"51.04448","longitude":"2.30274","bright_ti4":"309.51","scan":"0.37","track":"0.58","acq_date":"2026-06-20","acq_time":"302","satellite":"N20","instrument":"VIIRS","confidence":"n","version":"2.0NRT","bright_ti5":"289.79","frp":"1.84","daynight":"N","commune":"Grande-Synthe","code_insee":"59271","departement":"Nord","region":"Hauts-de-France"}},{"type":"Feature","geometry":{"type":"Point","coordinates":[2.32063,51.04493]},"properties":{"latitude":"51.04493","longitude":"2.32063","bright_ti4":"297.53","scan":"0.37","track":"0.58","acq_date":"2026-06-20","acq_time":"302","satellite":"N20","instrument":"VIIRS","confidence":"n","version":"2.0NRT","bright_ti5":"287.35","frp":"0.49","daynight":"N","commune":"Dunkerque","code_insee":"59183","departement":"Nord","region":"Hauts-de-France"}},{"type":"Feature","geometry":{"type":"Point","coordinates":[2.29802,51.04594]},"properties":{"latitude":"51.04594","longitude":"2.29802","bright_ti4":"342.19","scan":"0.37","track":"0.58","acq_date":"2026-06-20","acq_time":"302","satellite":"N20","instrument":"VIIRS","confidence":"n","version":"2.0NRT","bright_ti5":"289.44","frp":"1.84","daynight":"N","commune":"Grande-Synthe","code_insee":"59271","departement":"Nord","region":"Hauts-de-France"}},{"type":"Feature","geometry":{"type":"Point","coordinates":[2.32443,51.04972]},"properties":{"latitude":"51.04972","longitude":"2.32443","bright_ti4":"304.88","scan":"0.37","track":"0.58","acq_date":"2026-06-20","acq_time":"302","satellite":"N20","instrument":"VIIRS","confidence":"n","version":"2.0NRT","bright_ti5":"288.72","frp":"0.49","daynight":"N","commune":"Dunkerque","code_insee":"59183","departement":"Nord","region":"Hauts-de-France"}},{"type":"Feature","geometry":{"type":"Point","coordinates":[4.56333,48.77136]},"properties":{"latitude":"48.77136","longitude":"4.56333","bright_ti4":"297.09","scan":"0.54","track":"0.68","acq_date":"2026-06-20","acq_time":"304","satellite":"N20","instrument":"VIIRS","confidence":"n","version":"2.0NRT","bright_ti5":"285.98","frp":"1.17","daynight":"N","commune":"Soulanges","code_insee":"51557","departement":"Marne","region":"Grand Est"}},{"type":"Feature","geometry":{"type":"Point","coordinates":[1.76293,48.98607]},"properties":{"latitude":"48.98607","longitude":"1.76293","bright_ti4":"312.56","scan":"0.41","track":"0.6","acq_date":"2026-06-20","acq_time":"304","satellite":"N20","instrument":"VIIRS","confidence":"n","version":"2.0NRT","bright_ti5":"289.66","frp":"1.16","daynight":"N","commune":"Porcheville","code_insee":"78501","departement":"Yvelines","region":"Île-de-France"}},{"type":"Feature","geometry":{"type":"Point","coordinates":[4.92469,49.32263]},"properties":{"latitude":"49.32263","longitude":"4.92469","bright_ti4":"305.96","scan":"0.53","track":"0.67","acq_date":"2026-06-20","acq_time":"304","satellite":"N20","instrument":"VIIRS","confidence":"n","version":"2.0NRT","bright_ti5":"283.85","frp":"0.97","daynight":"N","commune":"Marcq","code_insee":"08274","departement":"Ardennes","region":"Grand Est"}},{"type":"Feature","geometry":{"type":"Point","coordinates":[4.92366,49.32291]},"properties":{"latitude":"49.32291","longitude":"4.92366","bright_ti4":"298.24","scan":"0.53","track":"0.67","acq_date":"2026-06-20","acq_time":"304","satellite":"N20","instrument":"VIIRS","confidence":"n","version":"2.0NRT","bright_ti5":"283.81","frp":"1.15","daynight":"N","commune":"Marcq","code_insee":"08274","departement":"Ardennes","region":"Grand Est"}},{"type":"Feature","geometry":{"type":"Point","coordinates":[0.53501,49.4768]},"properties":{"latitude":"49.4768","longitude":"0.53501","bright_ti4":"306.55","scan":"0.35","track":"0.57","acq_date":"2026-06-20","acq_time":"304","satellite":"N20","instrument":"VIIRS","confidence":"n","version":"2.0NRT","bright_ti5":"287.51","frp":"0.8","daynight":"N","commune":"Port-Jérôme-sur-Seine","code_insee":"76476","departement":"Seine-Maritime","region":"Normandie"}},{"type":"Feature","geometry":{"type":"Point","coordinates":[3.48941,50.33135]},"properties":{"latitude":"50.33135","longitude":"3.48941","bright_ti4":"297.35","scan":"0.43","track":"0.62","acq_date":"2026-06-20","acq_time":"304","satellite":"N20","instrument":"VIIRS","confidence":"n","version":"2.0NRT","bright_ti5":"285.56","frp":"0.48","daynight":"N","commune":"Trith-Saint-Léger","code_insee":"59603","departement":"Nord","region":"Hauts-de-France"}},{"type":"Feature","geometry":{"type":"Point","coordinates":[3.49349,50.33645]},"properties":{"latitude":"50.33645","longitude":"3.49349","bright_ti4":"297.18","scan":"0.43","track":"0.62","acq_date":"2026-06-20","acq_time":"304","satellite":"N20","instrument":"VIIRS","confidence":"n","version":"2.0NRT","bright_ti5":"285.73","frp":"0.48","daynight":"N","commune":"Trith-Saint-Léger","code_insee":"59603","departement":"Nord","region":"Hauts-de-France"}},{"type":"Feature","geometry":{"type":"Point","coordinates":[6.0575,43.15746]},"properties":{"latitude":"43.15746","longitude":"6.0575","bright_ti4":"338.65","scan":"0.47","track":"0.39","acq_date":"2026-06-20","acq_time":"1246","satellite":"N20","instrument":"VIIRS","confidence":"l","version":"2.0NRT","bright_ti5":"309.61","frp":"1.89","daynight":"D","commune":"La Farlède","code_insee":"83054","departement":"Var","region":"Provence-Alpes-Côte d'Azur"}},{"type":"Feature","geometry":{"type":"Point","coordinates":[5.01499,43.37962]},"properties":{"latitude":"43.37962","longitude":"5.01499","bright_ti4":"337.52","scan":"0.43","track":"0.38","acq_date":"2026-06-20","acq_time":"1249","satellite":"N20","instrument":"VIIRS","confidence":"l","version":"2.0NRT","bright_ti5":"309.36","frp":"3.5","daynight":"D","commune":"Martigues","code_insee":"13056","departement":"Bouches-du-Rhône","region":"Provence-Alpes-Côte d'Azur"}},{"type":"Feature","geometry":{"type":"Point","coordinates":[5.11106,43.3914]},"properties":{"latitude":"43.3914","longitude":"5.11106","bright_ti4":"337.54","scan":"0.44","track":"0.38","acq_date":"2026-06-20","acq_time":"1249","satellite":"N20","instrument":"VIIRS","confidence":"l","version":"2.0NRT","bright_ti5":"311.57","frp":"11.14","daynight":"D","commune":"Châteauneuf-les-Martigues","code_insee":"13026","departement":"Bouches-du-Rhône","region":"Provence-Alpes-Côte d'Azur"}},{"type":"Feature","geometry":{"type":"Point","coordinates":[4.68895,43.64949]},"properties":{"latitude":"43.64949","longitude":"4.68895","bright_ti4":"335.11","scan":"0.43","track":"0.38","acq_date":"2026-06-20","acq_time":"1249","satellite":"N20","instrument":"VIIRS","confidence":"l","version":"2.0NRT","bright_ti5":"306.18","frp":"5","daynight":"D","commune":"Arles","code_insee":"13004","departement":"Bouches-du-Rhône","region":"Provence-Alpes-Côte d'Azur"}},{"type":"Feature","geometry":{"type":"Point","coordinates":[1.91184,43.84679]},"properties":{"latitude":"43.84679","longitude":"1.91184","bright_ti4":"340.77","scan":"0.39","track":"0.36","acq_date":"2026-06-20","acq_time":"1249","satellite":"N20","instrument":"VIIRS","confidence":"n","version":"2.0NRT","bright_ti5":"308.71","frp":"3.41","daynight":"D","commune":"Montans","code_insee":"81171","departement":"Tarn","region":"Occitanie"}},{"type":"Feature","geometry":{"type":"Point","coordinates":[2.46206,44.41046]},"properties":{"latitude":"44.41046","longitude":"2.46206","bright_ti4":"338.42","scan":"0.39","track":"0.36","acq_date":"2026-06-20","acq_time":"1249","satellite":"N20","instrument":"VIIRS","confidence":"l","version":"2.0NRT","bright_ti5":"312","frp":"2.95","daynight":"D","commune":"Druelle Balsac","code_insee":"12090","departement":"Aveyron","region":"Occitanie"}},{"type":"Feature","geometry":{"type":"Point","coordinates":[1.34723,44.6456]},"properties":{"latitude":"44.6456","longitude":"1.34723","bright_ti4":"339.09","scan":"0.38","track":"0.36","acq_date":"2026-06-20","acq_time":"1249","satellite":"N20","instrument":"VIIRS","confidence":"n","version":"2.0NRT","bright_ti5":"306","frp":"2.98","daynight":"D","commune":"Dégagnac","code_insee":"46087","departement":"Lot","region":"Occitanie"}},{"type":"Feature","geometry":{"type":"Point","coordinates":[1.1927,45.70128]},"properties":{"latitude":"45.70128","longitude":"1.1927","bright_ti4":"345.69","scan":"0.38","track":"0.36","acq_date":"2026-06-20","acq_time":"1249","satellite":"N20","instrument":"VIIRS","confidence":"n","version":"2.0NRT","bright_ti5":"304.8","frp":"10.83","daynight":"D","commune":"Nexon","code_insee":"87106","departement":"Haute-Vienne","region":"Nouvelle-Aquitaine"}},{"type":"Feature","geometry":{"type":"Point","coordinates":[0.87083,45.98761]},"properties":{"latitude":"45.98761","longitude":"0.87083","bright_ti4":"348.05","scan":"0.38","track":"0.36","acq_date":"2026-06-20","acq_time":"1249","satellite":"N20","instrument":"VIIRS","confidence":"n","version":"2.0NRT","bright_ti5":"308.62","frp":"13.67","daynight":"D","commune":"Montrollet","code_insee":"16231","departement":"Charente","region":"Nouvelle-Aquitaine"}},{"type":"Feature","geometry":{"type":"Point","coordinates":[0.95637,47.17856]},"properties":{"latitude":"47.17856","longitude":"0.95637","bright_ti4":"332.54","scan":"0.39","track":"0.36","acq_date":"2026-06-20","acq_time":"1249","satellite":"N20","instrument":"VIIRS","confidence":"n","version":"2.0NRT","bright_ti5":"306.98","frp":"5.67","daynight":"D","commune":"Chambourg-sur-Indre","code_insee":"37049","departement":"Indre-et-Loire","region":"Centre-Val de Loire"}},{"type":"Feature","geometry":{"type":"Point","coordinates":[0.96142,47.17929]},"properties":{"latitude":"47.17929","longitude":"0.96142","bright_ti4":"336.48","scan":"0.39","track":"0.36","acq_date":"2026-06-20","acq_time":"1249","satellite":"N20","instrument":"VIIRS","confidence":"n","version":"2.0NRT","bright_ti5":"306.52","frp":"6.06","daynight":"D","commune":"Chambourg-sur-Indre","code_insee":"37049","departement":"Indre-et-Loire","region":"Centre-Val de Loire"}},{"type":"Feature","geometry":{"type":"Point","coordinates":[0.7836,47.30017]},"properties":{"latitude":"47.30017","longitude":"0.7836","bright_ti4":"337.71","scan":"0.39","track":"0.36","acq_date":"2026-06-20","acq_time":"1249","satellite":"N20","instrument":"VIIRS","confidence":"n","version":"2.0NRT","bright_ti5":"303.88","frp":"2.05","daynight":"D","commune":"Esvres","code_insee":"37104","departement":"Indre-et-Loire","region":"Centre-Val de Loire"}},{"type":"Feature","geometry":{"type":"Point","coordinates":[1.7629,48.98236]},"properties":{"latitude":"48.98236","longitude":"1.7629","bright_ti4":"335.45","scan":"0.4","track":"0.37","acq_date":"2026-06-20","acq_time":"1249","satellite":"N20","instrument":"VIIRS","confidence":"n","version":"2.0NRT","bright_ti5":"300.23","frp":"2.54","daynight":"D","commune":"Porcheville","code_insee":"78501","departement":"Yvelines","region":"Île-de-France"}},{"type":"Feature","geometry":{"type":"Point","coordinates":[4.9264,49.32278]},"properties":{"latitude":"49.32278","longitude":"4.9264","bright_ti4":"312.14","scan":"0.68","track":"0.74","acq_date":"2026-06-20","acq_time":"28","satellite":"N21","instrument":"VIIRS","confidence":"n","version":"2.0NRT","bright_ti5":"287.22","frp":"1.89","daynight":"N","commune":"Marcq","code_insee":"08274","departement":"Ardennes","region":"Grand Est"}},{"type":"Feature","geometry":{"type":"Point","coordinates":[4.8926,43.43572]},"properties":{"latitude":"43.43572","longitude":"4.8926","bright_ti4":"303.7","scan":"0.66","track":"0.73","acq_date":"2026-06-20","acq_time":"30","satellite":"N21","instrument":"VIIRS","confidence":"n","version":"2.0NRT","bright_ti5":"289.7","frp":"3.27","daynight":"N","commune":"Fos-sur-Mer","code_insee":"13039","departement":"Bouches-du-Rhône","region":"Provence-Alpes-Côte d'Azur"}},{"type":"Feature","geometry":{"type":"Point","coordinates":[4.90079,43.44243]},"properties":{"latitude":"43.44243","longitude":"4.90079","bright_ti4":"299.75","scan":"0.66","track":"0.73","acq_date":"2026-06-20","acq_time":"30","satellite":"N21","instrument":"VIIRS","confidence":"n","version":"2.0NRT","bright_ti5":"288.59","frp":"3.08","daynight":"N","commune":"Fos-sur-Mer","code_insee":"13039","departement":"Bouches-du-Rhône","region":"Provence-Alpes-Côte d'Azur"}},{"type":"Feature","geometry":{"type":"Point","coordinates":[4.87607,43.44254]},"properties":{"latitude":"43.44254","longitude":"4.87607","bright_ti4":"316.73","scan":"0.66","track":"0.73","acq_date":"2026-06-20","acq_time":"30","satellite":"N21","instrument":"VIIRS","confidence":"n","version":"2.0NRT","bright_ti5":"288.24","frp":"4.67","daynight":"N","commune":"Fos-sur-Mer","code_insee":"13039","departement":"Bouches-du-Rhône","region":"Provence-Alpes-Côte d'Azur"}},{"type":"Feature","geometry":{"type":"Point","coordinates":[5.6665,45.23208]},"properties":{"latitude":"45.23208","longitude":"5.6665","bright_ti4":"299.96","scan":"0.61","track":"0.71","acq_date":"2026-06-20","acq_time":"30","satellite":"N21","instrument":"VIIRS","confidence":"n","version":"2.0NRT","bright_ti5":"289.24","frp":"0.61","daynight":"N","commune":"Saint-Égrève","code_insee":"38382","departement":"Isère","region":"Auvergne-Rhône-Alpes"}},{"type":"Feature","geometry":{"type":"Point","coordinates":[5.66587,45.23022]},"properties":{"latitude":"45.23022","longitude":"5.66587","bright_ti4":"304.67","scan":"0.43","track":"0.46","acq_date":"2026-06-20","acq_time":"211","satellite":"N21","instrument":"VIIRS","confidence":"n","version":"2.0NRT","bright_ti5":"290.92","frp":"1.1","daynight":"N","commune":"Saint-Égrève","code_insee":"38382","departement":"Isère","region":"Auvergne-Rhône-Alpes"}},{"type":"Feature","geometry":{"type":"Point","coordinates":[5.81855,45.91175]},"properties":{"latitude":"45.91175","longitude":"5.81855","bright_ti4":"300.6","scan":"0.42","track":"0.45","acq_date":"2026-06-20","acq_time":"211","satellite":"N21","instrument":"VIIRS","confidence":"n","version":"2.0NRT","bright_ti5":"290.12","frp":"0.48","daynight":"N","commune":"Anglefort","code_insee":"01010","departement":"Ain","region":"Auvergne-Rhône-Alpes"}},{"type":"Feature","geometry":{"type":"Point","coordinates":[-0.92364,47.13731]},"properties":{"latitude":"47.13731","longitude":"-0.92364","bright_ti4":"299.63","scan":"0.39","track":"0.36","acq_date":"2026-06-20","acq_time":"211","satellite":"N21","instrument":"VIIRS","confidence":"n","version":"2.0NRT","bright_ti5":"287.46","frp":"0.7","daynight":"N","commune":"Bégrolles-en-Mauges","code_insee":"49027","departement":"Maine-et-Loire","region":"Pays de la Loire"}},{"type":"Feature","geometry":{"type":"Point","coordinates":[7.23739,47.63028]},"properties":{"latitude":"47.63028","longitude":"7.23739","bright_ti4":"300.37","scan":"0.44","track":"0.46","acq_date":"2026-06-20","acq_time":"211","satellite":"N21","instrument":"VIIRS","confidence":"n","version":"2.0NRT","bright_ti5":"289.09","frp":"0.62","daynight":"N","commune":"Altkirch","code_insee":"68004","departement":"Haut-Rhin","region":"Grand Est"}},{"type":"Feature","geometry":{"type":"Point","coordinates":[-1.03505,48.10881]},"properties":{"latitude":"48.10881","longitude":"-1.03505","bright_ti4":"300.3","scan":"0.38","track":"0.36","acq_date":"2026-06-20","acq_time":"211","satellite":"N21","instrument":"VIIRS","confidence":"n","version":"2.0NRT","bright_ti5":"290.26","frp":"1.24","daynight":"N","commune":"Saint-Pierre-la-Cour","code_insee":"53247","departement":"Mayenne","region":"Pays de la Loire"}},{"type":"Feature","geometry":{"type":"Point","coordinates":[2.98058,48.38645]},"properties":{"latitude":"48.38645","longitude":"2.98058","bright_ti4":"310.82","scan":"0.44","track":"0.39","acq_date":"2026-06-20","acq_time":"211","satellite":"N21","instrument":"VIIRS","confidence":"n","version":"2.0NRT","bright_ti5":"293","frp":"1.96","daynight":"N","commune":"Montereau-Fault-Yonne","code_insee":"77305","departement":"Seine-et-Marne","region":"Île-de-France"}},{"type":"Feature","geometry":{"type":"Point","coordinates":[4.56359,48.76934]},"properties":{"latitude":"48.76934","longitude":"4.56359","bright_ti4":"303.74","scan":"0.49","track":"0.4","acq_date":"2026-06-20","acq_time":"211","satellite":"N21","instrument":"VIIRS","confidence":"n","version":"2.0NRT","bright_ti5":"291.39","frp":"1.41","daynight":"N","commune":"Couvrot","code_insee":"51195","departement":"Marne","region":"Grand Est"}},{"type":"Feature","geometry":{"type":"Point","coordinates":[2.15767,48.97543]},"properties":{"latitude":"48.97543","longitude":"2.15767","bright_ti4":"301.07","scan":"0.42","track":"0.37","acq_date":"2026-06-20","acq_time":"211","satellite":"N21","instrument":"VIIRS","confidence":"n","version":"2.0NRT","bright_ti5":"290.84","frp":"0.34","daynight":"N","commune":"Saint-Germain-en-Laye","code_insee":"78551","departement":"Yvelines","region":"Île-de-France"}},{"type":"Feature","geometry":{"type":"Point","coordinates":[1.75918,48.98386]},"properties":{"latitude":"48.98386","longitude":"1.75918","bright_ti4":"325.96","scan":"0.41","track":"0.37","acq_date":"2026-06-20","acq_time":"211","satellite":"N21","instrument":"VIIRS","confidence":"n","version":"2.0NRT","bright_ti5":"292.68","frp":"3.56","daynight":"N","commune":"Porcheville","code_insee":"78501","departement":"Yvelines","region":"Île-de-France"}},{"type":"Feature","geometry":{"type":"Point","coordinates":[4.92505,49.32162]},"properties":{"latitude":"49.32162","longitude":"4.92505","bright_ti4":"331.2","scan":"0.49","track":"0.4","acq_date":"2026-06-20","acq_time":"211","satellite":"N21","instrument":"VIIRS","confidence":"n","version":"2.0NRT","bright_ti5":"288.62","frp":"5.8","daynight":"N","commune":"Marcq","code_insee":"08274","departement":"Ardennes","region":"Grand Est"}},{"type":"Feature","geometry":{"type":"Point","coordinates":[0.53262,49.4757]},"properties":{"latitude":"49.4757","longitude":"0.53262","bright_ti4":"313.3","scan":"0.39","track":"0.36","acq_date":"2026-06-20","acq_time":"211","satellite":"N21","instrument":"VIIRS","confidence":"n","version":"2.0NRT","bright_ti5":"289.64","frp":"1.62","daynight":"N","commune":"Lillebonne","code_insee":"76384","departement":"Seine-Maritime","region":"Normandie"}},{"type":"Feature","geometry":{"type":"Point","coordinates":[2.15695,49.73729]},"properties":{"latitude":"49.73729","longitude":"2.15695","bright_ti4":"305.59","scan":"0.41","track":"0.37","acq_date":"2026-06-20","acq_time":"211","satellite":"N21","instrument":"VIIRS","confidence":"n","version":"2.0NRT","bright_ti5":"287.8","frp":"0.95","daynight":"N","commune":"Conty","code_insee":"80211","departement":"Somme","region":"Hauts-de-France"}},{"type":"Feature","geometry":{"type":"Point","coordinates":[1.74825,50.26669]},"properties":{"latitude":"50.26669","longitude":"1.74825","bright_ti4":"299.21","scan":"0.4","track":"0.37","acq_date":"2026-06-20","acq_time":"211","satellite":"N21","instrument":"VIIRS","confidence":"n","version":"2.0NRT","bright_ti5":"286.94","frp":"0.36","daynight":"N","commune":"Bernay-en-Ponthieu","code_insee":"80087","departement":"Somme","region":"Hauts-de-France"}},{"type":"Feature","geometry":{"type":"Point","coordinates":[3.49336,50.33658]},"properties":{"latitude":"50.33658","longitude":"3.49336","bright_ti4":"313.54","scan":"0.43","track":"0.38","acq_date":"2026-06-20","acq_time":"211","satellite":"N21","instrument":"VIIRS","confidence":"n","version":"2.0NRT","bright_ti5":"289.06","frp":"1.44","daynight":"N","commune":"Trith-Saint-Léger","code_insee":"59603","departement":"Nord","region":"Hauts-de-France"}},{"type":"Feature","geometry":{"type":"Point","coordinates":[3.5633,50.40188]},"properties":{"latitude":"50.40188","longitude":"3.5633","bright_ti4":"312.58","scan":"0.43","track":"0.38","acq_date":"2026-06-20","acq_time":"211","satellite":"N21","instrument":"VIIRS","confidence":"n","version":"2.0NRT","bright_ti5":"289.17","frp":"1.68","daynight":"N","commune":"Saint-Saulve","code_insee":"59544","departement":"Nord","region":"Hauts-de-France"}},{"type":"Feature","geometry":{"type":"Point","coordinates":[1.89791,50.97043]},"properties":{"latitude":"50.97043","longitude":"1.89791","bright_ti4":"300.15","scan":"0.4","track":"0.37","acq_date":"2026-06-20","acq_time":"211","satellite":"N21","instrument":"VIIRS","confidence":"n","version":"2.0NRT","bright_ti5":"287.83","frp":"0.54","daynight":"N","commune":"Calais","code_insee":"62193","departement":"Pas-de-Calais","region":"Hauts-de-France"}},{"type":"Feature","geometry":{"type":"Point","coordinates":[2.16698,51.01324]},"properties":{"latitude":"51.01324","longitude":"2.16698","bright_ti4":"302.43","scan":"0.4","track":"0.37","acq_date":"2026-06-20","acq_time":"211","satellite":"N21","instrument":"VIIRS","confidence":"n","version":"2.0NRT","bright_ti5":"288.08","frp":"0.43","daynight":"N","commune":"Gravelines","code_insee":"59273","departement":"Nord","region":"Hauts-de-France"}},{"type":"Feature","geometry":{"type":"Point","coordinates":[2.26873,51.02694]},"properties":{"latitude":"51.02694","longitude":"2.26873","bright_ti4":"327.5","scan":"0.4","track":"0.37","acq_date":"2026-06-20","acq_time":"211","satellite":"N21","instrument":"VIIRS","confidence":"n","version":"2.0NRT","bright_ti5":"289.61","frp":"2.73","daynight":"N","commune":"Grande-Synthe","code_insee":"59271","departement":"Nord","region":"Hauts-de-France"}},{"type":"Feature","geometry":{"type":"Point","coordinates":[2.25358,51.03316]},"properties":{"latitude":"51.03316","longitude":"2.25358","bright_ti4":"304.4","scan":"0.4","track":"0.37","acq_date":"2026-06-20","acq_time":"211","satellite":"N21","instrument":"VIIRS","confidence":"n","version":"2.0NRT","bright_ti5":"288.46","frp":"0.9","daynight":"N","commune":"Dunkerque","code_insee":"59183","departement":"Nord","region":"Hauts-de-France"}},{"type":"Feature","geometry":{"type":"Point","coordinates":[2.2898,51.03379]},"properties":{"latitude":"51.03379","longitude":"2.2898","bright_ti4":"321.95","scan":"0.4","track":"0.37","acq_date":"2026-06-20","acq_time":"211","satellite":"N21","instrument":"VIIRS","confidence":"n","version":"2.0NRT","bright_ti5":"289.85","frp":"1.79","daynight":"N","commune":"Grande-Synthe","code_insee":"59271","departement":"Nord","region":"Hauts-de-France"}},{"type":"Feature","geometry":{"type":"Point","coordinates":[2.29274,51.04034]},"properties":{"latitude":"51.04034","longitude":"2.29274","bright_ti4":"304.2","scan":"0.4","track":"0.37","acq_date":"2026-06-20","acq_time":"211","satellite":"N21","instrument":"VIIRS","confidence":"n","version":"2.0NRT","bright_ti5":"289.9","frp":"0.83","daynight":"N","commune":"Grande-Synthe","code_insee":"59271","departement":"Nord","region":"Hauts-de-France"}},{"type":"Feature","geometry":{"type":"Point","coordinates":[2.29516,51.04167]},"properties":{"latitude":"51.04167","longitude":"2.29516","bright_ti4":"327.59","scan":"0.4","track":"0.37","acq_date":"2026-06-20","acq_time":"211","satellite":"N21","instrument":"VIIRS","confidence":"n","version":"2.0NRT","bright_ti5":"291.41","frp":"4.43","daynight":"N","commune":"Grande-Synthe","code_insee":"59271","departement":"Nord","region":"Hauts-de-France"}},{"type":"Feature","geometry":{"type":"Point","coordinates":[2.28962,51.04267]},"properties":{"latitude":"51.04267","longitude":"2.28962","bright_ti4":"298.43","scan":"0.4","track":"0.37","acq_date":"2026-06-20","acq_time":"211","satellite":"N21","instrument":"VIIRS","confidence":"n","version":"2.0NRT","bright_ti5":"288.09","frp":"4.43","daynight":"N","commune":"Grande-Synthe","code_insee":"59271","departement":"Nord","region":"Hauts-de-France"}},{"type":"Feature","geometry":{"type":"Point","coordinates":[2.30218,51.04395]},"properties":{"latitude":"51.04395","longitude":"2.30218","bright_ti4":"302.8","scan":"0.4","track":"0.37","acq_date":"2026-06-20","acq_time":"211","satellite":"N21","instrument":"VIIRS","confidence":"n","version":"2.0NRT","bright_ti5":"288.46","frp":"0.98","daynight":"N","commune":"Grande-Synthe","code_insee":"59271","departement":"Nord","region":"Hauts-de-France"}},{"type":"Feature","geometry":{"type":"Point","coordinates":[2.29663,51.04494]},"properties":{"latitude":"51.04494","longitude":"2.29663","bright_ti4":"329.49","scan":"0.4","track":"0.37","acq_date":"2026-06-20","acq_time":"211","satellite":"N21","instrument":"VIIRS","confidence":"n","version":"2.0NRT","bright_ti5":"291.59","frp":"4.43","daynight":"N","commune":"Grande-Synthe","code_insee":"59271","departement":"Nord","region":"Hauts-de-France"}},{"type":"Feature","geometry":{"type":"Point","coordinates":[2.32177,51.0475]},"properties":{"latitude":"51.0475","longitude":"2.32177","bright_ti4":"309.14","scan":"0.4","track":"0.37","acq_date":"2026-06-20","acq_time":"211","satellite":"N21","instrument":"VIIRS","confidence":"n","version":"2.0NRT","bright_ti5":"290.75","frp":"2.01","daynight":"N","commune":"Dunkerque","code_insee":"59183","departement":"Nord","region":"Hauts-de-France"}},{"type":"Feature","geometry":{"type":"Point","coordinates":[4.89348,43.43133]},"properties":{"latitude":"43.43133","longitude":"4.89348","bright_ti4":"302.87","scan":"0.44","track":"0.46","acq_date":"2026-06-20","acq_time":"213","satellite":"N21","instrument":"VIIRS","confidence":"n","version":"2.0NRT","bright_ti5":"291.9","frp":"2.1","daynight":"N","commune":"Fos-sur-Mer","code_insee":"13039","departement":"Bouches-du-Rhône","region":"Provence-Alpes-Côte d'Azur"}},{"type":"Feature","geometry":{"type":"Point","coordinates":[4.89527,43.43539]},"properties":{"latitude":"43.43539","longitude":"4.89527","bright_ti4":"302.54","scan":"0.44","track":"0.46","acq_date":"2026-06-20","acq_time":"213","satellite":"N21","instrument":"VIIRS","confidence":"n","version":"2.0NRT","bright_ti5":"290.94","frp":"0.7","daynight":"N","commune":"Fos-sur-Mer","code_insee":"13039","departement":"Bouches-du-Rhône","region":"Provence-Alpes-Côte d'Azur"}},{"type":"Feature","geometry":{"type":"Point","coordinates":[4.89008,43.43657]},"properties":{"latitude":"43.43657","longitude":"4.89008","bright_ti4":"304.01","scan":"0.44","track":"0.46","acq_date":"2026-06-20","acq_time":"213","satellite":"N21","instrument":"VIIRS","confidence":"n","version":"2.0NRT","bright_ti5":"291.2","frp":"1.56","daynight":"N","commune":"Fos-sur-Mer","code_insee":"13039","departement":"Bouches-du-Rhône","region":"Provence-Alpes-Côte d'Azur"}},{"type":"Feature","geometry":{"type":"Point","coordinates":[4.88492,43.43776]},"properties":{"latitude":"43.43776","longitude":"4.88492","bright_ti4":"301.5","scan":"0.44","track":"0.46","acq_date":"2026-06-20","acq_time":"213","satellite":"N21","instrument":"VIIRS","confidence":"n","version":"2.0NRT","bright_ti5":"291.03","frp":"1.56","daynight":"N","commune":"Fos-sur-Mer","code_insee":"13039","departement":"Bouches-du-Rhône","region":"Provence-Alpes-Côte d'Azur"}},{"type":"Feature","geometry":{"type":"Point","coordinates":[4.88155,43.44299]},"properties":{"latitude":"43.44299","longitude":"4.88155","bright_ti4":"302.25","scan":"0.44","track":"0.46","acq_date":"2026-06-20","acq_time":"213","satellite":"N21","instrument":"VIIRS","confidence":"n","version":"2.0NRT","bright_ti5":"290.18","frp":"2.57","daynight":"N","commune":"Fos-sur-Mer","code_insee":"13039","departement":"Bouches-du-Rhône","region":"Provence-Alpes-Côte d'Azur"}},{"type":"Feature","geometry":{"type":"Point","coordinates":[4.89886,43.44349]},"properties":{"latitude":"43.44349","longitude":"4.89886","bright_ti4":"338.37","scan":"0.44","track":"0.46","acq_date":"2026-06-20","acq_time":"213","satellite":"N21","instrument":"VIIRS","confidence":"n","version":"2.0NRT","bright_ti5":"293.06","frp":"5.6","daynight":"N","commune":"Fos-sur-Mer","code_insee":"13039","departement":"Bouches-du-Rhône","region":"Provence-Alpes-Côte d'Azur"}},{"type":"Feature","geometry":{"type":"Point","coordinates":[4.87639,43.44417]},"properties":{"latitude":"43.44417","longitude":"4.87639","bright_ti4":"319.44","scan":"0.44","track":"0.46","acq_date":"2026-06-20","acq_time":"213","satellite":"N21","instrument":"VIIRS","confidence":"n","version":"2.0NRT","bright_ti5":"289.09","frp":"2.57","daynight":"N","commune":"Fos-sur-Mer","code_insee":"13039","departement":"Bouches-du-Rhône","region":"Provence-Alpes-Côte d'Azur"}},{"type":"Feature","geometry":{"type":"Point","coordinates":[4.89548,43.44873]},"properties":{"latitude":"43.44873","longitude":"4.89548","bright_ti4":"306.78","scan":"0.44","track":"0.46","acq_date":"2026-06-20","acq_time":"213","satellite":"N21","instrument":"VIIRS","confidence":"n","version":"2.0NRT","bright_ti5":"289.67","frp":"2.96","daynight":"N","commune":"Fos-sur-Mer","code_insee":"13039","departement":"Bouches-du-Rhône","region":"Provence-Alpes-Côte d'Azur"}},{"type":"Feature","geometry":{"type":"Point","coordinates":[1.22695,43.98652]},"properties":{"latitude":"43.98652","longitude":"1.22695","bright_ti4":"301","scan":"0.46","track":"0.39","acq_date":"2026-06-20","acq_time":"213","satellite":"N21","instrument":"VIIRS","confidence":"n","version":"2.0NRT","bright_ti5":"289.06","frp":"0.56","daynight":"N","commune":"Montech","code_insee":"82125","departement":"Tarn-et-Garonne","region":"Occitanie"}},{"type":"Feature","geometry":{"type":"Point","coordinates":[4.89647,43.44632]},"properties":{"latitude":"43.44632","longitude":"4.89647","bright_ti4":"340.45","scan":"0.51","track":"0.5","acq_date":"2026-06-20","acq_time":"1155","satellite":"N21","instrument":"VIIRS","confidence":"n","version":"2.0NRT","bright_ti5":"309.5","frp":"8.38","daynight":"D","commune":"Fos-sur-Mer","code_insee":"13039","departement":"Bouches-du-Rhône","region":"Provence-Alpes-Côte d'Azur"}},{"type":"Feature","geometry":{"type":"Point","coordinates":[4.73439,43.61784]},"properties":{"latitude":"43.61784","longitude":"4.73439","bright_ti4":"340.91","scan":"0.52","track":"0.5","acq_date":"2026-06-20","acq_time":"1155","satellite":"N21","instrument":"VIIRS","confidence":"n","version":"2.0NRT","bright_ti5":"302.67","frp":"11.66","daynight":"D","commune":"Arles","code_insee":"13004","departement":"Bouches-du-Rhône","region":"Provence-Alpes-Côte d'Azur"}},{"type":"Feature","geometry":{"type":"Point","coordinates":[7.43256,47.73721]},"properties":{"latitude":"47.73721","longitude":"7.43256","bright_ti4":"336.89","scan":"0.48","track":"0.4","acq_date":"2026-06-20","acq_time":"1155","satellite":"N21","instrument":"VIIRS","confidence":"l","version":"2.0NRT","bright_ti5":"309.1","frp":"6.37","daynight":"D","commune":"Habsheim","code_insee":"68118","departement":"Haut-Rhin","region":"Grand Est"}},{"type":"Feature","geometry":{"type":"Point","coordinates":[7.4388,47.73848]},"properties":{"latitude":"47.73848","longitude":"7.4388","bright_ti4":"346.37","scan":"0.48","track":"0.4","acq_date":"2026-06-20","acq_time":"1155","satellite":"N21","instrument":"VIIRS","confidence":"n","version":"2.0NRT","bright_ti5":"307.34","frp":"5.11","daynight":"D","commune":"Habsheim","code_insee":"68118","departement":"Haut-Rhin","region":"Grand Est"}},{"type":"Feature","geometry":{"type":"Point","coordinates":[7.43721,47.74204]},"properties":{"latitude":"47.74204","longitude":"7.43721","bright_ti4":"344.23","scan":"0.48","track":"0.4","acq_date":"2026-06-20","acq_time":"1155","satellite":"N21","instrument":"VIIRS","confidence":"n","version":"2.0NRT","bright_ti5":"311.85","frp":"5.11","daynight":"D","commune":"Habsheim","code_insee":"68118","departement":"Haut-Rhin","region":"Grand Est"}},{"type":"Feature","geometry":{"type":"Point","coordinates":[2.93434,48.59076]},"properties":{"latitude":"48.59076","longitude":"2.93434","bright_ti4":"340.61","scan":"0.46","track":"0.47","acq_date":"2026-06-20","acq_time":"1155","satellite":"N21","instrument":"VIIRS","confidence":"n","version":"2.0NRT","bright_ti5":"299.22","frp":"7.28","daynight":"D","commune":"Grandpuits-Bailly-Carrois","code_insee":"77211","departement":"Seine-et-Marne","region":"Île-de-France"}},{"type":"Feature","geometry":{"type":"Point","coordinates":[2.9326,48.59259]},"properties":{"latitude":"48.59259","longitude":"2.9326","bright_ti4":"339.41","scan":"0.46","track":"0.47","acq_date":"2026-06-20","acq_time":"1155","satellite":"N21","instrument":"VIIRS","confidence":"n","version":"2.0NRT","bright_ti5":"298.91","frp":"6.03","daynight":"D","commune":"Aubepierre-Ozouer-le-Repos","code_insee":"77010","departement":"Seine-et-Marne","region":"Île-de-France"}},{"type":"Feature","geometry":{"type":"Point","coordinates":[2.93848,48.59406]},"properties":{"latitude":"48.59406","longitude":"2.93848","bright_ti4":"347.3","scan":"0.46","track":"0.47","acq_date":"2026-06-20","acq_time":"1155","satellite":"N21","instrument":"VIIRS","confidence":"n","version":"2.0NRT","bright_ti5":"300.87","frp":"11.86","daynight":"D","commune":"Aubepierre-Ozouer-le-Repos","code_insee":"77010","departement":"Seine-et-Marne","region":"Île-de-France"}},{"type":"Feature","geometry":{"type":"Point","coordinates":[2.93797,48.59628]},"properties":{"latitude":"48.59628","longitude":"2.93797","bright_ti4":"345.3","scan":"0.46","track":"0.47","acq_date":"2026-06-20","acq_time":"1155","satellite":"N21","instrument":"VIIRS","confidence":"n","version":"2.0NRT","bright_ti5":"300.43","frp":"7.28","daynight":"D","commune":"Aubepierre-Ozouer-le-Repos","code_insee":"77010","departement":"Seine-et-Marne","region":"Île-de-France"}},{"type":"Feature","geometry":{"type":"Point","coordinates":[3.54284,50.37662]},"properties":{"latitude":"50.37662","longitude":"3.54284","bright_ti4":"330.05","scan":"0.39","track":"0.44","acq_date":"2026-06-20","acq_time":"1157","satellite":"N21","instrument":"VIIRS","confidence":"l","version":"2.0NRT","bright_ti5":"303.99","frp":"3.01","daynight":"D","commune":"Valenciennes","code_insee":"59606","departement":"Nord","region":"Hauts-de-France"}},{"type":"Feature","geometry":{"type":"Point","coordinates":[2.27316,51.03083]},"properties":{"latitude":"51.03083","longitude":"2.27316","bright_ti4":"329.93","scan":"0.42","track":"0.45","acq_date":"2026-06-20","acq_time":"1157","satellite":"N21","instrument":"VIIRS","confidence":"n","version":"2.0NRT","bright_ti5":"297.91","frp":"3","daynight":"D","commune":"Grande-Synthe","code_insee":"59271","departement":"Nord","region":"Hauts-de-France"}},{"type":"Feature","geometry":{"type":"Point","coordinates":[2.29018,51.03491]},"properties":{"latitude":"51.03491","longitude":"2.29018","bright_ti4":"332.3","scan":"0.42","track":"0.45","acq_date":"2026-06-20","acq_time":"1157","satellite":"N21","instrument":"VIIRS","confidence":"n","version":"2.0NRT","bright_ti5":"299.01","frp":"4.98","daynight":"D","commune":"Grande-Synthe","code_insee":"59271","departement":"Nord","region":"Hauts-de-France"}},{"type":"Feature","geometry":{"type":"Point","coordinates":[2.29682,51.04547]},"properties":{"latitude":"51.04547","longitude":"2.29682","bright_ti4":"340.63","scan":"0.42","track":"0.45","acq_date":"2026-06-20","acq_time":"1157","satellite":"N21","instrument":"VIIRS","confidence":"n","version":"2.0NRT","bright_ti5":"295.57","frp":"3.7","daynight":"D","commune":"Grande-Synthe","code_insee":"59271","departement":"Nord","region":"Hauts-de-France"}},{"type":"Feature","geometry":{"type":"Point","coordinates":[5.11006,43.39249]},"properties":{"latitude":"43.39249","longitude":"5.11006","bright_ti4":"337.47","scan":"0.57","track":"0.69","acq_date":"2026-06-20","acq_time":"1336","satellite":"N21","instrument":"VIIRS","confidence":"n","version":"2.0NRT","bright_ti5":"301.12","frp":"8.61","daynight":"D","commune":"Châteauneuf-les-Martigues","code_insee":"13026","departement":"Bouches-du-Rhône","region":"Provence-Alpes-Côte d'Azur"}},{"type":"Feature","geometry":{"type":"Point","coordinates":[6.33515,43.55786]},"properties":{"latitude":"43.55786","longitude":"6.33515","bright_ti4":"348.12","scan":"0.66","track":"0.73","acq_date":"2026-06-20","acq_time":"1336","satellite":"N21","instrument":"VIIRS","confidence":"n","version":"2.0NRT","bright_ti5":"305.75","frp":"44.3","daynight":"D","commune":"Flayosc","code_insee":"83058","departement":"Var","region":"Provence-Alpes-Côte d'Azur"}},{"type":"Feature","geometry":{"type":"Point","coordinates":[6.33376,43.56459]},"properties":{"latitude":"43.56459","longitude":"6.33376","bright_ti4":"367","scan":"0.66","track":"0.73","acq_date":"2026-06-20","acq_time":"1336","satellite":"N21","instrument":"VIIRS","confidence":"h","version":"2.0NRT","bright_ti5":"301.84","frp":"44.3","daynight":"D","commune":"Tourtour","code_insee":"83139","departement":"Var","region":"Provence-Alpes-Côte d'Azur"}},{"type":"Feature","geometry":{"type":"Point","coordinates":[1.61769,44.182]},"properties":{"latitude":"44.182","longitude":"1.61769","bright_ti4":"347.25","scan":"0.38","track":"0.59","acq_date":"2026-06-20","acq_time":"1336","satellite":"N21","instrument":"VIIRS","confidence":"n","version":"2.0NRT","bright_ti5":"302.12","frp":"4.49","daynight":"D","commune":"Septfonds","code_insee":"82179","departement":"Tarn-et-Garonne","region":"Occitanie"}},{"type":"Feature","geometry":{"type":"Point","coordinates":[-0.8199,46.10953]},"properties":{"latitude":"46.10953","longitude":"-0.8199","bright_ti4":"340.83","scan":"0.59","track":"0.53","acq_date":"2026-06-20","acq_time":"1336","satellite":"N21","instrument":"VIIRS","confidence":"n","version":"2.0NRT","bright_ti5":"301.81","frp":"32.27","daynight":"D","commune":"Chambon","code_insee":"17080","departement":"Charente-Maritime","region":"Nouvelle-Aquitaine"}},{"type":"Feature","geometry":{"type":"Point","coordinates":[-0.82011,46.1123]},"properties":{"latitude":"46.1123","longitude":"-0.82011","bright_ti4":"342.19","scan":"0.6","track":"0.53","acq_date":"2026-06-20","acq_time":"1336","satellite":"N21","instrument":"VIIRS","confidence":"n","version":"2.0NRT","bright_ti5":"302.75","frp":"20.65","daynight":"D","commune":"Chambon","code_insee":"17080","departement":"Charente-Maritime","region":"Nouvelle-Aquitaine"}},{"type":"Feature","geometry":{"type":"Point","coordinates":[0.94746,48.19925]},"properties":{"latitude":"48.19925","longitude":"0.94746","bright_ti4":"337.17","scan":"0.38","track":"0.58","acq_date":"2026-06-20","acq_time":"1338","satellite":"N21","instrument":"VIIRS","confidence":"n","version":"2.0NRT","bright_ti5":"297.98","frp":"3.2","daynight":"D","commune":"Charbonnières","code_insee":"28080","departement":"Eure-et-Loir","region":"Centre-Val de Loire"}},{"type":"Feature","geometry":{"type":"Point","coordinates":[1.76134,48.98325]},"properties":{"latitude":"48.98325","longitude":"1.76134","bright_ti4":"339.37","scan":"0.42","track":"0.61","acq_date":"2026-06-20","acq_time":"1338","satellite":"N21","instrument":"VIIRS","confidence":"n","version":"2.0NRT","bright_ti5":"296.22","frp":"3.34","daynight":"D","commune":"Porcheville","code_insee":"78501","departement":"Yvelines","region":"Île-de-France"}}]}