{"type":"FeatureCollection","features":[{"type":"Feature","geometry":{"type":"Point","coordinates":[2.2789,51.03322]},"properties":{"latitude":"51.03322","longitude":"2.2789","bright_ti4":"299.26","scan":"0.39","track":"0.59","acq_date":"2026-08-28","acq_time":"111","satellite":"N","instrument":"VIIRS","confidence":"n","version":"2.0NRT","bright_ti5":"276.74","frp":"0.95","daynight":"N","commune":"Grande-Synthe","code_insee":"59271","departement":"Nord","region":"Hauts-de-France"}},{"type":"Feature","geometry":{"type":"Point","coordinates":[2.28232,51.03255]},"properties":{"latitude":"51.03255","longitude":"2.28232","bright_ti4":"310.97","scan":"0.47","track":"0.48","acq_date":"2026-08-28","acq_time":"251","satellite":"N","instrument":"VIIRS","confidence":"n","version":"2.0NRT","bright_ti5":"286.66","frp":"2.08","daynight":"N","commune":"Grande-Synthe","code_insee":"59271","departement":"Nord","region":"Hauts-de-France"}},{"type":"Feature","geometry":{"type":"Point","coordinates":[2.27601,51.03418]},"properties":{"latitude":"51.03418","longitude":"2.27601","bright_ti4":"307.29","scan":"0.47","track":"0.48","acq_date":"2026-08-28","acq_time":"251","satellite":"N","instrument":"VIIRS","confidence":"n","version":"2.0NRT","bright_ti5":"285.7","frp":"1.68","daynight":"N","commune":"Grande-Synthe","code_insee":"59271","departement":"Nord","region":"Hauts-de-France"}},{"type":"Feature","geometry":{"type":"Point","coordinates":[2.29669,51.04326]},"properties":{"latitude":"51.04326","longitude":"2.29669","bright_ti4":"327.23","scan":"0.47","track":"0.48","acq_date":"2026-08-28","acq_time":"251","satellite":"N","instrument":"VIIRS","confidence":"n","version":"2.0NRT","bright_ti5":"288.25","frp":"3.96","daynight":"N","commune":"Grande-Synthe","code_insee":"59271","departement":"Nord","region":"Hauts-de-France"}},{"type":"Feature","geometry":{"type":"Point","coordinates":[0.53339,49.47874]},"properties":{"latitude":"49.47874","longitude":"0.53339","bright_ti4":"297.11","scan":"0.47","track":"0.48","acq_date":"2026-08-28","acq_time":"132","satellite":"N20","instrument":"VIIRS","confidence":"n","version":"2.0NRT","bright_ti5":"275.74","frp":"0.98","daynight":"N","commune":"Port-Jérôme-sur-Seine","code_insee":"76476","departement":"Seine-Maritime","region":"Normandie"}},{"type":"Feature","geometry":{"type":"Point","coordinates":[2.27756,51.03164]},"properties":{"latitude":"51.03164","longitude":"2.27756","bright_ti4":"309.53","scan":"0.41","track":"0.45","acq_date":"2026-08-28","acq_time":"132","satellite":"N20","instrument":"VIIRS","confidence":"n","version":"2.0NRT","bright_ti5":"271.88","frp":"1.56","daynight":"N","commune":"Grande-Synthe","code_insee":"59271","departement":"Nord","region":"Hauts-de-France"}},{"type":"Feature","geometry":{"type":"Point","coordinates":[2.29195,51.04301]},"properties":{"latitude":"51.04301","longitude":"2.29195","bright_ti4":"297.86","scan":"0.41","track":"0.45","acq_date":"2026-08-28","acq_time":"132","satellite":"N20","instrument":"VIIRS","confidence":"n","version":"2.0NRT","bright_ti5":"271.61","frp":"1.31","daynight":"N","commune":"Grande-Synthe","code_insee":"59271","departement":"Nord","region":"Hauts-de-France"}},{"type":"Feature","geometry":{"type":"Point","coordinates":[2.29872,51.04662]},"properties":{"latitude":"51.04662","longitude":"2.29872","bright_ti4":"301.55","scan":"0.41","track":"0.45","acq_date":"2026-08-28","acq_time":"132","satellite":"N20","instrument":"VIIRS","confidence":"n","version":"2.0NRT","bright_ti5":"270.92","frp":"1.31","daynight":"N","commune":"Grande-Synthe","code_insee":"59271","departement":"Nord","region":"Hauts-de-France"}},{"type":"Feature","geometry":{"type":"Point","coordinates":[2.2797,51.02965]},"properties":{"latitude":"51.02965","longitude":"2.2797","bright_ti4":"297.94","scan":"0.43","track":"0.62","acq_date":"2026-08-28","acq_time":"313","satellite":"N20","instrument":"VIIRS","confidence":"n","version":"2.0NRT","bright_ti5":"284.58","frp":"0.86","daynight":"N","commune":"Grande-Synthe","code_insee":"59271","departement":"Nord","region":"Hauts-de-France"}},{"type":"Feature","geometry":{"type":"Point","coordinates":[2.28387,51.03472]},"properties":{"latitude":"51.03472","longitude":"2.28387","bright_ti4":"299.86","scan":"0.43","track":"0.62","acq_date":"2026-08-28","acq_time":"313","satellite":"N20","instrument":"VIIRS","confidence":"n","version":"2.0NRT","bright_ti5":"284.91","frp":"0.86","daynight":"N","commune":"Grande-Synthe","code_insee":"59271","departement":"Nord","region":"Hauts-de-France"}},{"type":"Feature","geometry":{"type":"Point","coordinates":[2.27844,51.03648]},"properties":{"latitude":"51.03648","longitude":"2.27844","bright_ti4":"307.94","scan":"0.43","track":"0.62","acq_date":"2026-08-28","acq_time":"313","satellite":"N20","instrument":"VIIRS","confidence":"n","version":"2.0NRT","bright_ti5":"285.14","frp":"0.86","daynight":"N","commune":"Grande-Synthe","code_insee":"59271","departement":"Nord","region":"Hauts-de-France"}},{"type":"Feature","geometry":{"type":"Point","coordinates":[2.29768,51.04306]},"properties":{"latitude":"51.04306","longitude":"2.29768","bright_ti4":"302.72","scan":"0.43","track":"0.62","acq_date":"2026-08-28","acq_time":"313","satellite":"N20","instrument":"VIIRS","confidence":"n","version":"2.0NRT","bright_ti5":"286.26","frp":"1.62","daynight":"N","commune":"Grande-Synthe","code_insee":"59271","departement":"Nord","region":"Hauts-de-France"}},{"type":"Feature","geometry":{"type":"Point","coordinates":[2.29223,51.04483]},"properties":{"latitude":"51.04483","longitude":"2.29223","bright_ti4":"309.53","scan":"0.43","track":"0.62","acq_date":"2026-08-28","acq_time":"313","satellite":"N20","instrument":"VIIRS","confidence":"n","version":"2.0NRT","bright_ti5":"284.78","frp":"1.81","daynight":"N","commune":"Grande-Synthe","code_insee":"59271","departement":"Nord","region":"Hauts-de-France"}},{"type":"Feature","geometry":{"type":"Point","coordinates":[2.27706,51.02863]},"properties":{"latitude":"51.02863","longitude":"2.27706","bright_ti4":"307.98","scan":"0.74","track":"0.76","acq_date":"2026-08-28","acq_time":"37","satellite":"N21","instrument":"VIIRS","confidence":"n","version":"2.0NRT","bright_ti5":"284.22","frp":"6.29","daynight":"N","commune":"Grande-Synthe","code_insee":"59271","departement":"Nord","region":"Hauts-de-France"}},{"type":"Feature","geometry":{"type":"Point","coordinates":[2.27725,51.0325]},"properties":{"latitude":"51.0325","longitude":"2.27725","bright_ti4":"309.94","scan":"0.74","track":"0.76","acq_date":"2026-08-28","acq_time":"37","satellite":"N21","instrument":"VIIRS","confidence":"n","version":"2.0NRT","bright_ti5":"283.98","frp":"3.75","daynight":"N","commune":"Grande-Synthe","code_insee":"59271","departement":"Nord","region":"Hauts-de-France"}},{"type":"Feature","geometry":{"type":"Point","coordinates":[2.28793,51.03279]},"properties":{"latitude":"51.03279","longitude":"2.28793","bright_ti4":"300.8","scan":"0.74","track":"0.76","acq_date":"2026-08-28","acq_time":"37","satellite":"N21","instrument":"VIIRS","confidence":"n","version":"2.0NRT","bright_ti5":"283.52","frp":"3.75","daynight":"N","commune":"Grande-Synthe","code_insee":"59271","departement":"Nord","region":"Hauts-de-France"}},{"type":"Feature","geometry":{"type":"Point","coordinates":[2.28718,51.03593]},"properties":{"latitude":"51.03593","longitude":"2.28718","bright_ti4":"300.48","scan":"0.74","track":"0.76","acq_date":"2026-08-28","acq_time":"37","satellite":"N21","instrument":"VIIRS","confidence":"n","version":"2.0NRT","bright_ti5":"283.85","frp":"5.01","daynight":"N","commune":"Grande-Synthe","code_insee":"59271","departement":"Nord","region":"Hauts-de-France"}},{"type":"Feature","geometry":{"type":"Point","coordinates":[2.29804,51.04013]},"properties":{"latitude":"51.04013","longitude":"2.29804","bright_ti4":"296.05","scan":"0.74","track":"0.76","acq_date":"2026-08-28","acq_time":"37","satellite":"N21","instrument":"VIIRS","confidence":"n","version":"2.0NRT","bright_ti5":"283.8","frp":"4.02","daynight":"N","commune":"Grande-Synthe","code_insee":"59271","departement":"Nord","region":"Hauts-de-France"}},{"type":"Feature","geometry":{"type":"Point","coordinates":[2.27993,51.0306]},"properties":{"latitude":"51.0306","longitude":"2.27993","bright_ti4":"299.22","scan":"0.44","track":"0.38","acq_date":"2026-08-28","acq_time":"215","satellite":"N21","instrument":"VIIRS","confidence":"n","version":"2.0NRT","bright_ti5":"276.95","frp":"0.67","daynight":"N","commune":"Grande-Synthe","code_insee":"59271","departement":"Nord","region":"Hauts-de-France"}}]}