{"type":"FeatureCollection","features":[{"type":"Feature","geometry":{"type":"Point","coordinates":[6.11427,48.61156]},"properties":{"latitude":"48.61156","longitude":"6.11427","bright_ti4":"296.45","scan":"0.58","track":"0.52","acq_date":"2026-06-04","acq_time":"105","satellite":"N","instrument":"VIIRS","confidence":"n","version":"2.0NRT","bright_ti5":"284.18","frp":"1.02","daynight":"N","commune":"Neuves-Maisons","code_insee":"54397","departement":"Meurthe-et-Moselle","region":"Grand Est"}},{"type":"Feature","geometry":{"type":"Point","coordinates":[4.89249,43.43774]},"properties":{"latitude":"43.43774","longitude":"4.89249","bright_ti4":"307.48","scan":"0.6","track":"0.53","acq_date":"2026-06-04","acq_time":"107","satellite":"N","instrument":"VIIRS","confidence":"n","version":"2.0NRT","bright_ti5":"284.47","frp":"3.26","daynight":"N","commune":"Fos-sur-Mer","code_insee":"13039","departement":"Bouches-du-Rhône","region":"Provence-Alpes-Côte d'Azur"}},{"type":"Feature","geometry":{"type":"Point","coordinates":[4.89059,43.43869]},"properties":{"latitude":"43.43869","longitude":"4.89059","bright_ti4":"309.56","scan":"0.6","track":"0.53","acq_date":"2026-06-04","acq_time":"107","satellite":"N","instrument":"VIIRS","confidence":"n","version":"2.0NRT","bright_ti5":"284.6","frp":"1.78","daynight":"N","commune":"Fos-sur-Mer","code_insee":"13039","departement":"Bouches-du-Rhône","region":"Provence-Alpes-Côte d'Azur"}},{"type":"Feature","geometry":{"type":"Point","coordinates":[4.89875,43.44316]},"properties":{"latitude":"43.44316","longitude":"4.89875","bright_ti4":"299.82","scan":"0.6","track":"0.53","acq_date":"2026-06-04","acq_time":"107","satellite":"N","instrument":"VIIRS","confidence":"n","version":"2.0NRT","bright_ti5":"279.04","frp":"1.78","daynight":"N","commune":"Fos-sur-Mer","code_insee":"13039","departement":"Bouches-du-Rhône","region":"Provence-Alpes-Côte d'Azur"}},{"type":"Feature","geometry":{"type":"Point","coordinates":[4.89935,43.44809]},"properties":{"latitude":"43.44809","longitude":"4.89935","bright_ti4":"303.26","scan":"0.6","track":"0.53","acq_date":"2026-06-04","acq_time":"107","satellite":"N","instrument":"VIIRS","confidence":"n","version":"2.0NRT","bright_ti5":"277.76","frp":"2","daynight":"N","commune":"Fos-sur-Mer","code_insee":"13039","departement":"Bouches-du-Rhône","region":"Provence-Alpes-Côte d'Azur"}},{"type":"Feature","geometry":{"type":"Point","coordinates":[2.86436,43.24014]},"properties":{"latitude":"43.24014","longitude":"2.86436","bright_ti4":"301.39","scan":"0.36","track":"0.57","acq_date":"2026-06-04","acq_time":"245","satellite":"N","instrument":"VIIRS","confidence":"n","version":"2.0NRT","bright_ti5":"272.7","frp":"0.61","daynight":"N","commune":"Ventenac-en-Minervois","code_insee":"11405","departement":"Aude","region":"Occitanie"}},{"type":"Feature","geometry":{"type":"Point","coordinates":[2.86013,43.24133]},"properties":{"latitude":"43.24133","longitude":"2.86013","bright_ti4":"297.61","scan":"0.36","track":"0.57","acq_date":"2026-06-04","acq_time":"245","satellite":"N","instrument":"VIIRS","confidence":"n","version":"2.0NRT","bright_ti5":"272.34","frp":"0.61","daynight":"N","commune":"Ventenac-en-Minervois","code_insee":"11405","departement":"Aude","region":"Occitanie"}},{"type":"Feature","geometry":{"type":"Point","coordinates":[2.87122,43.24395]},"properties":{"latitude":"43.24395","longitude":"2.87122","bright_ti4":"303.94","scan":"0.36","track":"0.57","acq_date":"2026-06-04","acq_time":"245","satellite":"N","instrument":"VIIRS","confidence":"n","version":"2.0NRT","bright_ti5":"272.92","frp":"0.59","daynight":"N","commune":"Saint-Nazaire-d'Aude","code_insee":"11360","departement":"Aude","region":"Occitanie"}},{"type":"Feature","geometry":{"type":"Point","coordinates":[4.88908,43.42982]},"properties":{"latitude":"43.42982","longitude":"4.88908","bright_ti4":"295.75","scan":"0.44","track":"0.62","acq_date":"2026-06-04","acq_time":"245","satellite":"N","instrument":"VIIRS","confidence":"n","version":"2.0NRT","bright_ti5":"281.08","frp":"1.7","daynight":"N","commune":"Fos-sur-Mer","code_insee":"13039","departement":"Bouches-du-Rhône","region":"Provence-Alpes-Côte d'Azur"}},{"type":"Feature","geometry":{"type":"Point","coordinates":[4.89731,43.43365]},"properties":{"latitude":"43.43365","longitude":"4.89731","bright_ti4":"298.3","scan":"0.44","track":"0.62","acq_date":"2026-06-04","acq_time":"245","satellite":"N","instrument":"VIIRS","confidence":"n","version":"2.0NRT","bright_ti5":"279.64","frp":"1.08","daynight":"N","commune":"Fos-sur-Mer","code_insee":"13039","departement":"Bouches-du-Rhône","region":"Provence-Alpes-Côte d'Azur"}},{"type":"Feature","geometry":{"type":"Point","coordinates":[4.8983,43.44599]},"properties":{"latitude":"43.44599","longitude":"4.8983","bright_ti4":"310.16","scan":"0.44","track":"0.62","acq_date":"2026-06-04","acq_time":"245","satellite":"N","instrument":"VIIRS","confidence":"n","version":"2.0NRT","bright_ti5":"278.97","frp":"1.22","daynight":"N","commune":"Fos-sur-Mer","code_insee":"13039","departement":"Bouches-du-Rhône","region":"Provence-Alpes-Côte d'Azur"}},{"type":"Feature","geometry":{"type":"Point","coordinates":[4.89316,43.44754]},"properties":{"latitude":"43.44754","longitude":"4.89316","bright_ti4":"300.38","scan":"0.44","track":"0.62","acq_date":"2026-06-04","acq_time":"245","satellite":"N","instrument":"VIIRS","confidence":"n","version":"2.0NRT","bright_ti5":"279.17","frp":"1.22","daynight":"N","commune":"Fos-sur-Mer","code_insee":"13039","departement":"Bouches-du-Rhône","region":"Provence-Alpes-Côte d'Azur"}},{"type":"Feature","geometry":{"type":"Point","coordinates":[6.11126,48.5624]},"properties":{"latitude":"48.5624","longitude":"6.11126","bright_ti4":"297.58","scan":"0.48","track":"0.4","acq_date":"2026-06-04","acq_time":"122","satellite":"N20","instrument":"VIIRS","confidence":"n","version":"2.0NRT","bright_ti5":"285.96","frp":"0.57","daynight":"N","commune":"Xeuilley","code_insee":"54596","departement":"Meurthe-et-Moselle","region":"Grand Est"}},{"type":"Feature","geometry":{"type":"Point","coordinates":[6.1101,48.61161]},"properties":{"latitude":"48.61161","longitude":"6.1101","bright_ti4":"301.2","scan":"0.48","track":"0.4","acq_date":"2026-06-04","acq_time":"122","satellite":"N20","instrument":"VIIRS","confidence":"n","version":"2.0NRT","bright_ti5":"285.18","frp":"0.63","daynight":"N","commune":"Neuves-Maisons","code_insee":"54397","departement":"Meurthe-et-Moselle","region":"Grand Est"}},{"type":"Feature","geometry":{"type":"Point","coordinates":[6.96958,48.69169]},"properties":{"latitude":"48.69169","longitude":"6.96958","bright_ti4":"296.64","scan":"0.45","track":"0.39","acq_date":"2026-06-04","acq_time":"122","satellite":"N20","instrument":"VIIRS","confidence":"n","version":"2.0NRT","bright_ti5":"283.25","frp":"0.68","daynight":"N","commune":"Héming","code_insee":"57314","departement":"Moselle","region":"Grand Est"}},{"type":"Feature","geometry":{"type":"Point","coordinates":[6.05643,48.88391]},"properties":{"latitude":"48.88391","longitude":"6.05643","bright_ti4":"303.19","scan":"0.49","track":"0.4","acq_date":"2026-06-04","acq_time":"122","satellite":"N20","instrument":"VIIRS","confidence":"n","version":"2.0NRT","bright_ti5":"279.98","frp":"1.18","daynight":"N","commune":"Blénod-lès-Pont-à-Mousson","code_insee":"54079","departement":"Meurthe-et-Moselle","region":"Grand Est"}},{"type":"Feature","geometry":{"type":"Point","coordinates":[4.89707,43.43282]},"properties":{"latitude":"43.43282","longitude":"4.89707","bright_ti4":"301.34","scan":"0.47","track":"0.4","acq_date":"2026-06-04","acq_time":"124","satellite":"N20","instrument":"VIIRS","confidence":"n","version":"2.0NRT","bright_ti5":"287.88","frp":"1.57","daynight":"N","commune":"Fos-sur-Mer","code_insee":"13039","departement":"Bouches-du-Rhône","region":"Provence-Alpes-Côte d'Azur"}},{"type":"Feature","geometry":{"type":"Point","coordinates":[4.89208,43.43713]},"properties":{"latitude":"43.43713","longitude":"4.89208","bright_ti4":"302.79","scan":"0.47","track":"0.4","acq_date":"2026-06-04","acq_time":"124","satellite":"N20","instrument":"VIIRS","confidence":"n","version":"2.0NRT","bright_ti5":"287.22","frp":"1.7","daynight":"N","commune":"Fos-sur-Mer","code_insee":"13039","departement":"Bouches-du-Rhône","region":"Provence-Alpes-Côte d'Azur"}},{"type":"Feature","geometry":{"type":"Point","coordinates":[4.88045,43.43849]},"properties":{"latitude":"43.43849","longitude":"4.88045","bright_ti4":"300.04","scan":"0.47","track":"0.4","acq_date":"2026-06-04","acq_time":"124","satellite":"N20","instrument":"VIIRS","confidence":"n","version":"2.0NRT","bright_ti5":"286.64","frp":"1.18","daynight":"N","commune":"Fos-sur-Mer","code_insee":"13039","departement":"Bouches-du-Rhône","region":"Provence-Alpes-Côte d'Azur"}},{"type":"Feature","geometry":{"type":"Point","coordinates":[4.89289,43.44076]},"properties":{"latitude":"43.44076","longitude":"4.89289","bright_ti4":"316.89","scan":"0.47","track":"0.4","acq_date":"2026-06-04","acq_time":"124","satellite":"N20","instrument":"VIIRS","confidence":"n","version":"2.0NRT","bright_ti5":"287.32","frp":"1.7","daynight":"N","commune":"Fos-sur-Mer","code_insee":"13039","departement":"Bouches-du-Rhône","region":"Provence-Alpes-Côte d'Azur"}},{"type":"Feature","geometry":{"type":"Point","coordinates":[4.8995,43.4437]},"properties":{"latitude":"43.4437","longitude":"4.8995","bright_ti4":"318.76","scan":"0.47","track":"0.4","acq_date":"2026-06-04","acq_time":"124","satellite":"N20","instrument":"VIIRS","confidence":"n","version":"2.0NRT","bright_ti5":"286.29","frp":"3.69","daynight":"N","commune":"Fos-sur-Mer","code_insee":"13039","departement":"Bouches-du-Rhône","region":"Provence-Alpes-Côte d'Azur"}},{"type":"Feature","geometry":{"type":"Point","coordinates":[4.9003,43.44733]},"properties":{"latitude":"43.44733","longitude":"4.9003","bright_ti4":"338.89","scan":"0.47","track":"0.4","acq_date":"2026-06-04","acq_time":"124","satellite":"N20","instrument":"VIIRS","confidence":"n","version":"2.0NRT","bright_ti5":"288.41","frp":"3.69","daynight":"N","commune":"Fos-sur-Mer","code_insee":"13039","departement":"Bouches-du-Rhône","region":"Provence-Alpes-Côte d'Azur"}},{"type":"Feature","geometry":{"type":"Point","coordinates":[4.8945,43.44801]},"properties":{"latitude":"43.44801","longitude":"4.8945","bright_ti4":"315.23","scan":"0.47","track":"0.4","acq_date":"2026-06-04","acq_time":"124","satellite":"N20","instrument":"VIIRS","confidence":"n","version":"2.0NRT","bright_ti5":"285.88","frp":"3.19","daynight":"N","commune":"Fos-sur-Mer","code_insee":"13039","departement":"Bouches-du-Rhône","region":"Provence-Alpes-Côte d'Azur"}},{"type":"Feature","geometry":{"type":"Point","coordinates":[1.7624,48.98198]},"properties":{"latitude":"48.98198","longitude":"1.7624","bright_ti4":"333.53","scan":"0.4","track":"0.37","acq_date":"2026-06-04","acq_time":"1249","satellite":"N20","instrument":"VIIRS","confidence":"n","version":"2.0NRT","bright_ti5":"297.89","frp":"2.24","daynight":"D","commune":"Porcheville","code_insee":"78501","departement":"Yvelines","region":"Île-de-France"}},{"type":"Feature","geometry":{"type":"Point","coordinates":[0.71222,49.03461]},"properties":{"latitude":"49.03461","longitude":"0.71222","bright_ti4":"331.33","scan":"0.39","track":"0.36","acq_date":"2026-06-04","acq_time":"1249","satellite":"N20","instrument":"VIIRS","confidence":"n","version":"2.0NRT","bright_ti5":"290.04","frp":"1.35","daynight":"D","commune":"Mesnil-en-Ouche","code_insee":"27049","departement":"Eure","region":"Normandie"}},{"type":"Feature","geometry":{"type":"Point","coordinates":[2.3202,51.04692]},"properties":{"latitude":"51.04692","longitude":"2.3202","bright_ti4":"333.27","scan":"0.43","track":"0.38","acq_date":"2026-06-04","acq_time":"1249","satellite":"N20","instrument":"VIIRS","confidence":"n","version":"2.0NRT","bright_ti5":"295.51","frp":"2.69","daynight":"D","commune":"Dunkerque","code_insee":"59183","departement":"Nord","region":"Hauts-de-France"}},{"type":"Feature","geometry":{"type":"Point","coordinates":[4.89099,43.43697]},"properties":{"latitude":"43.43697","longitude":"4.89099","bright_ti4":"297.02","scan":"0.66","track":"0.73","acq_date":"2026-06-04","acq_time":"33","satellite":"N21","instrument":"VIIRS","confidence":"n","version":"2.0NRT","bright_ti5":"278.95","frp":"4.37","daynight":"N","commune":"Fos-sur-Mer","code_insee":"13039","departement":"Bouches-du-Rhône","region":"Provence-Alpes-Côte d'Azur"}},{"type":"Feature","geometry":{"type":"Point","coordinates":[2.86131,43.24091]},"properties":{"latitude":"43.24091","longitude":"2.86131","bright_ti4":"313.81","scan":"0.54","track":"0.42","acq_date":"2026-06-04","acq_time":"213","satellite":"N21","instrument":"VIIRS","confidence":"n","version":"2.0NRT","bright_ti5":"274.83","frp":"2.01","daynight":"N","commune":"Ventenac-en-Minervois","code_insee":"11405","departement":"Aude","region":"Occitanie"}},{"type":"Feature","geometry":{"type":"Point","coordinates":[2.86925,43.24328]},"properties":{"latitude":"43.24328","longitude":"2.86925","bright_ti4":"304.41","scan":"0.54","track":"0.42","acq_date":"2026-06-04","acq_time":"213","satellite":"N21","instrument":"VIIRS","confidence":"n","version":"2.0NRT","bright_ti5":"274.05","frp":"2.01","daynight":"N","commune":"Ventenac-en-Minervois","code_insee":"11405","departement":"Aude","region":"Occitanie"}},{"type":"Feature","geometry":{"type":"Point","coordinates":[4.90121,43.44283]},"properties":{"latitude":"43.44283","longitude":"4.90121","bright_ti4":"300.42","scan":"0.44","track":"0.46","acq_date":"2026-06-04","acq_time":"213","satellite":"N21","instrument":"VIIRS","confidence":"n","version":"2.0NRT","bright_ti5":"278.57","frp":"1.55","daynight":"N","commune":"Fos-sur-Mer","code_insee":"13039","departement":"Bouches-du-Rhône","region":"Provence-Alpes-Côte d'Azur"}},{"type":"Feature","geometry":{"type":"Point","coordinates":[4.89601,43.44403]},"properties":{"latitude":"43.44403","longitude":"4.89601","bright_ti4":"320.31","scan":"0.44","track":"0.46","acq_date":"2026-06-04","acq_time":"213","satellite":"N21","instrument":"VIIRS","confidence":"n","version":"2.0NRT","bright_ti5":"280.12","frp":"4.73","daynight":"N","commune":"Fos-sur-Mer","code_insee":"13039","departement":"Bouches-du-Rhône","region":"Provence-Alpes-Côte d'Azur"}},{"type":"Feature","geometry":{"type":"Point","coordinates":[4.89781,43.44809]},"properties":{"latitude":"43.44809","longitude":"4.89781","bright_ti4":"338.71","scan":"0.44","track":"0.46","acq_date":"2026-06-04","acq_time":"213","satellite":"N21","instrument":"VIIRS","confidence":"n","version":"2.0NRT","bright_ti5":"280.3","frp":"4.73","daynight":"N","commune":"Fos-sur-Mer","code_insee":"13039","departement":"Bouches-du-Rhône","region":"Provence-Alpes-Côte d'Azur"}},{"type":"Feature","geometry":{"type":"Point","coordinates":[2.28694,51.03233]},"properties":{"latitude":"51.03233","longitude":"2.28694","bright_ti4":"327.64","scan":"0.45","track":"0.63","acq_date":"2026-06-04","acq_time":"1338","satellite":"N21","instrument":"VIIRS","confidence":"n","version":"2.0NRT","bright_ti5":"284.54","frp":"2.69","daynight":"D","commune":"Grande-Synthe","code_insee":"59271","departement":"Nord","region":"Hauts-de-France"}},{"type":"Feature","geometry":{"type":"Point","coordinates":[2.29299,51.04408]},"properties":{"latitude":"51.04408","longitude":"2.29299","bright_ti4":"337.58","scan":"0.45","track":"0.63","acq_date":"2026-06-04","acq_time":"1338","satellite":"N21","instrument":"VIIRS","confidence":"n","version":"2.0NRT","bright_ti5":"286.7","frp":"6.04","daynight":"D","commune":"Grande-Synthe","code_insee":"59271","departement":"Nord","region":"Hauts-de-France"}},{"type":"Feature","geometry":{"type":"Point","coordinates":[2.29948,51.04416]},"properties":{"latitude":"51.04416","longitude":"2.29948","bright_ti4":"338.11","scan":"0.45","track":"0.63","acq_date":"2026-06-04","acq_time":"1338","satellite":"N21","instrument":"VIIRS","confidence":"n","version":"2.0NRT","bright_ti5":"290.82","frp":"6.04","daynight":"D","commune":"Grande-Synthe","code_insee":"59271","departement":"Nord","region":"Hauts-de-France"}}]}