{"type":"FeatureCollection","features":[{"type":"Feature","geometry":{"type":"Point","coordinates":[7.2336,47.63027]},"properties":{"latitude":"47.63027","longitude":"7.2336","bright_ti4":"304.32","scan":"0.43","track":"0.46","acq_date":"2026-06-25","acq_time":"109","satellite":"N","instrument":"VIIRS","confidence":"n","version":"2.0NRT","bright_ti5":"293.65","frp":"0.73","daynight":"N","commune":"Altkirch","code_insee":"68004","departement":"Haut-Rhin","region":"Grand Est"}},{"type":"Feature","geometry":{"type":"Point","coordinates":[2.26853,51.02905]},"properties":{"latitude":"51.02905","longitude":"2.26853","bright_ti4":"330.63","scan":"0.38","track":"0.59","acq_date":"2026-06-25","acq_time":"109","satellite":"N","instrument":"VIIRS","confidence":"n","version":"2.0NRT","bright_ti5":"291.46","frp":"2.87","daynight":"N","commune":"Grande-Synthe","code_insee":"59271","departement":"Nord","region":"Hauts-de-France"}},{"type":"Feature","geometry":{"type":"Point","coordinates":[2.28585,51.03404]},"properties":{"latitude":"51.03404","longitude":"2.28585","bright_ti4":"316.04","scan":"0.38","track":"0.59","acq_date":"2026-06-25","acq_time":"109","satellite":"N","instrument":"VIIRS","confidence":"n","version":"2.0NRT","bright_ti5":"291.83","frp":"1.31","daynight":"N","commune":"Grande-Synthe","code_insee":"59271","departement":"Nord","region":"Hauts-de-France"}},{"type":"Feature","geometry":{"type":"Point","coordinates":[2.2968,51.04383]},"properties":{"latitude":"51.04383","longitude":"2.2968","bright_ti4":"317.51","scan":"0.38","track":"0.59","acq_date":"2026-06-25","acq_time":"109","satellite":"N","instrument":"VIIRS","confidence":"n","version":"2.0NRT","bright_ti5":"291.77","frp":"1.79","daynight":"N","commune":"Grande-Synthe","code_insee":"59271","departement":"Nord","region":"Hauts-de-France"}},{"type":"Feature","geometry":{"type":"Point","coordinates":[2.29115,51.04398]},"properties":{"latitude":"51.04398","longitude":"2.29115","bright_ti4":"313.93","scan":"0.38","track":"0.59","acq_date":"2026-06-25","acq_time":"109","satellite":"N","instrument":"VIIRS","confidence":"n","version":"2.0NRT","bright_ti5":"291.99","frp":"1.79","daynight":"N","commune":"Grande-Synthe","code_insee":"59271","departement":"Nord","region":"Hauts-de-France"}},{"type":"Feature","geometry":{"type":"Point","coordinates":[2.29794,51.0447]},"properties":{"latitude":"51.0447","longitude":"2.29794","bright_ti4":"311.21","scan":"0.38","track":"0.59","acq_date":"2026-06-25","acq_time":"109","satellite":"N","instrument":"VIIRS","confidence":"n","version":"2.0NRT","bright_ti5":"291.39","frp":"1.72","daynight":"N","commune":"Grande-Synthe","code_insee":"59271","departement":"Nord","region":"Hauts-de-France"}},{"type":"Feature","geometry":{"type":"Point","coordinates":[2.29232,51.04488]},"properties":{"latitude":"51.04488","longitude":"2.29232","bright_ti4":"322.25","scan":"0.38","track":"0.59","acq_date":"2026-06-25","acq_time":"109","satellite":"N","instrument":"VIIRS","confidence":"n","version":"2.0NRT","bright_ti5":"291.83","frp":"3.06","daynight":"N","commune":"Grande-Synthe","code_insee":"59271","departement":"Nord","region":"Hauts-de-France"}},{"type":"Feature","geometry":{"type":"Point","coordinates":[5.01101,43.39101]},"properties":{"latitude":"43.39101","longitude":"5.01101","bright_ti4":"315.58","scan":"0.49","track":"0.49","acq_date":"2026-06-25","acq_time":"111","satellite":"N","instrument":"VIIRS","confidence":"n","version":"2.0NRT","bright_ti5":"293.06","frp":"2.97","daynight":"N","commune":"Martigues","code_insee":"13056","departement":"Bouches-du-Rhône","region":"Provence-Alpes-Côte d'Azur"}},{"type":"Feature","geometry":{"type":"Point","coordinates":[4.89234,43.4369]},"properties":{"latitude":"43.4369","longitude":"4.89234","bright_ti4":"309.52","scan":"0.5","track":"0.49","acq_date":"2026-06-25","acq_time":"111","satellite":"N","instrument":"VIIRS","confidence":"n","version":"2.0NRT","bright_ti5":"292.09","frp":"2.93","daynight":"N","commune":"Fos-sur-Mer","code_insee":"13039","departement":"Bouches-du-Rhône","region":"Provence-Alpes-Côte d'Azur"}},{"type":"Feature","geometry":{"type":"Point","coordinates":[4.89926,43.44095]},"properties":{"latitude":"43.44095","longitude":"4.89926","bright_ti4":"303.4","scan":"0.5","track":"0.49","acq_date":"2026-06-25","acq_time":"111","satellite":"N","instrument":"VIIRS","confidence":"n","version":"2.0NRT","bright_ti5":"290.42","frp":"2.03","daynight":"N","commune":"Fos-sur-Mer","code_insee":"13039","departement":"Bouches-du-Rhône","region":"Provence-Alpes-Côte d'Azur"}},{"type":"Feature","geometry":{"type":"Point","coordinates":[4.89301,43.44144]},"properties":{"latitude":"43.44144","longitude":"4.89301","bright_ti4":"311.56","scan":"0.5","track":"0.49","acq_date":"2026-06-25","acq_time":"111","satellite":"N","instrument":"VIIRS","confidence":"n","version":"2.0NRT","bright_ti5":"292.49","frp":"2.61","daynight":"N","commune":"Fos-sur-Mer","code_insee":"13039","departement":"Bouches-du-Rhône","region":"Provence-Alpes-Côte d'Azur"}},{"type":"Feature","geometry":{"type":"Point","coordinates":[4.89993,43.44549]},"properties":{"latitude":"43.44549","longitude":"4.89993","bright_ti4":"335.67","scan":"0.5","track":"0.49","acq_date":"2026-06-25","acq_time":"111","satellite":"N","instrument":"VIIRS","confidence":"n","version":"2.0NRT","bright_ti5":"292.88","frp":"2.03","daynight":"N","commune":"Fos-sur-Mer","code_insee":"13039","departement":"Bouches-du-Rhône","region":"Provence-Alpes-Côte d'Azur"}},{"type":"Feature","geometry":{"type":"Point","coordinates":[4.89368,43.44599]},"properties":{"latitude":"43.44599","longitude":"4.89368","bright_ti4":"306.45","scan":"0.5","track":"0.49","acq_date":"2026-06-25","acq_time":"111","satellite":"N","instrument":"VIIRS","confidence":"n","version":"2.0NRT","bright_ti5":"292.13","frp":"2.61","daynight":"N","commune":"Fos-sur-Mer","code_insee":"13039","departement":"Bouches-du-Rhône","region":"Provence-Alpes-Côte d'Azur"}},{"type":"Feature","geometry":{"type":"Point","coordinates":[4.89434,43.45052]},"properties":{"latitude":"43.45052","longitude":"4.89434","bright_ti4":"307.68","scan":"0.5","track":"0.49","acq_date":"2026-06-25","acq_time":"111","satellite":"N","instrument":"VIIRS","confidence":"n","version":"2.0NRT","bright_ti5":"290.28","frp":"1.01","daynight":"N","commune":"Fos-sur-Mer","code_insee":"13039","departement":"Bouches-du-Rhône","region":"Provence-Alpes-Côte d'Azur"}},{"type":"Feature","geometry":{"type":"Point","coordinates":[2.055,43.78018]},"properties":{"latitude":"43.78018","longitude":"2.055","bright_ti4":"312.62","scan":"0.35","track":"0.56","acq_date":"2026-06-25","acq_time":"111","satellite":"N","instrument":"VIIRS","confidence":"n","version":"2.0NRT","bright_ti5":"290.08","frp":"1.45","daynight":"N","commune":"Montdragon","code_insee":"81174","departement":"Tarn","region":"Occitanie"}},{"type":"Feature","geometry":{"type":"Point","coordinates":[2.05055,43.7804]},"properties":{"latitude":"43.7804","longitude":"2.05055","bright_ti4":"315.69","scan":"0.35","track":"0.56","acq_date":"2026-06-25","acq_time":"111","satellite":"N","instrument":"VIIRS","confidence":"n","version":"2.0NRT","bright_ti5":"290.61","frp":"1.45","daynight":"N","commune":"Labessière-Candeil","code_insee":"81117","departement":"Tarn","region":"Occitanie"}},{"type":"Feature","geometry":{"type":"Point","coordinates":[7.37154,43.79316]},"properties":{"latitude":"43.79316","longitude":"7.37154","bright_ti4":"302.91","scan":"0.38","track":"0.43","acq_date":"2026-06-25","acq_time":"111","satellite":"N","instrument":"VIIRS","confidence":"n","version":"2.0NRT","bright_ti5":"291.17","frp":"0.83","daynight":"N","commune":"Blausasc","code_insee":"06019","departement":"Alpes-Maritimes","region":"Provence-Alpes-Côte d'Azur"}},{"type":"Feature","geometry":{"type":"Point","coordinates":[2.27286,51.02862]},"properties":{"latitude":"51.02862","longitude":"2.27286","bright_ti4":"315.05","scan":"0.47","track":"0.48","acq_date":"2026-06-25","acq_time":"249","satellite":"N","instrument":"VIIRS","confidence":"n","version":"2.0NRT","bright_ti5":"291.85","frp":"3.29","daynight":"N","commune":"Grande-Synthe","code_insee":"59271","departement":"Nord","region":"Hauts-de-France"}},{"type":"Feature","geometry":{"type":"Point","coordinates":[2.28194,51.03111]},"properties":{"latitude":"51.03111","longitude":"2.28194","bright_ti4":"315.37","scan":"0.47","track":"0.48","acq_date":"2026-06-25","acq_time":"249","satellite":"N","instrument":"VIIRS","confidence":"n","version":"2.0NRT","bright_ti5":"292.18","frp":"2.13","daynight":"N","commune":"Grande-Synthe","code_insee":"59271","departement":"Nord","region":"Hauts-de-France"}},{"type":"Feature","geometry":{"type":"Point","coordinates":[2.28465,51.03525]},"properties":{"latitude":"51.03525","longitude":"2.28465","bright_ti4":"321.99","scan":"0.47","track":"0.48","acq_date":"2026-06-25","acq_time":"249","satellite":"N","instrument":"VIIRS","confidence":"n","version":"2.0NRT","bright_ti5":"292.11","frp":"2.81","daynight":"N","commune":"Grande-Synthe","code_insee":"59271","departement":"Nord","region":"Hauts-de-France"}},{"type":"Feature","geometry":{"type":"Point","coordinates":[2.27826,51.0369]},"properties":{"latitude":"51.0369","longitude":"2.27826","bright_ti4":"302.2","scan":"0.47","track":"0.48","acq_date":"2026-06-25","acq_time":"249","satellite":"N","instrument":"VIIRS","confidence":"n","version":"2.0NRT","bright_ti5":"290.97","frp":"1.72","daynight":"N","commune":"Grande-Synthe","code_insee":"59271","departement":"Nord","region":"Hauts-de-France"}},{"type":"Feature","geometry":{"type":"Point","coordinates":[2.29009,51.04352]},"properties":{"latitude":"51.04352","longitude":"2.29009","bright_ti4":"321.31","scan":"0.47","track":"0.48","acq_date":"2026-06-25","acq_time":"249","satellite":"N","instrument":"VIIRS","confidence":"n","version":"2.0NRT","bright_ti5":"291.69","frp":"5.05","daynight":"N","commune":"Grande-Synthe","code_insee":"59271","departement":"Nord","region":"Hauts-de-France"}},{"type":"Feature","geometry":{"type":"Point","coordinates":[2.2992,51.04601]},"properties":{"latitude":"51.04601","longitude":"2.2992","bright_ti4":"339.88","scan":"0.47","track":"0.48","acq_date":"2026-06-25","acq_time":"249","satellite":"N","instrument":"VIIRS","confidence":"n","version":"2.0NRT","bright_ti5":"293.16","frp":"5.05","daynight":"N","commune":"Grande-Synthe","code_insee":"59271","departement":"Nord","region":"Hauts-de-France"}},{"type":"Feature","geometry":{"type":"Point","coordinates":[5.01391,43.39108]},"properties":{"latitude":"43.39108","longitude":"5.01391","bright_ti4":"303.3","scan":"0.52","track":"0.67","acq_date":"2026-06-25","acq_time":"251","satellite":"N","instrument":"VIIRS","confidence":"n","version":"2.0NRT","bright_ti5":"289.13","frp":"1.22","daynight":"N","commune":"Martigues","code_insee":"13056","departement":"Bouches-du-Rhône","region":"Provence-Alpes-Côte d'Azur"}},{"type":"Feature","geometry":{"type":"Point","coordinates":[4.89579,43.43589]},"properties":{"latitude":"43.43589","longitude":"4.89579","bright_ti4":"302.03","scan":"0.52","track":"0.66","acq_date":"2026-06-25","acq_time":"251","satellite":"N","instrument":"VIIRS","confidence":"n","version":"2.0NRT","bright_ti5":"289.18","frp":"2.19","daynight":"N","commune":"Fos-sur-Mer","code_insee":"13039","departement":"Bouches-du-Rhône","region":"Provence-Alpes-Côte d'Azur"}},{"type":"Feature","geometry":{"type":"Point","coordinates":[4.89162,43.43853]},"properties":{"latitude":"43.43853","longitude":"4.89162","bright_ti4":"304.1","scan":"0.52","track":"0.66","acq_date":"2026-06-25","acq_time":"251","satellite":"N","instrument":"VIIRS","confidence":"n","version":"2.0NRT","bright_ti5":"289.57","frp":"1.68","daynight":"N","commune":"Fos-sur-Mer","code_insee":"13039","departement":"Bouches-du-Rhône","region":"Provence-Alpes-Côte d'Azur"}},{"type":"Feature","geometry":{"type":"Point","coordinates":[4.89322,43.44354]},"properties":{"latitude":"43.44354","longitude":"4.89322","bright_ti4":"303.11","scan":"0.51","track":"0.66","acq_date":"2026-06-25","acq_time":"251","satellite":"N","instrument":"VIIRS","confidence":"n","version":"2.0NRT","bright_ti5":"289.37","frp":"1.81","daynight":"N","commune":"Fos-sur-Mer","code_insee":"13039","departement":"Bouches-du-Rhône","region":"Provence-Alpes-Côte d'Azur"}},{"type":"Feature","geometry":{"type":"Point","coordinates":[4.8951,43.44425]},"properties":{"latitude":"43.44425","longitude":"4.8951","bright_ti4":"308.74","scan":"0.52","track":"0.66","acq_date":"2026-06-25","acq_time":"251","satellite":"N","instrument":"VIIRS","confidence":"n","version":"2.0NRT","bright_ti5":"289.62","frp":"1.68","daynight":"N","commune":"Fos-sur-Mer","code_insee":"13039","departement":"Bouches-du-Rhône","region":"Provence-Alpes-Côte d'Azur"}},{"type":"Feature","geometry":{"type":"Point","coordinates":[4.89668,43.44926]},"properties":{"latitude":"43.44926","longitude":"4.89668","bright_ti4":"320.67","scan":"0.51","track":"0.66","acq_date":"2026-06-25","acq_time":"251","satellite":"N","instrument":"VIIRS","confidence":"n","version":"2.0NRT","bright_ti5":"289.88","frp":"1.81","daynight":"N","commune":"Fos-sur-Mer","code_insee":"13039","departement":"Bouches-du-Rhône","region":"Provence-Alpes-Côte d'Azur"}},{"type":"Feature","geometry":{"type":"Point","coordinates":[2.05177,43.78158]},"properties":{"latitude":"43.78158","longitude":"2.05177","bright_ti4":"314.64","scan":"0.37","track":"0.58","acq_date":"2026-06-25","acq_time":"251","satellite":"N","instrument":"VIIRS","confidence":"n","version":"2.0NRT","bright_ti5":"290.21","frp":"1.33","daynight":"N","commune":"Labessière-Candeil","code_insee":"81117","departement":"Tarn","region":"Occitanie"}},{"type":"Feature","geometry":{"type":"Point","coordinates":[0.048,47.5142]},"properties":{"latitude":"47.5142","longitude":"0.048","bright_ti4":"303.17","scan":"0.48","track":"0.48","acq_date":"2026-06-25","acq_time":"251","satellite":"N","instrument":"VIIRS","confidence":"n","version":"2.0NRT","bright_ti5":"292.07","frp":"0.67","daynight":"N","commune":"Noyant-Villages","code_insee":"49228","departement":"Maine-et-Loire","region":"Pays de la Loire"}},{"type":"Feature","geometry":{"type":"Point","coordinates":[4.56434,48.77229]},"properties":{"latitude":"48.77229","longitude":"4.56434","bright_ti4":"306.35","scan":"0.34","track":"0.56","acq_date":"2026-06-25","acq_time":"251","satellite":"N","instrument":"VIIRS","confidence":"n","version":"2.0NRT","bright_ti5":"294","frp":"0.73","daynight":"N","commune":"Soulanges","code_insee":"51557","departement":"Marne","region":"Grand Est"}},{"type":"Feature","geometry":{"type":"Point","coordinates":[1.76138,48.98657]},"properties":{"latitude":"48.98657","longitude":"1.76138","bright_ti4":"320.34","scan":"0.52","track":"0.5","acq_date":"2026-06-25","acq_time":"251","satellite":"N","instrument":"VIIRS","confidence":"n","version":"2.0NRT","bright_ti5":"296.05","frp":"4.24","daynight":"N","commune":"Porcheville","code_insee":"78501","departement":"Yvelines","region":"Île-de-France"}},{"type":"Feature","geometry":{"type":"Point","coordinates":[0.5363,49.47703]},"properties":{"latitude":"49.47703","longitude":"0.5363","bright_ti4":"311.03","scan":"0.45","track":"0.47","acq_date":"2026-06-25","acq_time":"251","satellite":"N","instrument":"VIIRS","confidence":"n","version":"2.0NRT","bright_ti5":"294.06","frp":"1.7","daynight":"N","commune":"Port-Jérôme-sur-Seine","code_insee":"76476","departement":"Seine-Maritime","region":"Normandie"}},{"type":"Feature","geometry":{"type":"Point","coordinates":[0.5378,49.47957]},"properties":{"latitude":"49.47957","longitude":"0.5378","bright_ti4":"308.2","scan":"0.45","track":"0.47","acq_date":"2026-06-25","acq_time":"251","satellite":"N","instrument":"VIIRS","confidence":"n","version":"2.0NRT","bright_ti5":"293.94","frp":"1.82","daynight":"N","commune":"Port-Jérôme-sur-Seine","code_insee":"76476","departement":"Seine-Maritime","region":"Normandie"}},{"type":"Feature","geometry":{"type":"Point","coordinates":[4.88246,43.4389]},"properties":{"latitude":"43.4389","longitude":"4.88246","bright_ti4":"341.42","scan":"0.39","track":"0.36","acq_date":"2026-06-25","acq_time":"1236","satellite":"N","instrument":"VIIRS","confidence":"n","version":"2.0NRT","bright_ti5":"308.34","frp":"5.88","daynight":"D","commune":"Fos-sur-Mer","code_insee":"13039","departement":"Bouches-du-Rhône","region":"Provence-Alpes-Côte d'Azur"}},{"type":"Feature","geometry":{"type":"Point","coordinates":[4.90049,43.44535]},"properties":{"latitude":"43.44535","longitude":"4.90049","bright_ti4":"348.41","scan":"0.39","track":"0.36","acq_date":"2026-06-25","acq_time":"1236","satellite":"N","instrument":"VIIRS","confidence":"n","version":"2.0NRT","bright_ti5":"312.36","frp":"6.7","daynight":"D","commune":"Fos-sur-Mer","code_insee":"13039","departement":"Bouches-du-Rhône","region":"Provence-Alpes-Côte d'Azur"}},{"type":"Feature","geometry":{"type":"Point","coordinates":[5.48654,43.48211]},"properties":{"latitude":"43.48211","longitude":"5.48654","bright_ti4":"338.04","scan":"0.39","track":"0.36","acq_date":"2026-06-25","acq_time":"1236","satellite":"N","instrument":"VIIRS","confidence":"l","version":"2.0NRT","bright_ti5":"308.08","frp":"3.35","daynight":"D","commune":"Meyreuil","code_insee":"13060","departement":"Bouches-du-Rhône","region":"Provence-Alpes-Côte d'Azur"}},{"type":"Feature","geometry":{"type":"Point","coordinates":[3.20597,43.62666]},"properties":{"latitude":"43.62666","longitude":"3.20597","bright_ti4":"346.99","scan":"0.42","track":"0.37","acq_date":"2026-06-25","acq_time":"1236","satellite":"N","instrument":"VIIRS","confidence":"n","version":"2.0NRT","bright_ti5":"308.35","frp":"11.77","daynight":"D","commune":"Carlencas-et-Levas","code_insee":"34053","departement":"Hérault","region":"Occitanie"}},{"type":"Feature","geometry":{"type":"Point","coordinates":[3.78707,44.28759]},"properties":{"latitude":"44.28759","longitude":"3.78707","bright_ti4":"330.28","scan":"0.4","track":"0.37","acq_date":"2026-06-25","acq_time":"1238","satellite":"N","instrument":"VIIRS","confidence":"n","version":"2.0NRT","bright_ti5":"300.1","frp":"2.28","daynight":"D","commune":"Saint-André-de-Lancize","code_insee":"48136","departement":"Lozère","region":"Occitanie"}},{"type":"Feature","geometry":{"type":"Point","coordinates":[3.78607,44.29094]},"properties":{"latitude":"44.29094","longitude":"3.78607","bright_ti4":"333.14","scan":"0.4","track":"0.37","acq_date":"2026-06-25","acq_time":"1238","satellite":"N","instrument":"VIIRS","confidence":"n","version":"2.0NRT","bright_ti5":"299.35","frp":"2.28","daynight":"D","commune":"Saint-André-de-Lancize","code_insee":"48136","departement":"Lozère","region":"Occitanie"}},{"type":"Feature","geometry":{"type":"Point","coordinates":[1.91274,47.39618]},"properties":{"latitude":"47.39618","longitude":"1.91274","bright_ti4":"367","scan":"0.41","track":"0.37","acq_date":"2026-06-25","acq_time":"1238","satellite":"N","instrument":"VIIRS","confidence":"h","version":"2.0NRT","bright_ti5":"325.08","frp":"201.49","daynight":"D","commune":"Selles-Saint-Denis","code_insee":"41241","departement":"Loir-et-Cher","region":"Centre-Val de Loire"}},{"type":"Feature","geometry":{"type":"Point","coordinates":[-1.81846,47.41427]},"properties":{"latitude":"47.41427","longitude":"-1.81846","bright_ti4":"345.47","scan":"0.53","track":"0.42","acq_date":"2026-06-25","acq_time":"1238","satellite":"N","instrument":"VIIRS","confidence":"n","version":"2.0NRT","bright_ti5":"311.15","frp":"5.33","daynight":"D","commune":"Bouvron","code_insee":"44023","departement":"Loire-Atlantique","region":"Pays de la Loire"}},{"type":"Feature","geometry":{"type":"Point","coordinates":[-1.81849,47.41649]},"properties":{"latitude":"47.41649","longitude":"-1.81849","bright_ti4":"345.13","scan":"0.53","track":"0.42","acq_date":"2026-06-25","acq_time":"1238","satellite":"N","instrument":"VIIRS","confidence":"n","version":"2.0NRT","bright_ti5":"311.15","frp":"5.79","daynight":"D","commune":"Bouvron","code_insee":"44023","departement":"Loire-Atlantique","region":"Pays de la Loire"}},{"type":"Feature","geometry":{"type":"Point","coordinates":[6.96942,48.37762]},"properties":{"latitude":"48.37762","longitude":"6.96942","bright_ti4":"341.13","scan":"0.41","track":"0.37","acq_date":"2026-06-25","acq_time":"1238","satellite":"N","instrument":"VIIRS","confidence":"n","version":"2.0NRT","bright_ti5":"309.52","frp":"5.11","daynight":"D","commune":"Senones","code_insee":"88451","departement":"Vosges","region":"Grand Est"}},{"type":"Feature","geometry":{"type":"Point","coordinates":[3.38743,48.61271]},"properties":{"latitude":"48.61271","longitude":"3.38743","bright_ti4":"332.41","scan":"0.39","track":"0.36","acq_date":"2026-06-25","acq_time":"1238","satellite":"N","instrument":"VIIRS","confidence":"n","version":"2.0NRT","bright_ti5":"305.99","frp":"2.82","daynight":"D","commune":"Beauchery-Saint-Martin","code_insee":"77026","departement":"Seine-et-Marne","region":"Île-de-France"}},{"type":"Feature","geometry":{"type":"Point","coordinates":[3.38623,48.61598]},"properties":{"latitude":"48.61598","longitude":"3.38623","bright_ti4":"367","scan":"0.39","track":"0.36","acq_date":"2026-06-25","acq_time":"1238","satellite":"N","instrument":"VIIRS","confidence":"h","version":"2.0NRT","bright_ti5":"338.5","frp":"102.98","daynight":"D","commune":"Beauchery-Saint-Martin","code_insee":"77026","departement":"Seine-et-Marne","region":"Île-de-France"}},{"type":"Feature","geometry":{"type":"Point","coordinates":[3.39139,48.61681]},"properties":{"latitude":"48.61681","longitude":"3.39139","bright_ti4":"367","scan":"0.39","track":"0.36","acq_date":"2026-06-25","acq_time":"1238","satellite":"N","instrument":"VIIRS","confidence":"h","version":"2.0NRT","bright_ti5":"362.81","frp":"229.18","daynight":"D","commune":"Beauchery-Saint-Martin","code_insee":"77026","departement":"Seine-et-Marne","region":"Île-de-France"}},{"type":"Feature","geometry":{"type":"Point","coordinates":[6.04082,48.8414]},"properties":{"latitude":"48.8414","longitude":"6.04082","bright_ti4":"337.41","scan":"0.4","track":"0.37","acq_date":"2026-06-25","acq_time":"1238","satellite":"N","instrument":"VIIRS","confidence":"l","version":"2.0NRT","bright_ti5":"309.64","frp":"3.55","daynight":"D","commune":"Dieulouard","code_insee":"54157","departement":"Meurthe-et-Moselle","region":"Grand Est"}},{"type":"Feature","geometry":{"type":"Point","coordinates":[3.09983,49.39914]},"properties":{"latitude":"49.39914","longitude":"3.09983","bright_ti4":"331.36","scan":"0.39","track":"0.36","acq_date":"2026-06-25","acq_time":"1238","satellite":"N","instrument":"VIIRS","confidence":"l","version":"2.0NRT","bright_ti5":"306.14","frp":"4.77","daynight":"D","commune":"Vic-sur-Aisne","code_insee":"02795","departement":"Aisne","region":"Hauts-de-France"}},{"type":"Feature","geometry":{"type":"Point","coordinates":[3.10507,49.39998]},"properties":{"latitude":"49.39998","longitude":"3.10507","bright_ti4":"350.92","scan":"0.39","track":"0.36","acq_date":"2026-06-25","acq_time":"1238","satellite":"N","instrument":"VIIRS","confidence":"n","version":"2.0NRT","bright_ti5":"311.79","frp":"4.77","daynight":"D","commune":"Vic-sur-Aisne","code_insee":"02795","departement":"Aisne","region":"Hauts-de-France"}},{"type":"Feature","geometry":{"type":"Point","coordinates":[2.27245,51.02774]},"properties":{"latitude":"51.02774","longitude":"2.27245","bright_ti4":"339.3","scan":"0.39","track":"0.36","acq_date":"2026-06-25","acq_time":"1238","satellite":"N","instrument":"VIIRS","confidence":"n","version":"2.0NRT","bright_ti5":"307.72","frp":"3.3","daynight":"D","commune":"Grande-Synthe","code_insee":"59271","departement":"Nord","region":"Hauts-de-France"}},{"type":"Feature","geometry":{"type":"Point","coordinates":[2.28327,51.0295]},"properties":{"latitude":"51.0295","longitude":"2.28327","bright_ti4":"340.06","scan":"0.39","track":"0.36","acq_date":"2026-06-25","acq_time":"1238","satellite":"N","instrument":"VIIRS","confidence":"l","version":"2.0NRT","bright_ti5":"311.4","frp":"10.76","daynight":"D","commune":"Grande-Synthe","code_insee":"59271","departement":"Nord","region":"Hauts-de-France"}},{"type":"Feature","geometry":{"type":"Point","coordinates":[2.28195,51.03276]},"properties":{"latitude":"51.03276","longitude":"2.28195","bright_ti4":"342.88","scan":"0.39","track":"0.36","acq_date":"2026-06-25","acq_time":"1238","satellite":"N","instrument":"VIIRS","confidence":"n","version":"2.0NRT","bright_ti5":"307.77","frp":"10.76","daynight":"D","commune":"Grande-Synthe","code_insee":"59271","departement":"Nord","region":"Hauts-de-France"}},{"type":"Feature","geometry":{"type":"Point","coordinates":[2.31711,51.04538]},"properties":{"latitude":"51.04538","longitude":"2.31711","bright_ti4":"339.85","scan":"0.39","track":"0.36","acq_date":"2026-06-25","acq_time":"1238","satellite":"N","instrument":"VIIRS","confidence":"n","version":"2.0NRT","bright_ti5":"305.16","frp":"5.36","daynight":"D","commune":"Dunkerque","code_insee":"59183","departement":"Nord","region":"Hauts-de-France"}},{"type":"Feature","geometry":{"type":"Point","coordinates":[2.29956,51.04602]},"properties":{"latitude":"51.04602","longitude":"2.29956","bright_ti4":"333.29","scan":"0.39","track":"0.36","acq_date":"2026-06-25","acq_time":"1238","satellite":"N","instrument":"VIIRS","confidence":"l","version":"2.0NRT","bright_ti5":"303.6","frp":"1.54","daynight":"D","commune":"Grande-Synthe","code_insee":"59271","departement":"Nord","region":"Hauts-de-France"}},{"type":"Feature","geometry":{"type":"Point","coordinates":[2.32252,51.04625]},"properties":{"latitude":"51.04625","longitude":"2.32252","bright_ti4":"340.19","scan":"0.39","track":"0.36","acq_date":"2026-06-25","acq_time":"1238","satellite":"N","instrument":"VIIRS","confidence":"n","version":"2.0NRT","bright_ti5":"306.21","frp":"5.36","daynight":"D","commune":"Dunkerque","code_insee":"59183","departement":"Nord","region":"Hauts-de-France"}},{"type":"Feature","geometry":{"type":"Point","coordinates":[-0.9714,44.6251]},"properties":{"latitude":"44.6251","longitude":"-0.9714","bright_ti4":"350.57","scan":"0.72","track":"0.75","acq_date":"2026-06-25","acq_time":"1418","satellite":"N","instrument":"VIIRS","confidence":"n","version":"2.0NRT","bright_ti5":"294.32","frp":"8","daynight":"D","commune":"Mios","code_insee":"33284","departement":"Gironde","region":"Nouvelle-Aquitaine"}},{"type":"Feature","geometry":{"type":"Point","coordinates":[-0.96288,44.62888]},"properties":{"latitude":"44.62888","longitude":"-0.96288","bright_ti4":"336.82","scan":"0.72","track":"0.75","acq_date":"2026-06-25","acq_time":"1418","satellite":"N","instrument":"VIIRS","confidence":"n","version":"2.0NRT","bright_ti5":"294.25","frp":"11.86","daynight":"D","commune":"Mios","code_insee":"33284","departement":"Gironde","region":"Nouvelle-Aquitaine"}},{"type":"Feature","geometry":{"type":"Point","coordinates":[-0.97236,44.62893]},"properties":{"latitude":"44.62893","longitude":"-0.97236","bright_ti4":"354.99","scan":"0.72","track":"0.75","acq_date":"2026-06-25","acq_time":"1418","satellite":"N","instrument":"VIIRS","confidence":"n","version":"2.0NRT","bright_ti5":"295.57","frp":"11.86","daynight":"D","commune":"Biganos","code_insee":"33051","departement":"Gironde","region":"Nouvelle-Aquitaine"}},{"type":"Feature","geometry":{"type":"Point","coordinates":[-0.97122,44.63221]},"properties":{"latitude":"44.63221","longitude":"-0.97122","bright_ti4":"333.48","scan":"0.72","track":"0.75","acq_date":"2026-06-25","acq_time":"1418","satellite":"N","instrument":"VIIRS","confidence":"n","version":"2.0NRT","bright_ti5":"294.94","frp":"7.15","daynight":"D","commune":"Biganos","code_insee":"33051","departement":"Gironde","region":"Nouvelle-Aquitaine"}},{"type":"Feature","geometry":{"type":"Point","coordinates":[5.66627,45.22959]},"properties":{"latitude":"45.22959","longitude":"5.66627","bright_ti4":"297.93","scan":"0.41","track":"0.37","acq_date":"2026-06-25","acq_time":"130","satellite":"N20","instrument":"VIIRS","confidence":"n","version":"2.0NRT","bright_ti5":"283.46","frp":"0.18","daynight":"N","commune":"Saint-Égrève","code_insee":"38382","departement":"Isère","region":"Auvergne-Rhône-Alpes"}},{"type":"Feature","geometry":{"type":"Point","coordinates":[3.42412,46.24958]},"properties":{"latitude":"46.24958","longitude":"3.42412","bright_ti4":"299.96","scan":"0.5","track":"0.41","acq_date":"2026-06-25","acq_time":"130","satellite":"N20","instrument":"VIIRS","confidence":"n","version":"2.0NRT","bright_ti5":"286.97","frp":"0.53","daynight":"N","commune":"Créchy","code_insee":"03091","departement":"Allier","region":"Auvergne-Rhône-Alpes"}},{"type":"Feature","geometry":{"type":"Point","coordinates":[-0.33077,47.11883]},"properties":{"latitude":"47.11883","longitude":"-0.33077","bright_ti4":"307.27","scan":"0.49","track":"0.48","acq_date":"2026-06-25","acq_time":"130","satellite":"N20","instrument":"VIIRS","confidence":"n","version":"2.0NRT","bright_ti5":"294.85","frp":"1.81","daynight":"N","commune":"Lys-Haut-Layon","code_insee":"49373","departement":"Maine-et-Loire","region":"Pays de la Loire"}},{"type":"Feature","geometry":{"type":"Point","coordinates":[5.55135,47.13456]},"properties":{"latitude":"47.13456","longitude":"5.55135","bright_ti4":"299.08","scan":"0.43","track":"0.38","acq_date":"2026-06-25","acq_time":"130","satellite":"N20","instrument":"VIIRS","confidence":"n","version":"2.0NRT","bright_ti5":"286.43","frp":"0.31","daynight":"N","commune":"Rochefort-sur-Nenon","code_insee":"39462","departement":"Jura","region":"Bourgogne-Franche-Comté"}},{"type":"Feature","geometry":{"type":"Point","coordinates":[7.23736,47.6294]},"properties":{"latitude":"47.6294","longitude":"7.23736","bright_ti4":"305.14","scan":"0.4","track":"0.37","acq_date":"2026-06-25","acq_time":"130","satellite":"N20","instrument":"VIIRS","confidence":"n","version":"2.0NRT","bright_ti5":"294.34","frp":"0.78","daynight":"N","commune":"Altkirch","code_insee":"68004","departement":"Haut-Rhin","region":"Grand Est"}},{"type":"Feature","geometry":{"type":"Point","coordinates":[5.68428,48.71766]},"properties":{"latitude":"48.71766","longitude":"5.68428","bright_ti4":"302.29","scan":"0.44","track":"0.39","acq_date":"2026-06-25","acq_time":"130","satellite":"N20","instrument":"VIIRS","confidence":"n","version":"2.0NRT","bright_ti5":"291.83","frp":"0.63","daynight":"N","commune":"Sorcy-Saint-Martin","code_insee":"55496","departement":"Meuse","region":"Grand Est"}},{"type":"Feature","geometry":{"type":"Point","coordinates":[2.65818,48.87299]},"properties":{"latitude":"48.87299","longitude":"2.65818","bright_ti4":"308.87","scan":"0.57","track":"0.43","acq_date":"2026-06-25","acq_time":"130","satellite":"N20","instrument":"VIIRS","confidence":"n","version":"2.0NRT","bright_ti5":"295.26","frp":"1.81","daynight":"N","commune":"Vaires-sur-Marne","code_insee":"77479","departement":"Seine-et-Marne","region":"Île-de-France"}},{"type":"Feature","geometry":{"type":"Point","coordinates":[2.65707,48.8748]},"properties":{"latitude":"48.8748","longitude":"2.65707","bright_ti4":"305.07","scan":"0.57","track":"0.43","acq_date":"2026-06-25","acq_time":"130","satellite":"N20","instrument":"VIIRS","confidence":"n","version":"2.0NRT","bright_ti5":"294.38","frp":"1.16","daynight":"N","commune":"Vaires-sur-Marne","code_insee":"77479","departement":"Seine-et-Marne","region":"Île-de-France"}},{"type":"Feature","geometry":{"type":"Point","coordinates":[1.76038,48.98248]},"properties":{"latitude":"48.98248","longitude":"1.76038","bright_ti4":"317.64","scan":"0.41","track":"0.45","acq_date":"2026-06-25","acq_time":"130","satellite":"N20","instrument":"VIIRS","confidence":"n","version":"2.0NRT","bright_ti5":"296.04","frp":"2.46","daynight":"N","commune":"Porcheville","code_insee":"78501","departement":"Yvelines","region":"Île-de-France"}},{"type":"Feature","geometry":{"type":"Point","coordinates":[0.53291,49.47746]},"properties":{"latitude":"49.47746","longitude":"0.53291","bright_ti4":"311.59","scan":"0.47","track":"0.48","acq_date":"2026-06-25","acq_time":"130","satellite":"N20","instrument":"VIIRS","confidence":"n","version":"2.0NRT","bright_ti5":"294.37","frp":"1.46","daynight":"N","commune":"Lillebonne","code_insee":"76384","departement":"Seine-Maritime","region":"Normandie"}},{"type":"Feature","geometry":{"type":"Point","coordinates":[0.5335,49.47833]},"properties":{"latitude":"49.47833","longitude":"0.5335","bright_ti4":"311.67","scan":"0.47","track":"0.48","acq_date":"2026-06-25","acq_time":"130","satellite":"N20","instrument":"VIIRS","confidence":"n","version":"2.0NRT","bright_ti5":"294.37","frp":"2.1","daynight":"N","commune":"Port-Jérôme-sur-Seine","code_insee":"76476","departement":"Seine-Maritime","region":"Normandie"}},{"type":"Feature","geometry":{"type":"Point","coordinates":[2.27038,51.02674]},"properties":{"latitude":"51.02674","longitude":"2.27038","bright_ti4":"305.38","scan":"0.42","track":"0.45","acq_date":"2026-06-25","acq_time":"130","satellite":"N20","instrument":"VIIRS","confidence":"n","version":"2.0NRT","bright_ti5":"291.96","frp":"0.77","daynight":"N","commune":"Grande-Synthe","code_insee":"59271","departement":"Nord","region":"Hauts-de-France"}},{"type":"Feature","geometry":{"type":"Point","coordinates":[2.27125,51.0309]},"properties":{"latitude":"51.0309","longitude":"2.27125","bright_ti4":"326.84","scan":"0.42","track":"0.45","acq_date":"2026-06-25","acq_time":"130","satellite":"N20","instrument":"VIIRS","confidence":"n","version":"2.0NRT","bright_ti5":"292.64","frp":"2.66","daynight":"N","commune":"Grande-Synthe","code_insee":"59271","departement":"Nord","region":"Hauts-de-France"}},{"type":"Feature","geometry":{"type":"Point","coordinates":[2.28999,51.03352]},"properties":{"latitude":"51.03352","longitude":"2.28999","bright_ti4":"316.74","scan":"0.41","track":"0.45","acq_date":"2026-06-25","acq_time":"130","satellite":"N20","instrument":"VIIRS","confidence":"n","version":"2.0NRT","bright_ti5":"293.33","frp":"2.6","daynight":"N","commune":"Grande-Synthe","code_insee":"59271","departement":"Nord","region":"Hauts-de-France"}},{"type":"Feature","geometry":{"type":"Point","coordinates":[2.29045,51.03475]},"properties":{"latitude":"51.03475","longitude":"2.29045","bright_ti4":"302.98","scan":"0.41","track":"0.45","acq_date":"2026-06-25","acq_time":"130","satellite":"N20","instrument":"VIIRS","confidence":"n","version":"2.0NRT","bright_ti5":"292.8","frp":"0.57","daynight":"N","commune":"Grande-Synthe","code_insee":"59271","departement":"Nord","region":"Hauts-de-France"}},{"type":"Feature","geometry":{"type":"Point","coordinates":[2.29817,51.04255]},"properties":{"latitude":"51.04255","longitude":"2.29817","bright_ti4":"306.73","scan":"0.41","track":"0.45","acq_date":"2026-06-25","acq_time":"130","satellite":"N20","instrument":"VIIRS","confidence":"n","version":"2.0NRT","bright_ti5":"293.29","frp":"2.13","daynight":"N","commune":"Grande-Synthe","code_insee":"59271","departement":"Nord","region":"Hauts-de-France"}},{"type":"Feature","geometry":{"type":"Point","coordinates":[2.29905,51.04669]},"properties":{"latitude":"51.04669","longitude":"2.29905","bright_ti4":"327.21","scan":"0.41","track":"0.45","acq_date":"2026-06-25","acq_time":"130","satellite":"N20","instrument":"VIIRS","confidence":"n","version":"2.0NRT","bright_ti5":"292.92","frp":"2.13","daynight":"N","commune":"Grande-Synthe","code_insee":"59271","departement":"Nord","region":"Hauts-de-France"}},{"type":"Feature","geometry":{"type":"Point","coordinates":[5.01035,43.38819]},"properties":{"latitude":"43.38819","longitude":"5.01035","bright_ti4":"315.47","scan":"0.42","track":"0.37","acq_date":"2026-06-25","acq_time":"132","satellite":"N20","instrument":"VIIRS","confidence":"n","version":"2.0NRT","bright_ti5":"294.22","frp":"1.58","daynight":"N","commune":"Martigues","code_insee":"13056","departement":"Bouches-du-Rhône","region":"Provence-Alpes-Côte d'Azur"}},{"type":"Feature","geometry":{"type":"Point","coordinates":[4.89523,43.43534]},"properties":{"latitude":"43.43534","longitude":"4.89523","bright_ti4":"319.64","scan":"0.42","track":"0.38","acq_date":"2026-06-25","acq_time":"132","satellite":"N20","instrument":"VIIRS","confidence":"n","version":"2.0NRT","bright_ti5":"294.06","frp":"2.86","daynight":"N","commune":"Fos-sur-Mer","code_insee":"13039","departement":"Bouches-du-Rhône","region":"Provence-Alpes-Côte d'Azur"}},{"type":"Feature","geometry":{"type":"Point","coordinates":[4.89094,43.43945]},"properties":{"latitude":"43.43945","longitude":"4.89094","bright_ti4":"312.82","scan":"0.42","track":"0.38","acq_date":"2026-06-25","acq_time":"132","satellite":"N20","instrument":"VIIRS","confidence":"n","version":"2.0NRT","bright_ti5":"293.87","frp":"2.41","daynight":"N","commune":"Fos-sur-Mer","code_insee":"13039","departement":"Bouches-du-Rhône","region":"Provence-Alpes-Côte d'Azur"}},{"type":"Feature","geometry":{"type":"Point","coordinates":[4.89807,43.44437]},"properties":{"latitude":"43.44437","longitude":"4.89807","bright_ti4":"344.83","scan":"0.42","track":"0.38","acq_date":"2026-06-25","acq_time":"132","satellite":"N20","instrument":"VIIRS","confidence":"n","version":"2.0NRT","bright_ti5":"295.51","frp":"6.93","daynight":"N","commune":"Fos-sur-Mer","code_insee":"13039","departement":"Bouches-du-Rhône","region":"Provence-Alpes-Côte d'Azur"}},{"type":"Feature","geometry":{"type":"Point","coordinates":[4.88777,43.44572]},"properties":{"latitude":"43.44572","longitude":"4.88777","bright_ti4":"307.8","scan":"0.42","track":"0.38","acq_date":"2026-06-25","acq_time":"132","satellite":"N20","instrument":"VIIRS","confidence":"n","version":"2.0NRT","bright_ti5":"292.65","frp":"1.73","daynight":"N","commune":"Fos-sur-Mer","code_insee":"13039","departement":"Bouches-du-Rhône","region":"Provence-Alpes-Côte d'Azur"}},{"type":"Feature","geometry":{"type":"Point","coordinates":[4.89893,43.44779]},"properties":{"latitude":"43.44779","longitude":"4.89893","bright_ti4":"331.07","scan":"0.42","track":"0.38","acq_date":"2026-06-25","acq_time":"132","satellite":"N20","instrument":"VIIRS","confidence":"n","version":"2.0NRT","bright_ti5":"294.43","frp":"3.51","daynight":"N","commune":"Fos-sur-Mer","code_insee":"13039","departement":"Bouches-du-Rhône","region":"Provence-Alpes-Côte d'Azur"}},{"type":"Feature","geometry":{"type":"Point","coordinates":[2.05199,43.77881]},"properties":{"latitude":"43.77881","longitude":"2.05199","bright_ti4":"329.21","scan":"0.53","track":"0.42","acq_date":"2026-06-25","acq_time":"132","satellite":"N20","instrument":"VIIRS","confidence":"n","version":"2.0NRT","bright_ti5":"293.45","frp":"3.23","daynight":"N","commune":"Labessière-Candeil","code_insee":"81117","departement":"Tarn","region":"Occitanie"}},{"type":"Feature","geometry":{"type":"Point","coordinates":[2.05763,43.77991]},"properties":{"latitude":"43.77991","longitude":"2.05763","bright_ti4":"302.76","scan":"0.53","track":"0.42","acq_date":"2026-06-25","acq_time":"132","satellite":"N20","instrument":"VIIRS","confidence":"n","version":"2.0NRT","bright_ti5":"291.78","frp":"2","daynight":"N","commune":"Montdragon","code_insee":"81174","departement":"Tarn","region":"Occitanie"}},{"type":"Feature","geometry":{"type":"Point","coordinates":[2.05109,43.78058]},"properties":{"latitude":"43.78058","longitude":"2.05109","bright_ti4":"324.92","scan":"0.53","track":"0.42","acq_date":"2026-06-25","acq_time":"132","satellite":"N20","instrument":"VIIRS","confidence":"n","version":"2.0NRT","bright_ti5":"292.23","frp":"2","daynight":"N","commune":"Labessière-Candeil","code_insee":"81117","departement":"Tarn","region":"Occitanie"}},{"type":"Feature","geometry":{"type":"Point","coordinates":[7.37428,43.79384]},"properties":{"latitude":"43.79384","longitude":"7.37428","bright_ti4":"311","scan":"0.39","track":"0.36","acq_date":"2026-06-25","acq_time":"132","satellite":"N20","instrument":"VIIRS","confidence":"n","version":"2.0NRT","bright_ti5":"292.91","frp":"1.07","daynight":"N","commune":"Blausasc","code_insee":"06019","departement":"Alpes-Maritimes","region":"Provence-Alpes-Côte d'Azur"}},{"type":"Feature","geometry":{"type":"Point","coordinates":[1.76219,48.9843]},"properties":{"latitude":"48.9843","longitude":"1.76219","bright_ti4":"320.5","scan":"0.47","track":"0.64","acq_date":"2026-06-25","acq_time":"310","satellite":"N20","instrument":"VIIRS","confidence":"n","version":"2.0NRT","bright_ti5":"293.94","frp":"2.59","daynight":"N","commune":"Porcheville","code_insee":"78501","departement":"Yvelines","region":"Île-de-France"}},{"type":"Feature","geometry":{"type":"Point","coordinates":[1.76113,48.98564]},"properties":{"latitude":"48.98564","longitude":"1.76113","bright_ti4":"317.51","scan":"0.47","track":"0.64","acq_date":"2026-06-25","acq_time":"310","satellite":"N20","instrument":"VIIRS","confidence":"n","version":"2.0NRT","bright_ti5":"293.39","frp":"2.3","daynight":"N","commune":"Porcheville","code_insee":"78501","departement":"Yvelines","region":"Île-de-France"}},{"type":"Feature","geometry":{"type":"Point","coordinates":[2.01662,50.00497]},"properties":{"latitude":"50.00497","longitude":"2.01662","bright_ti4":"343.66","scan":"0.45","track":"0.63","acq_date":"2026-06-25","acq_time":"310","satellite":"N20","instrument":"VIIRS","confidence":"n","version":"2.0NRT","bright_ti5":"292.34","frp":"4.14","daynight":"N","commune":"Condé-Folie","code_insee":"80205","departement":"Somme","region":"Hauts-de-France"}},{"type":"Feature","geometry":{"type":"Point","coordinates":[2.011,50.00682]},"properties":{"latitude":"50.00682","longitude":"2.011","bright_ti4":"316.43","scan":"0.45","track":"0.63","acq_date":"2026-06-25","acq_time":"310","satellite":"N20","instrument":"VIIRS","confidence":"n","version":"2.0NRT","bright_ti5":"291.39","frp":"4.14","daynight":"N","commune":"Condé-Folie","code_insee":"80205","departement":"Somme","region":"Hauts-de-France"}},{"type":"Feature","geometry":{"type":"Point","coordinates":[2.27441,51.02779]},"properties":{"latitude":"51.02779","longitude":"2.27441","bright_ti4":"302.41","scan":"0.42","track":"0.61","acq_date":"2026-06-25","acq_time":"310","satellite":"N20","instrument":"VIIRS","confidence":"n","version":"2.0NRT","bright_ti5":"291.06","frp":"1.17","daynight":"N","commune":"Grande-Synthe","code_insee":"59271","departement":"Nord","region":"Hauts-de-France"}},{"type":"Feature","geometry":{"type":"Point","coordinates":[2.28392,51.0311]},"properties":{"latitude":"51.0311","longitude":"2.28392","bright_ti4":"304.87","scan":"0.42","track":"0.61","acq_date":"2026-06-25","acq_time":"310","satellite":"N20","instrument":"VIIRS","confidence":"n","version":"2.0NRT","bright_ti5":"291.37","frp":"1.17","daynight":"N","commune":"Grande-Synthe","code_insee":"59271","departement":"Nord","region":"Hauts-de-France"}},{"type":"Feature","geometry":{"type":"Point","coordinates":[2.27852,51.03284]},"properties":{"latitude":"51.03284","longitude":"2.27852","bright_ti4":"313.2","scan":"0.42","track":"0.61","acq_date":"2026-06-25","acq_time":"310","satellite":"N20","instrument":"VIIRS","confidence":"n","version":"2.0NRT","bright_ti5":"290.65","frp":"1.17","daynight":"N","commune":"Grande-Synthe","code_insee":"59271","departement":"Nord","region":"Hauts-de-France"}},{"type":"Feature","geometry":{"type":"Point","coordinates":[2.30176,51.04449]},"properties":{"latitude":"51.04449","longitude":"2.30176","bright_ti4":"303.65","scan":"0.42","track":"0.61","acq_date":"2026-06-25","acq_time":"310","satellite":"N20","instrument":"VIIRS","confidence":"n","version":"2.0NRT","bright_ti5":"290.92","frp":"1.6","daynight":"N","commune":"Grande-Synthe","code_insee":"59271","departement":"Nord","region":"Hauts-de-France"}},{"type":"Feature","geometry":{"type":"Point","coordinates":[2.29637,51.04623]},"properties":{"latitude":"51.04623","longitude":"2.29637","bright_ti4":"316.96","scan":"0.42","track":"0.61","acq_date":"2026-06-25","acq_time":"310","satellite":"N20","instrument":"VIIRS","confidence":"n","version":"2.0NRT","bright_ti5":"290.79","frp":"1.72","daynight":"N","commune":"Grande-Synthe","code_insee":"59271","departement":"Nord","region":"Hauts-de-France"}},{"type":"Feature","geometry":{"type":"Point","coordinates":[2.05297,43.77823]},"properties":{"latitude":"43.77823","longitude":"2.05297","bright_ti4":"301.65","scan":"0.73","track":"0.76","acq_date":"2026-06-25","acq_time":"313","satellite":"N20","instrument":"VIIRS","confidence":"n","version":"2.0NRT","bright_ti5":"287.95","frp":"1.27","daynight":"N","commune":"Labessière-Candeil","code_insee":"81117","departement":"Tarn","region":"Occitanie"}},{"type":"Feature","geometry":{"type":"Point","coordinates":[4.88341,43.43657]},"properties":{"latitude":"43.43657","longitude":"4.88341","bright_ti4":"336.86","scan":"0.49","track":"0.4","acq_date":"2026-06-25","acq_time":"1255","satellite":"N20","instrument":"VIIRS","confidence":"l","version":"2.0NRT","bright_ti5":"309.78","frp":"8.18","daynight":"D","commune":"Fos-sur-Mer","code_insee":"13039","departement":"Bouches-du-Rhône","region":"Provence-Alpes-Côte d'Azur"}},{"type":"Feature","geometry":{"type":"Point","coordinates":[4.89995,43.44592]},"properties":{"latitude":"43.44592","longitude":"4.89995","bright_ti4":"341.34","scan":"0.49","track":"0.4","acq_date":"2026-06-25","acq_time":"1255","satellite":"N20","instrument":"VIIRS","confidence":"n","version":"2.0NRT","bright_ti5":"309.36","frp":"8.2","daynight":"D","commune":"Fos-sur-Mer","code_insee":"13039","departement":"Bouches-du-Rhône","region":"Provence-Alpes-Côte d'Azur"}},{"type":"Feature","geometry":{"type":"Point","coordinates":[3.20476,43.6263]},"properties":{"latitude":"43.6263","longitude":"3.20476","bright_ti4":"346.5","scan":"0.43","track":"0.38","acq_date":"2026-06-25","acq_time":"1255","satellite":"N20","instrument":"VIIRS","confidence":"n","version":"2.0NRT","bright_ti5":"308.96","frp":"12.11","daynight":"D","commune":"Carlencas-et-Levas","code_insee":"34053","departement":"Hérault","region":"Occitanie"}},{"type":"Feature","geometry":{"type":"Point","coordinates":[3.2039,43.62976]},"properties":{"latitude":"43.62976","longitude":"3.2039","bright_ti4":"335.77","scan":"0.43","track":"0.38","acq_date":"2026-06-25","acq_time":"1255","satellite":"N20","instrument":"VIIRS","confidence":"n","version":"2.0NRT","bright_ti5":"303.74","frp":"12.11","daynight":"D","commune":"Carlencas-et-Levas","code_insee":"34053","departement":"Hérault","region":"Occitanie"}},{"type":"Feature","geometry":{"type":"Point","coordinates":[2.05303,43.77753]},"properties":{"latitude":"43.77753","longitude":"2.05303","bright_ti4":"339.26","scan":"0.4","track":"0.37","acq_date":"2026-06-25","acq_time":"1255","satellite":"N20","instrument":"VIIRS","confidence":"n","version":"2.0NRT","bright_ti5":"312.67","frp":"8.09","daynight":"D","commune":"Graulhet","code_insee":"81105","departement":"Tarn","region":"Occitanie"}},{"type":"Feature","geometry":{"type":"Point","coordinates":[0.32978,44.23884]},"properties":{"latitude":"44.23884","longitude":"0.32978","bright_ti4":"339.85","scan":"0.39","track":"0.36","acq_date":"2026-06-25","acq_time":"1255","satellite":"N20","instrument":"VIIRS","confidence":"n","version":"2.0NRT","bright_ti5":"308.07","frp":"4.28","daynight":"D","commune":"Thouars-sur-Garonne","code_insee":"47308","departement":"Lot-et-Garonne","region":"Nouvelle-Aquitaine"}},{"type":"Feature","geometry":{"type":"Point","coordinates":[3.78554,44.29033]},"properties":{"latitude":"44.29033","longitude":"3.78554","bright_ti4":"334.03","scan":"0.45","track":"0.39","acq_date":"2026-06-25","acq_time":"1255","satellite":"N20","instrument":"VIIRS","confidence":"n","version":"2.0NRT","bright_ti5":"299.85","frp":"5.55","daynight":"D","commune":"Saint-André-de-Lancize","code_insee":"48136","departement":"Lozère","region":"Occitanie"}},{"type":"Feature","geometry":{"type":"Point","coordinates":[0.31582,44.76182]},"properties":{"latitude":"44.76182","longitude":"0.31582","bright_ti4":"337.08","scan":"0.39","track":"0.36","acq_date":"2026-06-25","acq_time":"1255","satellite":"N20","instrument":"VIIRS","confidence":"l","version":"2.0NRT","bright_ti5":"309.4","frp":"1.46","daynight":"D","commune":"Thénac","code_insee":"24549","departement":"Dordogne","region":"Nouvelle-Aquitaine"}},{"type":"Feature","geometry":{"type":"Point","coordinates":[2.17064,45.89216]},"properties":{"latitude":"45.89216","longitude":"2.17064","bright_ti4":"338.32","scan":"0.42","track":"0.38","acq_date":"2026-06-25","acq_time":"1255","satellite":"N20","instrument":"VIIRS","confidence":"n","version":"2.0NRT","bright_ti5":"311.36","frp":"3.19","daynight":"D","commune":"Felletin","code_insee":"23079","departement":"Creuse","region":"Nouvelle-Aquitaine"}},{"type":"Feature","geometry":{"type":"Point","coordinates":[-0.66702,46.72157]},"properties":{"latitude":"46.72157","longitude":"-0.66702","bright_ti4":"341.22","scan":"0.39","track":"0.36","acq_date":"2026-06-25","acq_time":"1255","satellite":"N20","instrument":"VIIRS","confidence":"n","version":"2.0NRT","bright_ti5":"310.01","frp":"2.34","daynight":"D","commune":"La Forêt-sur-Sèvre","code_insee":"79123","departement":"Deux-Sèvres","region":"Nouvelle-Aquitaine"}},{"type":"Feature","geometry":{"type":"Point","coordinates":[-0.99005,46.95016]},"properties":{"latitude":"46.95016","longitude":"-0.99005","bright_ti4":"335.32","scan":"0.38","track":"0.36","acq_date":"2026-06-25","acq_time":"1255","satellite":"N20","instrument":"VIIRS","confidence":"l","version":"2.0NRT","bright_ti5":"309.53","frp":"0.97","daynight":"D","commune":"Chanverrie","code_insee":"85302","departement":"Vendée","region":"Pays de la Loire"}},{"type":"Feature","geometry":{"type":"Point","coordinates":[-0.23085,47.06177]},"properties":{"latitude":"47.06177","longitude":"-0.23085","bright_ti4":"347.5","scan":"0.39","track":"0.36","acq_date":"2026-06-25","acq_time":"1255","satellite":"N20","instrument":"VIIRS","confidence":"n","version":"2.0NRT","bright_ti5":"314.89","frp":"10.05","daynight":"D","commune":"Loretz-d'Argenton","code_insee":"79014","departement":"Deux-Sèvres","region":"Nouvelle-Aquitaine"}},{"type":"Feature","geometry":{"type":"Point","coordinates":[-0.22577,47.0625]},"properties":{"latitude":"47.0625","longitude":"-0.22577","bright_ti4":"339.04","scan":"0.39","track":"0.36","acq_date":"2026-06-25","acq_time":"1255","satellite":"N20","instrument":"VIIRS","confidence":"l","version":"2.0NRT","bright_ti5":"310.29","frp":"10.05","daynight":"D","commune":"Saint-Martin-de-Sanzay","code_insee":"79277","departement":"Deux-Sèvres","region":"Nouvelle-Aquitaine"}},{"type":"Feature","geometry":{"type":"Point","coordinates":[-0.22678,47.0658]},"properties":{"latitude":"47.0658","longitude":"-0.22678","bright_ti4":"353.93","scan":"0.39","track":"0.36","acq_date":"2026-06-25","acq_time":"1255","satellite":"N20","instrument":"VIIRS","confidence":"n","version":"2.0NRT","bright_ti5":"312.3","frp":"10.05","daynight":"D","commune":"Loretz-d'Argenton","code_insee":"79014","departement":"Deux-Sèvres","region":"Nouvelle-Aquitaine"}},{"type":"Feature","geometry":{"type":"Point","coordinates":[-0.23288,47.06836]},"properties":{"latitude":"47.06836","longitude":"-0.23288","bright_ti4":"367","scan":"0.39","track":"0.36","acq_date":"2026-06-25","acq_time":"1255","satellite":"N20","instrument":"VIIRS","confidence":"h","version":"2.0NRT","bright_ti5":"326.83","frp":"54.52","daynight":"D","commune":"Loretz-d'Argenton","code_insee":"79014","departement":"Deux-Sèvres","region":"Nouvelle-Aquitaine"}},{"type":"Feature","geometry":{"type":"Point","coordinates":[-0.2278,47.06909]},"properties":{"latitude":"47.06909","longitude":"-0.2278","bright_ti4":"344.71","scan":"0.39","track":"0.36","acq_date":"2026-06-25","acq_time":"1255","satellite":"N20","instrument":"VIIRS","confidence":"n","version":"2.0NRT","bright_ti5":"318.26","frp":"54.52","daynight":"D","commune":"Loretz-d'Argenton","code_insee":"79014","departement":"Deux-Sèvres","region":"Nouvelle-Aquitaine"}},{"type":"Feature","geometry":{"type":"Point","coordinates":[-1.82407,47.41418]},"properties":{"latitude":"47.41418","longitude":"-1.82407","bright_ti4":"350.58","scan":"0.38","track":"0.36","acq_date":"2026-06-25","acq_time":"1255","satellite":"N20","instrument":"VIIRS","confidence":"n","version":"2.0NRT","bright_ti5":"312.86","frp":"5.33","daynight":"D","commune":"Bouvron","code_insee":"44023","departement":"Loire-Atlantique","region":"Pays de la Loire"}},{"type":"Feature","geometry":{"type":"Point","coordinates":[-1.81906,47.41497]},"properties":{"latitude":"47.41497","longitude":"-1.81906","bright_ti4":"348.09","scan":"0.38","track":"0.36","acq_date":"2026-06-25","acq_time":"1255","satellite":"N20","instrument":"VIIRS","confidence":"n","version":"2.0NRT","bright_ti5":"313.97","frp":"4.58","daynight":"D","commune":"Bouvron","code_insee":"44023","departement":"Loire-Atlantique","region":"Pays de la Loire"}},{"type":"Feature","geometry":{"type":"Point","coordinates":[-0.09372,48.91628]},"properties":{"latitude":"48.91628","longitude":"-0.09372","bright_ti4":"367","scan":"0.4","track":"0.37","acq_date":"2026-06-25","acq_time":"1257","satellite":"N20","instrument":"VIIRS","confidence":"l","version":"2.0NRT","bright_ti5":"328.67","frp":"55.78","daynight":"D","commune":"Morteaux-Coulibœuf","code_insee":"14452","departement":"Calvados","region":"Normandie"}},{"type":"Feature","geometry":{"type":"Point","coordinates":[-0.08831,48.91701]},"properties":{"latitude":"48.91701","longitude":"-0.08831","bright_ti4":"367","scan":"0.4","track":"0.37","acq_date":"2026-06-25","acq_time":"1257","satellite":"N20","instrument":"VIIRS","confidence":"h","version":"2.0NRT","bright_ti5":"341.19","frp":"55.06","daynight":"D","commune":"Morteaux-Coulibœuf","code_insee":"14452","departement":"Calvados","region":"Normandie"}},{"type":"Feature","geometry":{"type":"Point","coordinates":[-0.0829,48.91775]},"properties":{"latitude":"48.91775","longitude":"-0.0829","bright_ti4":"339.14","scan":"0.4","track":"0.37","acq_date":"2026-06-25","acq_time":"1257","satellite":"N20","instrument":"VIIRS","confidence":"n","version":"2.0NRT","bright_ti5":"313.79","frp":"55.06","daynight":"D","commune":"Morteaux-Coulibœuf","code_insee":"14452","departement":"Calvados","region":"Normandie"}},{"type":"Feature","geometry":{"type":"Point","coordinates":[-0.09475,48.91962]},"properties":{"latitude":"48.91962","longitude":"-0.09475","bright_ti4":"338.9","scan":"0.4","track":"0.37","acq_date":"2026-06-25","acq_time":"1257","satellite":"N20","instrument":"VIIRS","confidence":"n","version":"2.0NRT","bright_ti5":"311.23","frp":"17.62","daynight":"D","commune":"Morteaux-Coulibœuf","code_insee":"14452","departement":"Calvados","region":"Normandie"}},{"type":"Feature","geometry":{"type":"Point","coordinates":[-0.08934,48.92035]},"properties":{"latitude":"48.92035","longitude":"-0.08934","bright_ti4":"347.26","scan":"0.4","track":"0.37","acq_date":"2026-06-25","acq_time":"1257","satellite":"N20","instrument":"VIIRS","confidence":"n","version":"2.0NRT","bright_ti5":"315.87","frp":"33.13","daynight":"D","commune":"Morteaux-Coulibœuf","code_insee":"14452","departement":"Calvados","region":"Normandie"}},{"type":"Feature","geometry":{"type":"Point","coordinates":[2.27144,51.02553]},"properties":{"latitude":"51.02553","longitude":"2.27144","bright_ti4":"331.97","scan":"0.48","track":"0.4","acq_date":"2026-06-25","acq_time":"1257","satellite":"N20","instrument":"VIIRS","confidence":"l","version":"2.0NRT","bright_ti5":"306.92","frp":"5.06","daynight":"D","commune":"Grande-Synthe","code_insee":"59271","departement":"Nord","region":"Hauts-de-France"}},{"type":"Feature","geometry":{"type":"Point","coordinates":[2.28404,51.03062]},"properties":{"latitude":"51.03062","longitude":"2.28404","bright_ti4":"338.63","scan":"0.48","track":"0.4","acq_date":"2026-06-25","acq_time":"1257","satellite":"N20","instrument":"VIIRS","confidence":"n","version":"2.0NRT","bright_ti5":"308.6","frp":"21.41","daynight":"D","commune":"Grande-Synthe","code_insee":"59271","departement":"Nord","region":"Hauts-de-France"}},{"type":"Feature","geometry":{"type":"Point","coordinates":[2.29473,51.04303]},"properties":{"latitude":"51.04303","longitude":"2.29473","bright_ti4":"331.98","scan":"0.48","track":"0.4","acq_date":"2026-06-25","acq_time":"1257","satellite":"N20","instrument":"VIIRS","confidence":"l","version":"2.0NRT","bright_ti5":"305.36","frp":"1.73","daynight":"D","commune":"Grande-Synthe","code_insee":"59271","departement":"Nord","region":"Hauts-de-France"}},{"type":"Feature","geometry":{"type":"Point","coordinates":[2.31517,51.0452]},"properties":{"latitude":"51.0452","longitude":"2.31517","bright_ti4":"336.22","scan":"0.48","track":"0.4","acq_date":"2026-06-25","acq_time":"1257","satellite":"N20","instrument":"VIIRS","confidence":"n","version":"2.0NRT","bright_ti5":"304.15","frp":"4.98","daynight":"D","commune":"Dunkerque","code_insee":"59183","departement":"Nord","region":"Hauts-de-France"}},{"type":"Feature","geometry":{"type":"Point","coordinates":[2.32198,51.04593]},"properties":{"latitude":"51.04593","longitude":"2.32198","bright_ti4":"337.89","scan":"0.48","track":"0.4","acq_date":"2026-06-25","acq_time":"1257","satellite":"N20","instrument":"VIIRS","confidence":"n","version":"2.0NRT","bright_ti5":"305.62","frp":"4.98","daynight":"D","commune":"Dunkerque","code_insee":"59183","departement":"Nord","region":"Hauts-de-France"}},{"type":"Feature","geometry":{"type":"Point","coordinates":[2.05156,43.78158]},"properties":{"latitude":"43.78158","longitude":"2.05156","bright_ti4":"306.48","scan":"0.77","track":"0.77","acq_date":"2026-06-25","acq_time":"35","satellite":"N21","instrument":"VIIRS","confidence":"n","version":"2.0NRT","bright_ti5":"287.61","frp":"3.06","daynight":"N","commune":"Labessière-Candeil","code_insee":"81117","departement":"Tarn","region":"Occitanie"}},{"type":"Feature","geometry":{"type":"Point","coordinates":[2.281,51.02976]},"properties":{"latitude":"51.02976","longitude":"2.281","bright_ti4":"304.53","scan":"0.76","track":"0.77","acq_date":"2026-06-25","acq_time":"35","satellite":"N21","instrument":"VIIRS","confidence":"n","version":"2.0NRT","bright_ti5":"290.11","frp":"3.52","daynight":"N","commune":"Grande-Synthe","code_insee":"59271","departement":"Nord","region":"Hauts-de-France"}},{"type":"Feature","geometry":{"type":"Point","coordinates":[2.28601,51.03384]},"properties":{"latitude":"51.03384","longitude":"2.28601","bright_ti4":"311.2","scan":"0.76","track":"0.77","acq_date":"2026-06-25","acq_time":"35","satellite":"N21","instrument":"VIIRS","confidence":"n","version":"2.0NRT","bright_ti5":"290.31","frp":"2.94","daynight":"N","commune":"Grande-Synthe","code_insee":"59271","departement":"Nord","region":"Hauts-de-France"}},{"type":"Feature","geometry":{"type":"Point","coordinates":[2.29636,51.04123]},"properties":{"latitude":"51.04123","longitude":"2.29636","bright_ti4":"308.98","scan":"0.76","track":"0.77","acq_date":"2026-06-25","acq_time":"35","satellite":"N21","instrument":"VIIRS","confidence":"n","version":"2.0NRT","bright_ti5":"290.36","frp":"3.39","daynight":"N","commune":"Grande-Synthe","code_insee":"59271","departement":"Nord","region":"Hauts-de-France"}},{"type":"Feature","geometry":{"type":"Point","coordinates":[2.29078,51.04431]},"properties":{"latitude":"51.04431","longitude":"2.29078","bright_ti4":"306.37","scan":"0.76","track":"0.77","acq_date":"2026-06-25","acq_time":"35","satellite":"N21","instrument":"VIIRS","confidence":"n","version":"2.0NRT","bright_ti5":"290.53","frp":"3.49","daynight":"N","commune":"Grande-Synthe","code_insee":"59271","departement":"Nord","region":"Hauts-de-France"}},{"type":"Feature","geometry":{"type":"Point","coordinates":[5.01127,43.38622]},"properties":{"latitude":"43.38622","longitude":"5.01127","bright_ti4":"320.88","scan":"0.54","track":"0.68","acq_date":"2026-06-25","acq_time":"37","satellite":"N21","instrument":"VIIRS","confidence":"n","version":"2.0NRT","bright_ti5":"291.18","frp":"5.79","daynight":"N","commune":"Martigues","code_insee":"13056","departement":"Bouches-du-Rhône","region":"Provence-Alpes-Côte d'Azur"}},{"type":"Feature","geometry":{"type":"Point","coordinates":[5.01226,43.38814]},"properties":{"latitude":"43.38814","longitude":"5.01226","bright_ti4":"318.13","scan":"0.54","track":"0.68","acq_date":"2026-06-25","acq_time":"37","satellite":"N21","instrument":"VIIRS","confidence":"n","version":"2.0NRT","bright_ti5":"290.78","frp":"3.58","daynight":"N","commune":"Martigues","code_insee":"13056","departement":"Bouches-du-Rhône","region":"Provence-Alpes-Côte d'Azur"}},{"type":"Feature","geometry":{"type":"Point","coordinates":[5.00538,43.38829]},"properties":{"latitude":"43.38829","longitude":"5.00538","bright_ti4":"308.09","scan":"0.54","track":"0.68","acq_date":"2026-06-25","acq_time":"37","satellite":"N21","instrument":"VIIRS","confidence":"n","version":"2.0NRT","bright_ti5":"290.12","frp":"3.66","daynight":"N","commune":"Martigues","code_insee":"13056","departement":"Bouches-du-Rhône","region":"Provence-Alpes-Côte d'Azur"}},{"type":"Feature","geometry":{"type":"Point","coordinates":[4.89066,43.43848]},"properties":{"latitude":"43.43848","longitude":"4.89066","bright_ti4":"301.56","scan":"0.55","track":"0.68","acq_date":"2026-06-25","acq_time":"37","satellite":"N21","instrument":"VIIRS","confidence":"n","version":"2.0NRT","bright_ti5":"284.34","frp":"2.33","daynight":"N","commune":"Fos-sur-Mer","code_insee":"13039","departement":"Bouches-du-Rhône","region":"Provence-Alpes-Côte d'Azur"}},{"type":"Feature","geometry":{"type":"Point","coordinates":[4.89766,43.44464]},"properties":{"latitude":"43.44464","longitude":"4.89766","bright_ti4":"324.45","scan":"0.55","track":"0.68","acq_date":"2026-06-25","acq_time":"37","satellite":"N21","instrument":"VIIRS","confidence":"n","version":"2.0NRT","bright_ti5":"283.69","frp":"3.28","daynight":"N","commune":"Fos-sur-Mer","code_insee":"13039","departement":"Bouches-du-Rhône","region":"Provence-Alpes-Côte d'Azur"}},{"type":"Feature","geometry":{"type":"Point","coordinates":[7.56971,48.04946]},"properties":{"latitude":"48.04946","longitude":"7.56971","bright_ti4":"305.71","scan":"0.43","track":"0.62","acq_date":"2026-06-25","acq_time":"37","satellite":"N21","instrument":"VIIRS","confidence":"n","version":"2.0NRT","bright_ti5":"293.37","frp":"1.19","daynight":"N","commune":"Biesheim","code_insee":"68036","departement":"Haut-Rhin","region":"Grand Est"}},{"type":"Feature","geometry":{"type":"Point","coordinates":[-0.32967,47.11745]},"properties":{"latitude":"47.11745","longitude":"-0.32967","bright_ti4":"318.96","scan":"0.42","track":"0.37","acq_date":"2026-06-25","acq_time":"215","satellite":"N21","instrument":"VIIRS","confidence":"n","version":"2.0NRT","bright_ti5":"299.4","frp":"2.91","daynight":"N","commune":"Lys-Haut-Layon","code_insee":"49373","departement":"Maine-et-Loire","region":"Pays de la Loire"}},{"type":"Feature","geometry":{"type":"Point","coordinates":[-1.03787,48.10634]},"properties":{"latitude":"48.10634","longitude":"-1.03787","bright_ti4":"308.02","scan":"0.4","track":"0.37","acq_date":"2026-06-25","acq_time":"215","satellite":"N21","instrument":"VIIRS","confidence":"n","version":"2.0NRT","bright_ti5":"297.33","frp":"1.51","daynight":"N","commune":"Saint-Pierre-la-Cour","code_insee":"53247","departement":"Mayenne","region":"Pays de la Loire"}},{"type":"Feature","geometry":{"type":"Point","coordinates":[2.65373,48.87519]},"properties":{"latitude":"48.87519","longitude":"2.65373","bright_ti4":"305.92","scan":"0.48","track":"0.4","acq_date":"2026-06-25","acq_time":"215","satellite":"N21","instrument":"VIIRS","confidence":"n","version":"2.0NRT","bright_ti5":"293.57","frp":"1.53","daynight":"N","commune":"Vaires-sur-Marne","code_insee":"77479","departement":"Seine-et-Marne","region":"Île-de-France"}},{"type":"Feature","geometry":{"type":"Point","coordinates":[1.76354,48.98243]},"properties":{"latitude":"48.98243","longitude":"1.76354","bright_ti4":"325.69","scan":"0.45","track":"0.39","acq_date":"2026-06-25","acq_time":"215","satellite":"N21","instrument":"VIIRS","confidence":"n","version":"2.0NRT","bright_ti5":"297.28","frp":"3.49","daynight":"N","commune":"Porcheville","code_insee":"78501","departement":"Yvelines","region":"Île-de-France"}},{"type":"Feature","geometry":{"type":"Point","coordinates":[1.75767,48.98359]},"properties":{"latitude":"48.98359","longitude":"1.75767","bright_ti4":"328.24","scan":"0.45","track":"0.39","acq_date":"2026-06-25","acq_time":"215","satellite":"N21","instrument":"VIIRS","confidence":"n","version":"2.0NRT","bright_ti5":"297.87","frp":"4.11","daynight":"N","commune":"Limay","code_insee":"78335","departement":"Yvelines","region":"Île-de-France"}},{"type":"Feature","geometry":{"type":"Point","coordinates":[0.5325,49.47686]},"properties":{"latitude":"49.47686","longitude":"0.5325","bright_ti4":"314.37","scan":"0.41","track":"0.37","acq_date":"2026-06-25","acq_time":"215","satellite":"N21","instrument":"VIIRS","confidence":"n","version":"2.0NRT","bright_ti5":"295.8","frp":"2.02","daynight":"N","commune":"Lillebonne","code_insee":"76384","departement":"Seine-Maritime","region":"Normandie"}},{"type":"Feature","geometry":{"type":"Point","coordinates":[2.28138,51.02454]},"properties":{"latitude":"51.02454","longitude":"2.28138","bright_ti4":"302.88","scan":"0.43","track":"0.38","acq_date":"2026-06-25","acq_time":"215","satellite":"N21","instrument":"VIIRS","confidence":"n","version":"2.0NRT","bright_ti5":"292.56","frp":"0.94","daynight":"N","commune":"Grande-Synthe","code_insee":"59271","departement":"Nord","region":"Hauts-de-France"}},{"type":"Feature","geometry":{"type":"Point","coordinates":[2.26956,51.02683]},"properties":{"latitude":"51.02683","longitude":"2.26956","bright_ti4":"302.63","scan":"0.43","track":"0.38","acq_date":"2026-06-25","acq_time":"215","satellite":"N21","instrument":"VIIRS","confidence":"n","version":"2.0NRT","bright_ti5":"292.43","frp":"1.38","daynight":"N","commune":"Grande-Synthe","code_insee":"59271","departement":"Nord","region":"Hauts-de-France"}},{"type":"Feature","geometry":{"type":"Point","coordinates":[2.2712,51.03019]},"properties":{"latitude":"51.03019","longitude":"2.2712","bright_ti4":"311.11","scan":"0.43","track":"0.38","acq_date":"2026-06-25","acq_time":"215","satellite":"N21","instrument":"VIIRS","confidence":"n","version":"2.0NRT","bright_ti5":"292.11","frp":"1.38","daynight":"N","commune":"Grande-Synthe","code_insee":"59271","departement":"Nord","region":"Hauts-de-France"}},{"type":"Feature","geometry":{"type":"Point","coordinates":[2.28465,51.03125]},"properties":{"latitude":"51.03125","longitude":"2.28465","bright_ti4":"309.92","scan":"0.43","track":"0.38","acq_date":"2026-06-25","acq_time":"215","satellite":"N21","instrument":"VIIRS","confidence":"n","version":"2.0NRT","bright_ti5":"293.1","frp":"4.91","daynight":"N","commune":"Grande-Synthe","code_insee":"59271","departement":"Nord","region":"Hauts-de-France"}},{"type":"Feature","geometry":{"type":"Point","coordinates":[2.27874,51.0324]},"properties":{"latitude":"51.0324","longitude":"2.27874","bright_ti4":"324.26","scan":"0.43","track":"0.38","acq_date":"2026-06-25","acq_time":"215","satellite":"N21","instrument":"VIIRS","confidence":"n","version":"2.0NRT","bright_ti5":"295.43","frp":"14.53","daynight":"N","commune":"Grande-Synthe","code_insee":"59271","departement":"Nord","region":"Hauts-de-France"}},{"type":"Feature","geometry":{"type":"Point","coordinates":[2.28958,51.04133]},"properties":{"latitude":"51.04133","longitude":"2.28958","bright_ti4":"303.27","scan":"0.43","track":"0.38","acq_date":"2026-06-25","acq_time":"215","satellite":"N21","instrument":"VIIRS","confidence":"n","version":"2.0NRT","bright_ti5":"293.04","frp":"1.19","daynight":"N","commune":"Grande-Synthe","code_insee":"59271","departement":"Nord","region":"Hauts-de-France"}},{"type":"Feature","geometry":{"type":"Point","coordinates":[2.29713,51.04355]},"properties":{"latitude":"51.04355","longitude":"2.29713","bright_ti4":"333.44","scan":"0.43","track":"0.38","acq_date":"2026-06-25","acq_time":"215","satellite":"N21","instrument":"VIIRS","confidence":"n","version":"2.0NRT","bright_ti5":"294.34","frp":"5.56","daynight":"N","commune":"Grande-Synthe","code_insee":"59271","departement":"Nord","region":"Hauts-de-France"}},{"type":"Feature","geometry":{"type":"Point","coordinates":[4.8906,43.43521]},"properties":{"latitude":"43.43521","longitude":"4.8906","bright_ti4":"306.46","scan":"0.52","track":"0.5","acq_date":"2026-06-25","acq_time":"217","satellite":"N21","instrument":"VIIRS","confidence":"n","version":"2.0NRT","bright_ti5":"292.32","frp":"3.35","daynight":"N","commune":"Fos-sur-Mer","code_insee":"13039","departement":"Bouches-du-Rhône","region":"Provence-Alpes-Côte d'Azur"}},{"type":"Feature","geometry":{"type":"Point","coordinates":[4.89223,43.43646]},"properties":{"latitude":"43.43646","longitude":"4.89223","bright_ti4":"312.73","scan":"0.52","track":"0.5","acq_date":"2026-06-25","acq_time":"217","satellite":"N21","instrument":"VIIRS","confidence":"n","version":"2.0NRT","bright_ti5":"292.58","frp":"4.3","daynight":"N","commune":"Fos-sur-Mer","code_insee":"13039","departement":"Bouches-du-Rhône","region":"Provence-Alpes-Côte d'Azur"}},{"type":"Feature","geometry":{"type":"Point","coordinates":[4.89266,43.43955]},"properties":{"latitude":"43.43955","longitude":"4.89266","bright_ti4":"307.42","scan":"0.52","track":"0.5","acq_date":"2026-06-25","acq_time":"217","satellite":"N21","instrument":"VIIRS","confidence":"n","version":"2.0NRT","bright_ti5":"292.53","frp":"2.34","daynight":"N","commune":"Fos-sur-Mer","code_insee":"13039","departement":"Bouches-du-Rhône","region":"Provence-Alpes-Côte d'Azur"}},{"type":"Feature","geometry":{"type":"Point","coordinates":[4.90083,43.44241]},"properties":{"latitude":"43.44241","longitude":"4.90083","bright_ti4":"323.4","scan":"0.52","track":"0.5","acq_date":"2026-06-25","acq_time":"217","satellite":"N21","instrument":"VIIRS","confidence":"n","version":"2.0NRT","bright_ti5":"291.95","frp":"2.34","daynight":"N","commune":"Fos-sur-Mer","code_insee":"13039","departement":"Bouches-du-Rhône","region":"Provence-Alpes-Côte d'Azur"}},{"type":"Feature","geometry":{"type":"Point","coordinates":[4.90242,43.44362]},"properties":{"latitude":"43.44362","longitude":"4.90242","bright_ti4":"307.91","scan":"0.52","track":"0.5","acq_date":"2026-06-25","acq_time":"217","satellite":"N21","instrument":"VIIRS","confidence":"n","version":"2.0NRT","bright_ti5":"291.21","frp":"1.84","daynight":"N","commune":"Fos-sur-Mer","code_insee":"13039","departement":"Bouches-du-Rhône","region":"Provence-Alpes-Côte d'Azur"}},{"type":"Feature","geometry":{"type":"Point","coordinates":[4.89471,43.44389]},"properties":{"latitude":"43.44389","longitude":"4.89471","bright_ti4":"305.9","scan":"0.52","track":"0.5","acq_date":"2026-06-25","acq_time":"217","satellite":"N21","instrument":"VIIRS","confidence":"n","version":"2.0NRT","bright_ti5":"292.08","frp":"2.34","daynight":"N","commune":"Fos-sur-Mer","code_insee":"13039","departement":"Bouches-du-Rhône","region":"Provence-Alpes-Côte d'Azur"}},{"type":"Feature","geometry":{"type":"Point","coordinates":[4.89632,43.44514]},"properties":{"latitude":"43.44514","longitude":"4.89632","bright_ti4":"331.91","scan":"0.52","track":"0.5","acq_date":"2026-06-25","acq_time":"217","satellite":"N21","instrument":"VIIRS","confidence":"n","version":"2.0NRT","bright_ti5":"293.52","frp":"7.64","daynight":"N","commune":"Fos-sur-Mer","code_insee":"13039","departement":"Bouches-du-Rhône","region":"Provence-Alpes-Côte d'Azur"}},{"type":"Feature","geometry":{"type":"Point","coordinates":[4.89678,43.44824]},"properties":{"latitude":"43.44824","longitude":"4.89678","bright_ti4":"322.15","scan":"0.52","track":"0.5","acq_date":"2026-06-25","acq_time":"217","satellite":"N21","instrument":"VIIRS","confidence":"n","version":"2.0NRT","bright_ti5":"291.25","frp":"4.11","daynight":"N","commune":"Fos-sur-Mer","code_insee":"13039","departement":"Bouches-du-Rhône","region":"Provence-Alpes-Côte d'Azur"}},{"type":"Feature","geometry":{"type":"Point","coordinates":[2.05059,43.77953]},"properties":{"latitude":"43.77953","longitude":"2.05059","bright_ti4":"317.23","scan":"0.57","track":"0.43","acq_date":"2026-06-25","acq_time":"217","satellite":"N21","instrument":"VIIRS","confidence":"n","version":"2.0NRT","bright_ti5":"292.8","frp":"4.04","daynight":"N","commune":"Labessière-Candeil","code_insee":"81117","departement":"Tarn","region":"Occitanie"}},{"type":"Feature","geometry":{"type":"Point","coordinates":[4.74209,43.8005]},"properties":{"latitude":"43.8005","longitude":"4.74209","bright_ti4":"306.84","scan":"0.5","track":"0.49","acq_date":"2026-06-25","acq_time":"217","satellite":"N21","instrument":"VIIRS","confidence":"n","version":"2.0NRT","bright_ti5":"287.97","frp":"1.22","daynight":"N","commune":"Saint-Étienne-du-Grès","code_insee":"13094","departement":"Bouches-du-Rhône","region":"Provence-Alpes-Côte d'Azur"}},{"type":"Feature","geometry":{"type":"Point","coordinates":[4.90032,43.44564]},"properties":{"latitude":"43.44564","longitude":"4.90032","bright_ti4":"345.38","scan":"0.43","track":"0.46","acq_date":"2026-06-25","acq_time":"1202","satellite":"N21","instrument":"VIIRS","confidence":"n","version":"2.0NRT","bright_ti5":"308.46","frp":"8.08","daynight":"D","commune":"Fos-sur-Mer","code_insee":"13039","departement":"Bouches-du-Rhône","region":"Provence-Alpes-Côte d'Azur"}},{"type":"Feature","geometry":{"type":"Point","coordinates":[3.70063,43.50801]},"properties":{"latitude":"43.50801","longitude":"3.70063","bright_ti4":"331.6","scan":"0.49","track":"0.49","acq_date":"2026-06-25","acq_time":"1202","satellite":"N21","instrument":"VIIRS","confidence":"n","version":"2.0NRT","bright_ti5":"302.76","frp":"2.35","daynight":"D","commune":"Montbazin","code_insee":"34165","departement":"Hérault","region":"Occitanie"}},{"type":"Feature","geometry":{"type":"Point","coordinates":[3.20493,43.62547]},"properties":{"latitude":"43.62547","longitude":"3.20493","bright_ti4":"339.91","scan":"0.51","track":"0.5","acq_date":"2026-06-25","acq_time":"1202","satellite":"N21","instrument":"VIIRS","confidence":"n","version":"2.0NRT","bright_ti5":"304.38","frp":"22.5","daynight":"D","commune":"Carlencas-et-Levas","code_insee":"34053","departement":"Hérault","region":"Occitanie"}},{"type":"Feature","geometry":{"type":"Point","coordinates":[3.20586,43.62878]},"properties":{"latitude":"43.62878","longitude":"3.20586","bright_ti4":"349.55","scan":"0.51","track":"0.5","acq_date":"2026-06-25","acq_time":"1202","satellite":"N21","instrument":"VIIRS","confidence":"n","version":"2.0NRT","bright_ti5":"302.58","frp":"31.25","daynight":"D","commune":"Carlencas-et-Levas","code_insee":"34053","departement":"Hérault","region":"Occitanie"}},{"type":"Feature","geometry":{"type":"Point","coordinates":[2.05171,43.7795]},"properties":{"latitude":"43.7795","longitude":"2.05171","bright_ti4":"339.94","scan":"0.58","track":"0.52","acq_date":"2026-06-25","acq_time":"1202","satellite":"N21","instrument":"VIIRS","confidence":"n","version":"2.0NRT","bright_ti5":"306.14","frp":"7.08","daynight":"D","commune":"Labessière-Candeil","code_insee":"81117","departement":"Tarn","region":"Occitanie"}},{"type":"Feature","geometry":{"type":"Point","coordinates":[-0.79991,47.30219]},"properties":{"latitude":"47.30219","longitude":"-0.79991","bright_ti4":"341.19","scan":"0.62","track":"0.54","acq_date":"2026-06-25","acq_time":"1202","satellite":"N21","instrument":"VIIRS","confidence":"n","version":"2.0NRT","bright_ti5":"306.44","frp":"16.81","daynight":"D","commune":"Mauges-sur-Loire","code_insee":"49244","departement":"Maine-et-Loire","region":"Pays de la Loire"}},{"type":"Feature","geometry":{"type":"Point","coordinates":[0.73468,47.45545]},"properties":{"latitude":"47.45545","longitude":"0.73468","bright_ti4":"306.53","scan":"0.53","track":"0.5","acq_date":"2026-06-25","acq_time":"1202","satellite":"N21","instrument":"VIIRS","confidence":"l","version":"2.0NRT","bright_ti5":"315.47","frp":"69.56","daynight":"D","commune":"Parçay-Meslay","code_insee":"37179","departement":"Indre-et-Loire","region":"Centre-Val de Loire"}},{"type":"Feature","geometry":{"type":"Point","coordinates":[0.74128,47.45716]},"properties":{"latitude":"47.45716","longitude":"0.74128","bright_ti4":"344.17","scan":"0.52","track":"0.5","acq_date":"2026-06-25","acq_time":"1202","satellite":"N21","instrument":"VIIRS","confidence":"n","version":"2.0NRT","bright_ti5":"311.21","frp":"51.43","daynight":"D","commune":"Parçay-Meslay","code_insee":"37179","departement":"Indre-et-Loire","region":"Centre-Val de Loire"}},{"type":"Feature","geometry":{"type":"Point","coordinates":[4.28676,48.78214]},"properties":{"latitude":"48.78214","longitude":"4.28676","bright_ti4":"336.04","scan":"0.52","track":"0.42","acq_date":"2026-06-25","acq_time":"1202","satellite":"N21","instrument":"VIIRS","confidence":"n","version":"2.0NRT","bright_ti5":"299.03","frp":"5.13","daynight":"D","commune":"Dommartin-Lettrée","code_insee":"51212","departement":"Marne","region":"Grand Est"}},{"type":"Feature","geometry":{"type":"Point","coordinates":[4.29368,48.78364]},"properties":{"latitude":"48.78364","longitude":"4.29368","bright_ti4":"336.1","scan":"0.52","track":"0.42","acq_date":"2026-06-25","acq_time":"1202","satellite":"N21","instrument":"VIIRS","confidence":"n","version":"2.0NRT","bright_ti5":"301.21","frp":"5.61","daynight":"D","commune":"Dommartin-Lettrée","code_insee":"51212","departement":"Marne","region":"Grand Est"}},{"type":"Feature","geometry":{"type":"Point","coordinates":[4.30058,48.78512]},"properties":{"latitude":"48.78512","longitude":"4.30058","bright_ti4":"333.83","scan":"0.52","track":"0.42","acq_date":"2026-06-25","acq_time":"1202","satellite":"N21","instrument":"VIIRS","confidence":"n","version":"2.0NRT","bright_ti5":"300.13","frp":"5.61","daynight":"D","commune":"Dommartin-Lettrée","code_insee":"51212","departement":"Marne","region":"Grand Est"}},{"type":"Feature","geometry":{"type":"Point","coordinates":[1.62073,48.61566]},"properties":{"latitude":"48.61566","longitude":"1.62073","bright_ti4":"340.82","scan":"0.45","track":"0.47","acq_date":"2026-06-25","acq_time":"1204","satellite":"N21","instrument":"VIIRS","confidence":"n","version":"2.0NRT","bright_ti5":"307.2","frp":"5.64","daynight":"D","commune":"Saint-Martin-de-Nigelles","code_insee":"28352","departement":"Eure-et-Loir","region":"Centre-Val de Loire"}},{"type":"Feature","geometry":{"type":"Point","coordinates":[3.00568,48.78383]},"properties":{"latitude":"48.78383","longitude":"3.00568","bright_ti4":"332.48","scan":"0.39","track":"0.44","acq_date":"2026-06-25","acq_time":"1204","satellite":"N21","instrument":"VIIRS","confidence":"l","version":"2.0NRT","bright_ti5":"307.01","frp":"4.06","daynight":"D","commune":"Faremoutiers","code_insee":"77176","departement":"Seine-et-Marne","region":"Île-de-France"}},{"type":"Feature","geometry":{"type":"Point","coordinates":[1.14497,49.04213]},"properties":{"latitude":"49.04213","longitude":"1.14497","bright_ti4":"332.18","scan":"0.46","track":"0.47","acq_date":"2026-06-25","acq_time":"1204","satellite":"N21","instrument":"VIIRS","confidence":"n","version":"2.0NRT","bright_ti5":"291.35","frp":"5.01","daynight":"D","commune":"Gravigny","code_insee":"27299","departement":"Eure","region":"Normandie"}},{"type":"Feature","geometry":{"type":"Point","coordinates":[3.1098,49.40188]},"properties":{"latitude":"49.40188","longitude":"3.1098","bright_ti4":"335.33","scan":"0.56","track":"0.43","acq_date":"2026-06-25","acq_time":"1204","satellite":"N21","instrument":"VIIRS","confidence":"n","version":"2.0NRT","bright_ti5":"299.96","frp":"14.61","daynight":"D","commune":"Vic-sur-Aisne","code_insee":"02795","departement":"Aisne","region":"Hauts-de-France"}},{"type":"Feature","geometry":{"type":"Point","coordinates":[0.21663,49.47791]},"properties":{"latitude":"49.47791","longitude":"0.21663","bright_ti4":"335.43","scan":"0.49","track":"0.48","acq_date":"2026-06-25","acq_time":"1204","satellite":"N21","instrument":"VIIRS","confidence":"l","version":"2.0NRT","bright_ti5":"307.31","frp":"4.88","daynight":"D","commune":"Gonfreville-l'Orcher","code_insee":"76305","departement":"Seine-Maritime","region":"Normandie"}},{"type":"Feature","geometry":{"type":"Point","coordinates":[2.2783,51.03101]},"properties":{"latitude":"51.03101","longitude":"2.2783","bright_ti4":"340.96","scan":"0.55","track":"0.43","acq_date":"2026-06-25","acq_time":"1204","satellite":"N21","instrument":"VIIRS","confidence":"n","version":"2.0NRT","bright_ti5":"307.24","frp":"32.99","daynight":"D","commune":"Grande-Synthe","code_insee":"59271","departement":"Nord","region":"Hauts-de-France"}},{"type":"Feature","geometry":{"type":"Point","coordinates":[2.29658,51.04353]},"properties":{"latitude":"51.04353","longitude":"2.29658","bright_ti4":"332","scan":"0.55","track":"0.43","acq_date":"2026-06-25","acq_time":"1204","satellite":"N21","instrument":"VIIRS","confidence":"l","version":"2.0NRT","bright_ti5":"304.39","frp":"3.31","daynight":"D","commune":"Grande-Synthe","code_insee":"59271","departement":"Nord","region":"Hauts-de-France"}},{"type":"Feature","geometry":{"type":"Point","coordinates":[2.31899,51.04858]},"properties":{"latitude":"51.04858","longitude":"2.31899","bright_ti4":"330.89","scan":"0.55","track":"0.43","acq_date":"2026-06-25","acq_time":"1204","satellite":"N21","instrument":"VIIRS","confidence":"l","version":"2.0NRT","bright_ti5":"302.74","frp":"2.48","daynight":"D","commune":"Dunkerque","code_insee":"59183","departement":"Nord","region":"Hauts-de-France"}},{"type":"Feature","geometry":{"type":"Point","coordinates":[2.36384,43.22987]},"properties":{"latitude":"43.22987","longitude":"2.36384","bright_ti4":"344.07","scan":"0.49","track":"0.65","acq_date":"2026-06-25","acq_time":"1342","satellite":"N21","instrument":"VIIRS","confidence":"n","version":"2.0NRT","bright_ti5":"297.85","frp":"5.46","daynight":"D","commune":"Carcassonne","code_insee":"11069","departement":"Aude","region":"Occitanie"}},{"type":"Feature","geometry":{"type":"Point","coordinates":[1.29297,43.43084]},"properties":{"latitude":"43.43084","longitude":"1.29297","bright_ti4":"367","scan":"0.43","track":"0.62","acq_date":"2026-06-25","acq_time":"1342","satellite":"N21","instrument":"VIIRS","confidence":"h","version":"2.0NRT","bright_ti5":"302.44","frp":"25.95","daynight":"D","commune":"Muret","code_insee":"31395","departement":"Haute-Garonne","region":"Occitanie"}},{"type":"Feature","geometry":{"type":"Point","coordinates":[3.20136,43.62606]},"properties":{"latitude":"43.62606","longitude":"3.20136","bright_ti4":"331.37","scan":"0.55","track":"0.68","acq_date":"2026-06-25","acq_time":"1342","satellite":"N21","instrument":"VIIRS","confidence":"n","version":"2.0NRT","bright_ti5":"295.66","frp":"8.17","daynight":"D","commune":"Carlencas-et-Levas","code_insee":"34053","departement":"Hérault","region":"Occitanie"}},{"type":"Feature","geometry":{"type":"Point","coordinates":[3.208,43.62616]},"properties":{"latitude":"43.62616","longitude":"3.208","bright_ti4":"342.84","scan":"0.55","track":"0.68","acq_date":"2026-06-25","acq_time":"1342","satellite":"N21","instrument":"VIIRS","confidence":"n","version":"2.0NRT","bright_ti5":"297.76","frp":"8.17","daynight":"D","commune":"Carlencas-et-Levas","code_insee":"34053","departement":"Hérault","region":"Occitanie"}},{"type":"Feature","geometry":{"type":"Point","coordinates":[3.20544,43.62889]},"properties":{"latitude":"43.62889","longitude":"3.20544","bright_ti4":"367","scan":"0.55","track":"0.68","acq_date":"2026-06-25","acq_time":"1342","satellite":"N21","instrument":"VIIRS","confidence":"h","version":"2.0NRT","bright_ti5":"299.6","frp":"19.49","daynight":"D","commune":"Carlencas-et-Levas","code_insee":"34053","departement":"Hérault","region":"Occitanie"}},{"type":"Feature","geometry":{"type":"Point","coordinates":[2.05338,43.77983]},"properties":{"latitude":"43.77983","longitude":"2.05338","bright_ti4":"340.51","scan":"0.48","track":"0.65","acq_date":"2026-06-25","acq_time":"1342","satellite":"N21","instrument":"VIIRS","confidence":"n","version":"2.0NRT","bright_ti5":"303.66","frp":"5.36","daynight":"D","commune":"Labessière-Candeil","code_insee":"81117","departement":"Tarn","region":"Occitanie"}},{"type":"Feature","geometry":{"type":"Point","coordinates":[0.55988,44.30905]},"properties":{"latitude":"44.30905","longitude":"0.55988","bright_ti4":"367","scan":"0.4","track":"0.6","acq_date":"2026-06-25","acq_time":"1342","satellite":"N21","instrument":"VIIRS","confidence":"h","version":"2.0NRT","bright_ti5":"302.1","frp":"11.25","daynight":"D","commune":"Prayssas","code_insee":"47213","departement":"Lot-et-Garonne","region":"Nouvelle-Aquitaine"}},{"type":"Feature","geometry":{"type":"Point","coordinates":[0.55957,44.31462]},"properties":{"latitude":"44.31462","longitude":"0.55957","bright_ti4":"349.11","scan":"0.4","track":"0.6","acq_date":"2026-06-25","acq_time":"1342","satellite":"N21","instrument":"VIIRS","confidence":"n","version":"2.0NRT","bright_ti5":"301.74","frp":"11.25","daynight":"D","commune":"Montpezat","code_insee":"47190","departement":"Lot-et-Garonne","region":"Nouvelle-Aquitaine"}},{"type":"Feature","geometry":{"type":"Point","coordinates":[-1.06651,46.16245]},"properties":{"latitude":"46.16245","longitude":"-1.06651","bright_ti4":"340.01","scan":"0.35","track":"0.56","acq_date":"2026-06-25","acq_time":"1344","satellite":"N21","instrument":"VIIRS","confidence":"n","version":"2.0NRT","bright_ti5":"305.57","frp":"4.67","daynight":"D","commune":"Périgny","code_insee":"17274","departement":"Charente-Maritime","region":"Nouvelle-Aquitaine"}},{"type":"Feature","geometry":{"type":"Point","coordinates":[1.34538,46.16489]},"properties":{"latitude":"46.16489","longitude":"1.34538","bright_ti4":"337.31","scan":"0.46","track":"0.63","acq_date":"2026-06-25","acq_time":"1344","satellite":"N21","instrument":"VIIRS","confidence":"n","version":"2.0NRT","bright_ti5":"304.85","frp":"5.06","daynight":"D","commune":"Bessines-sur-Gartempe","code_insee":"87014","departement":"Haute-Vienne","region":"Nouvelle-Aquitaine"}},{"type":"Feature","geometry":{"type":"Point","coordinates":[-1.06707,46.16765]},"properties":{"latitude":"46.16765","longitude":"-1.06707","bright_ti4":"367","scan":"0.35","track":"0.56","acq_date":"2026-06-25","acq_time":"1344","satellite":"N21","instrument":"VIIRS","confidence":"h","version":"2.0NRT","bright_ti5":"308.41","frp":"17.62","daynight":"D","commune":"Dompierre-sur-Mer","code_insee":"17142","departement":"Charente-Maritime","region":"Nouvelle-Aquitaine"}},{"type":"Feature","geometry":{"type":"Point","coordinates":[-1.06259,46.16785]},"properties":{"latitude":"46.16785","longitude":"-1.06259","bright_ti4":"367","scan":"0.35","track":"0.56","acq_date":"2026-06-25","acq_time":"1344","satellite":"N21","instrument":"VIIRS","confidence":"h","version":"2.0NRT","bright_ti5":"307.09","frp":"18.55","daynight":"D","commune":"Dompierre-sur-Mer","code_insee":"17142","departement":"Charente-Maritime","region":"Nouvelle-Aquitaine"}},{"type":"Feature","geometry":{"type":"Point","coordinates":[0.69661,46.20012]},"properties":{"latitude":"46.20012","longitude":"0.69661","bright_ti4":"353.99","scan":"0.42","track":"0.61","acq_date":"2026-06-25","acq_time":"1344","satellite":"N21","instrument":"VIIRS","confidence":"n","version":"2.0NRT","bright_ti5":"302.38","frp":"26.79","daynight":"D","commune":"Millac","code_insee":"86159","departement":"Vienne","region":"Nouvelle-Aquitaine"}},{"type":"Feature","geometry":{"type":"Point","coordinates":[3.97537,46.31197]},"properties":{"latitude":"46.31197","longitude":"3.97537","bright_ti4":"332.79","scan":"0.61","track":"0.71","acq_date":"2026-06-25","acq_time":"1344","satellite":"N21","instrument":"VIIRS","confidence":"n","version":"2.0NRT","bright_ti5":"303.04","frp":"7.05","daynight":"D","commune":"Bourg-le-Comte","code_insee":"71048","departement":"Saône-et-Loire","region":"Bourgogne-Franche-Comté"}},{"type":"Feature","geometry":{"type":"Point","coordinates":[3.98362,46.312]},"properties":{"latitude":"46.312","longitude":"3.98362","bright_ti4":"331.17","scan":"0.61","track":"0.71","acq_date":"2026-06-25","acq_time":"1344","satellite":"N21","instrument":"VIIRS","confidence":"l","version":"2.0NRT","bright_ti5":"302.51","frp":"6.21","daynight":"D","commune":"Bourg-le-Comte","code_insee":"71048","departement":"Saône-et-Loire","region":"Bourgogne-Franche-Comté"}},{"type":"Feature","geometry":{"type":"Point","coordinates":[3.97538,46.3171]},"properties":{"latitude":"46.3171","longitude":"3.97538","bright_ti4":"332.94","scan":"0.61","track":"0.71","acq_date":"2026-06-25","acq_time":"1344","satellite":"N21","instrument":"VIIRS","confidence":"l","version":"2.0NRT","bright_ti5":"303.12","frp":"10.52","daynight":"D","commune":"Bourg-le-Comte","code_insee":"71048","departement":"Saône-et-Loire","region":"Bourgogne-Franche-Comté"}},{"type":"Feature","geometry":{"type":"Point","coordinates":[-0.23646,47.06976]},"properties":{"latitude":"47.06976","longitude":"-0.23646","bright_ti4":"354.46","scan":"0.39","track":"0.59","acq_date":"2026-06-25","acq_time":"1344","satellite":"N21","instrument":"VIIRS","confidence":"n","version":"2.0NRT","bright_ti5":"304.75","frp":"9.44","daynight":"D","commune":"Loretz-d'Argenton","code_insee":"79014","departement":"Deux-Sèvres","region":"Nouvelle-Aquitaine"}},{"type":"Feature","geometry":{"type":"Point","coordinates":[-0.23924,47.07076]},"properties":{"latitude":"47.07076","longitude":"-0.23924","bright_ti4":"367","scan":"0.39","track":"0.59","acq_date":"2026-06-25","acq_time":"1344","satellite":"N21","instrument":"VIIRS","confidence":"h","version":"2.0NRT","bright_ti5":"304.78","frp":"6.1","daynight":"D","commune":"Loretz-d'Argenton","code_insee":"79014","departement":"Deux-Sèvres","region":"Nouvelle-Aquitaine"}},{"type":"Feature","geometry":{"type":"Point","coordinates":[-0.23413,47.07093]},"properties":{"latitude":"47.07093","longitude":"-0.23413","bright_ti4":"335.12","scan":"0.39","track":"0.59","acq_date":"2026-06-25","acq_time":"1344","satellite":"N21","instrument":"VIIRS","confidence":"n","version":"2.0NRT","bright_ti5":"304.97","frp":"6.1","daynight":"D","commune":"Loretz-d'Argenton","code_insee":"79014","departement":"Deux-Sèvres","region":"Nouvelle-Aquitaine"}},{"type":"Feature","geometry":{"type":"Point","coordinates":[-0.23685,47.07521]},"properties":{"latitude":"47.07521","longitude":"-0.23685","bright_ti4":"337.67","scan":"0.39","track":"0.59","acq_date":"2026-06-25","acq_time":"1344","satellite":"N21","instrument":"VIIRS","confidence":"n","version":"2.0NRT","bright_ti5":"305.52","frp":"4.56","daynight":"D","commune":"Loretz-d'Argenton","code_insee":"79014","departement":"Deux-Sèvres","region":"Nouvelle-Aquitaine"}},{"type":"Feature","geometry":{"type":"Point","coordinates":[-2.04537,47.57194]},"properties":{"latitude":"47.57194","longitude":"-2.04537","bright_ti4":"342.23","scan":"0.32","track":"0.54","acq_date":"2026-06-25","acq_time":"1344","satellite":"N21","instrument":"VIIRS","confidence":"n","version":"2.0NRT","bright_ti5":"307.67","frp":"3.09","daynight":"D","commune":"Fégréac","code_insee":"44057","departement":"Loire-Atlantique","region":"Pays de la Loire"}},{"type":"Feature","geometry":{"type":"Point","coordinates":[-2.04615,47.57695]},"properties":{"latitude":"47.57695","longitude":"-2.04615","bright_ti4":"344.97","scan":"0.32","track":"0.54","acq_date":"2026-06-25","acq_time":"1344","satellite":"N21","instrument":"VIIRS","confidence":"n","version":"2.0NRT","bright_ti5":"308.05","frp":"5.12","daynight":"D","commune":"Fégréac","code_insee":"44057","departement":"Loire-Atlantique","region":"Pays de la Loire"}},{"type":"Feature","geometry":{"type":"Point","coordinates":[2.08955,48.98767]},"properties":{"latitude":"48.98767","longitude":"2.08955","bright_ti4":"367","scan":"0.51","track":"0.66","acq_date":"2026-06-25","acq_time":"1344","satellite":"N21","instrument":"VIIRS","confidence":"h","version":"2.0NRT","bright_ti5":"308.52","frp":"29.61","daynight":"D","commune":"Achères","code_insee":"78005","departement":"Yvelines","region":"Île-de-France"}},{"type":"Feature","geometry":{"type":"Point","coordinates":[2.09662,48.98774]},"properties":{"latitude":"48.98774","longitude":"2.09662","bright_ti4":"367","scan":"0.51","track":"0.66","acq_date":"2026-06-25","acq_time":"1344","satellite":"N21","instrument":"VIIRS","confidence":"h","version":"2.0NRT","bright_ti5":"307.87","frp":"17.36","daynight":"D","commune":"Achères","code_insee":"78005","departement":"Yvelines","region":"Île-de-France"}},{"type":"Feature","geometry":{"type":"Point","coordinates":[2.10373,48.98781]},"properties":{"latitude":"48.98781","longitude":"2.10373","bright_ti4":"336.75","scan":"0.51","track":"0.66","acq_date":"2026-06-25","acq_time":"1344","satellite":"N21","instrument":"VIIRS","confidence":"n","version":"2.0NRT","bright_ti5":"304.35","frp":"17.36","daynight":"D","commune":"Achères","code_insee":"78005","departement":"Yvelines","region":"Île-de-France"}},{"type":"Feature","geometry":{"type":"Point","coordinates":[2.27652,51.03086]},"properties":{"latitude":"51.03086","longitude":"2.27652","bright_ti4":"339.97","scan":"0.53","track":"0.67","acq_date":"2026-06-25","acq_time":"1344","satellite":"N21","instrument":"VIIRS","confidence":"n","version":"2.0NRT","bright_ti5":"298.87","frp":"10.97","daynight":"D","commune":"Grande-Synthe","code_insee":"59271","departement":"Nord","region":"Hauts-de-France"}},{"type":"Feature","geometry":{"type":"Point","coordinates":[2.28412,51.03087]},"properties":{"latitude":"51.03087","longitude":"2.28412","bright_ti4":"338","scan":"0.53","track":"0.67","acq_date":"2026-06-25","acq_time":"1344","satellite":"N21","instrument":"VIIRS","confidence":"n","version":"2.0NRT","bright_ti5":"299.06","frp":"13.78","daynight":"D","commune":"Grande-Synthe","code_insee":"59271","departement":"Nord","region":"Hauts-de-France"}}]}