{"type":"FeatureCollection","features":[{"type":"Feature","geometry":{"type":"Point","coordinates":[1.75884,50.21056]},"properties":{"latitude":"50.21056","longitude":"1.75884","bright_ti4":"296.47","scan":"0.55","track":"0.68","acq_date":"2026-05-30","acq_time":"56","satellite":"N","instrument":"VIIRS","confidence":"n","version":"2.0NRT","bright_ti5":"281.88","frp":"0.82","daynight":"N","commune":"Nouvion","code_insee":"80598","departement":"Somme","region":"Hauts-de-France"}},{"type":"Feature","geometry":{"type":"Point","coordinates":[1.75909,50.21697]},"properties":{"latitude":"50.21697","longitude":"1.75909","bright_ti4":"299.04","scan":"0.55","track":"0.68","acq_date":"2026-05-30","acq_time":"56","satellite":"N","instrument":"VIIRS","confidence":"n","version":"2.0NRT","bright_ti5":"282.66","frp":"0.82","daynight":"N","commune":"Nouvion","code_insee":"80598","departement":"Somme","region":"Hauts-de-France"}},{"type":"Feature","geometry":{"type":"Point","coordinates":[2.81352,42.6213]},"properties":{"latitude":"42.6213","longitude":"2.81352","bright_ti4":"296.04","scan":"0.45","track":"0.63","acq_date":"2026-05-30","acq_time":"58","satellite":"N","instrument":"VIIRS","confidence":"n","version":"2.0NRT","bright_ti5":"280.35","frp":"0.65","daynight":"N","commune":"Ponteilla","code_insee":"66145","departement":"Pyrénées-Orientales","region":"Occitanie"}},{"type":"Feature","geometry":{"type":"Point","coordinates":[4.88623,43.43569]},"properties":{"latitude":"43.43569","longitude":"4.88623","bright_ti4":"311.49","scan":"0.36","track":"0.57","acq_date":"2026-05-30","acq_time":"58","satellite":"N","instrument":"VIIRS","confidence":"n","version":"2.0NRT","bright_ti5":"289.92","frp":"1.17","daynight":"N","commune":"Fos-sur-Mer","code_insee":"13039","departement":"Bouches-du-Rhône","region":"Provence-Alpes-Côte d'Azur"}},{"type":"Feature","geometry":{"type":"Point","coordinates":[4.88697,43.43773]},"properties":{"latitude":"43.43773","longitude":"4.88697","bright_ti4":"317.62","scan":"0.36","track":"0.57","acq_date":"2026-05-30","acq_time":"58","satellite":"N","instrument":"VIIRS","confidence":"n","version":"2.0NRT","bright_ti5":"290.91","frp":"2.88","daynight":"N","commune":"Fos-sur-Mer","code_insee":"13039","departement":"Bouches-du-Rhône","region":"Provence-Alpes-Côte d'Azur"}},{"type":"Feature","geometry":{"type":"Point","coordinates":[4.88241,43.43794]},"properties":{"latitude":"43.43794","longitude":"4.88241","bright_ti4":"306.95","scan":"0.36","track":"0.57","acq_date":"2026-05-30","acq_time":"58","satellite":"N","instrument":"VIIRS","confidence":"n","version":"2.0NRT","bright_ti5":"290.6","frp":"1.84","daynight":"N","commune":"Fos-sur-Mer","code_insee":"13039","departement":"Bouches-du-Rhône","region":"Provence-Alpes-Côte d'Azur"}},{"type":"Feature","geometry":{"type":"Point","coordinates":[4.88218,43.44128]},"properties":{"latitude":"43.44128","longitude":"4.88218","bright_ti4":"307.91","scan":"0.36","track":"0.57","acq_date":"2026-05-30","acq_time":"58","satellite":"N","instrument":"VIIRS","confidence":"n","version":"2.0NRT","bright_ti5":"290.38","frp":"1.17","daynight":"N","commune":"Fos-sur-Mer","code_insee":"13039","departement":"Bouches-du-Rhône","region":"Provence-Alpes-Côte d'Azur"}},{"type":"Feature","geometry":{"type":"Point","coordinates":[5.81992,45.91245]},"properties":{"latitude":"45.91245","longitude":"5.81992","bright_ti4":"298.01","scan":"0.34","track":"0.56","acq_date":"2026-05-30","acq_time":"58","satellite":"N","instrument":"VIIRS","confidence":"n","version":"2.0NRT","bright_ti5":"285.47","frp":"0.37","daynight":"N","commune":"Anglefort","code_insee":"01010","departement":"Ain","region":"Auvergne-Rhône-Alpes"}},{"type":"Feature","geometry":{"type":"Point","coordinates":[4.56493,48.76865]},"properties":{"latitude":"48.76865","longitude":"4.56493","bright_ti4":"299.63","scan":"0.51","track":"0.49","acq_date":"2026-05-30","acq_time":"238","satellite":"N","instrument":"VIIRS","confidence":"n","version":"2.0NRT","bright_ti5":"286.93","frp":"0.93","daynight":"N","commune":"Couvrot","code_insee":"51195","departement":"Marne","region":"Grand Est"}},{"type":"Feature","geometry":{"type":"Point","coordinates":[4.56645,48.76921]},"properties":{"latitude":"48.76921","longitude":"4.56645","bright_ti4":"297.26","scan":"0.51","track":"0.49","acq_date":"2026-05-30","acq_time":"238","satellite":"N","instrument":"VIIRS","confidence":"n","version":"2.0NRT","bright_ti5":"286.57","frp":"0.69","daynight":"N","commune":"Couvrot","code_insee":"51195","departement":"Marne","region":"Grand Est"}},{"type":"Feature","geometry":{"type":"Point","coordinates":[1.7598,48.98487]},"properties":{"latitude":"48.98487","longitude":"1.7598","bright_ti4":"297.23","scan":"0.39","track":"0.44","acq_date":"2026-05-30","acq_time":"238","satellite":"N","instrument":"VIIRS","confidence":"n","version":"2.0NRT","bright_ti5":"279.91","frp":"0.64","daynight":"N","commune":"Porcheville","code_insee":"78501","departement":"Yvelines","region":"Île-de-France"}},{"type":"Feature","geometry":{"type":"Point","coordinates":[5.90015,49.28662]},"properties":{"latitude":"49.28662","longitude":"5.90015","bright_ti4":"306.7","scan":"0.55","track":"0.51","acq_date":"2026-05-30","acq_time":"238","satellite":"N","instrument":"VIIRS","confidence":"n","version":"2.0NRT","bright_ti5":"282.47","frp":"1.56","daynight":"N","commune":"Val de Briey","code_insee":"54099","departement":"Meurthe-et-Moselle","region":"Grand Est"}},{"type":"Feature","geometry":{"type":"Point","coordinates":[6.0495,49.33538]},"properties":{"latitude":"49.33538","longitude":"6.0495","bright_ti4":"296.35","scan":"0.56","track":"0.52","acq_date":"2026-05-30","acq_time":"238","satellite":"N","instrument":"VIIRS","confidence":"n","version":"2.0NRT","bright_ti5":"281.86","frp":"0.67","daynight":"N","commune":"Nilvange","code_insee":"57508","departement":"Moselle","region":"Grand Est"}},{"type":"Feature","geometry":{"type":"Point","coordinates":[1.76221,50.21313]},"properties":{"latitude":"50.21313","longitude":"1.76221","bright_ti4":"307.86","scan":"0.54","track":"0.42","acq_date":"2026-05-30","acq_time":"238","satellite":"N","instrument":"VIIRS","confidence":"n","version":"2.0NRT","bright_ti5":"285.3","frp":"1.56","daynight":"N","commune":"Nouvion","code_insee":"80598","departement":"Somme","region":"Hauts-de-France"}},{"type":"Feature","geometry":{"type":"Point","coordinates":[2.27789,51.03028]},"properties":{"latitude":"51.03028","longitude":"2.27789","bright_ti4":"329.22","scan":"0.54","track":"0.42","acq_date":"2026-05-30","acq_time":"238","satellite":"N","instrument":"VIIRS","confidence":"n","version":"2.0NRT","bright_ti5":"284.85","frp":"6.59","daynight":"N","commune":"Grande-Synthe","code_insee":"59271","departement":"Nord","region":"Hauts-de-France"}},{"type":"Feature","geometry":{"type":"Point","coordinates":[2.27836,51.03403]},"properties":{"latitude":"51.03403","longitude":"2.27836","bright_ti4":"315.59","scan":"0.54","track":"0.42","acq_date":"2026-05-30","acq_time":"238","satellite":"N","instrument":"VIIRS","confidence":"n","version":"2.0NRT","bright_ti5":"285.23","frp":"1.36","daynight":"N","commune":"Grande-Synthe","code_insee":"59271","departement":"Nord","region":"Hauts-de-France"}},{"type":"Feature","geometry":{"type":"Point","coordinates":[2.28959,51.03603]},"properties":{"latitude":"51.03603","longitude":"2.28959","bright_ti4":"302.25","scan":"0.54","track":"0.42","acq_date":"2026-05-30","acq_time":"238","satellite":"N","instrument":"VIIRS","confidence":"n","version":"2.0NRT","bright_ti5":"283.44","frp":"0.96","daynight":"N","commune":"Grande-Synthe","code_insee":"59271","departement":"Nord","region":"Hauts-de-France"}},{"type":"Feature","geometry":{"type":"Point","coordinates":[2.28789,51.03605]},"properties":{"latitude":"51.03605","longitude":"2.28789","bright_ti4":"302.72","scan":"0.54","track":"0.42","acq_date":"2026-05-30","acq_time":"238","satellite":"N","instrument":"VIIRS","confidence":"n","version":"2.0NRT","bright_ti5":"283.94","frp":"1.36","daynight":"N","commune":"Grande-Synthe","code_insee":"59271","departement":"Nord","region":"Hauts-de-France"}},{"type":"Feature","geometry":{"type":"Point","coordinates":[2.29386,51.04346]},"properties":{"latitude":"51.04346","longitude":"2.29386","bright_ti4":"313.93","scan":"0.54","track":"0.42","acq_date":"2026-05-30","acq_time":"238","satellite":"N","instrument":"VIIRS","confidence":"n","version":"2.0NRT","bright_ti5":"287.4","frp":"7.98","daynight":"N","commune":"Grande-Synthe","code_insee":"59271","departement":"Nord","region":"Hauts-de-France"}},{"type":"Feature","geometry":{"type":"Point","coordinates":[2.29215,51.04347]},"properties":{"latitude":"51.04347","longitude":"2.29215","bright_ti4":"307.24","scan":"0.54","track":"0.42","acq_date":"2026-05-30","acq_time":"238","satellite":"N","instrument":"VIIRS","confidence":"n","version":"2.0NRT","bright_ti5":"287.12","frp":"2.41","daynight":"N","commune":"Grande-Synthe","code_insee":"59271","departement":"Nord","region":"Hauts-de-France"}},{"type":"Feature","geometry":{"type":"Point","coordinates":[2.30169,51.04549]},"properties":{"latitude":"51.04549","longitude":"2.30169","bright_ti4":"297.82","scan":"0.54","track":"0.42","acq_date":"2026-05-30","acq_time":"238","satellite":"N","instrument":"VIIRS","confidence":"n","version":"2.0NRT","bright_ti5":"283.83","frp":"3.35","daynight":"N","commune":"Grande-Synthe","code_insee":"59271","departement":"Nord","region":"Hauts-de-France"}},{"type":"Feature","geometry":{"type":"Point","coordinates":[2.31865,51.0458]},"properties":{"latitude":"51.0458","longitude":"2.31865","bright_ti4":"299.53","scan":"0.54","track":"0.42","acq_date":"2026-05-30","acq_time":"238","satellite":"N","instrument":"VIIRS","confidence":"n","version":"2.0NRT","bright_ti5":"287.32","frp":"1.2","daynight":"N","commune":"Dunkerque","code_insee":"59183","departement":"Nord","region":"Hauts-de-France"}},{"type":"Feature","geometry":{"type":"Point","coordinates":[2.29601,51.04717]},"properties":{"latitude":"51.04717","longitude":"2.29601","bright_ti4":"337.2","scan":"0.54","track":"0.42","acq_date":"2026-05-30","acq_time":"238","satellite":"N","instrument":"VIIRS","confidence":"n","version":"2.0NRT","bright_ti5":"287.49","frp":"7.98","daynight":"N","commune":"Grande-Synthe","code_insee":"59271","departement":"Nord","region":"Hauts-de-France"}},{"type":"Feature","geometry":{"type":"Point","coordinates":[2.29429,51.04718]},"properties":{"latitude":"51.04718","longitude":"2.29429","bright_ti4":"329.89","scan":"0.54","track":"0.42","acq_date":"2026-05-30","acq_time":"238","satellite":"N","instrument":"VIIRS","confidence":"n","version":"2.0NRT","bright_ti5":"288.72","frp":"9.98","daynight":"N","commune":"Grande-Synthe","code_insee":"59271","departement":"Nord","region":"Hauts-de-France"}},{"type":"Feature","geometry":{"type":"Point","coordinates":[4.89694,43.43015]},"properties":{"latitude":"43.43015","longitude":"4.89694","bright_ti4":"300.4","scan":"0.37","track":"0.58","acq_date":"2026-05-30","acq_time":"241","satellite":"N","instrument":"VIIRS","confidence":"n","version":"2.0NRT","bright_ti5":"289.19","frp":"0.72","daynight":"N","commune":"Fos-sur-Mer","code_insee":"13039","departement":"Bouches-du-Rhône","region":"Provence-Alpes-Côte d'Azur"}},{"type":"Feature","geometry":{"type":"Point","coordinates":[4.89727,43.43249]},"properties":{"latitude":"43.43249","longitude":"4.89727","bright_ti4":"310.42","scan":"0.37","track":"0.58","acq_date":"2026-05-30","acq_time":"241","satellite":"N","instrument":"VIIRS","confidence":"n","version":"2.0NRT","bright_ti5":"289.88","frp":"1.33","daynight":"N","commune":"Fos-sur-Mer","code_insee":"13039","departement":"Bouches-du-Rhône","region":"Provence-Alpes-Côte d'Azur"}},{"type":"Feature","geometry":{"type":"Point","coordinates":[4.88851,43.43495]},"properties":{"latitude":"43.43495","longitude":"4.88851","bright_ti4":"303.68","scan":"0.37","track":"0.58","acq_date":"2026-05-30","acq_time":"241","satellite":"N","instrument":"VIIRS","confidence":"n","version":"2.0NRT","bright_ti5":"290.35","frp":"1.39","daynight":"N","commune":"Fos-sur-Mer","code_insee":"13039","departement":"Bouches-du-Rhône","region":"Provence-Alpes-Côte d'Azur"}},{"type":"Feature","geometry":{"type":"Point","coordinates":[4.89397,43.44506]},"properties":{"latitude":"43.44506","longitude":"4.89397","bright_ti4":"302.91","scan":"0.37","track":"0.58","acq_date":"2026-05-30","acq_time":"241","satellite":"N","instrument":"VIIRS","confidence":"n","version":"2.0NRT","bright_ti5":"288.69","frp":"1.03","daynight":"N","commune":"Fos-sur-Mer","code_insee":"13039","departement":"Bouches-du-Rhône","region":"Provence-Alpes-Côte d'Azur"}},{"type":"Feature","geometry":{"type":"Point","coordinates":[4.89633,43.44785]},"properties":{"latitude":"43.44785","longitude":"4.89633","bright_ti4":"329.25","scan":"0.37","track":"0.58","acq_date":"2026-05-30","acq_time":"241","satellite":"N","instrument":"VIIRS","confidence":"n","version":"2.0NRT","bright_ti5":"289.32","frp":"2.36","daynight":"N","commune":"Fos-sur-Mer","code_insee":"13039","departement":"Bouches-du-Rhône","region":"Provence-Alpes-Côte d'Azur"}},{"type":"Feature","geometry":{"type":"Point","coordinates":[4.89672,43.45012]},"properties":{"latitude":"43.45012","longitude":"4.89672","bright_ti4":"307.96","scan":"0.37","track":"0.58","acq_date":"2026-05-30","acq_time":"241","satellite":"N","instrument":"VIIRS","confidence":"n","version":"2.0NRT","bright_ti5":"286.71","frp":"1.03","daynight":"N","commune":"Fos-sur-Mer","code_insee":"13039","departement":"Bouches-du-Rhône","region":"Provence-Alpes-Côte d'Azur"}},{"type":"Feature","geometry":{"type":"Point","coordinates":[1.76497,48.98276]},"properties":{"latitude":"48.98276","longitude":"1.76497","bright_ti4":"333.46","scan":"0.48","track":"0.4","acq_date":"2026-05-30","acq_time":"1225","satellite":"N","instrument":"VIIRS","confidence":"l","version":"2.0NRT","bright_ti5":"306.11","frp":"2.77","daynight":"D","commune":"Porcheville","code_insee":"78501","departement":"Yvelines","region":"Île-de-France"}},{"type":"Feature","geometry":{"type":"Point","coordinates":[3.4267,46.25277]},"properties":{"latitude":"46.25277","longitude":"3.4267","bright_ti4":"295.83","scan":"0.45","track":"0.47","acq_date":"2026-05-30","acq_time":"115","satellite":"N20","instrument":"VIIRS","confidence":"n","version":"2.0NRT","bright_ti5":"283.48","frp":"0.55","daynight":"N","commune":"Créchy","code_insee":"03091","departement":"Allier","region":"Auvergne-Rhône-Alpes"}},{"type":"Feature","geometry":{"type":"Point","coordinates":[2.98725,48.38848]},"properties":{"latitude":"48.38848","longitude":"2.98725","bright_ti4":"300.49","scan":"0.5","track":"0.49","acq_date":"2026-05-30","acq_time":"115","satellite":"N20","instrument":"VIIRS","confidence":"n","version":"2.0NRT","bright_ti5":"279.68","frp":"0.76","daynight":"N","commune":"Marolles-sur-Seine","code_insee":"77279","departement":"Seine-et-Marne","region":"Île-de-France"}},{"type":"Feature","geometry":{"type":"Point","coordinates":[2.98039,48.38895]},"properties":{"latitude":"48.38895","longitude":"2.98039","bright_ti4":"296.85","scan":"0.5","track":"0.49","acq_date":"2026-05-30","acq_time":"115","satellite":"N20","instrument":"VIIRS","confidence":"n","version":"2.0NRT","bright_ti5":"280.35","frp":"0.81","daynight":"N","commune":"Montereau-Fault-Yonne","code_insee":"77305","departement":"Seine-et-Marne","region":"Île-de-France"}},{"type":"Feature","geometry":{"type":"Point","coordinates":[6.11211,48.61147]},"properties":{"latitude":"48.61147","longitude":"6.11211","bright_ti4":"297.34","scan":"0.56","track":"0.43","acq_date":"2026-05-30","acq_time":"115","satellite":"N20","instrument":"VIIRS","confidence":"n","version":"2.0NRT","bright_ti5":"279.53","frp":"0.66","daynight":"N","commune":"Neuves-Maisons","code_insee":"54397","departement":"Meurthe-et-Moselle","region":"Grand Est"}},{"type":"Feature","geometry":{"type":"Point","coordinates":[2.26878,51.02968]},"properties":{"latitude":"51.02968","longitude":"2.26878","bright_ti4":"301.51","scan":"0.57","track":"0.52","acq_date":"2026-05-30","acq_time":"115","satellite":"N20","instrument":"VIIRS","confidence":"n","version":"2.0NRT","bright_ti5":"285.5","frp":"3.18","daynight":"N","commune":"Grande-Synthe","code_insee":"59271","departement":"Nord","region":"Hauts-de-France"}},{"type":"Feature","geometry":{"type":"Point","coordinates":[2.28143,51.03273]},"properties":{"latitude":"51.03273","longitude":"2.28143","bright_ti4":"338.19","scan":"0.57","track":"0.52","acq_date":"2026-05-30","acq_time":"115","satellite":"N20","instrument":"VIIRS","confidence":"n","version":"2.0NRT","bright_ti5":"282.86","frp":"10.41","daynight":"N","commune":"Grande-Synthe","code_insee":"59271","departement":"Nord","region":"Hauts-de-France"}},{"type":"Feature","geometry":{"type":"Point","coordinates":[2.27773,51.03402]},"properties":{"latitude":"51.03402","longitude":"2.27773","bright_ti4":"324.2","scan":"0.57","track":"0.52","acq_date":"2026-05-30","acq_time":"115","satellite":"N20","instrument":"VIIRS","confidence":"n","version":"2.0NRT","bright_ti5":"285.04","frp":"5.02","daynight":"N","commune":"Grande-Synthe","code_insee":"59271","departement":"Nord","region":"Hauts-de-France"}},{"type":"Feature","geometry":{"type":"Point","coordinates":[2.81192,42.62473]},"properties":{"latitude":"42.62473","longitude":"2.81192","bright_ti4":"296.42","scan":"0.44","track":"0.46","acq_date":"2026-05-30","acq_time":"117","satellite":"N20","instrument":"VIIRS","confidence":"n","version":"2.0NRT","bright_ti5":"283.87","frp":"0.52","daynight":"N","commune":"Ponteilla","code_insee":"66145","departement":"Pyrénées-Orientales","region":"Occitanie"}},{"type":"Feature","geometry":{"type":"Point","coordinates":[4.89269,43.43026]},"properties":{"latitude":"43.43026","longitude":"4.89269","bright_ti4":"303.22","scan":"0.55","track":"0.42","acq_date":"2026-05-30","acq_time":"117","satellite":"N20","instrument":"VIIRS","confidence":"n","version":"2.0NRT","bright_ti5":"292.28","frp":"1.82","daynight":"N","commune":"Fos-sur-Mer","code_insee":"13039","departement":"Bouches-du-Rhône","region":"Provence-Alpes-Côte d'Azur"}},{"type":"Feature","geometry":{"type":"Point","coordinates":[4.88671,43.43485]},"properties":{"latitude":"43.43485","longitude":"4.88671","bright_ti4":"314.91","scan":"0.55","track":"0.42","acq_date":"2026-05-30","acq_time":"117","satellite":"N20","instrument":"VIIRS","confidence":"n","version":"2.0NRT","bright_ti5":"291.92","frp":"1.82","daynight":"N","commune":"Fos-sur-Mer","code_insee":"13039","departement":"Bouches-du-Rhône","region":"Provence-Alpes-Côte d'Azur"}},{"type":"Feature","geometry":{"type":"Point","coordinates":[4.56655,48.77182]},"properties":{"latitude":"48.77182","longitude":"4.56655","bright_ti4":"298.29","scan":"0.46","track":"0.64","acq_date":"2026-05-30","acq_time":"256","satellite":"N20","instrument":"VIIRS","confidence":"n","version":"2.0NRT","bright_ti5":"286.19","frp":"0.81","daynight":"N","commune":"Couvrot","code_insee":"51195","departement":"Marne","region":"Grand Est"}},{"type":"Feature","geometry":{"type":"Point","coordinates":[5.90131,49.28872]},"properties":{"latitude":"49.28872","longitude":"5.90131","bright_ti4":"295.6","scan":"0.5","track":"0.66","acq_date":"2026-05-30","acq_time":"256","satellite":"N20","instrument":"VIIRS","confidence":"n","version":"2.0NRT","bright_ti5":"281.19","frp":"0.46","daynight":"N","commune":"Val de Briey","code_insee":"54099","departement":"Meurthe-et-Moselle","region":"Grand Est"}},{"type":"Feature","geometry":{"type":"Point","coordinates":[3.56249,50.40103]},"properties":{"latitude":"50.40103","longitude":"3.56249","bright_ti4":"300.67","scan":"0.37","track":"0.58","acq_date":"2026-05-30","acq_time":"256","satellite":"N20","instrument":"VIIRS","confidence":"n","version":"2.0NRT","bright_ti5":"287.1","frp":"0.63","daynight":"N","commune":"Saint-Saulve","code_insee":"59544","departement":"Nord","region":"Hauts-de-France"}},{"type":"Feature","geometry":{"type":"Point","coordinates":[2.28041,51.03081]},"properties":{"latitude":"51.03081","longitude":"2.28041","bright_ti4":"309.39","scan":"0.63","track":"0.54","acq_date":"2026-05-30","acq_time":"256","satellite":"N20","instrument":"VIIRS","confidence":"n","version":"2.0NRT","bright_ti5":"280.29","frp":"4.12","daynight":"N","commune":"Grande-Synthe","code_insee":"59271","departement":"Nord","region":"Hauts-de-France"}},{"type":"Feature","geometry":{"type":"Point","coordinates":[2.28974,51.03526]},"properties":{"latitude":"51.03526","longitude":"2.28974","bright_ti4":"305.85","scan":"0.63","track":"0.54","acq_date":"2026-05-30","acq_time":"256","satellite":"N20","instrument":"VIIRS","confidence":"n","version":"2.0NRT","bright_ti5":"286","frp":"4.65","daynight":"N","commune":"Grande-Synthe","code_insee":"59271","departement":"Nord","region":"Hauts-de-France"}},{"type":"Feature","geometry":{"type":"Point","coordinates":[4.8957,43.43419]},"properties":{"latitude":"43.43419","longitude":"4.8957","bright_ti4":"302.76","scan":"0.72","track":"0.76","acq_date":"2026-05-30","acq_time":"258","satellite":"N20","instrument":"VIIRS","confidence":"n","version":"2.0NRT","bright_ti5":"287.2","frp":"1.71","daynight":"N","commune":"Fos-sur-Mer","code_insee":"13039","departement":"Bouches-du-Rhône","region":"Provence-Alpes-Côte d'Azur"}},{"type":"Feature","geometry":{"type":"Point","coordinates":[4.89599,43.44961]},"properties":{"latitude":"43.44961","longitude":"4.89599","bright_ti4":"300.81","scan":"0.72","track":"0.75","acq_date":"2026-05-30","acq_time":"258","satellite":"N20","instrument":"VIIRS","confidence":"n","version":"2.0NRT","bright_ti5":"286.68","frp":"1.18","daynight":"N","commune":"Fos-sur-Mer","code_insee":"13039","departement":"Bouches-du-Rhône","region":"Provence-Alpes-Côte d'Azur"}},{"type":"Feature","geometry":{"type":"Point","coordinates":[4.03824,48.31939]},"properties":{"latitude":"48.31939","longitude":"4.03824","bright_ti4":"333.23","scan":"0.41","track":"0.37","acq_date":"2026-05-30","acq_time":"1244","satellite":"N20","instrument":"VIIRS","confidence":"l","version":"2.0NRT","bright_ti5":"307.67","frp":"5.8","daynight":"D","commune":"La Chapelle-Saint-Luc","code_insee":"10081","departement":"Aube","region":"Grand Est"}},{"type":"Feature","geometry":{"type":"Point","coordinates":[2.59434,50.63357]},"properties":{"latitude":"50.63357","longitude":"2.59434","bright_ti4":"333.22","scan":"0.4","track":"0.37","acq_date":"2026-05-30","acq_time":"1244","satellite":"N20","instrument":"VIIRS","confidence":"n","version":"2.0NRT","bright_ti5":"296.83","frp":"1.08","daynight":"D","commune":"Merville","code_insee":"59400","departement":"Nord","region":"Hauts-de-France"}},{"type":"Feature","geometry":{"type":"Point","coordinates":[2.98564,48.38501]},"properties":{"latitude":"48.38501","longitude":"2.98564","bright_ti4":"303.83","scan":"0.41","track":"0.37","acq_date":"2026-05-30","acq_time":"204","satellite":"N21","instrument":"VIIRS","confidence":"n","version":"2.0NRT","bright_ti5":"282.58","frp":"0.78","daynight":"N","commune":"Montereau-Fault-Yonne","code_insee":"77305","departement":"Seine-et-Marne","region":"Île-de-France"}},{"type":"Feature","geometry":{"type":"Point","coordinates":[2.98027,48.38597]},"properties":{"latitude":"48.38597","longitude":"2.98027","bright_ti4":"305.88","scan":"0.41","track":"0.37","acq_date":"2026-05-30","acq_time":"204","satellite":"N21","instrument":"VIIRS","confidence":"n","version":"2.0NRT","bright_ti5":"283.02","frp":"1.21","daynight":"N","commune":"Montereau-Fault-Yonne","code_insee":"77305","departement":"Seine-et-Marne","region":"Île-de-France"}},{"type":"Feature","geometry":{"type":"Point","coordinates":[6.11958,48.61025]},"properties":{"latitude":"48.61025","longitude":"6.11958","bright_ti4":"301.57","scan":"0.49","track":"0.41","acq_date":"2026-05-30","acq_time":"204","satellite":"N21","instrument":"VIIRS","confidence":"n","version":"2.0NRT","bright_ti5":"281.06","frp":"0.88","daynight":"N","commune":"Neuves-Maisons","code_insee":"54397","departement":"Meurthe-et-Moselle","region":"Grand Est"}},{"type":"Feature","geometry":{"type":"Point","coordinates":[1.76342,50.21415]},"properties":{"latitude":"50.21415","longitude":"1.76342","bright_ti4":"307","scan":"0.39","track":"0.36","acq_date":"2026-05-30","acq_time":"204","satellite":"N21","instrument":"VIIRS","confidence":"n","version":"2.0NRT","bright_ti5":"282.81","frp":"1.78","daynight":"N","commune":"Nouvion","code_insee":"80598","departement":"Somme","region":"Hauts-de-France"}},{"type":"Feature","geometry":{"type":"Point","coordinates":[1.89533,50.9691]},"properties":{"latitude":"50.9691","longitude":"1.89533","bright_ti4":"299.11","scan":"0.38","track":"0.36","acq_date":"2026-05-30","acq_time":"204","satellite":"N21","instrument":"VIIRS","confidence":"n","version":"2.0NRT","bright_ti5":"286.82","frp":"0.67","daynight":"N","commune":"Calais","code_insee":"62193","departement":"Pas-de-Calais","region":"Hauts-de-France"}},{"type":"Feature","geometry":{"type":"Point","coordinates":[1.88997,50.96997]},"properties":{"latitude":"50.96997","longitude":"1.88997","bright_ti4":"302.21","scan":"0.38","track":"0.36","acq_date":"2026-05-30","acq_time":"204","satellite":"N21","instrument":"VIIRS","confidence":"n","version":"2.0NRT","bright_ti5":"286.47","frp":"0.75","daynight":"N","commune":"Calais","code_insee":"62193","departement":"Pas-de-Calais","region":"Hauts-de-France"}},{"type":"Feature","geometry":{"type":"Point","coordinates":[1.89664,50.97234]},"properties":{"latitude":"50.97234","longitude":"1.89664","bright_ti4":"299.1","scan":"0.38","track":"0.36","acq_date":"2026-05-30","acq_time":"204","satellite":"N21","instrument":"VIIRS","confidence":"n","version":"2.0NRT","bright_ti5":"286.14","frp":"0.67","daynight":"N","commune":"Calais","code_insee":"62193","departement":"Pas-de-Calais","region":"Hauts-de-France"}},{"type":"Feature","geometry":{"type":"Point","coordinates":[2.26982,51.02914]},"properties":{"latitude":"51.02914","longitude":"2.26982","bright_ti4":"304.66","scan":"0.39","track":"0.36","acq_date":"2026-05-30","acq_time":"204","satellite":"N21","instrument":"VIIRS","confidence":"n","version":"2.0NRT","bright_ti5":"287.36","frp":"1.05","daynight":"N","commune":"Grande-Synthe","code_insee":"59271","departement":"Nord","region":"Hauts-de-France"}},{"type":"Feature","geometry":{"type":"Point","coordinates":[2.25369,51.0318]},"properties":{"latitude":"51.0318","longitude":"2.25369","bright_ti4":"308.77","scan":"0.39","track":"0.36","acq_date":"2026-05-30","acq_time":"204","satellite":"N21","instrument":"VIIRS","confidence":"n","version":"2.0NRT","bright_ti5":"287.75","frp":"1.03","daynight":"N","commune":"Dunkerque","code_insee":"59183","departement":"Nord","region":"Hauts-de-France"}},{"type":"Feature","geometry":{"type":"Point","coordinates":[2.28863,51.03297]},"properties":{"latitude":"51.03297","longitude":"2.28863","bright_ti4":"302.28","scan":"0.39","track":"0.36","acq_date":"2026-05-30","acq_time":"204","satellite":"N21","instrument":"VIIRS","confidence":"n","version":"2.0NRT","bright_ti5":"288.15","frp":"1.38","daynight":"N","commune":"Grande-Synthe","code_insee":"59271","departement":"Nord","region":"Hauts-de-France"}},{"type":"Feature","geometry":{"type":"Point","coordinates":[2.28996,51.03621]},"properties":{"latitude":"51.03621","longitude":"2.28996","bright_ti4":"299.84","scan":"0.39","track":"0.36","acq_date":"2026-05-30","acq_time":"204","satellite":"N21","instrument":"VIIRS","confidence":"n","version":"2.0NRT","bright_ti5":"287.33","frp":"0.98","daynight":"N","commune":"Grande-Synthe","code_insee":"59271","departement":"Nord","region":"Hauts-de-France"}},{"type":"Feature","geometry":{"type":"Point","coordinates":[2.29264,51.04268]},"properties":{"latitude":"51.04268","longitude":"2.29264","bright_ti4":"305.29","scan":"0.39","track":"0.36","acq_date":"2026-05-30","acq_time":"204","satellite":"N21","instrument":"VIIRS","confidence":"n","version":"2.0NRT","bright_ti5":"288.49","frp":"1.92","daynight":"N","commune":"Grande-Synthe","code_insee":"59271","departement":"Nord","region":"Hauts-de-France"}},{"type":"Feature","geometry":{"type":"Point","coordinates":[2.29936,51.04504]},"properties":{"latitude":"51.04504","longitude":"2.29936","bright_ti4":"322.8","scan":"0.39","track":"0.36","acq_date":"2026-05-30","acq_time":"204","satellite":"N21","instrument":"VIIRS","confidence":"n","version":"2.0NRT","bright_ti5":"287.94","frp":"3.44","daynight":"N","commune":"Grande-Synthe","code_insee":"59271","departement":"Nord","region":"Hauts-de-France"}},{"type":"Feature","geometry":{"type":"Point","coordinates":[2.29398,51.04592]},"properties":{"latitude":"51.04592","longitude":"2.29398","bright_ti4":"318.34","scan":"0.39","track":"0.36","acq_date":"2026-05-30","acq_time":"204","satellite":"N21","instrument":"VIIRS","confidence":"n","version":"2.0NRT","bright_ti5":"288.32","frp":"1.92","daynight":"N","commune":"Grande-Synthe","code_insee":"59271","departement":"Nord","region":"Hauts-de-France"}},{"type":"Feature","geometry":{"type":"Point","coordinates":[4.88486,43.43627]},"properties":{"latitude":"43.43627","longitude":"4.88486","bright_ti4":"307.38","scan":"0.56","track":"0.43","acq_date":"2026-05-30","acq_time":"206","satellite":"N21","instrument":"VIIRS","confidence":"n","version":"2.0NRT","bright_ti5":"291.23","frp":"3.48","daynight":"N","commune":"Fos-sur-Mer","code_insee":"13039","departement":"Bouches-du-Rhône","region":"Provence-Alpes-Côte d'Azur"}}]}