{"type":"FeatureCollection","features":[{"type":"Feature","geometry":{"type":"Point","coordinates":[4.89679,43.44226]},"properties":{"latitude":"43.44226","longitude":"4.89679","bright_ti4":"302.91","scan":"0.74","track":"0.76","acq_date":"2026-06-27","acq_time":"35","satellite":"N","instrument":"VIIRS","confidence":"n","version":"2.0NRT","bright_ti5":"291.71","frp":"3.17","daynight":"N","commune":"Fos-sur-Mer","code_insee":"13039","departement":"Bouches-du-Rhône","region":"Provence-Alpes-Côte d'Azur"}},{"type":"Feature","geometry":{"type":"Point","coordinates":[4.89671,43.44945]},"properties":{"latitude":"43.44945","longitude":"4.89671","bright_ti4":"303.92","scan":"0.74","track":"0.76","acq_date":"2026-06-27","acq_time":"35","satellite":"N","instrument":"VIIRS","confidence":"n","version":"2.0NRT","bright_ti5":"291.56","frp":"1.93","daynight":"N","commune":"Fos-sur-Mer","code_insee":"13039","departement":"Bouches-du-Rhône","region":"Provence-Alpes-Côte d'Azur"}},{"type":"Feature","geometry":{"type":"Point","coordinates":[4.89248,43.45137]},"properties":{"latitude":"43.45137","longitude":"4.89248","bright_ti4":"303.8","scan":"0.74","track":"0.76","acq_date":"2026-06-27","acq_time":"35","satellite":"N","instrument":"VIIRS","confidence":"n","version":"2.0NRT","bright_ti5":"291.34","frp":"1.18","daynight":"N","commune":"Fos-sur-Mer","code_insee":"13039","departement":"Bouches-du-Rhône","region":"Provence-Alpes-Côte d'Azur"}},{"type":"Feature","geometry":{"type":"Point","coordinates":[3.29303,45.97117]},"properties":{"latitude":"45.97117","longitude":"3.29303","bright_ti4":"310.1","scan":"0.45","track":"0.39","acq_date":"2026-06-27","acq_time":"213","satellite":"N","instrument":"VIIRS","confidence":"n","version":"2.0NRT","bright_ti5":"289.75","frp":"0.92","daynight":"N","commune":"Saint-André-le-Coq","code_insee":"63317","departement":"Puy-de-Dôme","region":"Auvergne-Rhône-Alpes"}},{"type":"Feature","geometry":{"type":"Point","coordinates":[3.28737,45.97229]},"properties":{"latitude":"45.97229","longitude":"3.28737","bright_ti4":"304.62","scan":"0.45","track":"0.39","acq_date":"2026-06-27","acq_time":"213","satellite":"N","instrument":"VIIRS","confidence":"n","version":"2.0NRT","bright_ti5":"290.22","frp":"0.92","daynight":"N","commune":"Saint-André-le-Coq","code_insee":"63317","departement":"Puy-de-Dôme","region":"Auvergne-Rhône-Alpes"}},{"type":"Feature","geometry":{"type":"Point","coordinates":[2.98321,48.3876]},"properties":{"latitude":"48.3876","longitude":"2.98321","bright_ti4":"321.69","scan":"0.41","track":"0.37","acq_date":"2026-06-27","acq_time":"213","satellite":"N","instrument":"VIIRS","confidence":"n","version":"2.0NRT","bright_ti5":"295.65","frp":"2.19","daynight":"N","commune":"Montereau-Fault-Yonne","code_insee":"77305","departement":"Seine-et-Marne","region":"Île-de-France"}},{"type":"Feature","geometry":{"type":"Point","coordinates":[6.11598,48.61102]},"properties":{"latitude":"48.61102","longitude":"6.11598","bright_ti4":"307.96","scan":"0.5","track":"0.41","acq_date":"2026-06-27","acq_time":"213","satellite":"N","instrument":"VIIRS","confidence":"n","version":"2.0NRT","bright_ti5":"294.69","frp":"1.66","daynight":"N","commune":"Neuves-Maisons","code_insee":"54397","departement":"Meurthe-et-Moselle","region":"Grand Est"}},{"type":"Feature","geometry":{"type":"Point","coordinates":[6.10942,48.61242]},"properties":{"latitude":"48.61242","longitude":"6.10942","bright_ti4":"308.42","scan":"0.5","track":"0.41","acq_date":"2026-06-27","acq_time":"213","satellite":"N","instrument":"VIIRS","confidence":"n","version":"2.0NRT","bright_ti5":"294.57","frp":"1.61","daynight":"N","commune":"Neuves-Maisons","code_insee":"54397","departement":"Meurthe-et-Moselle","region":"Grand Est"}},{"type":"Feature","geometry":{"type":"Point","coordinates":[4.56361,48.7692]},"properties":{"latitude":"48.7692","longitude":"4.56361","bright_ti4":"308.2","scan":"0.44","track":"0.39","acq_date":"2026-06-27","acq_time":"213","satellite":"N","instrument":"VIIRS","confidence":"n","version":"2.0NRT","bright_ti5":"295.79","frp":"1.26","daynight":"N","commune":"Couvrot","code_insee":"51195","departement":"Marne","region":"Grand Est"}},{"type":"Feature","geometry":{"type":"Point","coordinates":[1.76158,48.9831]},"properties":{"latitude":"48.9831","longitude":"1.76158","bright_ti4":"317.67","scan":"0.39","track":"0.36","acq_date":"2026-06-27","acq_time":"213","satellite":"N","instrument":"VIIRS","confidence":"n","version":"2.0NRT","bright_ti5":"274.8","frp":"1.3","daynight":"N","commune":"Porcheville","code_insee":"78501","departement":"Yvelines","region":"Île-de-France"}},{"type":"Feature","geometry":{"type":"Point","coordinates":[3.98649,49.61731]},"properties":{"latitude":"49.61731","longitude":"3.98649","bright_ti4":"306.92","scan":"0.42","track":"0.38","acq_date":"2026-06-27","acq_time":"213","satellite":"N","instrument":"VIIRS","confidence":"n","version":"2.0NRT","bright_ti5":"291.82","frp":"0.84","daynight":"N","commune":"Lappion","code_insee":"02409","departement":"Aisne","region":"Hauts-de-France"}},{"type":"Feature","geometry":{"type":"Point","coordinates":[3.49562,50.33806]},"properties":{"latitude":"50.33806","longitude":"3.49562","bright_ti4":"305.02","scan":"0.4","track":"0.37","acq_date":"2026-06-27","acq_time":"213","satellite":"N","instrument":"VIIRS","confidence":"n","version":"2.0NRT","bright_ti5":"292.62","frp":"1.16","daynight":"N","commune":"Trith-Saint-Léger","code_insee":"59603","departement":"Nord","region":"Hauts-de-France"}},{"type":"Feature","geometry":{"type":"Point","coordinates":[2.28431,51.03436]},"properties":{"latitude":"51.03436","longitude":"2.28431","bright_ti4":"314.83","scan":"0.39","track":"0.36","acq_date":"2026-06-27","acq_time":"213","satellite":"N","instrument":"VIIRS","confidence":"n","version":"2.0NRT","bright_ti5":"276.93","frp":"0.99","daynight":"N","commune":"Grande-Synthe","code_insee":"59271","departement":"Nord","region":"Hauts-de-France"}},{"type":"Feature","geometry":{"type":"Point","coordinates":[2.28569,51.03762]},"properties":{"latitude":"51.03762","longitude":"2.28569","bright_ti4":"314.62","scan":"0.39","track":"0.36","acq_date":"2026-06-27","acq_time":"213","satellite":"N","instrument":"VIIRS","confidence":"n","version":"2.0NRT","bright_ti5":"277.22","frp":"0.99","daynight":"N","commune":"Grande-Synthe","code_insee":"59271","departement":"Nord","region":"Hauts-de-France"}},{"type":"Feature","geometry":{"type":"Point","coordinates":[2.29388,51.04323]},"properties":{"latitude":"51.04323","longitude":"2.29388","bright_ti4":"301.19","scan":"0.39","track":"0.36","acq_date":"2026-06-27","acq_time":"213","satellite":"N","instrument":"VIIRS","confidence":"n","version":"2.0NRT","bright_ti5":"276.49","frp":"0.76","daynight":"N","commune":"Grande-Synthe","code_insee":"59271","departement":"Nord","region":"Hauts-de-France"}},{"type":"Feature","geometry":{"type":"Point","coordinates":[2.30069,51.04557]},"properties":{"latitude":"51.04557","longitude":"2.30069","bright_ti4":"297.31","scan":"0.39","track":"0.36","acq_date":"2026-06-27","acq_time":"213","satellite":"N","instrument":"VIIRS","confidence":"n","version":"2.0NRT","bright_ti5":"275.98","frp":"1.24","daynight":"N","commune":"Grande-Synthe","code_insee":"59271","departement":"Nord","region":"Hauts-de-France"}},{"type":"Feature","geometry":{"type":"Point","coordinates":[2.29526,51.04649]},"properties":{"latitude":"51.04649","longitude":"2.29526","bright_ti4":"323.78","scan":"0.39","track":"0.36","acq_date":"2026-06-27","acq_time":"213","satellite":"N","instrument":"VIIRS","confidence":"n","version":"2.0NRT","bright_ti5":"275.62","frp":"1.24","daynight":"N","commune":"Grande-Synthe","code_insee":"59271","departement":"Nord","region":"Hauts-de-France"}},{"type":"Feature","geometry":{"type":"Point","coordinates":[2.31974,51.04935]},"properties":{"latitude":"51.04935","longitude":"2.31974","bright_ti4":"301.36","scan":"0.39","track":"0.36","acq_date":"2026-06-27","acq_time":"213","satellite":"N","instrument":"VIIRS","confidence":"n","version":"2.0NRT","bright_ti5":"277.43","frp":"0.75","daynight":"N","commune":"Dunkerque","code_insee":"59183","departement":"Nord","region":"Hauts-de-France"}},{"type":"Feature","geometry":{"type":"Point","coordinates":[0.98854,43.18694]},"properties":{"latitude":"43.18694","longitude":"0.98854","bright_ti4":"307.44","scan":"0.42","track":"0.38","acq_date":"2026-06-27","acq_time":"215","satellite":"N","instrument":"VIIRS","confidence":"n","version":"2.0NRT","bright_ti5":"293.77","frp":"0.9","daynight":"N","commune":"Martres-Tolosane","code_insee":"31324","departement":"Haute-Garonne","region":"Occitanie"}},{"type":"Feature","geometry":{"type":"Point","coordinates":[4.89461,43.43445]},"properties":{"latitude":"43.43445","longitude":"4.89461","bright_ti4":"316.54","scan":"0.57","track":"0.43","acq_date":"2026-06-27","acq_time":"215","satellite":"N","instrument":"VIIRS","confidence":"n","version":"2.0NRT","bright_ti5":"295.76","frp":"3.33","daynight":"N","commune":"Fos-sur-Mer","code_insee":"13039","departement":"Bouches-du-Rhône","region":"Provence-Alpes-Côte d'Azur"}},{"type":"Feature","geometry":{"type":"Point","coordinates":[4.88938,43.43982]},"properties":{"latitude":"43.43982","longitude":"4.88938","bright_ti4":"325.26","scan":"0.57","track":"0.43","acq_date":"2026-06-27","acq_time":"215","satellite":"N","instrument":"VIIRS","confidence":"n","version":"2.0NRT","bright_ti5":"296.05","frp":"3.33","daynight":"N","commune":"Fos-sur-Mer","code_insee":"13039","departement":"Bouches-du-Rhône","region":"Provence-Alpes-Côte d'Azur"}},{"type":"Feature","geometry":{"type":"Point","coordinates":[4.89782,43.44217]},"properties":{"latitude":"43.44217","longitude":"4.89782","bright_ti4":"305.75","scan":"0.57","track":"0.43","acq_date":"2026-06-27","acq_time":"215","satellite":"N","instrument":"VIIRS","confidence":"n","version":"2.0NRT","bright_ti5":"293.61","frp":"2.48","daynight":"N","commune":"Fos-sur-Mer","code_insee":"13039","departement":"Bouches-du-Rhône","region":"Provence-Alpes-Côte d'Azur"}},{"type":"Feature","geometry":{"type":"Point","coordinates":[4.89945,43.44603]},"properties":{"latitude":"43.44603","longitude":"4.89945","bright_ti4":"326.03","scan":"0.57","track":"0.43","acq_date":"2026-06-27","acq_time":"215","satellite":"N","instrument":"VIIRS","confidence":"n","version":"2.0NRT","bright_ti5":"295.91","frp":"2.48","daynight":"N","commune":"Fos-sur-Mer","code_insee":"13039","departement":"Bouches-du-Rhône","region":"Provence-Alpes-Côte d'Azur"}},{"type":"Feature","geometry":{"type":"Point","coordinates":[4.89261,43.44754]},"properties":{"latitude":"43.44754","longitude":"4.89261","bright_ti4":"314.95","scan":"0.57","track":"0.43","acq_date":"2026-06-27","acq_time":"215","satellite":"N","instrument":"VIIRS","confidence":"n","version":"2.0NRT","bright_ti5":"295.41","frp":"2.48","daynight":"N","commune":"Fos-sur-Mer","code_insee":"13039","departement":"Bouches-du-Rhône","region":"Provence-Alpes-Côte d'Azur"}},{"type":"Feature","geometry":{"type":"Point","coordinates":[1.22721,43.98822]},"properties":{"latitude":"43.98822","longitude":"1.22721","bright_ti4":"303.69","scan":"0.42","track":"0.37","acq_date":"2026-06-27","acq_time":"215","satellite":"N","instrument":"VIIRS","confidence":"n","version":"2.0NRT","bright_ti5":"292.52","frp":"0.63","daynight":"N","commune":"Montech","code_insee":"82125","departement":"Tarn-et-Garonne","region":"Occitanie"}},{"type":"Feature","geometry":{"type":"Point","coordinates":[5.59302,43.28883]},"properties":{"latitude":"43.28883","longitude":"5.59302","bright_ti4":"354.75","scan":"0.54","track":"0.51","acq_date":"2026-06-27","acq_time":"1157","satellite":"N","instrument":"VIIRS","confidence":"n","version":"2.0NRT","bright_ti5":"314.15","frp":"55.8","daynight":"D","commune":"Aubagne","code_insee":"13005","departement":"Bouches-du-Rhône","region":"Provence-Alpes-Côte d'Azur"}},{"type":"Feature","geometry":{"type":"Point","coordinates":[4.24405,45.86578]},"properties":{"latitude":"45.86578","longitude":"4.24405","bright_ti4":"340.86","scan":"0.53","track":"0.5","acq_date":"2026-06-27","acq_time":"1200","satellite":"N","instrument":"VIIRS","confidence":"n","version":"2.0NRT","bright_ti5":"305.33","frp":"3.41","daynight":"D","commune":"Sainte-Colombe-sur-Gand","code_insee":"42209","departement":"Loire","region":"Auvergne-Rhône-Alpes"}},{"type":"Feature","geometry":{"type":"Point","coordinates":[3.93054,46.54037]},"properties":{"latitude":"46.54037","longitude":"3.93054","bright_ti4":"331.65","scan":"0.53","track":"0.5","acq_date":"2026-06-27","acq_time":"1200","satellite":"N","instrument":"VIIRS","confidence":"l","version":"2.0NRT","bright_ti5":"303.18","frp":"3.44","daynight":"D","commune":"Les Guerreaux","code_insee":"71229","departement":"Saône-et-Loire","region":"Bourgogne-Franche-Comté"}},{"type":"Feature","geometry":{"type":"Point","coordinates":[3.937,46.542]},"properties":{"latitude":"46.542","longitude":"3.937","bright_ti4":"331.96","scan":"0.53","track":"0.5","acq_date":"2026-06-27","acq_time":"1200","satellite":"N","instrument":"VIIRS","confidence":"n","version":"2.0NRT","bright_ti5":"299.45","frp":"3.44","daynight":"D","commune":"Les Guerreaux","code_insee":"71229","departement":"Saône-et-Loire","region":"Bourgogne-Franche-Comté"}},{"type":"Feature","geometry":{"type":"Point","coordinates":[3.92917,46.54333]},"properties":{"latitude":"46.54333","longitude":"3.92917","bright_ti4":"342.39","scan":"0.53","track":"0.5","acq_date":"2026-06-27","acq_time":"1200","satellite":"N","instrument":"VIIRS","confidence":"n","version":"2.0NRT","bright_ti5":"305.18","frp":"8.66","daynight":"D","commune":"Les Guerreaux","code_insee":"71229","departement":"Saône-et-Loire","region":"Bourgogne-Franche-Comté"}},{"type":"Feature","geometry":{"type":"Point","coordinates":[3.93555,46.54497]},"properties":{"latitude":"46.54497","longitude":"3.93555","bright_ti4":"343.33","scan":"0.52","track":"0.5","acq_date":"2026-06-27","acq_time":"1200","satellite":"N","instrument":"VIIRS","confidence":"n","version":"2.0NRT","bright_ti5":"301.58","frp":"7.79","daynight":"D","commune":"Les Guerreaux","code_insee":"71229","departement":"Saône-et-Loire","region":"Bourgogne-Franche-Comté"}},{"type":"Feature","geometry":{"type":"Point","coordinates":[5.24326,47.53703]},"properties":{"latitude":"47.53703","longitude":"5.24326","bright_ti4":"342.03","scan":"0.43","track":"0.46","acq_date":"2026-06-27","acq_time":"1200","satellite":"N","instrument":"VIIRS","confidence":"n","version":"2.0NRT","bright_ti5":"307.87","frp":"6.13","daynight":"D","commune":"Véronnes","code_insee":"21667","departement":"Côte-d'Or","region":"Bourgogne-Franche-Comté"}},{"type":"Feature","geometry":{"type":"Point","coordinates":[5.24886,47.53837]},"properties":{"latitude":"47.53837","longitude":"5.24886","bright_ti4":"341.75","scan":"0.43","track":"0.46","acq_date":"2026-06-27","acq_time":"1200","satellite":"N","instrument":"VIIRS","confidence":"n","version":"2.0NRT","bright_ti5":"306.79","frp":"6.13","daynight":"D","commune":"Véronnes","code_insee":"21667","departement":"Côte-d'Or","region":"Bourgogne-Franche-Comté"}},{"type":"Feature","geometry":{"type":"Point","coordinates":[5.24498,47.53881]},"properties":{"latitude":"47.53881","longitude":"5.24498","bright_ti4":"346.99","scan":"0.44","track":"0.46","acq_date":"2026-06-27","acq_time":"1200","satellite":"N","instrument":"VIIRS","confidence":"n","version":"2.0NRT","bright_ti5":"309.72","frp":"8.94","daynight":"D","commune":"Véronnes","code_insee":"21667","departement":"Côte-d'Or","region":"Bourgogne-Franche-Comté"}},{"type":"Feature","geometry":{"type":"Point","coordinates":[4.17082,49.40356]},"properties":{"latitude":"49.40356","longitude":"4.17082","bright_ti4":"344.95","scan":"0.43","track":"0.46","acq_date":"2026-06-27","acq_time":"1200","satellite":"N","instrument":"VIIRS","confidence":"n","version":"2.0NRT","bright_ti5":"305.6","frp":"8.06","daynight":"D","commune":"Roizy","code_insee":"08368","departement":"Ardennes","region":"Grand Est"}},{"type":"Feature","geometry":{"type":"Point","coordinates":[2.28873,51.03544]},"properties":{"latitude":"51.03544","longitude":"2.28873","bright_ti4":"345.06","scan":"0.46","track":"0.47","acq_date":"2026-06-27","acq_time":"1202","satellite":"N","instrument":"VIIRS","confidence":"n","version":"2.0NRT","bright_ti5":"296.52","frp":"7.82","daynight":"D","commune":"Grande-Synthe","code_insee":"59271","departement":"Nord","region":"Hauts-de-France"}},{"type":"Feature","geometry":{"type":"Point","coordinates":[2.29863,51.04272]},"properties":{"latitude":"51.04272","longitude":"2.29863","bright_ti4":"329.59","scan":"0.46","track":"0.47","acq_date":"2026-06-27","acq_time":"1202","satellite":"N","instrument":"VIIRS","confidence":"n","version":"2.0NRT","bright_ti5":"296.25","frp":"3.72","daynight":"D","commune":"Grande-Synthe","code_insee":"59271","departement":"Nord","region":"Hauts-de-France"}},{"type":"Feature","geometry":{"type":"Point","coordinates":[2.29601,51.04682]},"properties":{"latitude":"51.04682","longitude":"2.29601","bright_ti4":"329.71","scan":"0.46","track":"0.47","acq_date":"2026-06-27","acq_time":"1202","satellite":"N","instrument":"VIIRS","confidence":"n","version":"2.0NRT","bright_ti5":"291.15","frp":"4.02","daynight":"D","commune":"Grande-Synthe","code_insee":"59271","departement":"Nord","region":"Hauts-de-France"}},{"type":"Feature","geometry":{"type":"Point","coordinates":[4.90185,43.44655]},"properties":{"latitude":"43.44655","longitude":"4.90185","bright_ti4":"333.13","scan":"0.47","track":"0.64","acq_date":"2026-06-27","acq_time":"1340","satellite":"N","instrument":"VIIRS","confidence":"l","version":"2.0NRT","bright_ti5":"307.79","frp":"4.8","daynight":"D","commune":"Fos-sur-Mer","code_insee":"13039","departement":"Bouches-du-Rhône","region":"Provence-Alpes-Côte d'Azur"}},{"type":"Feature","geometry":{"type":"Point","coordinates":[3.38228,45.21794]},"properties":{"latitude":"45.21794","longitude":"3.38228","bright_ti4":"342.46","scan":"0.41","track":"0.6","acq_date":"2026-06-27","acq_time":"1340","satellite":"N","instrument":"VIIRS","confidence":"n","version":"2.0NRT","bright_ti5":"308.1","frp":"52.2","daynight":"D","commune":"Saint-Just-près-Brioude","code_insee":"43206","departement":"Haute-Loire","region":"Auvergne-Rhône-Alpes"}},{"type":"Feature","geometry":{"type":"Point","coordinates":[3.38956,45.21819]},"properties":{"latitude":"45.21819","longitude":"3.38956","bright_ti4":"337.03","scan":"0.41","track":"0.6","acq_date":"2026-06-27","acq_time":"1340","satellite":"N","instrument":"VIIRS","confidence":"n","version":"2.0NRT","bright_ti5":"305.2","frp":"52.2","daynight":"D","commune":"Villeneuve-d'Allier","code_insee":"43264","departement":"Haute-Loire","region":"Auvergne-Rhône-Alpes"}},{"type":"Feature","geometry":{"type":"Point","coordinates":[3.38177,45.22358]},"properties":{"latitude":"45.22358","longitude":"3.38177","bright_ti4":"208","scan":"0.41","track":"0.6","acq_date":"2026-06-27","acq_time":"1340","satellite":"N","instrument":"VIIRS","confidence":"l","version":"2.0NRT","bright_ti5":"308.93","frp":"52.2","daynight":"D","commune":"Saint-Just-près-Brioude","code_insee":"43206","departement":"Haute-Loire","region":"Auvergne-Rhône-Alpes"}},{"type":"Feature","geometry":{"type":"Point","coordinates":[3.38884,45.22383]},"properties":{"latitude":"45.22383","longitude":"3.38884","bright_ti4":"367","scan":"0.41","track":"0.6","acq_date":"2026-06-27","acq_time":"1340","satellite":"N","instrument":"VIIRS","confidence":"h","version":"2.0NRT","bright_ti5":"328.16","frp":"52.2","daynight":"D","commune":"Villeneuve-d'Allier","code_insee":"43264","departement":"Haute-Loire","region":"Auvergne-Rhône-Alpes"}},{"type":"Feature","geometry":{"type":"Point","coordinates":[3.39566,45.22407]},"properties":{"latitude":"45.22407","longitude":"3.39566","bright_ti4":"335.46","scan":"0.41","track":"0.6","acq_date":"2026-06-27","acq_time":"1340","satellite":"N","instrument":"VIIRS","confidence":"n","version":"2.0NRT","bright_ti5":"305.79","frp":"66.56","daynight":"D","commune":"Saint-Ilpize","code_insee":"43195","departement":"Haute-Loire","region":"Auvergne-Rhône-Alpes"}},{"type":"Feature","geometry":{"type":"Point","coordinates":[3.24998,45.69562]},"properties":{"latitude":"45.69562","longitude":"3.24998","bright_ti4":"335.23","scan":"0.4","track":"0.6","acq_date":"2026-06-27","acq_time":"1340","satellite":"N","instrument":"VIIRS","confidence":"n","version":"2.0NRT","bright_ti5":"305.52","frp":"3.01","daynight":"D","commune":"Busséol","code_insee":"63059","departement":"Puy-de-Dôme","region":"Auvergne-Rhône-Alpes"}},{"type":"Feature","geometry":{"type":"Point","coordinates":[4.14688,45.71683]},"properties":{"latitude":"45.71683","longitude":"4.14688","bright_ti4":"340.7","scan":"0.45","track":"0.63","acq_date":"2026-06-27","acq_time":"1340","satellite":"N","instrument":"VIIRS","confidence":"n","version":"2.0NRT","bright_ti5":"306.84","frp":"3.48","daynight":"D","commune":"Poncins","code_insee":"42174","departement":"Loire","region":"Auvergne-Rhône-Alpes"}},{"type":"Feature","geometry":{"type":"Point","coordinates":[4.14445,45.72099]},"properties":{"latitude":"45.72099","longitude":"4.14445","bright_ti4":"354.08","scan":"0.45","track":"0.63","acq_date":"2026-06-27","acq_time":"1340","satellite":"N","instrument":"VIIRS","confidence":"n","version":"2.0NRT","bright_ti5":"306.62","frp":"7.18","daynight":"D","commune":"Poncins","code_insee":"42174","departement":"Loire","region":"Auvergne-Rhône-Alpes"}},{"type":"Feature","geometry":{"type":"Point","coordinates":[4.14679,45.72271]},"properties":{"latitude":"45.72271","longitude":"4.14679","bright_ti4":"335.57","scan":"0.45","track":"0.63","acq_date":"2026-06-27","acq_time":"1340","satellite":"N","instrument":"VIIRS","confidence":"n","version":"2.0NRT","bright_ti5":"305.1","frp":"3.48","daynight":"D","commune":"Poncins","code_insee":"42174","departement":"Loire","region":"Auvergne-Rhône-Alpes"}},{"type":"Feature","geometry":{"type":"Point","coordinates":[4.24763,45.86254]},"properties":{"latitude":"45.86254","longitude":"4.24763","bright_ti4":"335.41","scan":"0.45","track":"0.63","acq_date":"2026-06-27","acq_time":"1340","satellite":"N","instrument":"VIIRS","confidence":"n","version":"2.0NRT","bright_ti5":"308.46","frp":"2.98","daynight":"D","commune":"Bussières","code_insee":"42029","departement":"Loire","region":"Auvergne-Rhône-Alpes"}},{"type":"Feature","geometry":{"type":"Point","coordinates":[4.25343,45.86268]},"properties":{"latitude":"45.86268","longitude":"4.25343","bright_ti4":"339.79","scan":"0.45","track":"0.63","acq_date":"2026-06-27","acq_time":"1340","satellite":"N","instrument":"VIIRS","confidence":"n","version":"2.0NRT","bright_ti5":"307.77","frp":"2.98","daynight":"D","commune":"Bussières","code_insee":"42029","departement":"Loire","region":"Auvergne-Rhône-Alpes"}},{"type":"Feature","geometry":{"type":"Point","coordinates":[4.24723,45.86845]},"properties":{"latitude":"45.86845","longitude":"4.24723","bright_ti4":"367","scan":"0.45","track":"0.63","acq_date":"2026-06-27","acq_time":"1340","satellite":"N","instrument":"VIIRS","confidence":"h","version":"2.0NRT","bright_ti5":"313.84","frp":"23.82","daynight":"D","commune":"Sainte-Colombe-sur-Gand","code_insee":"42209","departement":"Loire","region":"Auvergne-Rhône-Alpes"}},{"type":"Feature","geometry":{"type":"Point","coordinates":[4.25269,45.86858]},"properties":{"latitude":"45.86858","longitude":"4.25269","bright_ti4":"367","scan":"0.45","track":"0.63","acq_date":"2026-06-27","acq_time":"1340","satellite":"N","instrument":"VIIRS","confidence":"h","version":"2.0NRT","bright_ti5":"317.18","frp":"23.82","daynight":"D","commune":"Sainte-Colombe-sur-Gand","code_insee":"42209","departement":"Loire","region":"Auvergne-Rhône-Alpes"}},{"type":"Feature","geometry":{"type":"Point","coordinates":[4.24713,45.87436]},"properties":{"latitude":"45.87436","longitude":"4.24713","bright_ti4":"367","scan":"0.45","track":"0.63","acq_date":"2026-06-27","acq_time":"1340","satellite":"N","instrument":"VIIRS","confidence":"h","version":"2.0NRT","bright_ti5":"310.47","frp":"23.82","daynight":"D","commune":"Saint-Just-la-Pendue","code_insee":"42249","departement":"Loire","region":"Auvergne-Rhône-Alpes"}},{"type":"Feature","geometry":{"type":"Point","coordinates":[4.25257,45.8745]},"properties":{"latitude":"45.8745","longitude":"4.25257","bright_ti4":"367","scan":"0.45","track":"0.63","acq_date":"2026-06-27","acq_time":"1340","satellite":"N","instrument":"VIIRS","confidence":"h","version":"2.0NRT","bright_ti5":"313.24","frp":"23.82","daynight":"D","commune":"Saint-Just-la-Pendue","code_insee":"42249","departement":"Loire","region":"Auvergne-Rhône-Alpes"}},{"type":"Feature","geometry":{"type":"Point","coordinates":[4.25823,45.87465]},"properties":{"latitude":"45.87465","longitude":"4.25823","bright_ti4":"346.55","scan":"0.45","track":"0.63","acq_date":"2026-06-27","acq_time":"1340","satellite":"N","instrument":"VIIRS","confidence":"n","version":"2.0NRT","bright_ti5":"308.19","frp":"30.86","daynight":"D","commune":"Saint-Just-la-Pendue","code_insee":"42249","departement":"Loire","region":"Auvergne-Rhône-Alpes"}},{"type":"Feature","geometry":{"type":"Point","coordinates":[2.62257,46.49757]},"properties":{"latitude":"46.49757","longitude":"2.62257","bright_ti4":"341.09","scan":"0.38","track":"0.59","acq_date":"2026-06-27","acq_time":"1340","satellite":"N","instrument":"VIIRS","confidence":"n","version":"2.0NRT","bright_ti5":"303.83","frp":"6.31","daynight":"D","commune":"Nassigny","code_insee":"03193","departement":"Allier","region":"Auvergne-Rhône-Alpes"}},{"type":"Feature","geometry":{"type":"Point","coordinates":[2.62739,46.49774]},"properties":{"latitude":"46.49774","longitude":"2.62739","bright_ti4":"338.45","scan":"0.38","track":"0.59","acq_date":"2026-06-27","acq_time":"1340","satellite":"N","instrument":"VIIRS","confidence":"n","version":"2.0NRT","bright_ti5":"302.27","frp":"5.98","daynight":"D","commune":"Nassigny","code_insee":"03193","departement":"Allier","region":"Auvergne-Rhône-Alpes"}},{"type":"Feature","geometry":{"type":"Point","coordinates":[2.62515,46.49786]},"properties":{"latitude":"46.49786","longitude":"2.62515","bright_ti4":"355.03","scan":"0.38","track":"0.59","acq_date":"2026-06-27","acq_time":"1340","satellite":"N","instrument":"VIIRS","confidence":"n","version":"2.0NRT","bright_ti5":"304.26","frp":"6.24","daynight":"D","commune":"Nassigny","code_insee":"03193","departement":"Allier","region":"Auvergne-Rhône-Alpes"}},{"type":"Feature","geometry":{"type":"Point","coordinates":[3.58301,46.54402]},"properties":{"latitude":"46.54402","longitude":"3.58301","bright_ti4":"334.6","scan":"0.42","track":"0.61","acq_date":"2026-06-27","acq_time":"1340","satellite":"N","instrument":"VIIRS","confidence":"l","version":"2.0NRT","bright_ti5":"308.34","frp":"3.24","daynight":"D","commune":"Thiel-sur-Acolin","code_insee":"03283","departement":"Allier","region":"Auvergne-Rhône-Alpes"}},{"type":"Feature","geometry":{"type":"Point","coordinates":[4.72069,47.19705]},"properties":{"latitude":"47.19705","longitude":"4.72069","bright_ti4":"367","scan":"0.48","track":"0.65","acq_date":"2026-06-27","acq_time":"1340","satellite":"N","instrument":"VIIRS","confidence":"h","version":"2.0NRT","bright_ti5":"307.51","frp":"29.51","daynight":"D","commune":"Veuvey-sur-Ouche","code_insee":"21673","departement":"Côte-d'Or","region":"Bourgogne-Franche-Comté"}},{"type":"Feature","geometry":{"type":"Point","coordinates":[2.29146,51.03525]},"properties":{"latitude":"51.03525","longitude":"2.29146","bright_ti4":"330.16","scan":"0.39","track":"0.6","acq_date":"2026-06-27","acq_time":"1342","satellite":"N","instrument":"VIIRS","confidence":"n","version":"2.0NRT","bright_ti5":"290.87","frp":"3.54","daynight":"D","commune":"Grande-Synthe","code_insee":"59271","departement":"Nord","region":"Hauts-de-France"}},{"type":"Feature","geometry":{"type":"Point","coordinates":[4.7607,45.44677]},"properties":{"latitude":"45.44677","longitude":"4.7607","bright_ti4":"305.62","scan":"0.39","track":"0.59","acq_date":"2026-06-27","acq_time":"52","satellite":"N20","instrument":"VIIRS","confidence":"n","version":"2.0NRT","bright_ti5":"292.01","frp":"0.8","daynight":"N","commune":"Saint-Clair-du-Rhône","code_insee":"38378","departement":"Isère","region":"Auvergne-Rhône-Alpes"}},{"type":"Feature","geometry":{"type":"Point","coordinates":[3.42232,46.25107]},"properties":{"latitude":"46.25107","longitude":"3.42232","bright_ti4":"306.76","scan":"0.45","track":"0.63","acq_date":"2026-06-27","acq_time":"52","satellite":"N20","instrument":"VIIRS","confidence":"n","version":"2.0NRT","bright_ti5":"294.84","frp":"1.22","daynight":"N","commune":"Créchy","code_insee":"03091","departement":"Allier","region":"Auvergne-Rhône-Alpes"}},{"type":"Feature","geometry":{"type":"Point","coordinates":[6.11297,46.61662]},"properties":{"latitude":"46.61662","longitude":"6.11297","bright_ti4":"301.06","scan":"0.34","track":"0.56","acq_date":"2026-06-27","acq_time":"52","satellite":"N20","instrument":"VIIRS","confidence":"n","version":"2.0NRT","bright_ti5":"282.67","frp":"0.89","daynight":"N","commune":"Chapelle-des-Bois","code_insee":"25121","departement":"Doubs","region":"Bourgogne-Franche-Comté"}},{"type":"Feature","geometry":{"type":"Point","coordinates":[6.11227,46.61785]},"properties":{"latitude":"46.61785","longitude":"6.11227","bright_ti4":"301.68","scan":"0.34","track":"0.56","acq_date":"2026-06-27","acq_time":"52","satellite":"N20","instrument":"VIIRS","confidence":"n","version":"2.0NRT","bright_ti5":"283.14","frp":"0.6","daynight":"N","commune":"Chapelle-des-Bois","code_insee":"25121","departement":"Doubs","region":"Bourgogne-Franche-Comté"}},{"type":"Feature","geometry":{"type":"Point","coordinates":[6.11325,48.60949]},"properties":{"latitude":"48.60949","longitude":"6.11325","bright_ti4":"299.75","scan":"0.35","track":"0.57","acq_date":"2026-06-27","acq_time":"52","satellite":"N20","instrument":"VIIRS","confidence":"n","version":"2.0NRT","bright_ti5":"269.3","frp":"0.43","daynight":"N","commune":"Neuves-Maisons","code_insee":"54397","departement":"Meurthe-et-Moselle","region":"Grand Est"}},{"type":"Feature","geometry":{"type":"Point","coordinates":[6.10841,48.60971]},"properties":{"latitude":"48.60971","longitude":"6.10841","bright_ti4":"296.87","scan":"0.35","track":"0.57","acq_date":"2026-06-27","acq_time":"52","satellite":"N20","instrument":"VIIRS","confidence":"n","version":"2.0NRT","bright_ti5":"277.65","frp":"1.06","daynight":"N","commune":"Neuves-Maisons","code_insee":"54397","departement":"Meurthe-et-Moselle","region":"Grand Est"}},{"type":"Feature","geometry":{"type":"Point","coordinates":[5.68232,48.71648]},"properties":{"latitude":"48.71648","longitude":"5.68232","bright_ti4":"299.58","scan":"0.37","track":"0.58","acq_date":"2026-06-27","acq_time":"52","satellite":"N20","instrument":"VIIRS","confidence":"n","version":"2.0NRT","bright_ti5":"288.17","frp":"0.48","daynight":"N","commune":"Sorcy-Saint-Martin","code_insee":"55496","departement":"Meuse","region":"Grand Est"}},{"type":"Feature","geometry":{"type":"Point","coordinates":[3.98687,49.61546]},"properties":{"latitude":"49.61546","longitude":"3.98687","bright_ti4":"313.28","scan":"0.45","track":"0.63","acq_date":"2026-06-27","acq_time":"52","satellite":"N20","instrument":"VIIRS","confidence":"n","version":"2.0NRT","bright_ti5":"289.77","frp":"1.55","daynight":"N","commune":"Lappion","code_insee":"02409","departement":"Aisne","region":"Hauts-de-France"}},{"type":"Feature","geometry":{"type":"Point","coordinates":[3.98786,49.61625]},"properties":{"latitude":"49.61625","longitude":"3.98786","bright_ti4":"313.43","scan":"0.44","track":"0.63","acq_date":"2026-06-27","acq_time":"52","satellite":"N20","instrument":"VIIRS","confidence":"n","version":"2.0NRT","bright_ti5":"289.89","frp":"1.19","daynight":"N","commune":"Dizy-le-Gros","code_insee":"02264","departement":"Aisne","region":"Hauts-de-France"}},{"type":"Feature","geometry":{"type":"Point","coordinates":[2.28548,51.03651]},"properties":{"latitude":"51.03651","longitude":"2.28548","bright_ti4":"315.83","scan":"0.54","track":"0.68","acq_date":"2026-06-27","acq_time":"52","satellite":"N20","instrument":"VIIRS","confidence":"n","version":"2.0NRT","bright_ti5":"286","frp":"4.98","daynight":"N","commune":"Grande-Synthe","code_insee":"59271","departement":"Nord","region":"Hauts-de-France"}},{"type":"Feature","geometry":{"type":"Point","coordinates":[4.89265,43.43581]},"properties":{"latitude":"43.43581","longitude":"4.89265","bright_ti4":"309.47","scan":"0.37","track":"0.58","acq_date":"2026-06-27","acq_time":"54","satellite":"N20","instrument":"VIIRS","confidence":"n","version":"2.0NRT","bright_ti5":"294.52","frp":"1.84","daynight":"N","commune":"Fos-sur-Mer","code_insee":"13039","departement":"Bouches-du-Rhône","region":"Provence-Alpes-Côte d'Azur"}},{"type":"Feature","geometry":{"type":"Point","coordinates":[4.89778,43.44094]},"properties":{"latitude":"43.44094","longitude":"4.89778","bright_ti4":"307.16","scan":"0.37","track":"0.58","acq_date":"2026-06-27","acq_time":"54","satellite":"N20","instrument":"VIIRS","confidence":"n","version":"2.0NRT","bright_ti5":"293.36","frp":"1.67","daynight":"N","commune":"Fos-sur-Mer","code_insee":"13039","departement":"Bouches-du-Rhône","region":"Provence-Alpes-Côte d'Azur"}},{"type":"Feature","geometry":{"type":"Point","coordinates":[4.89318,43.44116]},"properties":{"latitude":"43.44116","longitude":"4.89318","bright_ti4":"313.63","scan":"0.37","track":"0.58","acq_date":"2026-06-27","acq_time":"54","satellite":"N20","instrument":"VIIRS","confidence":"n","version":"2.0NRT","bright_ti5":"295.32","frp":"1.84","daynight":"N","commune":"Fos-sur-Mer","code_insee":"13039","departement":"Bouches-du-Rhône","region":"Provence-Alpes-Côte d'Azur"}},{"type":"Feature","geometry":{"type":"Point","coordinates":[4.89829,43.4463]},"properties":{"latitude":"43.4463","longitude":"4.89829","bright_ti4":"314.16","scan":"0.37","track":"0.58","acq_date":"2026-06-27","acq_time":"54","satellite":"N20","instrument":"VIIRS","confidence":"n","version":"2.0NRT","bright_ti5":"294.91","frp":"1.52","daynight":"N","commune":"Fos-sur-Mer","code_insee":"13039","departement":"Bouches-du-Rhône","region":"Provence-Alpes-Côte d'Azur"}},{"type":"Feature","geometry":{"type":"Point","coordinates":[4.88906,43.44673]},"properties":{"latitude":"43.44673","longitude":"4.88906","bright_ti4":"303.68","scan":"0.37","track":"0.58","acq_date":"2026-06-27","acq_time":"54","satellite":"N20","instrument":"VIIRS","confidence":"n","version":"2.0NRT","bright_ti5":"293.54","frp":"1.62","daynight":"N","commune":"Fos-sur-Mer","code_insee":"13039","departement":"Bouches-du-Rhône","region":"Provence-Alpes-Côte d'Azur"}},{"type":"Feature","geometry":{"type":"Point","coordinates":[2.49161,43.99294]},"properties":{"latitude":"43.99294","longitude":"2.49161","bright_ti4":"303.75","scan":"0.49","track":"0.65","acq_date":"2026-06-27","acq_time":"54","satellite":"N20","instrument":"VIIRS","confidence":"n","version":"2.0NRT","bright_ti5":"291.53","frp":"0.92","daynight":"N","commune":"Cadix","code_insee":"81047","departement":"Tarn","region":"Occitanie"}},{"type":"Feature","geometry":{"type":"Point","coordinates":[2.48518,43.99311]},"properties":{"latitude":"43.99311","longitude":"2.48518","bright_ti4":"306.35","scan":"0.49","track":"0.65","acq_date":"2026-06-27","acq_time":"54","satellite":"N20","instrument":"VIIRS","confidence":"n","version":"2.0NRT","bright_ti5":"291.79","frp":"0.92","daynight":"N","commune":"Cadix","code_insee":"81047","departement":"Tarn","region":"Occitanie"}},{"type":"Feature","geometry":{"type":"Point","coordinates":[-1.03487,48.10685]},"properties":{"latitude":"48.10685","longitude":"-1.03487","bright_ti4":"303.16","scan":"0.48","track":"0.4","acq_date":"2026-06-27","acq_time":"232","satellite":"N20","instrument":"VIIRS","confidence":"n","version":"2.0NRT","bright_ti5":"292.15","frp":"0.88","daynight":"N","commune":"Saint-Pierre-la-Cour","code_insee":"53247","departement":"Mayenne","region":"Pays de la Loire"}},{"type":"Feature","geometry":{"type":"Point","coordinates":[2.98683,48.38639]},"properties":{"latitude":"48.38639","longitude":"2.98683","bright_ti4":"304.81","scan":"0.44","track":"0.46","acq_date":"2026-06-27","acq_time":"232","satellite":"N20","instrument":"VIIRS","confidence":"n","version":"2.0NRT","bright_ti5":"293.66","frp":"0.76","daynight":"N","commune":"Montereau-Fault-Yonne","code_insee":"77305","departement":"Seine-et-Marne","region":"Île-de-France"}},{"type":"Feature","geometry":{"type":"Point","coordinates":[2.98115,48.38778]},"properties":{"latitude":"48.38778","longitude":"2.98115","bright_ti4":"307.77","scan":"0.44","track":"0.46","acq_date":"2026-06-27","acq_time":"232","satellite":"N20","instrument":"VIIRS","confidence":"n","version":"2.0NRT","bright_ti5":"294.06","frp":"1.4","daynight":"N","commune":"Montereau-Fault-Yonne","code_insee":"77305","departement":"Seine-et-Marne","region":"Île-de-France"}},{"type":"Feature","geometry":{"type":"Point","coordinates":[6.96759,48.69067]},"properties":{"latitude":"48.69067","longitude":"6.96759","bright_ti4":"302.87","scan":"0.32","track":"0.55","acq_date":"2026-06-27","acq_time":"232","satellite":"N20","instrument":"VIIRS","confidence":"n","version":"2.0NRT","bright_ti5":"291.75","frp":"0.62","daynight":"N","commune":"Héming","code_insee":"57314","departement":"Moselle","region":"Grand Est"}},{"type":"Feature","geometry":{"type":"Point","coordinates":[4.56729,48.77045]},"properties":{"latitude":"48.77045","longitude":"4.56729","bright_ti4":"304.04","scan":"0.51","track":"0.49","acq_date":"2026-06-27","acq_time":"232","satellite":"N20","instrument":"VIIRS","confidence":"n","version":"2.0NRT","bright_ti5":"293.8","frp":"0.7","daynight":"N","commune":"Couvrot","code_insee":"51195","departement":"Marne","region":"Grand Est"}},{"type":"Feature","geometry":{"type":"Point","coordinates":[1.76207,48.98244]},"properties":{"latitude":"48.98244","longitude":"1.76207","bright_ti4":"319.74","scan":"0.38","track":"0.44","acq_date":"2026-06-27","acq_time":"232","satellite":"N20","instrument":"VIIRS","confidence":"n","version":"2.0NRT","bright_ti5":"280.5","frp":"1.99","daynight":"N","commune":"Porcheville","code_insee":"78501","departement":"Yvelines","region":"Île-de-France"}},{"type":"Feature","geometry":{"type":"Point","coordinates":[3.98817,49.61431]},"properties":{"latitude":"49.61431","longitude":"3.98817","bright_ti4":"308.23","scan":"0.45","track":"0.47","acq_date":"2026-06-27","acq_time":"232","satellite":"N20","instrument":"VIIRS","confidence":"n","version":"2.0NRT","bright_ti5":"290.97","frp":"1.17","daynight":"N","commune":"Lappion","code_insee":"02409","departement":"Aisne","region":"Hauts-de-France"}},{"type":"Feature","geometry":{"type":"Point","coordinates":[3.49194,50.33839]},"properties":{"latitude":"50.33839","longitude":"3.49194","bright_ti4":"298.98","scan":"0.42","track":"0.45","acq_date":"2026-06-27","acq_time":"232","satellite":"N20","instrument":"VIIRS","confidence":"n","version":"2.0NRT","bright_ti5":"285.87","frp":"1.17","daynight":"N","commune":"Trith-Saint-Léger","code_insee":"59603","departement":"Nord","region":"Hauts-de-France"}},{"type":"Feature","geometry":{"type":"Point","coordinates":[0.99081,43.18405]},"properties":{"latitude":"43.18405","longitude":"0.99081","bright_ti4":"305.06","scan":"0.49","track":"0.49","acq_date":"2026-06-27","acq_time":"234","satellite":"N20","instrument":"VIIRS","confidence":"n","version":"2.0NRT","bright_ti5":"293.95","frp":"1.42","daynight":"N","commune":"Martres-Tolosane","code_insee":"31324","departement":"Haute-Garonne","region":"Occitanie"}},{"type":"Feature","geometry":{"type":"Point","coordinates":[4.89523,43.43764]},"properties":{"latitude":"43.43764","longitude":"4.89523","bright_ti4":"315.81","scan":"0.37","track":"0.58","acq_date":"2026-06-27","acq_time":"234","satellite":"N20","instrument":"VIIRS","confidence":"n","version":"2.0NRT","bright_ti5":"295.18","frp":"1.58","daynight":"N","commune":"Fos-sur-Mer","code_insee":"13039","departement":"Bouches-du-Rhône","region":"Provence-Alpes-Côte d'Azur"}},{"type":"Feature","geometry":{"type":"Point","coordinates":[4.89094,43.43885]},"properties":{"latitude":"43.43885","longitude":"4.89094","bright_ti4":"323.43","scan":"0.37","track":"0.58","acq_date":"2026-06-27","acq_time":"234","satellite":"N20","instrument":"VIIRS","confidence":"n","version":"2.0NRT","bright_ti5":"295.09","frp":"3.73","daynight":"N","commune":"Fos-sur-Mer","code_insee":"13039","departement":"Bouches-du-Rhône","region":"Provence-Alpes-Côte d'Azur"}},{"type":"Feature","geometry":{"type":"Point","coordinates":[4.89791,43.44265]},"properties":{"latitude":"43.44265","longitude":"4.89791","bright_ti4":"317.95","scan":"0.37","track":"0.58","acq_date":"2026-06-27","acq_time":"234","satellite":"N20","instrument":"VIIRS","confidence":"n","version":"2.0NRT","bright_ti5":"294.26","frp":"1.58","daynight":"N","commune":"Fos-sur-Mer","code_insee":"13039","departement":"Bouches-du-Rhône","region":"Provence-Alpes-Côte d'Azur"}},{"type":"Feature","geometry":{"type":"Point","coordinates":[4.90063,43.44766]},"properties":{"latitude":"43.44766","longitude":"4.90063","bright_ti4":"318.37","scan":"0.37","track":"0.58","acq_date":"2026-06-27","acq_time":"234","satellite":"N20","instrument":"VIIRS","confidence":"n","version":"2.0NRT","bright_ti5":"295.16","frp":"2.77","daynight":"N","commune":"Fos-sur-Mer","code_insee":"13039","departement":"Bouches-du-Rhône","region":"Provence-Alpes-Côte d'Azur"}},{"type":"Feature","geometry":{"type":"Point","coordinates":[4.8963,43.44887]},"properties":{"latitude":"43.44887","longitude":"4.8963","bright_ti4":"335.73","scan":"0.37","track":"0.58","acq_date":"2026-06-27","acq_time":"234","satellite":"N20","instrument":"VIIRS","confidence":"n","version":"2.0NRT","bright_ti5":"293.61","frp":"3.6","daynight":"N","commune":"Fos-sur-Mer","code_insee":"13039","departement":"Bouches-du-Rhône","region":"Provence-Alpes-Côte d'Azur"}},{"type":"Feature","geometry":{"type":"Point","coordinates":[0.76895,45.70839]},"properties":{"latitude":"45.70839","longitude":"0.76895","bright_ti4":"303.07","scan":"0.42","track":"0.45","acq_date":"2026-06-27","acq_time":"234","satellite":"N20","instrument":"VIIRS","confidence":"n","version":"2.0NRT","bright_ti5":"291.15","frp":"0.62","daynight":"N","commune":"Saint-Mathieu","code_insee":"87168","departement":"Haute-Vienne","region":"Nouvelle-Aquitaine"}},{"type":"Feature","geometry":{"type":"Point","coordinates":[5.82218,45.91411]},"properties":{"latitude":"45.91411","longitude":"5.82218","bright_ti4":"308.23","scan":"0.35","track":"0.56","acq_date":"2026-06-27","acq_time":"234","satellite":"N20","instrument":"VIIRS","confidence":"n","version":"2.0NRT","bright_ti5":"290.89","frp":"0.91","daynight":"N","commune":"Anglefort","code_insee":"01010","departement":"Ain","region":"Auvergne-Rhône-Alpes"}},{"type":"Feature","geometry":{"type":"Point","coordinates":[4.89112,43.43501]},"properties":{"latitude":"43.43501","longitude":"4.89112","bright_ti4":"346.97","scan":"0.47","track":"0.4","acq_date":"2026-06-27","acq_time":"1217","satellite":"N20","instrument":"VIIRS","confidence":"l","version":"2.0NRT","bright_ti5":"317.27","frp":"16.4","daynight":"D","commune":"Fos-sur-Mer","code_insee":"13039","departement":"Bouches-du-Rhône","region":"Provence-Alpes-Côte d'Azur"}},{"type":"Feature","geometry":{"type":"Point","coordinates":[4.89978,43.44431]},"properties":{"latitude":"43.44431","longitude":"4.89978","bright_ti4":"342.17","scan":"0.47","track":"0.4","acq_date":"2026-06-27","acq_time":"1217","satellite":"N20","instrument":"VIIRS","confidence":"l","version":"2.0NRT","bright_ti5":"316.34","frp":"9.3","daynight":"D","commune":"Fos-sur-Mer","code_insee":"13039","departement":"Bouches-du-Rhône","region":"Provence-Alpes-Côte d'Azur"}},{"type":"Feature","geometry":{"type":"Point","coordinates":[5.27347,45.85033]},"properties":{"latitude":"45.85033","longitude":"5.27347","bright_ti4":"348.07","scan":"0.42","track":"0.38","acq_date":"2026-06-27","acq_time":"1217","satellite":"N20","instrument":"VIIRS","confidence":"n","version":"2.0NRT","bright_ti5":"316.19","frp":"10.34","daynight":"D","commune":"Saint-Vulbas","code_insee":"01390","departement":"Ain","region":"Auvergne-Rhône-Alpes"}},{"type":"Feature","geometry":{"type":"Point","coordinates":[4.24679,45.86595]},"properties":{"latitude":"45.86595","longitude":"4.24679","bright_ti4":"350.6","scan":"0.45","track":"0.39","acq_date":"2026-06-27","acq_time":"1217","satellite":"N20","instrument":"VIIRS","confidence":"n","version":"2.0NRT","bright_ti5":"320.51","frp":"46.12","daynight":"D","commune":"Sainte-Colombe-sur-Gand","code_insee":"42209","departement":"Loire","region":"Auvergne-Rhône-Alpes"}},{"type":"Feature","geometry":{"type":"Point","coordinates":[3.93134,46.54246]},"properties":{"latitude":"46.54246","longitude":"3.93134","bright_ti4":"348.61","scan":"0.45","track":"0.39","acq_date":"2026-06-27","acq_time":"1217","satellite":"N20","instrument":"VIIRS","confidence":"l","version":"2.0NRT","bright_ti5":"321.98","frp":"10.29","daynight":"D","commune":"Les Guerreaux","code_insee":"71229","departement":"Saône-et-Loire","region":"Bourgogne-Franche-Comté"}},{"type":"Feature","geometry":{"type":"Point","coordinates":[5.5918,43.29093]},"properties":{"latitude":"43.29093","longitude":"5.5918","bright_ti4":"344.49","scan":"0.45","track":"0.39","acq_date":"2026-06-27","acq_time":"1219","satellite":"N20","instrument":"VIIRS","confidence":"l","version":"2.0NRT","bright_ti5":"316.42","frp":"53.55","daynight":"D","commune":"Aubagne","code_insee":"13005","departement":"Bouches-du-Rhône","region":"Provence-Alpes-Côte d'Azur"}},{"type":"Feature","geometry":{"type":"Point","coordinates":[-1.38017,47.17468]},"properties":{"latitude":"47.17468","longitude":"-1.38017","bright_ti4":"341.37","scan":"0.47","track":"0.48","acq_date":"2026-06-27","acq_time":"1219","satellite":"N20","instrument":"VIIRS","confidence":"n","version":"2.0NRT","bright_ti5":"298.99","frp":"3.39","daynight":"D","commune":"Haute-Goulaine","code_insee":"44071","departement":"Loire-Atlantique","region":"Pays de la Loire"}},{"type":"Feature","geometry":{"type":"Point","coordinates":[2.28831,51.03163]},"properties":{"latitude":"51.03163","longitude":"2.28831","bright_ti4":"339.67","scan":"0.43","track":"0.38","acq_date":"2026-06-27","acq_time":"1219","satellite":"N20","instrument":"VIIRS","confidence":"n","version":"2.0NRT","bright_ti5":"304.92","frp":"7.15","daynight":"D","commune":"Grande-Synthe","code_insee":"59271","departement":"Nord","region":"Hauts-de-France"}},{"type":"Feature","geometry":{"type":"Point","coordinates":[2.28667,51.03501]},"properties":{"latitude":"51.03501","longitude":"2.28667","bright_ti4":"339.29","scan":"0.43","track":"0.38","acq_date":"2026-06-27","acq_time":"1219","satellite":"N20","instrument":"VIIRS","confidence":"n","version":"2.0NRT","bright_ti5":"300.69","frp":"3.8","daynight":"D","commune":"Grande-Synthe","code_insee":"59271","departement":"Nord","region":"Hauts-de-France"}},{"type":"Feature","geometry":{"type":"Point","coordinates":[2.29993,51.04605]},"properties":{"latitude":"51.04605","longitude":"2.29993","bright_ti4":"331.84","scan":"0.43","track":"0.38","acq_date":"2026-06-27","acq_time":"1219","satellite":"N20","instrument":"VIIRS","confidence":"n","version":"2.0NRT","bright_ti5":"296.69","frp":"2.11","daynight":"D","commune":"Grande-Synthe","code_insee":"59271","departement":"Nord","region":"Hauts-de-France"}},{"type":"Feature","geometry":{"type":"Point","coordinates":[2.62303,46.49393]},"properties":{"latitude":"46.49393","longitude":"2.62303","bright_ti4":"332.97","scan":"0.76","track":"0.77","acq_date":"2026-06-27","acq_time":"1359","satellite":"N20","instrument":"VIIRS","confidence":"n","version":"2.0NRT","bright_ti5":"299","frp":"7.33","daynight":"D","commune":"Nassigny","code_insee":"03193","departement":"Allier","region":"Auvergne-Rhône-Alpes"}},{"type":"Feature","geometry":{"type":"Point","coordinates":[2.98604,48.38618]},"properties":{"latitude":"48.38618","longitude":"2.98604","bright_ti4":"307.77","scan":"0.43","track":"0.38","acq_date":"2026-06-27","acq_time":"137","satellite":"N21","instrument":"VIIRS","confidence":"n","version":"2.0NRT","bright_ti5":"295.21","frp":"1.47","daynight":"N","commune":"Montereau-Fault-Yonne","code_insee":"77305","departement":"Seine-et-Marne","region":"Île-de-France"}},{"type":"Feature","geometry":{"type":"Point","coordinates":[2.98027,48.38691]},"properties":{"latitude":"48.38691","longitude":"2.98027","bright_ti4":"318.86","scan":"0.43","track":"0.38","acq_date":"2026-06-27","acq_time":"137","satellite":"N21","instrument":"VIIRS","confidence":"n","version":"2.0NRT","bright_ti5":"296.24","frp":"2.86","daynight":"N","commune":"Montereau-Fault-Yonne","code_insee":"77305","departement":"Seine-et-Marne","region":"Île-de-France"}},{"type":"Feature","geometry":{"type":"Point","coordinates":[2.98236,48.38799]},"properties":{"latitude":"48.38799","longitude":"2.98236","bright_ti4":"325.2","scan":"0.43","track":"0.38","acq_date":"2026-06-27","acq_time":"137","satellite":"N21","instrument":"VIIRS","confidence":"n","version":"2.0NRT","bright_ti5":"296.15","frp":"3.82","daynight":"N","commune":"Montereau-Fault-Yonne","code_insee":"77305","departement":"Seine-et-Marne","region":"Île-de-France"}},{"type":"Feature","geometry":{"type":"Point","coordinates":[6.10885,48.5621]},"properties":{"latitude":"48.5621","longitude":"6.10885","bright_ti4":"306.04","scan":"0.39","track":"0.36","acq_date":"2026-06-27","acq_time":"137","satellite":"N21","instrument":"VIIRS","confidence":"n","version":"2.0NRT","bright_ti5":"294.29","frp":"0.96","daynight":"N","commune":"Xeuilley","code_insee":"54596","departement":"Meurthe-et-Moselle","region":"Grand Est"}},{"type":"Feature","geometry":{"type":"Point","coordinates":[6.11927,48.60841]},"properties":{"latitude":"48.60841","longitude":"6.11927","bright_ti4":"305.94","scan":"0.39","track":"0.36","acq_date":"2026-06-27","acq_time":"137","satellite":"N21","instrument":"VIIRS","confidence":"n","version":"2.0NRT","bright_ti5":"295.17","frp":"1.73","daynight":"N","commune":"Neuves-Maisons","code_insee":"54397","departement":"Meurthe-et-Moselle","region":"Grand Est"}},{"type":"Feature","geometry":{"type":"Point","coordinates":[6.10899,48.60997]},"properties":{"latitude":"48.60997","longitude":"6.10899","bright_ti4":"309.3","scan":"0.39","track":"0.36","acq_date":"2026-06-27","acq_time":"137","satellite":"N21","instrument":"VIIRS","confidence":"n","version":"2.0NRT","bright_ti5":"295.52","frp":"1.13","daynight":"N","commune":"Neuves-Maisons","code_insee":"54397","departement":"Meurthe-et-Moselle","region":"Grand Est"}},{"type":"Feature","geometry":{"type":"Point","coordinates":[6.96711,48.69032]},"properties":{"latitude":"48.69032","longitude":"6.96711","bright_ti4":"295.95","scan":"0.38","track":"0.36","acq_date":"2026-06-27","acq_time":"137","satellite":"N21","instrument":"VIIRS","confidence":"n","version":"2.0NRT","bright_ti5":"279.98","frp":"0.31","daynight":"N","commune":"Héming","code_insee":"57314","departement":"Moselle","region":"Grand Est"}},{"type":"Feature","geometry":{"type":"Point","coordinates":[5.68039,48.71496]},"properties":{"latitude":"48.71496","longitude":"5.68039","bright_ti4":"302.69","scan":"0.39","track":"0.36","acq_date":"2026-06-27","acq_time":"137","satellite":"N21","instrument":"VIIRS","confidence":"n","version":"2.0NRT","bright_ti5":"291.51","frp":"0.57","daynight":"N","commune":"Sorcy-Saint-Martin","code_insee":"55496","departement":"Meuse","region":"Grand Est"}},{"type":"Feature","geometry":{"type":"Point","coordinates":[2.73975,48.94844]},"properties":{"latitude":"48.94844","longitude":"2.73975","bright_ti4":"306.79","scan":"0.44","track":"0.39","acq_date":"2026-06-27","acq_time":"137","satellite":"N21","instrument":"VIIRS","confidence":"n","version":"2.0NRT","bright_ti5":"293.11","frp":"0.88","daynight":"N","commune":"Fresnes-sur-Marne","code_insee":"77196","departement":"Seine-et-Marne","region":"Île-de-France"}},{"type":"Feature","geometry":{"type":"Point","coordinates":[1.76229,48.98386]},"properties":{"latitude":"48.98386","longitude":"1.76229","bright_ti4":"323.75","scan":"0.48","track":"0.4","acq_date":"2026-06-27","acq_time":"137","satellite":"N21","instrument":"VIIRS","confidence":"n","version":"2.0NRT","bright_ti5":"293.47","frp":"2.15","daynight":"N","commune":"Porcheville","code_insee":"78501","departement":"Yvelines","region":"Île-de-France"}},{"type":"Feature","geometry":{"type":"Point","coordinates":[3.98472,49.6164]},"properties":{"latitude":"49.6164","longitude":"3.98472","bright_ti4":"322.75","scan":"0.42","track":"0.38","acq_date":"2026-06-27","acq_time":"137","satellite":"N21","instrument":"VIIRS","confidence":"n","version":"2.0NRT","bright_ti5":"292.14","frp":"2.55","daynight":"N","commune":"Lappion","code_insee":"02409","departement":"Aisne","region":"Hauts-de-France"}},{"type":"Feature","geometry":{"type":"Point","coordinates":[3.4911,50.33723]},"properties":{"latitude":"50.33723","longitude":"3.4911","bright_ti4":"305.05","scan":"0.44","track":"0.38","acq_date":"2026-06-27","acq_time":"137","satellite":"N21","instrument":"VIIRS","confidence":"n","version":"2.0NRT","bright_ti5":"292.22","frp":"0.76","daynight":"N","commune":"Trith-Saint-Léger","code_insee":"59603","departement":"Nord","region":"Hauts-de-France"}},{"type":"Feature","geometry":{"type":"Point","coordinates":[2.28577,51.03551]},"properties":{"latitude":"51.03551","longitude":"2.28577","bright_ti4":"328.44","scan":"0.48","track":"0.4","acq_date":"2026-06-27","acq_time":"137","satellite":"N21","instrument":"VIIRS","confidence":"n","version":"2.0NRT","bright_ti5":"292.89","frp":"4.96","daynight":"N","commune":"Grande-Synthe","code_insee":"59271","departement":"Nord","region":"Hauts-de-France"}},{"type":"Feature","geometry":{"type":"Point","coordinates":[2.29454,51.04206]},"properties":{"latitude":"51.04206","longitude":"2.29454","bright_ti4":"308.27","scan":"0.48","track":"0.4","acq_date":"2026-06-27","acq_time":"137","satellite":"N21","instrument":"VIIRS","confidence":"n","version":"2.0NRT","bright_ti5":"293.51","frp":"9.45","daynight":"N","commune":"Grande-Synthe","code_insee":"59271","departement":"Nord","region":"Hauts-de-France"}},{"type":"Feature","geometry":{"type":"Point","coordinates":[2.29551,51.04571]},"properties":{"latitude":"51.04571","longitude":"2.29551","bright_ti4":"334.8","scan":"0.48","track":"0.4","acq_date":"2026-06-27","acq_time":"137","satellite":"N21","instrument":"VIIRS","confidence":"n","version":"2.0NRT","bright_ti5":"292.51","frp":"9.45","daynight":"N","commune":"Grande-Synthe","code_insee":"59271","departement":"Nord","region":"Hauts-de-France"}},{"type":"Feature","geometry":{"type":"Point","coordinates":[2.32373,51.04638]},"properties":{"latitude":"51.04638","longitude":"2.32373","bright_ti4":"306.98","scan":"0.48","track":"0.4","acq_date":"2026-06-27","acq_time":"137","satellite":"N21","instrument":"VIIRS","confidence":"n","version":"2.0NRT","bright_ti5":"293.16","frp":"1.89","daynight":"N","commune":"Dunkerque","code_insee":"59183","departement":"Nord","region":"Hauts-de-France"}},{"type":"Feature","geometry":{"type":"Point","coordinates":[4.89503,43.43586]},"properties":{"latitude":"43.43586","longitude":"4.89503","bright_ti4":"317.65","scan":"0.38","track":"0.36","acq_date":"2026-06-27","acq_time":"139","satellite":"N21","instrument":"VIIRS","confidence":"n","version":"2.0NRT","bright_ti5":"296.5","frp":"2.97","daynight":"N","commune":"Fos-sur-Mer","code_insee":"13039","departement":"Bouches-du-Rhône","region":"Provence-Alpes-Côte d'Azur"}},{"type":"Feature","geometry":{"type":"Point","coordinates":[4.88103,43.43806]},"properties":{"latitude":"43.43806","longitude":"4.88103","bright_ti4":"310.92","scan":"0.38","track":"0.36","acq_date":"2026-06-27","acq_time":"139","satellite":"N21","instrument":"VIIRS","confidence":"n","version":"2.0NRT","bright_ti5":"297.86","frp":"1.97","daynight":"N","commune":"Fos-sur-Mer","code_insee":"13039","departement":"Bouches-du-Rhône","region":"Provence-Alpes-Côte d'Azur"}},{"type":"Feature","geometry":{"type":"Point","coordinates":[4.89133,43.43985]},"properties":{"latitude":"43.43985","longitude":"4.89133","bright_ti4":"332.5","scan":"0.38","track":"0.36","acq_date":"2026-06-27","acq_time":"139","satellite":"N21","instrument":"VIIRS","confidence":"n","version":"2.0NRT","bright_ti5":"298.54","frp":"2.54","daynight":"N","commune":"Fos-sur-Mer","code_insee":"13039","departement":"Bouches-du-Rhône","region":"Provence-Alpes-Côte d'Azur"}},{"type":"Feature","geometry":{"type":"Point","coordinates":[4.89696,43.44237]},"properties":{"latitude":"43.44237","longitude":"4.89696","bright_ti4":"313.05","scan":"0.38","track":"0.36","acq_date":"2026-06-27","acq_time":"139","satellite":"N21","instrument":"VIIRS","confidence":"n","version":"2.0NRT","bright_ti5":"295.88","frp":"2.54","daynight":"N","commune":"Fos-sur-Mer","code_insee":"13039","departement":"Bouches-du-Rhône","region":"Provence-Alpes-Côte d'Azur"}},{"type":"Feature","geometry":{"type":"Point","coordinates":[4.89792,43.44562]},"properties":{"latitude":"43.44562","longitude":"4.89792","bright_ti4":"344.62","scan":"0.38","track":"0.36","acq_date":"2026-06-27","acq_time":"139","satellite":"N21","instrument":"VIIRS","confidence":"n","version":"2.0NRT","bright_ti5":"299.39","frp":"3.4","daynight":"N","commune":"Fos-sur-Mer","code_insee":"13039","departement":"Bouches-du-Rhône","region":"Provence-Alpes-Côte d'Azur"}},{"type":"Feature","geometry":{"type":"Point","coordinates":[4.89326,43.44635]},"properties":{"latitude":"43.44635","longitude":"4.89326","bright_ti4":"311.19","scan":"0.38","track":"0.36","acq_date":"2026-06-27","acq_time":"139","satellite":"N21","instrument":"VIIRS","confidence":"n","version":"2.0NRT","bright_ti5":"295.68","frp":"3.4","daynight":"N","commune":"Fos-sur-Mer","code_insee":"13039","departement":"Bouches-du-Rhône","region":"Provence-Alpes-Côte d'Azur"}},{"type":"Feature","geometry":{"type":"Point","coordinates":[4.71588,43.69336]},"properties":{"latitude":"43.69336","longitude":"4.71588","bright_ti4":"302.81","scan":"0.38","track":"0.36","acq_date":"2026-06-27","acq_time":"139","satellite":"N21","instrument":"VIIRS","confidence":"n","version":"2.0NRT","bright_ti5":"292.16","frp":"0.29","daynight":"N","commune":"Arles","code_insee":"13004","departement":"Bouches-du-Rhône","region":"Provence-Alpes-Côte d'Azur"}},{"type":"Feature","geometry":{"type":"Point","coordinates":[7.37221,43.79537]},"properties":{"latitude":"43.79537","longitude":"7.37221","bright_ti4":"308.11","scan":"0.41","track":"0.37","acq_date":"2026-06-27","acq_time":"139","satellite":"N21","instrument":"VIIRS","confidence":"n","version":"2.0NRT","bright_ti5":"294.52","frp":"0.89","daynight":"N","commune":"Blausasc","code_insee":"06019","departement":"Alpes-Maritimes","region":"Provence-Alpes-Côte d'Azur"}},{"type":"Feature","geometry":{"type":"Point","coordinates":[1.22732,43.98715]},"properties":{"latitude":"43.98715","longitude":"1.22732","bright_ti4":"303.86","scan":"0.44","track":"0.38","acq_date":"2026-06-27","acq_time":"139","satellite":"N21","instrument":"VIIRS","confidence":"n","version":"2.0NRT","bright_ti5":"292.57","frp":"0.54","daynight":"N","commune":"Montech","code_insee":"82125","departement":"Tarn-et-Garonne","region":"Occitanie"}},{"type":"Feature","geometry":{"type":"Point","coordinates":[3.29184,45.97124]},"properties":{"latitude":"45.97124","longitude":"3.29184","bright_ti4":"316.07","scan":"0.41","track":"0.37","acq_date":"2026-06-27","acq_time":"139","satellite":"N21","instrument":"VIIRS","confidence":"n","version":"2.0NRT","bright_ti5":"290.77","frp":"1.95","daynight":"N","commune":"Saint-André-le-Coq","code_insee":"63317","departement":"Puy-de-Dôme","region":"Auvergne-Rhône-Alpes"}},{"type":"Feature","geometry":{"type":"Point","coordinates":[3.42622,46.25098]},"properties":{"latitude":"46.25098","longitude":"3.42622","bright_ti4":"308.35","scan":"0.41","track":"0.37","acq_date":"2026-06-27","acq_time":"139","satellite":"N21","instrument":"VIIRS","confidence":"n","version":"2.0NRT","bright_ti5":"297.42","frp":"1.73","daynight":"N","commune":"Créchy","code_insee":"03091","departement":"Allier","region":"Auvergne-Rhône-Alpes"}},{"type":"Feature","geometry":{"type":"Point","coordinates":[6.10905,46.61586]},"properties":{"latitude":"46.61586","longitude":"6.10905","bright_ti4":"295.68","scan":"0.38","track":"0.36","acq_date":"2026-06-27","acq_time":"139","satellite":"N21","instrument":"VIIRS","confidence":"n","version":"2.0NRT","bright_ti5":"284.79","frp":"0.48","daynight":"N","commune":"Chapelle-des-Bois","code_insee":"25121","departement":"Doubs","region":"Bourgogne-Franche-Comté"}},{"type":"Feature","geometry":{"type":"Point","coordinates":[5.58994,43.28608]},"properties":{"latitude":"43.28608","longitude":"5.58994","bright_ti4":"346.6","scan":"0.57","track":"0.69","acq_date":"2026-06-27","acq_time":"1123","satellite":"N21","instrument":"VIIRS","confidence":"n","version":"2.0NRT","bright_ti5":"301.57","frp":"15.5","daynight":"D","commune":"Aubagne","code_insee":"13005","departement":"Bouches-du-Rhône","region":"Provence-Alpes-Côte d'Azur"}},{"type":"Feature","geometry":{"type":"Point","coordinates":[5.59613,43.28809]},"properties":{"latitude":"43.28809","longitude":"5.59613","bright_ti4":"347.3","scan":"0.57","track":"0.69","acq_date":"2026-06-27","acq_time":"1123","satellite":"N21","instrument":"VIIRS","confidence":"n","version":"2.0NRT","bright_ti5":"303.31","frp":"19.61","daynight":"D","commune":"Aubagne","code_insee":"13005","departement":"Bouches-du-Rhône","region":"Provence-Alpes-Côte d'Azur"}},{"type":"Feature","geometry":{"type":"Point","coordinates":[4.89037,43.43453]},"properties":{"latitude":"43.43453","longitude":"4.89037","bright_ti4":"336.28","scan":"0.61","track":"0.71","acq_date":"2026-06-27","acq_time":"1123","satellite":"N21","instrument":"VIIRS","confidence":"n","version":"2.0NRT","bright_ti5":"306.42","frp":"10.49","daynight":"D","commune":"Fos-sur-Mer","code_insee":"13039","departement":"Bouches-du-Rhône","region":"Provence-Alpes-Côte d'Azur"}},{"type":"Feature","geometry":{"type":"Point","coordinates":[3.92973,46.5436]},"properties":{"latitude":"46.5436","longitude":"3.92973","bright_ti4":"367","scan":"0.53","track":"0.67","acq_date":"2026-06-27","acq_time":"1125","satellite":"N21","instrument":"VIIRS","confidence":"h","version":"2.0NRT","bright_ti5":"303.76","frp":"23.89","daynight":"D","commune":"Les Guerreaux","code_insee":"71229","departement":"Saône-et-Loire","region":"Bourgogne-Franche-Comté"}},{"type":"Feature","geometry":{"type":"Point","coordinates":[3.9357,46.54555]},"properties":{"latitude":"46.54555","longitude":"3.9357","bright_ti4":"333.39","scan":"0.53","track":"0.67","acq_date":"2026-06-27","acq_time":"1125","satellite":"N21","instrument":"VIIRS","confidence":"n","version":"2.0NRT","bright_ti5":"297.87","frp":"14.29","daynight":"D","commune":"Les Guerreaux","code_insee":"71229","departement":"Saône-et-Loire","region":"Bourgogne-Franche-Comté"}},{"type":"Feature","geometry":{"type":"Point","coordinates":[-0.28611,43.23901]},"properties":{"latitude":"43.23901","longitude":"-0.28611","bright_ti4":"335.33","scan":"0.41","track":"0.37","acq_date":"2026-06-27","acq_time":"1304","satellite":"N21","instrument":"VIIRS","confidence":"l","version":"2.0NRT","bright_ti5":"308.5","frp":"4.47","daynight":"D","commune":"Bordes","code_insee":"64138","departement":"Pyrénées-Atlantiques","region":"Nouvelle-Aquitaine"}},{"type":"Feature","geometry":{"type":"Point","coordinates":[5.59338,43.28792]},"properties":{"latitude":"43.28792","longitude":"5.59338","bright_ti4":"344.45","scan":"0.47","track":"0.48","acq_date":"2026-06-27","acq_time":"1304","satellite":"N21","instrument":"VIIRS","confidence":"n","version":"2.0NRT","bright_ti5":"313.12","frp":"7.84","daynight":"D","commune":"Aubagne","code_insee":"13005","departement":"Bouches-du-Rhône","region":"Provence-Alpes-Côte d'Azur"}},{"type":"Feature","geometry":{"type":"Point","coordinates":[5.59278,43.2923]},"properties":{"latitude":"43.2923","longitude":"5.59278","bright_ti4":"343.5","scan":"0.47","track":"0.48","acq_date":"2026-06-27","acq_time":"1304","satellite":"N21","instrument":"VIIRS","confidence":"n","version":"2.0NRT","bright_ti5":"313.75","frp":"8.45","daynight":"D","commune":"Aubagne","code_insee":"13005","departement":"Bouches-du-Rhône","region":"Provence-Alpes-Côte d'Azur"}},{"type":"Feature","geometry":{"type":"Point","coordinates":[-0.53393,44.81089]},"properties":{"latitude":"44.81089","longitude":"-0.53393","bright_ti4":"343.89","scan":"0.42","track":"0.38","acq_date":"2026-06-27","acq_time":"1304","satellite":"N21","instrument":"VIIRS","confidence":"n","version":"2.0NRT","bright_ti5":"304.74","frp":"4.48","daynight":"D","commune":"Bègles","code_insee":"33039","departement":"Gironde","region":"Nouvelle-Aquitaine"}},{"type":"Feature","geometry":{"type":"Point","coordinates":[3.38394,45.21875]},"properties":{"latitude":"45.21875","longitude":"3.38394","bright_ti4":"348.59","scan":"0.39","track":"0.44","acq_date":"2026-06-27","acq_time":"1304","satellite":"N21","instrument":"VIIRS","confidence":"n","version":"2.0NRT","bright_ti5":"323.21","frp":"41.42","daynight":"D","commune":"Villeneuve-d'Allier","code_insee":"43264","departement":"Haute-Loire","region":"Auvergne-Rhône-Alpes"}},{"type":"Feature","geometry":{"type":"Point","coordinates":[3.38305,45.22274]},"properties":{"latitude":"45.22274","longitude":"3.38305","bright_ti4":"347.21","scan":"0.39","track":"0.44","acq_date":"2026-06-27","acq_time":"1304","satellite":"N21","instrument":"VIIRS","confidence":"n","version":"2.0NRT","bright_ti5":"318.51","frp":"37.61","daynight":"D","commune":"Saint-Just-près-Brioude","code_insee":"43206","departement":"Haute-Loire","region":"Auvergne-Rhône-Alpes"}},{"type":"Feature","geometry":{"type":"Point","coordinates":[3.24402,45.69679]},"properties":{"latitude":"45.69679","longitude":"3.24402","bright_ti4":"341.08","scan":"0.39","track":"0.44","acq_date":"2026-06-27","acq_time":"1304","satellite":"N21","instrument":"VIIRS","confidence":"n","version":"2.0NRT","bright_ti5":"310.75","frp":"6.61","daynight":"D","commune":"Mirefleurs","code_insee":"63227","departement":"Puy-de-Dôme","region":"Auvergne-Rhône-Alpes"}},{"type":"Feature","geometry":{"type":"Point","coordinates":[4.24821,45.86304]},"properties":{"latitude":"45.86304","longitude":"4.24821","bright_ti4":"353.88","scan":"0.43","track":"0.46","acq_date":"2026-06-27","acq_time":"1304","satellite":"N21","instrument":"VIIRS","confidence":"n","version":"2.0NRT","bright_ti5":"318.91","frp":"24.85","daynight":"D","commune":"Bussières","code_insee":"42029","departement":"Loire","region":"Auvergne-Rhône-Alpes"}},{"type":"Feature","geometry":{"type":"Point","coordinates":[4.24745,45.86724]},"properties":{"latitude":"45.86724","longitude":"4.24745","bright_ti4":"367","scan":"0.43","track":"0.46","acq_date":"2026-06-27","acq_time":"1304","satellite":"N21","instrument":"VIIRS","confidence":"h","version":"2.0NRT","bright_ti5":"319.47","frp":"98.47","daynight":"D","commune":"Sainte-Colombe-sur-Gand","code_insee":"42209","departement":"Loire","region":"Auvergne-Rhône-Alpes"}},{"type":"Feature","geometry":{"type":"Point","coordinates":[4.25278,45.86769]},"properties":{"latitude":"45.86769","longitude":"4.25278","bright_ti4":"341.59","scan":"0.43","track":"0.46","acq_date":"2026-06-27","acq_time":"1304","satellite":"N21","instrument":"VIIRS","confidence":"n","version":"2.0NRT","bright_ti5":"312.57","frp":"207.18","daynight":"D","commune":"Sainte-Colombe-sur-Gand","code_insee":"42209","departement":"Loire","region":"Auvergne-Rhône-Alpes"}},{"type":"Feature","geometry":{"type":"Point","coordinates":[4.24676,45.87146]},"properties":{"latitude":"45.87146","longitude":"4.24676","bright_ti4":"367","scan":"0.43","track":"0.46","acq_date":"2026-06-27","acq_time":"1304","satellite":"N21","instrument":"VIIRS","confidence":"h","version":"2.0NRT","bright_ti5":"340.69","frp":"98.47","daynight":"D","commune":"Saint-Just-la-Pendue","code_insee":"42249","departement":"Loire","region":"Auvergne-Rhône-Alpes"}},{"type":"Feature","geometry":{"type":"Point","coordinates":[4.25029,45.87163]},"properties":{"latitude":"45.87163","longitude":"4.25029","bright_ti4":"367","scan":"0.43","track":"0.46","acq_date":"2026-06-27","acq_time":"1304","satellite":"N21","instrument":"VIIRS","confidence":"l","version":"2.0NRT","bright_ti5":"371.31","frp":"506.5","daynight":"D","commune":"Saint-Just-la-Pendue","code_insee":"42249","departement":"Loire","region":"Auvergne-Rhône-Alpes"}},{"type":"Feature","geometry":{"type":"Point","coordinates":[4.25204,45.87191]},"properties":{"latitude":"45.87191","longitude":"4.25204","bright_ti4":"367","scan":"0.43","track":"0.46","acq_date":"2026-06-27","acq_time":"1304","satellite":"N21","instrument":"VIIRS","confidence":"h","version":"2.0NRT","bright_ti5":"357.36","frp":"207.18","daynight":"D","commune":"Saint-Just-la-Pendue","code_insee":"42249","departement":"Loire","region":"Auvergne-Rhône-Alpes"}},{"type":"Feature","geometry":{"type":"Point","coordinates":[4.25562,45.87206]},"properties":{"latitude":"45.87206","longitude":"4.25562","bright_ti4":"344.91","scan":"0.43","track":"0.46","acq_date":"2026-06-27","acq_time":"1304","satellite":"N21","instrument":"VIIRS","confidence":"l","version":"2.0NRT","bright_ti5":"315.55","frp":"57.7","daynight":"D","commune":"Saint-Just-la-Pendue","code_insee":"42249","departement":"Loire","region":"Auvergne-Rhône-Alpes"}},{"type":"Feature","geometry":{"type":"Point","coordinates":[4.25152,45.87614]},"properties":{"latitude":"45.87614","longitude":"4.25152","bright_ti4":"352.78","scan":"0.43","track":"0.46","acq_date":"2026-06-27","acq_time":"1304","satellite":"N21","instrument":"VIIRS","confidence":"n","version":"2.0NRT","bright_ti5":"312.52","frp":"26.26","daynight":"D","commune":"Saint-Just-la-Pendue","code_insee":"42249","departement":"Loire","region":"Auvergne-Rhône-Alpes"}},{"type":"Feature","geometry":{"type":"Point","coordinates":[4.25508,45.87629]},"properties":{"latitude":"45.87629","longitude":"4.25508","bright_ti4":"344.2","scan":"0.43","track":"0.46","acq_date":"2026-06-27","acq_time":"1304","satellite":"N21","instrument":"VIIRS","confidence":"n","version":"2.0NRT","bright_ti5":"309.03","frp":"57.7","daynight":"D","commune":"Saint-Just-la-Pendue","code_insee":"42249","departement":"Loire","region":"Auvergne-Rhône-Alpes"}},{"type":"Feature","geometry":{"type":"Point","coordinates":[-0.56712,46.46353]},"properties":{"latitude":"46.46353","longitude":"-0.56712","bright_ti4":"333.09","scan":"0.43","track":"0.38","acq_date":"2026-06-27","acq_time":"1306","satellite":"N21","instrument":"VIIRS","confidence":"l","version":"2.0NRT","bright_ti5":"305.93","frp":"3.35","daynight":"D","commune":"Ardin","code_insee":"79012","departement":"Deux-Sèvres","region":"Nouvelle-Aquitaine"}},{"type":"Feature","geometry":{"type":"Point","coordinates":[-0.5615,46.46421]},"properties":{"latitude":"46.46421","longitude":"-0.5615","bright_ti4":"336.23","scan":"0.43","track":"0.38","acq_date":"2026-06-27","acq_time":"1306","satellite":"N21","instrument":"VIIRS","confidence":"n","version":"2.0NRT","bright_ti5":"305.52","frp":"2.65","daynight":"D","commune":"Ardin","code_insee":"79012","departement":"Deux-Sèvres","region":"Nouvelle-Aquitaine"}},{"type":"Feature","geometry":{"type":"Point","coordinates":[-0.67871,47.4465]},"properties":{"latitude":"47.4465","longitude":"-0.67871","bright_ti4":"334.83","scan":"0.44","track":"0.38","acq_date":"2026-06-27","acq_time":"1306","satellite":"N21","instrument":"VIIRS","confidence":"n","version":"2.0NRT","bright_ti5":"304.1","frp":"1.49","daynight":"D","commune":"Saint-Martin-du-Fouilloux","code_insee":"49306","departement":"Maine-et-Loire","region":"Pays de la Loire"}},{"type":"Feature","geometry":{"type":"Point","coordinates":[6.01923,47.51429]},"properties":{"latitude":"47.51429","longitude":"6.01923","bright_ti4":"333.95","scan":"0.54","track":"0.51","acq_date":"2026-06-27","acq_time":"1306","satellite":"N21","instrument":"VIIRS","confidence":"l","version":"2.0NRT","bright_ti5":"304.25","frp":"6.11","daynight":"D","commune":"Grandvelle-et-le-Perrenot","code_insee":"70275","departement":"Haute-Saône","region":"Bourgogne-Franche-Comté"}},{"type":"Feature","geometry":{"type":"Point","coordinates":[2.28638,51.03476]},"properties":{"latitude":"51.03476","longitude":"2.28638","bright_ti4":"340.74","scan":"0.41","track":"0.45","acq_date":"2026-06-27","acq_time":"1306","satellite":"N21","instrument":"VIIRS","confidence":"n","version":"2.0NRT","bright_ti5":"300.46","frp":"6.56","daynight":"D","commune":"Grande-Synthe","code_insee":"59271","departement":"Nord","region":"Hauts-de-France"}},{"type":"Feature","geometry":{"type":"Point","coordinates":[2.2963,51.04392]},"properties":{"latitude":"51.04392","longitude":"2.2963","bright_ti4":"342.2","scan":"0.41","track":"0.45","acq_date":"2026-06-27","acq_time":"1306","satellite":"N21","instrument":"VIIRS","confidence":"n","version":"2.0NRT","bright_ti5":"299.2","frp":"6.28","daynight":"D","commune":"Grande-Synthe","code_insee":"59271","departement":"Nord","region":"Hauts-de-France"}}]}