{"type":"FeatureCollection","features":[{"type":"Feature","geometry":{"type":"Point","coordinates":[2.26969,51.02786]},"properties":{"latitude":"51.02786","longitude":"2.26969","bright_ti4":"305.07","scan":"0.45","track":"0.63","acq_date":"2026-08-03","acq_time":"58","satellite":"N20","instrument":"VIIRS","confidence":"n","version":"2.0NRT","bright_ti5":"289.16","frp":"1.08","daynight":"N","commune":"Grande-Synthe","code_insee":"59271","departement":"Nord","region":"Hauts-de-France"}},{"type":"Feature","geometry":{"type":"Point","coordinates":[2.28327,51.03354]},"properties":{"latitude":"51.03354","longitude":"2.28327","bright_ti4":"302.17","scan":"0.45","track":"0.63","acq_date":"2026-08-03","acq_time":"58","satellite":"N20","instrument":"VIIRS","confidence":"n","version":"2.0NRT","bright_ti5":"288.84","frp":"0.99","daynight":"N","commune":"Grande-Synthe","code_insee":"59271","departement":"Nord","region":"Hauts-de-France"}},{"type":"Feature","geometry":{"type":"Point","coordinates":[2.27663,51.03364]},"properties":{"latitude":"51.03364","longitude":"2.27663","bright_ti4":"302.66","scan":"0.45","track":"0.63","acq_date":"2026-08-03","acq_time":"58","satellite":"N20","instrument":"VIIRS","confidence":"n","version":"2.0NRT","bright_ti5":"289.16","frp":"0.99","daynight":"N","commune":"Grande-Synthe","code_insee":"59271","departement":"Nord","region":"Hauts-de-France"}},{"type":"Feature","geometry":{"type":"Point","coordinates":[2.29677,51.03921]},"properties":{"latitude":"51.03921","longitude":"2.29677","bright_ti4":"301.4","scan":"0.45","track":"0.63","acq_date":"2026-08-03","acq_time":"58","satellite":"N20","instrument":"VIIRS","confidence":"n","version":"2.0NRT","bright_ti5":"288.25","frp":"2.54","daynight":"N","commune":"Grande-Synthe","code_insee":"59271","departement":"Nord","region":"Hauts-de-France"}},{"type":"Feature","geometry":{"type":"Point","coordinates":[2.28351,51.03941]},"properties":{"latitude":"51.03941","longitude":"2.28351","bright_ti4":"309.04","scan":"0.45","track":"0.63","acq_date":"2026-08-03","acq_time":"58","satellite":"N20","instrument":"VIIRS","confidence":"n","version":"2.0NRT","bright_ti5":"288.88","frp":"1.11","daynight":"N","commune":"Grande-Synthe","code_insee":"59271","departement":"Nord","region":"Hauts-de-France"}},{"type":"Feature","geometry":{"type":"Point","coordinates":[2.27687,51.03951]},"properties":{"latitude":"51.03951","longitude":"2.27687","bright_ti4":"307.01","scan":"0.45","track":"0.63","acq_date":"2026-08-03","acq_time":"58","satellite":"N20","instrument":"VIIRS","confidence":"n","version":"2.0NRT","bright_ti5":"287.98","frp":"1.11","daynight":"N","commune":"Grande-Synthe","code_insee":"59271","departement":"Nord","region":"Hauts-de-France"}},{"type":"Feature","geometry":{"type":"Point","coordinates":[2.29706,51.04507]},"properties":{"latitude":"51.04507","longitude":"2.29706","bright_ti4":"343.42","scan":"0.45","track":"0.63","acq_date":"2026-08-03","acq_time":"58","satellite":"N20","instrument":"VIIRS","confidence":"n","version":"2.0NRT","bright_ti5":"291.03","frp":"2.54","daynight":"N","commune":"Grande-Synthe","code_insee":"59271","departement":"Nord","region":"Hauts-de-France"}},{"type":"Feature","geometry":{"type":"Point","coordinates":[2.29038,51.04518]},"properties":{"latitude":"51.04518","longitude":"2.29038","bright_ti4":"305.18","scan":"0.45","track":"0.63","acq_date":"2026-08-03","acq_time":"58","satellite":"N20","instrument":"VIIRS","confidence":"n","version":"2.0NRT","bright_ti5":"289.04","frp":"2.54","daynight":"N","commune":"Grande-Synthe","code_insee":"59271","departement":"Nord","region":"Hauts-de-France"}},{"type":"Feature","geometry":{"type":"Point","coordinates":[2.32368,51.05053]},"properties":{"latitude":"51.05053","longitude":"2.32368","bright_ti4":"316.7","scan":"0.45","track":"0.63","acq_date":"2026-08-03","acq_time":"58","satellite":"N20","instrument":"VIIRS","confidence":"n","version":"2.0NRT","bright_ti5":"289.45","frp":"2.09","daynight":"N","commune":"Dunkerque","code_insee":"59183","departement":"Nord","region":"Hauts-de-France"}},{"type":"Feature","geometry":{"type":"Point","coordinates":[2.31711,51.05063]},"properties":{"latitude":"51.05063","longitude":"2.31711","bright_ti4":"320.66","scan":"0.45","track":"0.63","acq_date":"2026-08-03","acq_time":"58","satellite":"N20","instrument":"VIIRS","confidence":"n","version":"2.0NRT","bright_ti5":"289.14","frp":"2.09","daynight":"N","commune":"Dunkerque","code_insee":"59183","departement":"Nord","region":"Hauts-de-France"}},{"type":"Feature","geometry":{"type":"Point","coordinates":[7.37606,43.79333]},"properties":{"latitude":"43.79333","longitude":"7.37606","bright_ti4":"305.55","scan":"0.46","track":"0.47","acq_date":"2026-08-03","acq_time":"100","satellite":"N20","instrument":"VIIRS","confidence":"n","version":"2.0NRT","bright_ti5":"293.32","frp":"0.54","daynight":"N","commune":"Peille","code_insee":"06091","departement":"Alpes-Maritimes","region":"Provence-Alpes-Côte d'Azur"}},{"type":"Feature","geometry":{"type":"Point","coordinates":[7.37211,43.79496]},"properties":{"latitude":"43.79496","longitude":"7.37211","bright_ti4":"304.03","scan":"0.46","track":"0.47","acq_date":"2026-08-03","acq_time":"100","satellite":"N20","instrument":"VIIRS","confidence":"n","version":"2.0NRT","bright_ti5":"292.74","frp":"1.02","daynight":"N","commune":"Blausasc","code_insee":"06019","departement":"Alpes-Maritimes","region":"Provence-Alpes-Côte d'Azur"}},{"type":"Feature","geometry":{"type":"Point","coordinates":[0.15086,46.80905]},"properties":{"latitude":"46.80905","longitude":"0.15086","bright_ti4":"303.64","scan":"0.55","track":"0.68","acq_date":"2026-08-03","acq_time":"100","satellite":"N20","instrument":"VIIRS","confidence":"n","version":"2.0NRT","bright_ti5":"284.46","frp":"1.08","daynight":"N","commune":"Chouppes","code_insee":"86075","departement":"Vienne","region":"Nouvelle-Aquitaine"}},{"type":"Feature","geometry":{"type":"Point","coordinates":[6.1159,48.6122]},"properties":{"latitude":"48.6122","longitude":"6.1159","bright_ti4":"305.64","scan":"0.59","track":"0.53","acq_date":"2026-08-03","acq_time":"100","satellite":"N20","instrument":"VIIRS","confidence":"n","version":"2.0NRT","bright_ti5":"292.18","frp":"1.73","daynight":"N","commune":"Neuves-Maisons","code_insee":"54397","departement":"Meurthe-et-Moselle","region":"Grand Est"}},{"type":"Feature","geometry":{"type":"Point","coordinates":[6.10781,48.61266]},"properties":{"latitude":"48.61266","longitude":"6.10781","bright_ti4":"313.98","scan":"0.59","track":"0.53","acq_date":"2026-08-03","acq_time":"100","satellite":"N20","instrument":"VIIRS","confidence":"n","version":"2.0NRT","bright_ti5":"291.55","frp":"1.73","daynight":"N","commune":"Neuves-Maisons","code_insee":"54397","departement":"Meurthe-et-Moselle","region":"Grand Est"}},{"type":"Feature","geometry":{"type":"Point","coordinates":[6.14445,49.32012]},"properties":{"latitude":"49.32012","longitude":"6.14445","bright_ti4":"304.53","scan":"0.59","track":"0.53","acq_date":"2026-08-03","acq_time":"100","satellite":"N20","instrument":"VIIRS","confidence":"n","version":"2.0NRT","bright_ti5":"290.15","frp":"1.07","daynight":"N","commune":"Florange","code_insee":"57221","departement":"Moselle","region":"Grand Est"}},{"type":"Feature","geometry":{"type":"Point","coordinates":[0.53017,49.47859]},"properties":{"latitude":"49.47859","longitude":"0.53017","bright_ti4":"298.46","scan":"0.54","track":"0.68","acq_date":"2026-08-03","acq_time":"100","satellite":"N20","instrument":"VIIRS","confidence":"n","version":"2.0NRT","bright_ti5":"284.17","frp":"1.86","daynight":"N","commune":"Lillebonne","code_insee":"76384","departement":"Seine-Maritime","region":"Normandie"}},{"type":"Feature","geometry":{"type":"Point","coordinates":[1.4433,42.74137]},"properties":{"latitude":"42.74137","longitude":"1.4433","bright_ti4":"308.15","scan":"0.45","track":"0.63","acq_date":"2026-08-03","acq_time":"102","satellite":"N20","instrument":"VIIRS","confidence":"n","version":"2.0NRT","bright_ti5":"288.35","frp":"1.66","daynight":"N","commune":"Auzat","code_insee":"09030","departement":"Ariège","region":"Occitanie"}},{"type":"Feature","geometry":{"type":"Point","coordinates":[4.90079,43.43204]},"properties":{"latitude":"43.43204","longitude":"4.90079","bright_ti4":"304.43","scan":"0.6","track":"0.53","acq_date":"2026-08-03","acq_time":"102","satellite":"N20","instrument":"VIIRS","confidence":"n","version":"2.0NRT","bright_ti5":"292.21","frp":"2.12","daynight":"N","commune":"Fos-sur-Mer","code_insee":"13039","departement":"Bouches-du-Rhône","region":"Provence-Alpes-Côte d'Azur"}},{"type":"Feature","geometry":{"type":"Point","coordinates":[4.89518,43.4356]},"properties":{"latitude":"43.4356","longitude":"4.89518","bright_ti4":"307.91","scan":"0.6","track":"0.53","acq_date":"2026-08-03","acq_time":"102","satellite":"N20","instrument":"VIIRS","confidence":"n","version":"2.0NRT","bright_ti5":"292.18","frp":"2.91","daynight":"N","commune":"Fos-sur-Mer","code_insee":"13039","departement":"Bouches-du-Rhône","region":"Provence-Alpes-Côte d'Azur"}},{"type":"Feature","geometry":{"type":"Point","coordinates":[4.89393,43.4374]},"properties":{"latitude":"43.4374","longitude":"4.89393","bright_ti4":"304.02","scan":"0.6","track":"0.53","acq_date":"2026-08-03","acq_time":"102","satellite":"N20","instrument":"VIIRS","confidence":"n","version":"2.0NRT","bright_ti5":"291.95","frp":"2.12","daynight":"N","commune":"Fos-sur-Mer","code_insee":"13039","departement":"Bouches-du-Rhône","region":"Provence-Alpes-Côte d'Azur"}},{"type":"Feature","geometry":{"type":"Point","coordinates":[4.88637,43.43784]},"properties":{"latitude":"43.43784","longitude":"4.88637","bright_ti4":"306.22","scan":"0.6","track":"0.53","acq_date":"2026-08-03","acq_time":"102","satellite":"N20","instrument":"VIIRS","confidence":"n","version":"2.0NRT","bright_ti5":"292.5","frp":"3.54","daynight":"N","commune":"Fos-sur-Mer","code_insee":"13039","departement":"Bouches-du-Rhône","region":"Provence-Alpes-Côte d'Azur"}},{"type":"Feature","geometry":{"type":"Point","coordinates":[4.88823,43.441]},"properties":{"latitude":"43.441","longitude":"4.88823","bright_ti4":"316.04","scan":"0.6","track":"0.53","acq_date":"2026-08-03","acq_time":"102","satellite":"N20","instrument":"VIIRS","confidence":"n","version":"2.0NRT","bright_ti5":"292.12","frp":"2.91","daynight":"N","commune":"Fos-sur-Mer","code_insee":"13039","departement":"Bouches-du-Rhône","region":"Provence-Alpes-Côte d'Azur"}},{"type":"Feature","geometry":{"type":"Point","coordinates":[4.88696,43.44276]},"properties":{"latitude":"43.44276","longitude":"4.88696","bright_ti4":"304.29","scan":"0.6","track":"0.53","acq_date":"2026-08-03","acq_time":"102","satellite":"N20","instrument":"VIIRS","confidence":"n","version":"2.0NRT","bright_ti5":"291.71","frp":"2.08","daynight":"N","commune":"Fos-sur-Mer","code_insee":"13039","departement":"Bouches-du-Rhône","region":"Provence-Alpes-Côte d'Azur"}},{"type":"Feature","geometry":{"type":"Point","coordinates":[4.87943,43.44321]},"properties":{"latitude":"43.44321","longitude":"4.87943","bright_ti4":"315.9","scan":"0.6","track":"0.53","acq_date":"2026-08-03","acq_time":"102","satellite":"N20","instrument":"VIIRS","confidence":"n","version":"2.0NRT","bright_ti5":"292.55","frp":"2.08","daynight":"N","commune":"Fos-sur-Mer","code_insee":"13039","departement":"Bouches-du-Rhône","region":"Provence-Alpes-Côte d'Azur"}},{"type":"Feature","geometry":{"type":"Point","coordinates":[4.89639,43.44541]},"properties":{"latitude":"43.44541","longitude":"4.89639","bright_ti4":"311.32","scan":"0.6","track":"0.53","acq_date":"2026-08-03","acq_time":"102","satellite":"N20","instrument":"VIIRS","confidence":"n","version":"2.0NRT","bright_ti5":"292.13","frp":"2.94","daynight":"N","commune":"Fos-sur-Mer","code_insee":"13039","departement":"Bouches-du-Rhône","region":"Provence-Alpes-Côte d'Azur"}},{"type":"Feature","geometry":{"type":"Point","coordinates":[4.88128,43.4464]},"properties":{"latitude":"43.4464","longitude":"4.88128","bright_ti4":"317.3","scan":"0.6","track":"0.53","acq_date":"2026-08-03","acq_time":"102","satellite":"N20","instrument":"VIIRS","confidence":"n","version":"2.0NRT","bright_ti5":"291.61","frp":"3.08","daynight":"N","commune":"Fos-sur-Mer","code_insee":"13039","departement":"Bouches-du-Rhône","region":"Provence-Alpes-Côte d'Azur"}},{"type":"Feature","geometry":{"type":"Point","coordinates":[4.89515,43.44722]},"properties":{"latitude":"43.44722","longitude":"4.89515","bright_ti4":"313.31","scan":"0.6","track":"0.53","acq_date":"2026-08-03","acq_time":"102","satellite":"N20","instrument":"VIIRS","confidence":"n","version":"2.0NRT","bright_ti5":"292.3","frp":"3.7","daynight":"N","commune":"Fos-sur-Mer","code_insee":"13039","departement":"Bouches-du-Rhône","region":"Provence-Alpes-Côte d'Azur"}},{"type":"Feature","geometry":{"type":"Point","coordinates":[-1.03834,48.10867]},"properties":{"latitude":"48.10867","longitude":"-1.03834","bright_ti4":"302.28","scan":"0.55","track":"0.42","acq_date":"2026-08-03","acq_time":"241","satellite":"N20","instrument":"VIIRS","confidence":"n","version":"2.0NRT","bright_ti5":"288.99","frp":"1.47","daynight":"N","commune":"Saint-Pierre-la-Cour","code_insee":"53247","departement":"Mayenne","region":"Pays de la Loire"}},{"type":"Feature","geometry":{"type":"Point","coordinates":[5.68222,48.71849]},"properties":{"latitude":"48.71849","longitude":"5.68222","bright_ti4":"306.03","scan":"0.33","track":"0.56","acq_date":"2026-08-03","acq_time":"241","satellite":"N20","instrument":"VIIRS","confidence":"n","version":"2.0NRT","bright_ti5":"289.66","frp":"0.71","daynight":"N","commune":"Sorcy-Saint-Martin","code_insee":"55496","departement":"Meuse","region":"Grand Est"}},{"type":"Feature","geometry":{"type":"Point","coordinates":[6.09986,49.32452]},"properties":{"latitude":"49.32452","longitude":"6.09986","bright_ti4":"308.87","scan":"0.33","track":"0.55","acq_date":"2026-08-03","acq_time":"241","satellite":"N20","instrument":"VIIRS","confidence":"n","version":"2.0NRT","bright_ti5":"289.8","frp":"0.68","daynight":"N","commune":"Serémange-Erzange","code_insee":"57647","departement":"Moselle","region":"Grand Est"}},{"type":"Feature","geometry":{"type":"Point","coordinates":[0.53717,49.47628]},"properties":{"latitude":"49.47628","longitude":"0.53717","bright_ti4":"304.2","scan":"0.39","track":"0.44","acq_date":"2026-08-03","acq_time":"241","satellite":"N20","instrument":"VIIRS","confidence":"n","version":"2.0NRT","bright_ti5":"288.97","frp":"1.04","daynight":"N","commune":"Port-Jérôme-sur-Seine","code_insee":"76476","departement":"Seine-Maritime","region":"Normandie"}},{"type":"Feature","geometry":{"type":"Point","coordinates":[2.16562,51.01545]},"properties":{"latitude":"51.01545","longitude":"2.16562","bright_ti4":"300.08","scan":"0.41","track":"0.45","acq_date":"2026-08-03","acq_time":"241","satellite":"N20","instrument":"VIIRS","confidence":"n","version":"2.0NRT","bright_ti5":"289.06","frp":"0.6","daynight":"N","commune":"Gravelines","code_insee":"59273","departement":"Nord","region":"Hauts-de-France"}},{"type":"Feature","geometry":{"type":"Point","coordinates":[2.27011,51.0303]},"properties":{"latitude":"51.0303","longitude":"2.27011","bright_ti4":"310.71","scan":"0.42","track":"0.45","acq_date":"2026-08-03","acq_time":"241","satellite":"N20","instrument":"VIIRS","confidence":"n","version":"2.0NRT","bright_ti5":"280.76","frp":"1.37","daynight":"N","commune":"Grande-Synthe","code_insee":"59271","departement":"Nord","region":"Hauts-de-France"}},{"type":"Feature","geometry":{"type":"Point","coordinates":[2.27805,51.03286]},"properties":{"latitude":"51.03286","longitude":"2.27805","bright_ti4":"316.65","scan":"0.42","track":"0.45","acq_date":"2026-08-03","acq_time":"241","satellite":"N20","instrument":"VIIRS","confidence":"n","version":"2.0NRT","bright_ti5":"282.17","frp":"1.63","daynight":"N","commune":"Grande-Synthe","code_insee":"59271","departement":"Nord","region":"Hauts-de-France"}},{"type":"Feature","geometry":{"type":"Point","coordinates":[2.286,51.0354]},"properties":{"latitude":"51.0354","longitude":"2.286","bright_ti4":"310.3","scan":"0.42","track":"0.45","acq_date":"2026-08-03","acq_time":"241","satellite":"N20","instrument":"VIIRS","confidence":"n","version":"2.0NRT","bright_ti5":"287","frp":"1.99","daynight":"N","commune":"Grande-Synthe","code_insee":"59271","departement":"Nord","region":"Hauts-de-France"}},{"type":"Feature","geometry":{"type":"Point","coordinates":[2.28044,51.03674]},"properties":{"latitude":"51.03674","longitude":"2.28044","bright_ti4":"325.22","scan":"0.42","track":"0.45","acq_date":"2026-08-03","acq_time":"241","satellite":"N20","instrument":"VIIRS","confidence":"n","version":"2.0NRT","bright_ti5":"287.86","frp":"1.99","daynight":"N","commune":"Grande-Synthe","code_insee":"59271","departement":"Nord","region":"Hauts-de-France"}},{"type":"Feature","geometry":{"type":"Point","coordinates":[2.30195,51.04049]},"properties":{"latitude":"51.04049","longitude":"2.30195","bright_ti4":"307.18","scan":"0.42","track":"0.45","acq_date":"2026-08-03","acq_time":"241","satellite":"N20","instrument":"VIIRS","confidence":"n","version":"2.0NRT","bright_ti5":"287.9","frp":"1.9","daynight":"N","commune":"Grande-Synthe","code_insee":"59271","departement":"Nord","region":"Hauts-de-France"}},{"type":"Feature","geometry":{"type":"Point","coordinates":[2.29636,51.04184]},"properties":{"latitude":"51.04184","longitude":"2.29636","bright_ti4":"308.35","scan":"0.42","track":"0.45","acq_date":"2026-08-03","acq_time":"241","satellite":"N20","instrument":"VIIRS","confidence":"n","version":"2.0NRT","bright_ti5":"290.45","frp":"1.9","daynight":"N","commune":"Grande-Synthe","code_insee":"59271","departement":"Nord","region":"Hauts-de-France"}},{"type":"Feature","geometry":{"type":"Point","coordinates":[2.29079,51.04318]},"properties":{"latitude":"51.04318","longitude":"2.29079","bright_ti4":"302.94","scan":"0.42","track":"0.45","acq_date":"2026-08-03","acq_time":"241","satellite":"N20","instrument":"VIIRS","confidence":"n","version":"2.0NRT","bright_ti5":"287.51","frp":"2.74","daynight":"N","commune":"Grande-Synthe","code_insee":"59271","departement":"Nord","region":"Hauts-de-France"}},{"type":"Feature","geometry":{"type":"Point","coordinates":[2.30433,51.04439]},"properties":{"latitude":"51.04439","longitude":"2.30433","bright_ti4":"308.97","scan":"0.42","track":"0.45","acq_date":"2026-08-03","acq_time":"241","satellite":"N20","instrument":"VIIRS","confidence":"n","version":"2.0NRT","bright_ti5":"289.28","frp":"1.9","daynight":"N","commune":"Grande-Synthe","code_insee":"59271","departement":"Nord","region":"Hauts-de-France"}},{"type":"Feature","geometry":{"type":"Point","coordinates":[2.29874,51.04574]},"properties":{"latitude":"51.04574","longitude":"2.29874","bright_ti4":"338.54","scan":"0.42","track":"0.45","acq_date":"2026-08-03","acq_time":"241","satellite":"N20","instrument":"VIIRS","confidence":"n","version":"2.0NRT","bright_ti5":"289.87","frp":"1.9","daynight":"N","commune":"Grande-Synthe","code_insee":"59271","departement":"Nord","region":"Hauts-de-France"}},{"type":"Feature","geometry":{"type":"Point","coordinates":[2.32591,51.04814]},"properties":{"latitude":"51.04814","longitude":"2.32591","bright_ti4":"307.25","scan":"0.42","track":"0.45","acq_date":"2026-08-03","acq_time":"241","satellite":"N20","instrument":"VIIRS","confidence":"n","version":"2.0NRT","bright_ti5":"290.4","frp":"1.23","daynight":"N","commune":"Dunkerque","code_insee":"59183","departement":"Nord","region":"Hauts-de-France"}},{"type":"Feature","geometry":{"type":"Point","coordinates":[2.3203,51.04948]},"properties":{"latitude":"51.04948","longitude":"2.3203","bright_ti4":"307.04","scan":"0.42","track":"0.45","acq_date":"2026-08-03","acq_time":"241","satellite":"N20","instrument":"VIIRS","confidence":"n","version":"2.0NRT","bright_ti5":"289.3","frp":"2.01","daynight":"N","commune":"Dunkerque","code_insee":"59183","departement":"Nord","region":"Hauts-de-France"}},{"type":"Feature","geometry":{"type":"Point","coordinates":[4.96769,43.42858]},"properties":{"latitude":"43.42858","longitude":"4.96769","bright_ti4":"301.2","scan":"0.45","track":"0.63","acq_date":"2026-08-03","acq_time":"243","satellite":"N20","instrument":"VIIRS","confidence":"n","version":"2.0NRT","bright_ti5":"285.94","frp":"0.6","daynight":"N","commune":"Fos-sur-Mer","code_insee":"13039","departement":"Bouches-du-Rhône","region":"Provence-Alpes-Côte d'Azur"}},{"type":"Feature","geometry":{"type":"Point","coordinates":[4.89658,43.43098]},"properties":{"latitude":"43.43098","longitude":"4.89658","bright_ti4":"304.43","scan":"0.45","track":"0.63","acq_date":"2026-08-03","acq_time":"243","satellite":"N20","instrument":"VIIRS","confidence":"n","version":"2.0NRT","bright_ti5":"288.64","frp":"2","daynight":"N","commune":"Fos-sur-Mer","code_insee":"13039","departement":"Bouches-du-Rhône","region":"Provence-Alpes-Côte d'Azur"}},{"type":"Feature","geometry":{"type":"Point","coordinates":[4.89141,43.43253]},"properties":{"latitude":"43.43253","longitude":"4.89141","bright_ti4":"301.83","scan":"0.45","track":"0.63","acq_date":"2026-08-03","acq_time":"243","satellite":"N20","instrument":"VIIRS","confidence":"n","version":"2.0NRT","bright_ti5":"289.05","frp":"2","daynight":"N","commune":"Fos-sur-Mer","code_insee":"13039","departement":"Bouches-du-Rhône","region":"Provence-Alpes-Côte d'Azur"}},{"type":"Feature","geometry":{"type":"Point","coordinates":[4.88629,43.43406]},"properties":{"latitude":"43.43406","longitude":"4.88629","bright_ti4":"309.19","scan":"0.45","track":"0.63","acq_date":"2026-08-03","acq_time":"243","satellite":"N20","instrument":"VIIRS","confidence":"n","version":"2.0NRT","bright_ti5":"289.34","frp":"2.44","daynight":"N","commune":"Fos-sur-Mer","code_insee":"13039","departement":"Bouches-du-Rhône","region":"Provence-Alpes-Côte d'Azur"}},{"type":"Feature","geometry":{"type":"Point","coordinates":[4.90479,43.4348]},"properties":{"latitude":"43.4348","longitude":"4.90479","bright_ti4":"301.43","scan":"0.45","track":"0.63","acq_date":"2026-08-03","acq_time":"243","satellite":"N20","instrument":"VIIRS","confidence":"n","version":"2.0NRT","bright_ti5":"288.26","frp":"1","daynight":"N","commune":"Fos-sur-Mer","code_insee":"13039","departement":"Bouches-du-Rhône","region":"Provence-Alpes-Côte d'Azur"}},{"type":"Feature","geometry":{"type":"Point","coordinates":[4.88934,43.43941]},"properties":{"latitude":"43.43941","longitude":"4.88934","bright_ti4":"317.11","scan":"0.45","track":"0.63","acq_date":"2026-08-03","acq_time":"243","satellite":"N20","instrument":"VIIRS","confidence":"n","version":"2.0NRT","bright_ti5":"289.62","frp":"2.44","daynight":"N","commune":"Fos-sur-Mer","code_insee":"13039","departement":"Bouches-du-Rhône","region":"Provence-Alpes-Côte d'Azur"}},{"type":"Feature","geometry":{"type":"Point","coordinates":[4.87911,43.44247]},"properties":{"latitude":"43.44247","longitude":"4.87911","bright_ti4":"327.04","scan":"0.45","track":"0.63","acq_date":"2026-08-03","acq_time":"243","satellite":"N20","instrument":"VIIRS","confidence":"n","version":"2.0NRT","bright_ti5":"289.57","frp":"3.25","daynight":"N","commune":"Fos-sur-Mer","code_insee":"13039","departement":"Bouches-du-Rhône","region":"Provence-Alpes-Côte d'Azur"}},{"type":"Feature","geometry":{"type":"Point","coordinates":[4.89747,43.44325]},"properties":{"latitude":"43.44325","longitude":"4.89747","bright_ti4":"305.81","scan":"0.45","track":"0.63","acq_date":"2026-08-03","acq_time":"243","satellite":"N20","instrument":"VIIRS","confidence":"n","version":"2.0NRT","bright_ti5":"289.38","frp":"1.56","daynight":"N","commune":"Fos-sur-Mer","code_insee":"13039","departement":"Bouches-du-Rhône","region":"Provence-Alpes-Côte d'Azur"}},{"type":"Feature","geometry":{"type":"Point","coordinates":[4.89463,43.44599]},"properties":{"latitude":"43.44599","longitude":"4.89463","bright_ti4":"307.94","scan":"0.45","track":"0.63","acq_date":"2026-08-03","acq_time":"243","satellite":"N20","instrument":"VIIRS","confidence":"n","version":"2.0NRT","bright_ti5":"289.76","frp":"1.86","daynight":"N","commune":"Fos-sur-Mer","code_insee":"13039","departement":"Bouches-du-Rhône","region":"Provence-Alpes-Côte d'Azur"}},{"type":"Feature","geometry":{"type":"Point","coordinates":[2.26965,51.02649]},"properties":{"latitude":"51.02649","longitude":"2.26965","bright_ti4":"322.31","scan":"0.43","track":"0.38","acq_date":"2026-08-03","acq_time":"143","satellite":"N21","instrument":"VIIRS","confidence":"n","version":"2.0NRT","bright_ti5":"284.01","frp":"1.65","daynight":"N","commune":"Grande-Synthe","code_insee":"59271","departement":"Nord","region":"Hauts-de-France"}},{"type":"Feature","geometry":{"type":"Point","coordinates":[2.27677,51.02919]},"properties":{"latitude":"51.02919","longitude":"2.27677","bright_ti4":"300.66","scan":"0.43","track":"0.38","acq_date":"2026-08-03","acq_time":"143","satellite":"N21","instrument":"VIIRS","confidence":"n","version":"2.0NRT","bright_ti5":"286.68","frp":"0.99","daynight":"N","commune":"Grande-Synthe","code_insee":"59271","departement":"Nord","region":"Hauts-de-France"}},{"type":"Feature","geometry":{"type":"Point","coordinates":[2.27071,51.02994]},"properties":{"latitude":"51.02994","longitude":"2.27071","bright_ti4":"303.09","scan":"0.43","track":"0.38","acq_date":"2026-08-03","acq_time":"143","satellite":"N21","instrument":"VIIRS","confidence":"n","version":"2.0NRT","bright_ti5":"280.48","frp":"1.65","daynight":"N","commune":"Grande-Synthe","code_insee":"59271","departement":"Nord","region":"Hauts-de-France"}},{"type":"Feature","geometry":{"type":"Point","coordinates":[2.27783,51.03263]},"properties":{"latitude":"51.03263","longitude":"2.27783","bright_ti4":"328.43","scan":"0.43","track":"0.38","acq_date":"2026-08-03","acq_time":"143","satellite":"N21","instrument":"VIIRS","confidence":"n","version":"2.0NRT","bright_ti5":"287.26","frp":"1.9","daynight":"N","commune":"Grande-Synthe","code_insee":"59271","departement":"Nord","region":"Hauts-de-France"}},{"type":"Feature","geometry":{"type":"Point","coordinates":[2.29099,51.03458]},"properties":{"latitude":"51.03458","longitude":"2.29099","bright_ti4":"302.88","scan":"0.43","track":"0.38","acq_date":"2026-08-03","acq_time":"143","satellite":"N21","instrument":"VIIRS","confidence":"n","version":"2.0NRT","bright_ti5":"289.51","frp":"0.68","daynight":"N","commune":"Grande-Synthe","code_insee":"59271","departement":"Nord","region":"Hauts-de-France"}},{"type":"Feature","geometry":{"type":"Point","coordinates":[2.28494,51.03533]},"properties":{"latitude":"51.03533","longitude":"2.28494","bright_ti4":"308.47","scan":"0.43","track":"0.38","acq_date":"2026-08-03","acq_time":"143","satellite":"N21","instrument":"VIIRS","confidence":"n","version":"2.0NRT","bright_ti5":"291","frp":"1.9","daynight":"N","commune":"Grande-Synthe","code_insee":"59271","departement":"Nord","region":"Hauts-de-France"}},{"type":"Feature","geometry":{"type":"Point","coordinates":[2.27888,51.03608]},"properties":{"latitude":"51.03608","longitude":"2.27888","bright_ti4":"316.17","scan":"0.43","track":"0.38","acq_date":"2026-08-03","acq_time":"143","satellite":"N21","instrument":"VIIRS","confidence":"n","version":"2.0NRT","bright_ti5":"289.05","frp":"1.9","daynight":"N","commune":"Grande-Synthe","code_insee":"59271","departement":"Nord","region":"Hauts-de-France"}},{"type":"Feature","geometry":{"type":"Point","coordinates":[2.29916,51.04072]},"properties":{"latitude":"51.04072","longitude":"2.29916","bright_ti4":"304.93","scan":"0.43","track":"0.38","acq_date":"2026-08-03","acq_time":"143","satellite":"N21","instrument":"VIIRS","confidence":"n","version":"2.0NRT","bright_ti5":"291.44","frp":"1.73","daynight":"N","commune":"Grande-Synthe","code_insee":"59271","departement":"Nord","region":"Hauts-de-France"}},{"type":"Feature","geometry":{"type":"Point","coordinates":[2.29417,51.04492]},"properties":{"latitude":"51.04492","longitude":"2.29417","bright_ti4":"328.71","scan":"0.43","track":"0.38","acq_date":"2026-08-03","acq_time":"143","satellite":"N21","instrument":"VIIRS","confidence":"n","version":"2.0NRT","bright_ti5":"294.54","frp":"11.22","daynight":"N","commune":"Grande-Synthe","code_insee":"59271","departement":"Nord","region":"Hauts-de-France"}},{"type":"Feature","geometry":{"type":"Point","coordinates":[2.31943,51.04535]},"properties":{"latitude":"51.04535","longitude":"2.31943","bright_ti4":"330.25","scan":"0.43","track":"0.38","acq_date":"2026-08-03","acq_time":"143","satellite":"N21","instrument":"VIIRS","confidence":"n","version":"2.0NRT","bright_ti5":"293.76","frp":"8.73","daynight":"N","commune":"Dunkerque","code_insee":"59183","departement":"Nord","region":"Hauts-de-France"}},{"type":"Feature","geometry":{"type":"Point","coordinates":[1.44506,42.73994]},"properties":{"latitude":"42.73994","longitude":"1.44506","bright_ti4":"307.08","scan":"0.39","track":"0.36","acq_date":"2026-08-03","acq_time":"145","satellite":"N21","instrument":"VIIRS","confidence":"n","version":"2.0NRT","bright_ti5":"293.04","frp":"1.38","daynight":"N","commune":"Auzat","code_insee":"09030","departement":"Ariège","region":"Occitanie"}},{"type":"Feature","geometry":{"type":"Point","coordinates":[1.44061,42.74057]},"properties":{"latitude":"42.74057","longitude":"1.44061","bright_ti4":"310.02","scan":"0.39","track":"0.36","acq_date":"2026-08-03","acq_time":"145","satellite":"N21","instrument":"VIIRS","confidence":"n","version":"2.0NRT","bright_ti5":"293.78","frp":"1.61","daynight":"N","commune":"Auzat","code_insee":"09030","departement":"Ariège","region":"Occitanie"}},{"type":"Feature","geometry":{"type":"Point","coordinates":[4.90284,43.43103]},"properties":{"latitude":"43.43103","longitude":"4.90284","bright_ti4":"305.28","scan":"0.4","track":"0.37","acq_date":"2026-08-03","acq_time":"145","satellite":"N21","instrument":"VIIRS","confidence":"n","version":"2.0NRT","bright_ti5":"293.96","frp":"1.1","daynight":"N","commune":"Fos-sur-Mer","code_insee":"13039","departement":"Bouches-du-Rhône","region":"Provence-Alpes-Côte d'Azur"}},{"type":"Feature","geometry":{"type":"Point","coordinates":[4.89801,43.43187]},"properties":{"latitude":"43.43187","longitude":"4.89801","bright_ti4":"309.64","scan":"0.4","track":"0.37","acq_date":"2026-08-03","acq_time":"145","satellite":"N21","instrument":"VIIRS","confidence":"n","version":"2.0NRT","bright_ti5":"295.21","frp":"1.1","daynight":"N","commune":"Fos-sur-Mer","code_insee":"13039","departement":"Bouches-du-Rhône","region":"Provence-Alpes-Côte d'Azur"}},{"type":"Feature","geometry":{"type":"Point","coordinates":[4.87977,43.43851]},"properties":{"latitude":"43.43851","longitude":"4.87977","bright_ti4":"308.21","scan":"0.4","track":"0.37","acq_date":"2026-08-03","acq_time":"145","satellite":"N21","instrument":"VIIRS","confidence":"n","version":"2.0NRT","bright_ti5":"295.01","frp":"17.44","daynight":"N","commune":"Fos-sur-Mer","code_insee":"13039","departement":"Bouches-du-Rhône","region":"Provence-Alpes-Côte d'Azur"}},{"type":"Feature","geometry":{"type":"Point","coordinates":[4.8905,43.44014]},"properties":{"latitude":"43.44014","longitude":"4.8905","bright_ti4":"328","scan":"0.4","track":"0.37","acq_date":"2026-08-03","acq_time":"145","satellite":"N21","instrument":"VIIRS","confidence":"n","version":"2.0NRT","bright_ti5":"295.51","frp":"4.15","daynight":"N","commune":"Fos-sur-Mer","code_insee":"13039","departement":"Bouches-du-Rhône","region":"Provence-Alpes-Côte d'Azur"}},{"type":"Feature","geometry":{"type":"Point","coordinates":[4.88085,43.44181]},"properties":{"latitude":"43.44181","longitude":"4.88085","bright_ti4":"335.58","scan":"0.4","track":"0.37","acq_date":"2026-08-03","acq_time":"145","satellite":"N21","instrument":"VIIRS","confidence":"n","version":"2.0NRT","bright_ti5":"301.39","frp":"17.44","daynight":"N","commune":"Fos-sur-Mer","code_insee":"13039","departement":"Bouches-du-Rhône","region":"Provence-Alpes-Côte d'Azur"}},{"type":"Feature","geometry":{"type":"Point","coordinates":[4.89641,43.4426]},"properties":{"latitude":"43.4426","longitude":"4.89641","bright_ti4":"304.52","scan":"0.4","track":"0.37","acq_date":"2026-08-03","acq_time":"145","satellite":"N21","instrument":"VIIRS","confidence":"n","version":"2.0NRT","bright_ti5":"294.03","frp":"2.98","daynight":"N","commune":"Fos-sur-Mer","code_insee":"13039","departement":"Bouches-du-Rhône","region":"Provence-Alpes-Côte d'Azur"}},{"type":"Feature","geometry":{"type":"Point","coordinates":[4.88193,43.44511]},"properties":{"latitude":"43.44511","longitude":"4.88193","bright_ti4":"307.32","scan":"0.4","track":"0.37","acq_date":"2026-08-03","acq_time":"145","satellite":"N21","instrument":"VIIRS","confidence":"n","version":"2.0NRT","bright_ti5":"293.02","frp":"1.24","daynight":"N","commune":"Fos-sur-Mer","code_insee":"13039","departement":"Bouches-du-Rhône","region":"Provence-Alpes-Côte d'Azur"}},{"type":"Feature","geometry":{"type":"Point","coordinates":[4.8975,43.4459]},"properties":{"latitude":"43.4459","longitude":"4.8975","bright_ti4":"338.09","scan":"0.4","track":"0.37","acq_date":"2026-08-03","acq_time":"145","satellite":"N21","instrument":"VIIRS","confidence":"n","version":"2.0NRT","bright_ti5":"296.65","frp":"2.98","daynight":"N","commune":"Fos-sur-Mer","code_insee":"13039","departement":"Bouches-du-Rhône","region":"Provence-Alpes-Côte d'Azur"}},{"type":"Feature","geometry":{"type":"Point","coordinates":[7.37228,43.79246]},"properties":{"latitude":"43.79246","longitude":"7.37228","bright_ti4":"306.25","scan":"0.46","track":"0.39","acq_date":"2026-08-03","acq_time":"145","satellite":"N21","instrument":"VIIRS","confidence":"n","version":"2.0NRT","bright_ti5":"294.06","frp":"1.2","daynight":"N","commune":"Blausasc","code_insee":"06019","departement":"Alpes-Maritimes","region":"Provence-Alpes-Côte d'Azur"}},{"type":"Feature","geometry":{"type":"Point","coordinates":[1.22746,43.98744]},"properties":{"latitude":"43.98744","longitude":"1.22746","bright_ti4":"302.78","scan":"0.4","track":"0.37","acq_date":"2026-08-03","acq_time":"145","satellite":"N21","instrument":"VIIRS","confidence":"n","version":"2.0NRT","bright_ti5":"291.39","frp":"0.45","daynight":"N","commune":"Montech","code_insee":"82125","departement":"Tarn-et-Garonne","region":"Occitanie"}},{"type":"Feature","geometry":{"type":"Point","coordinates":[6.10759,44.33252]},"properties":{"latitude":"44.33252","longitude":"6.10759","bright_ti4":"306.71","scan":"0.42","track":"0.37","acq_date":"2026-08-03","acq_time":"145","satellite":"N21","instrument":"VIIRS","confidence":"n","version":"2.0NRT","bright_ti5":"291.43","frp":"0.64","daynight":"N","commune":"Bayons","code_insee":"04023","departement":"Alpes-de-Haute-Provence","region":"Provence-Alpes-Côte d'Azur"}},{"type":"Feature","geometry":{"type":"Point","coordinates":[-0.61895,44.9422]},"properties":{"latitude":"44.9422","longitude":"-0.61895","bright_ti4":"307.25","scan":"0.45","track":"0.39","acq_date":"2026-08-03","acq_time":"145","satellite":"N21","instrument":"VIIRS","confidence":"n","version":"2.0NRT","bright_ti5":"289.95","frp":"1.51","daynight":"N","commune":"Parempuyre","code_insee":"33312","departement":"Gironde","region":"Nouvelle-Aquitaine"}},{"type":"Feature","geometry":{"type":"Point","coordinates":[0.15395,46.80614]},"properties":{"latitude":"46.80614","longitude":"0.15395","bright_ti4":"316.24","scan":"0.45","track":"0.39","acq_date":"2026-08-03","acq_time":"145","satellite":"N21","instrument":"VIIRS","confidence":"n","version":"2.0NRT","bright_ti5":"287.53","frp":"2.67","daynight":"N","commune":"Chouppes","code_insee":"86075","departement":"Vienne","region":"Nouvelle-Aquitaine"}},{"type":"Feature","geometry":{"type":"Point","coordinates":[6.1093,48.61123]},"properties":{"latitude":"48.61123","longitude":"6.1093","bright_ti4":"307.67","scan":"0.39","track":"0.36","acq_date":"2026-08-03","acq_time":"145","satellite":"N21","instrument":"VIIRS","confidence":"n","version":"2.0NRT","bright_ti5":"294.4","frp":"1.05","daynight":"N","commune":"Neuves-Maisons","code_insee":"54397","departement":"Meurthe-et-Moselle","region":"Grand Est"}},{"type":"Feature","geometry":{"type":"Point","coordinates":[5.67983,48.71621]},"properties":{"latitude":"48.71621","longitude":"5.67983","bright_ti4":"306.04","scan":"0.39","track":"0.36","acq_date":"2026-08-03","acq_time":"145","satellite":"N21","instrument":"VIIRS","confidence":"n","version":"2.0NRT","bright_ti5":"291.08","frp":"0.81","daynight":"N","commune":"Sorcy-Saint-Martin","code_insee":"55496","departement":"Meuse","region":"Grand Est"}},{"type":"Feature","geometry":{"type":"Point","coordinates":[4.56482,48.7678]},"properties":{"latitude":"48.7678","longitude":"4.56482","bright_ti4":"305.34","scan":"0.38","track":"0.36","acq_date":"2026-08-03","acq_time":"145","satellite":"N21","instrument":"VIIRS","confidence":"n","version":"2.0NRT","bright_ti5":"293.24","frp":"0.98","daynight":"N","commune":"Couvrot","code_insee":"51195","departement":"Marne","region":"Grand Est"}},{"type":"Feature","geometry":{"type":"Point","coordinates":[0.53219,49.47522]},"properties":{"latitude":"49.47522","longitude":"0.53219","bright_ti4":"306.72","scan":"0.46","track":"0.39","acq_date":"2026-08-03","acq_time":"145","satellite":"N21","instrument":"VIIRS","confidence":"n","version":"2.0NRT","bright_ti5":"290.78","frp":"1.44","daynight":"N","commune":"Lillebonne","code_insee":"76384","departement":"Seine-Maritime","region":"Normandie"}},{"type":"Feature","geometry":{"type":"Point","coordinates":[2.26674,51.02613]},"properties":{"latitude":"51.02613","longitude":"2.26674","bright_ti4":"304.41","scan":"0.65","track":"0.73","acq_date":"2026-08-03","acq_time":"323","satellite":"N21","instrument":"VIIRS","confidence":"n","version":"2.0NRT","bright_ti5":"287.17","frp":"2.63","daynight":"N","commune":"Grande-Synthe","code_insee":"59271","departement":"Nord","region":"Hauts-de-France"}},{"type":"Feature","geometry":{"type":"Point","coordinates":[2.27451,51.02925]},"properties":{"latitude":"51.02925","longitude":"2.27451","bright_ti4":"301.01","scan":"0.65","track":"0.73","acq_date":"2026-08-03","acq_time":"323","satellite":"N21","instrument":"VIIRS","confidence":"n","version":"2.0NRT","bright_ti5":"287.07","frp":"2.7","daynight":"N","commune":"Grande-Synthe","code_insee":"59271","departement":"Nord","region":"Hauts-de-France"}},{"type":"Feature","geometry":{"type":"Point","coordinates":[2.28801,51.03195]},"properties":{"latitude":"51.03195","longitude":"2.28801","bright_ti4":"300.49","scan":"0.65","track":"0.73","acq_date":"2026-08-03","acq_time":"323","satellite":"N21","instrument":"VIIRS","confidence":"n","version":"2.0NRT","bright_ti5":"286.91","frp":"1.87","daynight":"N","commune":"Grande-Synthe","code_insee":"59271","departement":"Nord","region":"Hauts-de-France"}},{"type":"Feature","geometry":{"type":"Point","coordinates":[2.28594,51.03453]},"properties":{"latitude":"51.03453","longitude":"2.28594","bright_ti4":"314.31","scan":"0.65","track":"0.73","acq_date":"2026-08-03","acq_time":"323","satellite":"N21","instrument":"VIIRS","confidence":"n","version":"2.0NRT","bright_ti5":"287.49","frp":"2.85","daynight":"N","commune":"Grande-Synthe","code_insee":"59271","departement":"Nord","region":"Hauts-de-France"}},{"type":"Feature","geometry":{"type":"Point","coordinates":[2.28008,51.03496]},"properties":{"latitude":"51.03496","longitude":"2.28008","bright_ti4":"321.02","scan":"0.65","track":"0.73","acq_date":"2026-08-03","acq_time":"323","satellite":"N21","instrument":"VIIRS","confidence":"n","version":"2.0NRT","bright_ti5":"287.41","frp":"5.31","daynight":"N","commune":"Grande-Synthe","code_insee":"59271","departement":"Nord","region":"Hauts-de-France"}},{"type":"Feature","geometry":{"type":"Point","coordinates":[2.278,51.0375]},"properties":{"latitude":"51.0375","longitude":"2.278","bright_ti4":"297.78","scan":"0.65","track":"0.73","acq_date":"2026-08-03","acq_time":"323","satellite":"N21","instrument":"VIIRS","confidence":"n","version":"2.0NRT","bright_ti5":"286.26","frp":"2.94","daynight":"N","commune":"Grande-Synthe","code_insee":"59271","departement":"Nord","region":"Hauts-de-France"}},{"type":"Feature","geometry":{"type":"Point","coordinates":[2.29362,51.03764]},"properties":{"latitude":"51.03764","longitude":"2.29362","bright_ti4":"297.8","scan":"0.65","track":"0.73","acq_date":"2026-08-03","acq_time":"323","satellite":"N21","instrument":"VIIRS","confidence":"n","version":"2.0NRT","bright_ti5":"287.02","frp":"1.87","daynight":"N","commune":"Grande-Synthe","code_insee":"59271","departement":"Nord","region":"Hauts-de-France"}},{"type":"Feature","geometry":{"type":"Point","coordinates":[2.29158,51.04022]},"properties":{"latitude":"51.04022","longitude":"2.29158","bright_ti4":"304.48","scan":"0.65","track":"0.73","acq_date":"2026-08-03","acq_time":"323","satellite":"N21","instrument":"VIIRS","confidence":"n","version":"2.0NRT","bright_ti5":"288.02","frp":"2.85","daynight":"N","commune":"Grande-Synthe","code_insee":"59271","departement":"Nord","region":"Hauts-de-France"}},{"type":"Feature","geometry":{"type":"Point","coordinates":[2.2992,51.04335]},"properties":{"latitude":"51.04335","longitude":"2.2992","bright_ti4":"313.37","scan":"0.65","track":"0.73","acq_date":"2026-08-03","acq_time":"323","satellite":"N21","instrument":"VIIRS","confidence":"n","version":"2.0NRT","bright_ti5":"287.99","frp":"4.94","daynight":"N","commune":"Grande-Synthe","code_insee":"59271","departement":"Nord","region":"Hauts-de-France"}},{"type":"Feature","geometry":{"type":"Point","coordinates":[2.29132,51.04634]},"properties":{"latitude":"51.04634","longitude":"2.29132","bright_ti4":"305.62","scan":"0.65","track":"0.73","acq_date":"2026-08-03","acq_time":"323","satellite":"N21","instrument":"VIIRS","confidence":"n","version":"2.0NRT","bright_ti5":"287.29","frp":"4.15","daynight":"N","commune":"Grande-Synthe","code_insee":"59271","departement":"Nord","region":"Hauts-de-France"}},{"type":"Feature","geometry":{"type":"Point","coordinates":[5.00169,43.37824]},"properties":{"latitude":"43.37824","longitude":"5.00169","bright_ti4":"336.51","scan":"0.42","track":"0.37","acq_date":"2026-08-03","acq_time":"1225","satellite":"N20","instrument":"VIIRS","confidence":"n","version":"2.0NRT","bright_ti5":"302.63","frp":"1.28","daynight":"D","commune":"Martigues","code_insee":"13056","departement":"Bouches-du-Rhône","region":"Provence-Alpes-Côte d'Azur"}},{"type":"Feature","geometry":{"type":"Point","coordinates":[4.88162,43.44208]},"properties":{"latitude":"43.44208","longitude":"4.88162","bright_ti4":"353.83","scan":"0.42","track":"0.38","acq_date":"2026-08-03","acq_time":"1225","satellite":"N20","instrument":"VIIRS","confidence":"n","version":"2.0NRT","bright_ti5":"308.74","frp":"14.66","daynight":"D","commune":"Fos-sur-Mer","code_insee":"13039","departement":"Bouches-du-Rhône","region":"Provence-Alpes-Côte d'Azur"}},{"type":"Feature","geometry":{"type":"Point","coordinates":[4.8968,43.44481]},"properties":{"latitude":"43.44481","longitude":"4.8968","bright_ti4":"337.14","scan":"0.42","track":"0.38","acq_date":"2026-08-03","acq_time":"1225","satellite":"N20","instrument":"VIIRS","confidence":"n","version":"2.0NRT","bright_ti5":"306.12","frp":"5.78","daynight":"D","commune":"Fos-sur-Mer","code_insee":"13039","departement":"Bouches-du-Rhône","region":"Provence-Alpes-Côte d'Azur"}},{"type":"Feature","geometry":{"type":"Point","coordinates":[4.89565,43.44818]},"properties":{"latitude":"43.44818","longitude":"4.89565","bright_ti4":"337.98","scan":"0.42","track":"0.38","acq_date":"2026-08-03","acq_time":"1225","satellite":"N20","instrument":"VIIRS","confidence":"n","version":"2.0NRT","bright_ti5":"304.48","frp":"5.02","daynight":"D","commune":"Fos-sur-Mer","code_insee":"13039","departement":"Bouches-du-Rhône","region":"Provence-Alpes-Côte d'Azur"}},{"type":"Feature","geometry":{"type":"Point","coordinates":[2.59004,44.37128]},"properties":{"latitude":"44.37128","longitude":"2.59004","bright_ti4":"338.15","scan":"0.48","track":"0.4","acq_date":"2026-08-03","acq_time":"1225","satellite":"N20","instrument":"VIIRS","confidence":"n","version":"2.0NRT","bright_ti5":"303.24","frp":"2.59","daynight":"D","commune":"Onet-le-Château","code_insee":"12176","departement":"Aveyron","region":"Occitanie"}},{"type":"Feature","geometry":{"type":"Point","coordinates":[5.26147,45.8355]},"properties":{"latitude":"45.8355","longitude":"5.26147","bright_ti4":"350.18","scan":"0.39","track":"0.36","acq_date":"2026-08-03","acq_time":"1225","satellite":"N20","instrument":"VIIRS","confidence":"n","version":"2.0NRT","bright_ti5":"311.01","frp":"8.34","daynight":"D","commune":"Blyes","code_insee":"01047","departement":"Ain","region":"Auvergne-Rhône-Alpes"}},{"type":"Feature","geometry":{"type":"Point","coordinates":[4.88185,46.6278]},"properties":{"latitude":"46.6278","longitude":"4.88185","bright_ti4":"340.75","scan":"0.39","track":"0.36","acq_date":"2026-08-03","acq_time":"1225","satellite":"N20","instrument":"VIIRS","confidence":"n","version":"2.0NRT","bright_ti5":"309.44","frp":"2.43","daynight":"D","commune":"Sennecey-le-Grand","code_insee":"71512","departement":"Saône-et-Loire","region":"Bourgogne-Franche-Comté"}},{"type":"Feature","geometry":{"type":"Point","coordinates":[-2.43901,47.3105]},"properties":{"latitude":"47.3105","longitude":"-2.43901","bright_ti4":"330.09","scan":"0.44","track":"0.46","acq_date":"2026-08-03","acq_time":"1225","satellite":"N20","instrument":"VIIRS","confidence":"n","version":"2.0NRT","bright_ti5":"298.25","frp":"3.09","daynight":"D","commune":"Guérande","code_insee":"44069","departement":"Loire-Atlantique","region":"Pays de la Loire"}},{"type":"Feature","geometry":{"type":"Point","coordinates":[4.21862,48.27227]},"properties":{"latitude":"48.27227","longitude":"4.21862","bright_ti4":"339.75","scan":"0.39","track":"0.36","acq_date":"2026-08-03","acq_time":"1225","satellite":"N20","instrument":"VIIRS","confidence":"n","version":"2.0NRT","bright_ti5":"290.93","frp":"4.7","daynight":"D","commune":"Courteranges","code_insee":"10110","departement":"Aube","region":"Grand Est"}},{"type":"Feature","geometry":{"type":"Point","coordinates":[6.11078,48.61013]},"properties":{"latitude":"48.61013","longitude":"6.11078","bright_ti4":"335.95","scan":"0.38","track":"0.36","acq_date":"2026-08-03","acq_time":"1225","satellite":"N20","instrument":"VIIRS","confidence":"l","version":"2.0NRT","bright_ti5":"308.97","frp":"5.03","daynight":"D","commune":"Neuves-Maisons","code_insee":"54397","departement":"Meurthe-et-Moselle","region":"Grand Est"}},{"type":"Feature","geometry":{"type":"Point","coordinates":[3.81677,48.82784]},"properties":{"latitude":"48.82784","longitude":"3.81677","bright_ti4":"335.85","scan":"0.39","track":"0.37","acq_date":"2026-08-03","acq_time":"1225","satellite":"N20","instrument":"VIIRS","confidence":"n","version":"2.0NRT","bright_ti5":"300.02","frp":"2.72","daynight":"D","commune":"Villevenard","code_insee":"51641","departement":"Marne","region":"Grand Est"}},{"type":"Feature","geometry":{"type":"Point","coordinates":[5.02203,49.67343]},"properties":{"latitude":"49.67343","longitude":"5.02203","bright_ti4":"335.84","scan":"0.38","track":"0.36","acq_date":"2026-08-03","acq_time":"1225","satellite":"N20","instrument":"VIIRS","confidence":"n","version":"2.0NRT","bright_ti5":"298.86","frp":"1.8","daynight":"D","commune":"Douzy","code_insee":"08145","departement":"Ardennes","region":"Grand Est"}},{"type":"Feature","geometry":{"type":"Point","coordinates":[-2.93278,48.69095]},"properties":{"latitude":"48.69095","longitude":"-2.93278","bright_ti4":"339.68","scan":"0.42","track":"0.45","acq_date":"2026-08-03","acq_time":"1227","satellite":"N20","instrument":"VIIRS","confidence":"n","version":"2.0NRT","bright_ti5":"298.86","frp":"4.99","daynight":"D","commune":"Plouha","code_insee":"22222","departement":"Côtes-d'Armor","region":"Bretagne"}},{"type":"Feature","geometry":{"type":"Point","coordinates":[-3.04864,48.76341]},"properties":{"latitude":"48.76341","longitude":"-3.04864","bright_ti4":"338.66","scan":"0.42","track":"0.46","acq_date":"2026-08-03","acq_time":"1227","satellite":"N20","instrument":"VIIRS","confidence":"n","version":"2.0NRT","bright_ti5":"298.92","frp":"1.53","daynight":"D","commune":"Paimpol","code_insee":"22162","departement":"Côtes-d'Armor","region":"Bretagne"}},{"type":"Feature","geometry":{"type":"Point","coordinates":[3.70249,49.58531]},"properties":{"latitude":"49.58531","longitude":"3.70249","bright_ti4":"349.15","scan":"0.39","track":"0.36","acq_date":"2026-08-03","acq_time":"1227","satellite":"N20","instrument":"VIIRS","confidence":"n","version":"2.0NRT","bright_ti5":"304.67","frp":"8.97","daynight":"D","commune":"Athies-sous-Laon","code_insee":"02028","departement":"Aisne","region":"Hauts-de-France"}},{"type":"Feature","geometry":{"type":"Point","coordinates":[3.7078,49.58621]},"properties":{"latitude":"49.58621","longitude":"3.7078","bright_ti4":"354.1","scan":"0.39","track":"0.36","acq_date":"2026-08-03","acq_time":"1227","satellite":"N20","instrument":"VIIRS","confidence":"n","version":"2.0NRT","bright_ti5":"304.67","frp":"8.97","daynight":"D","commune":"Athies-sous-Laon","code_insee":"02028","departement":"Aisne","region":"Hauts-de-France"}},{"type":"Feature","geometry":{"type":"Point","coordinates":[3.70118,49.58857]},"properties":{"latitude":"49.58857","longitude":"3.70118","bright_ti4":"356.24","scan":"0.39","track":"0.36","acq_date":"2026-08-03","acq_time":"1227","satellite":"N20","instrument":"VIIRS","confidence":"l","version":"2.0NRT","bright_ti5":"303.02","frp":"8.97","daynight":"D","commune":"Athies-sous-Laon","code_insee":"02028","departement":"Aisne","region":"Hauts-de-France"}},{"type":"Feature","geometry":{"type":"Point","coordinates":[3.70649,49.58947]},"properties":{"latitude":"49.58947","longitude":"3.70649","bright_ti4":"355.01","scan":"0.39","track":"0.36","acq_date":"2026-08-03","acq_time":"1227","satellite":"N20","instrument":"VIIRS","confidence":"l","version":"2.0NRT","bright_ti5":"305.43","frp":"8.97","daynight":"D","commune":"Athies-sous-Laon","code_insee":"02028","departement":"Aisne","region":"Hauts-de-France"}},{"type":"Feature","geometry":{"type":"Point","coordinates":[3.70519,49.59274]},"properties":{"latitude":"49.59274","longitude":"3.70519","bright_ti4":"344.77","scan":"0.39","track":"0.36","acq_date":"2026-08-03","acq_time":"1227","satellite":"N20","instrument":"VIIRS","confidence":"n","version":"2.0NRT","bright_ti5":"306.05","frp":"3.94","daynight":"D","commune":"Athies-sous-Laon","code_insee":"02028","departement":"Aisne","region":"Hauts-de-France"}},{"type":"Feature","geometry":{"type":"Point","coordinates":[3.7105,49.59364]},"properties":{"latitude":"49.59364","longitude":"3.7105","bright_ti4":"355.69","scan":"0.39","track":"0.36","acq_date":"2026-08-03","acq_time":"1227","satellite":"N20","instrument":"VIIRS","confidence":"l","version":"2.0NRT","bright_ti5":"303.61","frp":"5.61","daynight":"D","commune":"Samoussy","code_insee":"02697","departement":"Aisne","region":"Hauts-de-France"}},{"type":"Feature","geometry":{"type":"Point","coordinates":[3.70919,49.5969]},"properties":{"latitude":"49.5969","longitude":"3.70919","bright_ti4":"349.28","scan":"0.39","track":"0.36","acq_date":"2026-08-03","acq_time":"1227","satellite":"N20","instrument":"VIIRS","confidence":"n","version":"2.0NRT","bright_ti5":"303.8","frp":"5.61","daynight":"D","commune":"Athies-sous-Laon","code_insee":"02028","departement":"Aisne","region":"Hauts-de-France"}},{"type":"Feature","geometry":{"type":"Point","coordinates":[3.7145,49.59781]},"properties":{"latitude":"49.59781","longitude":"3.7145","bright_ti4":"346.76","scan":"0.39","track":"0.36","acq_date":"2026-08-03","acq_time":"1227","satellite":"N20","instrument":"VIIRS","confidence":"n","version":"2.0NRT","bright_ti5":"302.21","frp":"5.61","daynight":"D","commune":"Samoussy","code_insee":"02697","departement":"Aisne","region":"Hauts-de-France"}},{"type":"Feature","geometry":{"type":"Point","coordinates":[3.71981,49.5987]},"properties":{"latitude":"49.5987","longitude":"3.71981","bright_ti4":"356.2","scan":"0.39","track":"0.36","acq_date":"2026-08-03","acq_time":"1227","satellite":"N20","instrument":"VIIRS","confidence":"l","version":"2.0NRT","bright_ti5":"300.04","frp":"5.55","daynight":"D","commune":"Samoussy","code_insee":"02697","departement":"Aisne","region":"Hauts-de-France"}},{"type":"Feature","geometry":{"type":"Point","coordinates":[3.71319,49.60106]},"properties":{"latitude":"49.60106","longitude":"3.71319","bright_ti4":"343.6","scan":"0.39","track":"0.36","acq_date":"2026-08-03","acq_time":"1227","satellite":"N20","instrument":"VIIRS","confidence":"n","version":"2.0NRT","bright_ti5":"303.85","frp":"5.89","daynight":"D","commune":"Samoussy","code_insee":"02697","departement":"Aisne","region":"Hauts-de-France"}},{"type":"Feature","geometry":{"type":"Point","coordinates":[3.7185,49.60196]},"properties":{"latitude":"49.60196","longitude":"3.7185","bright_ti4":"355.02","scan":"0.39","track":"0.36","acq_date":"2026-08-03","acq_time":"1227","satellite":"N20","instrument":"VIIRS","confidence":"n","version":"2.0NRT","bright_ti5":"303.29","frp":"20.7","daynight":"D","commune":"Samoussy","code_insee":"02697","departement":"Aisne","region":"Hauts-de-France"}},{"type":"Feature","geometry":{"type":"Point","coordinates":[3.70526,49.60669]},"properties":{"latitude":"49.60669","longitude":"3.70526","bright_ti4":"344.26","scan":"0.39","track":"0.36","acq_date":"2026-08-03","acq_time":"1227","satellite":"N20","instrument":"VIIRS","confidence":"n","version":"2.0NRT","bright_ti5":"302.05","frp":"4.61","daynight":"D","commune":"Samoussy","code_insee":"02697","departement":"Aisne","region":"Hauts-de-France"}},{"type":"Feature","geometry":{"type":"Point","coordinates":[3.71057,49.60759]},"properties":{"latitude":"49.60759","longitude":"3.71057","bright_ti4":"355.99","scan":"0.39","track":"0.36","acq_date":"2026-08-03","acq_time":"1227","satellite":"N20","instrument":"VIIRS","confidence":"n","version":"2.0NRT","bright_ti5":"300.6","frp":"4.61","daynight":"D","commune":"Samoussy","code_insee":"02697","departement":"Aisne","region":"Hauts-de-France"}},{"type":"Feature","geometry":{"type":"Point","coordinates":[3.70927,49.61085]},"properties":{"latitude":"49.61085","longitude":"3.70927","bright_ti4":"334.71","scan":"0.39","track":"0.36","acq_date":"2026-08-03","acq_time":"1227","satellite":"N20","instrument":"VIIRS","confidence":"n","version":"2.0NRT","bright_ti5":"300.16","frp":"4.61","daynight":"D","commune":"Monceau-le-Waast","code_insee":"02493","departement":"Aisne","region":"Hauts-de-France"}},{"type":"Feature","geometry":{"type":"Point","coordinates":[2.69364,49.68752]},"properties":{"latitude":"49.68752","longitude":"2.69364","bright_ti4":"341.27","scan":"0.4","track":"0.37","acq_date":"2026-08-03","acq_time":"1227","satellite":"N20","instrument":"VIIRS","confidence":"n","version":"2.0NRT","bright_ti5":"311.36","frp":"26.56","daynight":"D","commune":"Marquivillers","code_insee":"80517","departement":"Somme","region":"Hauts-de-France"}},{"type":"Feature","geometry":{"type":"Point","coordinates":[3.46571,50.32578]},"properties":{"latitude":"50.32578","longitude":"3.46571","bright_ti4":"349.3","scan":"0.39","track":"0.36","acq_date":"2026-08-03","acq_time":"1227","satellite":"N20","instrument":"VIIRS","confidence":"n","version":"2.0NRT","bright_ti5":"306.76","frp":"4.55","daynight":"D","commune":"Prouvy","code_insee":"59475","departement":"Nord","region":"Hauts-de-France"}},{"type":"Feature","geometry":{"type":"Point","coordinates":[3.47108,50.32668]},"properties":{"latitude":"50.32668","longitude":"3.47108","bright_ti4":"348.78","scan":"0.39","track":"0.36","acq_date":"2026-08-03","acq_time":"1227","satellite":"N20","instrument":"VIIRS","confidence":"n","version":"2.0NRT","bright_ti5":"305.76","frp":"2.99","daynight":"D","commune":"Trith-Saint-Léger","code_insee":"59603","departement":"Nord","region":"Hauts-de-France"}},{"type":"Feature","geometry":{"type":"Point","coordinates":[3.46438,50.32903]},"properties":{"latitude":"50.32903","longitude":"3.46438","bright_ti4":"351.38","scan":"0.39","track":"0.36","acq_date":"2026-08-03","acq_time":"1227","satellite":"N20","instrument":"VIIRS","confidence":"n","version":"2.0NRT","bright_ti5":"306.25","frp":"4.55","daynight":"D","commune":"Trith-Saint-Léger","code_insee":"59603","departement":"Nord","region":"Hauts-de-France"}},{"type":"Feature","geometry":{"type":"Point","coordinates":[3.46975,50.32994]},"properties":{"latitude":"50.32994","longitude":"3.46975","bright_ti4":"343.82","scan":"0.39","track":"0.36","acq_date":"2026-08-03","acq_time":"1227","satellite":"N20","instrument":"VIIRS","confidence":"n","version":"2.0NRT","bright_ti5":"303.48","frp":"2.99","daynight":"D","commune":"Trith-Saint-Léger","code_insee":"59603","departement":"Nord","region":"Hauts-de-France"}},{"type":"Feature","geometry":{"type":"Point","coordinates":[2.69365,50.47761]},"properties":{"latitude":"50.47761","longitude":"2.69365","bright_ti4":"331.36","scan":"0.4","track":"0.37","acq_date":"2026-08-03","acq_time":"1227","satellite":"N20","instrument":"VIIRS","confidence":"l","version":"2.0NRT","bright_ti5":"303.4","frp":"1.89","daynight":"D","commune":"Nœux-les-Mines","code_insee":"62617","departement":"Pas-de-Calais","region":"Hauts-de-France"}},{"type":"Feature","geometry":{"type":"Point","coordinates":[2.47745,50.77256]},"properties":{"latitude":"50.77256","longitude":"2.47745","bright_ti4":"335.47","scan":"0.4","track":"0.37","acq_date":"2026-08-03","acq_time":"1227","satellite":"N20","instrument":"VIIRS","confidence":"n","version":"2.0NRT","bright_ti5":"303.97","frp":"1.96","daynight":"D","commune":"Oxelaëre","code_insee":"59454","departement":"Nord","region":"Hauts-de-France"}},{"type":"Feature","geometry":{"type":"Point","coordinates":[2.27465,51.02729]},"properties":{"latitude":"51.02729","longitude":"2.27465","bright_ti4":"333.95","scan":"0.4","track":"0.37","acq_date":"2026-08-03","acq_time":"1227","satellite":"N20","instrument":"VIIRS","confidence":"l","version":"2.0NRT","bright_ti5":"306.56","frp":"3.55","daynight":"D","commune":"Grande-Synthe","code_insee":"59271","departement":"Nord","region":"Hauts-de-France"}},{"type":"Feature","geometry":{"type":"Point","coordinates":[2.28987,51.03352]},"properties":{"latitude":"51.03352","longitude":"2.28987","bright_ti4":"342.17","scan":"0.4","track":"0.37","acq_date":"2026-08-03","acq_time":"1227","satellite":"N20","instrument":"VIIRS","confidence":"n","version":"2.0NRT","bright_ti5":"307.12","frp":"7.12","daynight":"D","commune":"Grande-Synthe","code_insee":"59271","departement":"Nord","region":"Hauts-de-France"}},{"type":"Feature","geometry":{"type":"Point","coordinates":[2.32031,51.04596]},"properties":{"latitude":"51.04596","longitude":"2.32031","bright_ti4":"330.51","scan":"0.4","track":"0.37","acq_date":"2026-08-03","acq_time":"1227","satellite":"N20","instrument":"VIIRS","confidence":"l","version":"2.0NRT","bright_ti5":"301.4","frp":"1.95","daynight":"D","commune":"Dunkerque","code_insee":"59183","departement":"Nord","region":"Hauts-de-France"}},{"type":"Feature","geometry":{"type":"Point","coordinates":[4.88131,43.4446]},"properties":{"latitude":"43.4446","longitude":"4.88131","bright_ti4":"354.75","scan":"0.51","track":"0.66","acq_date":"2026-08-03","acq_time":"1130","satellite":"N21","instrument":"VIIRS","confidence":"n","version":"2.0NRT","bright_ti5":"298.27","frp":"9.91","daynight":"D","commune":"Fos-sur-Mer","code_insee":"13039","departement":"Bouches-du-Rhône","region":"Provence-Alpes-Côte d'Azur"}},{"type":"Feature","geometry":{"type":"Point","coordinates":[0.39017,49.25557]},"properties":{"latitude":"49.25557","longitude":"0.39017","bright_ti4":"345.1","scan":"0.51","track":"0.66","acq_date":"2026-08-03","acq_time":"1132","satellite":"N21","instrument":"VIIRS","confidence":"n","version":"2.0NRT","bright_ti5":"283.64","frp":"6.88","daynight":"D","commune":"Cormeilles","code_insee":"27170","departement":"Eure","region":"Normandie"}},{"type":"Feature","geometry":{"type":"Point","coordinates":[2.27003,51.02872]},"properties":{"latitude":"51.02872","longitude":"2.27003","bright_ti4":"333.1","scan":"0.37","track":"0.58","acq_date":"2026-08-03","acq_time":"1132","satellite":"N21","instrument":"VIIRS","confidence":"n","version":"2.0NRT","bright_ti5":"297.56","frp":"5.43","daynight":"D","commune":"Grande-Synthe","code_insee":"59271","departement":"Nord","region":"Hauts-de-France"}},{"type":"Feature","geometry":{"type":"Point","coordinates":[9.16035,42.30663]},"properties":{"latitude":"42.30663","longitude":"9.16035","bright_ti4":"330.26","scan":"0.44","track":"0.62","acq_date":"2026-08-03","acq_time":"1310","satellite":"N21","instrument":"VIIRS","confidence":"n","version":"2.0NRT","bright_ti5":"297.04","frp":"4.55","daynight":"D","commune":"Corte","code_insee":"2B096","departement":"Haute-Corse","region":"Corse"}},{"type":"Feature","geometry":{"type":"Point","coordinates":[4.8888,43.43839]},"properties":{"latitude":"43.43839","longitude":"4.8888","bright_ti4":"331.43","scan":"0.53","track":"0.5","acq_date":"2026-08-03","acq_time":"1310","satellite":"N21","instrument":"VIIRS","confidence":"n","version":"2.0NRT","bright_ti5":"300.77","frp":"11.43","daynight":"D","commune":"Fos-sur-Mer","code_insee":"13039","departement":"Bouches-du-Rhône","region":"Provence-Alpes-Côte d'Azur"}},{"type":"Feature","geometry":{"type":"Point","coordinates":[2.29027,51.03605]},"properties":{"latitude":"51.03605","longitude":"2.29027","bright_ti4":"340.82","scan":"0.48","track":"0.48","acq_date":"2026-08-03","acq_time":"1314","satellite":"N21","instrument":"VIIRS","confidence":"n","version":"2.0NRT","bright_ti5":"300.16","frp":"5.02","daynight":"D","commune":"Grande-Synthe","code_insee":"59271","departement":"Nord","region":"Hauts-de-France"}}]}