{"type":"FeatureCollection","features":[{"type":"Feature","geometry":{"type":"Point","coordinates":[6.18697,43.29827]},"properties":{"latitude":"43.29827","longitude":"6.18697","bright_ti4":"300.51","scan":"0.43","track":"0.38","acq_date":"2026-06-12","acq_time":"156","satellite":"N","instrument":"VIIRS","confidence":"n","version":"2.0NRT","bright_ti5":"286.24","frp":"0.49","daynight":"N","commune":"Carnoules","code_insee":"83033","departement":"Var","region":"Provence-Alpes-Côte d'Azur"}},{"type":"Feature","geometry":{"type":"Point","coordinates":[4.8937,43.43784]},"properties":{"latitude":"43.43784","longitude":"4.8937","bright_ti4":"305.18","scan":"0.4","track":"0.37","acq_date":"2026-06-12","acq_time":"156","satellite":"N","instrument":"VIIRS","confidence":"n","version":"2.0NRT","bright_ti5":"290.59","frp":"1.59","daynight":"N","commune":"Fos-sur-Mer","code_insee":"13039","departement":"Bouches-du-Rhône","region":"Provence-Alpes-Côte d'Azur"}},{"type":"Feature","geometry":{"type":"Point","coordinates":[4.89125,43.43848]},"properties":{"latitude":"43.43848","longitude":"4.89125","bright_ti4":"303.61","scan":"0.4","track":"0.37","acq_date":"2026-06-12","acq_time":"156","satellite":"N","instrument":"VIIRS","confidence":"n","version":"2.0NRT","bright_ti5":"290.42","frp":"0.78","daynight":"N","commune":"Fos-sur-Mer","code_insee":"13039","departement":"Bouches-du-Rhône","region":"Provence-Alpes-Côte d'Azur"}},{"type":"Feature","geometry":{"type":"Point","coordinates":[4.89834,43.44426]},"properties":{"latitude":"43.44426","longitude":"4.89834","bright_ti4":"333.37","scan":"0.4","track":"0.37","acq_date":"2026-06-12","acq_time":"156","satellite":"N","instrument":"VIIRS","confidence":"n","version":"2.0NRT","bright_ti5":"291.75","frp":"2.29","daynight":"N","commune":"Fos-sur-Mer","code_insee":"13039","departement":"Bouches-du-Rhône","region":"Provence-Alpes-Côte d'Azur"}},{"type":"Feature","geometry":{"type":"Point","coordinates":[4.87775,43.4444]},"properties":{"latitude":"43.4444","longitude":"4.87775","bright_ti4":"311.17","scan":"0.4","track":"0.37","acq_date":"2026-06-12","acq_time":"156","satellite":"N","instrument":"VIIRS","confidence":"n","version":"2.0NRT","bright_ti5":"290.62","frp":"1.65","daynight":"N","commune":"Fos-sur-Mer","code_insee":"13039","departement":"Bouches-du-Rhône","region":"Provence-Alpes-Côte d'Azur"}},{"type":"Feature","geometry":{"type":"Point","coordinates":[4.89945,43.44759]},"properties":{"latitude":"43.44759","longitude":"4.89945","bright_ti4":"312.8","scan":"0.4","track":"0.37","acq_date":"2026-06-12","acq_time":"156","satellite":"N","instrument":"VIIRS","confidence":"n","version":"2.0NRT","bright_ti5":"290.44","frp":"2.29","daynight":"N","commune":"Fos-sur-Mer","code_insee":"13039","departement":"Bouches-du-Rhône","region":"Provence-Alpes-Côte d'Azur"}},{"type":"Feature","geometry":{"type":"Point","coordinates":[4.89457,43.44846]},"properties":{"latitude":"43.44846","longitude":"4.89457","bright_ti4":"329.02","scan":"0.4","track":"0.37","acq_date":"2026-06-12","acq_time":"156","satellite":"N","instrument":"VIIRS","confidence":"n","version":"2.0NRT","bright_ti5":"292.26","frp":"3.29","daynight":"N","commune":"Fos-sur-Mer","code_insee":"13039","departement":"Bouches-du-Rhône","region":"Provence-Alpes-Côte d'Azur"}},{"type":"Feature","geometry":{"type":"Point","coordinates":[5.462,43.45269]},"properties":{"latitude":"43.45269","longitude":"5.462","bright_ti4":"298.15","scan":"0.41","track":"0.37","acq_date":"2026-06-12","acq_time":"156","satellite":"N","instrument":"VIIRS","confidence":"n","version":"2.0NRT","bright_ti5":"287.51","frp":"0.73","daynight":"N","commune":"Gardanne","code_insee":"13041","departement":"Bouches-du-Rhône","region":"Provence-Alpes-Côte d'Azur"}},{"type":"Feature","geometry":{"type":"Point","coordinates":[7.37461,43.79293]},"properties":{"latitude":"43.79293","longitude":"7.37461","bright_ti4":"300.76","scan":"0.46","track":"0.39","acq_date":"2026-06-12","acq_time":"156","satellite":"N","instrument":"VIIRS","confidence":"n","version":"2.0NRT","bright_ti5":"284.13","frp":"0.86","daynight":"N","commune":"Blausasc","code_insee":"06019","departement":"Alpes-Maritimes","region":"Provence-Alpes-Côte d'Azur"}},{"type":"Feature","geometry":{"type":"Point","coordinates":[4.84533,43.99872]},"properties":{"latitude":"43.99872","longitude":"4.84533","bright_ti4":"304.18","scan":"0.4","track":"0.37","acq_date":"2026-06-12","acq_time":"156","satellite":"N","instrument":"VIIRS","confidence":"n","version":"2.0NRT","bright_ti5":"289.45","frp":"0.56","daynight":"N","commune":"Sorgues","code_insee":"84129","departement":"Vaucluse","region":"Provence-Alpes-Côte d'Azur"}},{"type":"Feature","geometry":{"type":"Point","coordinates":[5.55216,44.81888]},"properties":{"latitude":"44.81888","longitude":"5.55216","bright_ti4":"307.41","scan":"0.4","track":"0.37","acq_date":"2026-06-12","acq_time":"156","satellite":"N","instrument":"VIIRS","confidence":"n","version":"2.0NRT","bright_ti5":"278.77","frp":"0.83","daynight":"N","commune":"Chichilianne","code_insee":"38103","departement":"Isère","region":"Auvergne-Rhône-Alpes"}},{"type":"Feature","geometry":{"type":"Point","coordinates":[5.54708,44.81978]},"properties":{"latitude":"44.81978","longitude":"5.54708","bright_ti4":"296.31","scan":"0.4","track":"0.37","acq_date":"2026-06-12","acq_time":"156","satellite":"N","instrument":"VIIRS","confidence":"n","version":"2.0NRT","bright_ti5":"277.06","frp":"0.96","daynight":"N","commune":"Chichilianne","code_insee":"38103","departement":"Isère","region":"Auvergne-Rhône-Alpes"}},{"type":"Feature","geometry":{"type":"Point","coordinates":[5.81958,45.91296]},"properties":{"latitude":"45.91296","longitude":"5.81958","bright_ti4":"296.05","scan":"0.4","track":"0.37","acq_date":"2026-06-12","acq_time":"156","satellite":"N","instrument":"VIIRS","confidence":"n","version":"2.0NRT","bright_ti5":"283.63","frp":"0.75","daynight":"N","commune":"Anglefort","code_insee":"01010","departement":"Ain","region":"Auvergne-Rhône-Alpes"}},{"type":"Feature","geometry":{"type":"Point","coordinates":[0.79445,47.30326]},"properties":{"latitude":"47.30326","longitude":"0.79445","bright_ti4":"303.98","scan":"0.43","track":"0.38","acq_date":"2026-06-12","acq_time":"156","satellite":"N","instrument":"VIIRS","confidence":"n","version":"2.0NRT","bright_ti5":"285.43","frp":"0.95","daynight":"N","commune":"Esvres","code_insee":"37104","departement":"Indre-et-Loire","region":"Centre-Val de Loire"}},{"type":"Feature","geometry":{"type":"Point","coordinates":[4.90361,43.44354]},"properties":{"latitude":"43.44354","longitude":"4.90361","bright_ti4":"329.68","scan":"0.48","track":"0.64","acq_date":"2026-06-12","acq_time":"1140","satellite":"N","instrument":"VIIRS","confidence":"l","version":"2.0NRT","bright_ti5":"302.7","frp":"4.36","daynight":"D","commune":"Fos-sur-Mer","code_insee":"13039","departement":"Bouches-du-Rhône","region":"Provence-Alpes-Côte d'Azur"}},{"type":"Feature","geometry":{"type":"Point","coordinates":[2.83736,42.61547]},"properties":{"latitude":"42.61547","longitude":"2.83736","bright_ti4":"339.02","scan":"0.42","track":"0.45","acq_date":"2026-06-12","acq_time":"1321","satellite":"N","instrument":"VIIRS","confidence":"n","version":"2.0NRT","bright_ti5":"307.89","frp":"1.85","daynight":"D","commune":"Trouillas","code_insee":"66217","departement":"Pyrénées-Orientales","region":"Occitanie"}},{"type":"Feature","geometry":{"type":"Point","coordinates":[-0.51338,43.29955]},"properties":{"latitude":"43.29955","longitude":"-0.51338","bright_ti4":"335.22","scan":"0.47","track":"0.39","acq_date":"2026-06-12","acq_time":"1321","satellite":"N","instrument":"VIIRS","confidence":"n","version":"2.0NRT","bright_ti5":"301.67","frp":"3.63","daynight":"D","commune":"Monein","code_insee":"64393","departement":"Pyrénées-Atlantiques","region":"Nouvelle-Aquitaine"}},{"type":"Feature","geometry":{"type":"Point","coordinates":[4.89693,43.44648]},"properties":{"latitude":"43.44648","longitude":"4.89693","bright_ti4":"343.24","scan":"0.54","track":"0.51","acq_date":"2026-06-12","acq_time":"1321","satellite":"N","instrument":"VIIRS","confidence":"n","version":"2.0NRT","bright_ti5":"307.61","frp":"21.61","daynight":"D","commune":"Fos-sur-Mer","code_insee":"13039","departement":"Bouches-du-Rhône","region":"Provence-Alpes-Côte d'Azur"}},{"type":"Feature","geometry":{"type":"Point","coordinates":[-0.16904,45.77407]},"properties":{"latitude":"45.77407","longitude":"-0.16904","bright_ti4":"335.82","scan":"0.51","track":"0.41","acq_date":"2026-06-12","acq_time":"1323","satellite":"N","instrument":"VIIRS","confidence":"n","version":"2.0NRT","bright_ti5":"305.35","frp":"4.07","daynight":"D","commune":"Courbillac","code_insee":"16109","departement":"Charente","region":"Nouvelle-Aquitaine"}},{"type":"Feature","geometry":{"type":"Point","coordinates":[-0.20182,46.35221]},"properties":{"latitude":"46.35221","longitude":"-0.20182","bright_ti4":"333.84","scan":"0.52","track":"0.41","acq_date":"2026-06-12","acq_time":"1323","satellite":"N","instrument":"VIIRS","confidence":"n","version":"2.0NRT","bright_ti5":"301.88","frp":"2.88","daynight":"D","commune":"Souvigné","code_insee":"79319","departement":"Deux-Sèvres","region":"Nouvelle-Aquitaine"}},{"type":"Feature","geometry":{"type":"Point","coordinates":[-0.20307,46.35419]},"properties":{"latitude":"46.35419","longitude":"-0.20307","bright_ti4":"337.55","scan":"0.52","track":"0.41","acq_date":"2026-06-12","acq_time":"1323","satellite":"N","instrument":"VIIRS","confidence":"n","version":"2.0NRT","bright_ti5":"301.58","frp":"5.71","daynight":"D","commune":"Souvigné","code_insee":"79319","departement":"Deux-Sèvres","region":"Nouvelle-Aquitaine"}},{"type":"Feature","geometry":{"type":"Point","coordinates":[-1.44436,47.29393]},"properties":{"latitude":"47.29393","longitude":"-1.44436","bright_ti4":"330.19","scan":"0.48","track":"0.4","acq_date":"2026-06-12","acq_time":"1323","satellite":"N","instrument":"VIIRS","confidence":"n","version":"2.0NRT","bright_ti5":"297.98","frp":"2.23","daynight":"D","commune":"Carquefou","code_insee":"44026","departement":"Loire-Atlantique","region":"Pays de la Loire"}},{"type":"Feature","geometry":{"type":"Point","coordinates":[4.89999,43.44424]},"properties":{"latitude":"43.44424","longitude":"4.89999","bright_ti4":"299.91","scan":"0.64","track":"0.72","acq_date":"2026-06-12","acq_time":"35","satellite":"N20","instrument":"VIIRS","confidence":"n","version":"2.0NRT","bright_ti5":"287.82","frp":"1.45","daynight":"N","commune":"Fos-sur-Mer","code_insee":"13039","departement":"Bouches-du-Rhône","region":"Provence-Alpes-Côte d'Azur"}},{"type":"Feature","geometry":{"type":"Point","coordinates":[4.88366,43.44436]},"properties":{"latitude":"43.44436","longitude":"4.88366","bright_ti4":"297.99","scan":"0.64","track":"0.72","acq_date":"2026-06-12","acq_time":"35","satellite":"N20","instrument":"VIIRS","confidence":"n","version":"2.0NRT","bright_ti5":"287.03","frp":"1.55","daynight":"N","commune":"Fos-sur-Mer","code_insee":"13039","departement":"Bouches-du-Rhône","region":"Provence-Alpes-Côte d'Azur"}},{"type":"Feature","geometry":{"type":"Point","coordinates":[4.8755,43.4444]},"properties":{"latitude":"43.4444","longitude":"4.8755","bright_ti4":"310.95","scan":"0.64","track":"0.72","acq_date":"2026-06-12","acq_time":"35","satellite":"N20","instrument":"VIIRS","confidence":"n","version":"2.0NRT","bright_ti5":"286.91","frp":"1.55","daynight":"N","commune":"Fos-sur-Mer","code_insee":"13039","departement":"Bouches-du-Rhône","region":"Provence-Alpes-Côte d'Azur"}},{"type":"Feature","geometry":{"type":"Point","coordinates":[4.84779,43.997]},"properties":{"latitude":"43.997","longitude":"4.84779","bright_ti4":"301.47","scan":"0.65","track":"0.73","acq_date":"2026-06-12","acq_time":"35","satellite":"N20","instrument":"VIIRS","confidence":"n","version":"2.0NRT","bright_ti5":"285.81","frp":"0.8","daynight":"N","commune":"Sorgues","code_insee":"84129","departement":"Vaucluse","region":"Provence-Alpes-Côte d'Azur"}},{"type":"Feature","geometry":{"type":"Point","coordinates":[4.89681,43.43337]},"properties":{"latitude":"43.43337","longitude":"4.89681","bright_ti4":"299.74","scan":"0.44","track":"0.46","acq_date":"2026-06-12","acq_time":"213","satellite":"N20","instrument":"VIIRS","confidence":"n","version":"2.0NRT","bright_ti5":"289.25","frp":"0.76","daynight":"N","commune":"Fos-sur-Mer","code_insee":"13039","departement":"Bouches-du-Rhône","region":"Provence-Alpes-Côte d'Azur"}},{"type":"Feature","geometry":{"type":"Point","coordinates":[4.89159,43.4346]},"properties":{"latitude":"43.4346","longitude":"4.89159","bright_ti4":"304.58","scan":"0.44","track":"0.46","acq_date":"2026-06-12","acq_time":"213","satellite":"N20","instrument":"VIIRS","confidence":"n","version":"2.0NRT","bright_ti5":"289.99","frp":"1.36","daynight":"N","commune":"Fos-sur-Mer","code_insee":"13039","departement":"Bouches-du-Rhône","region":"Provence-Alpes-Côte d'Azur"}},{"type":"Feature","geometry":{"type":"Point","coordinates":[4.90041,43.44153]},"properties":{"latitude":"43.44153","longitude":"4.90041","bright_ti4":"310.14","scan":"0.44","track":"0.46","acq_date":"2026-06-12","acq_time":"213","satellite":"N20","instrument":"VIIRS","confidence":"n","version":"2.0NRT","bright_ti5":"290.08","frp":"1.13","daynight":"N","commune":"Fos-sur-Mer","code_insee":"13039","departement":"Bouches-du-Rhône","region":"Provence-Alpes-Côte d'Azur"}},{"type":"Feature","geometry":{"type":"Point","coordinates":[4.87777,43.44235]},"properties":{"latitude":"43.44235","longitude":"4.87777","bright_ti4":"304.44","scan":"0.44","track":"0.46","acq_date":"2026-06-12","acq_time":"213","satellite":"N20","instrument":"VIIRS","confidence":"n","version":"2.0NRT","bright_ti5":"289.75","frp":"1.01","daynight":"N","commune":"Fos-sur-Mer","code_insee":"13039","departement":"Bouches-du-Rhône","region":"Provence-Alpes-Côte d'Azur"}},{"type":"Feature","geometry":{"type":"Point","coordinates":[4.90221,43.44561]},"properties":{"latitude":"43.44561","longitude":"4.90221","bright_ti4":"314.01","scan":"0.44","track":"0.46","acq_date":"2026-06-12","acq_time":"213","satellite":"N20","instrument":"VIIRS","confidence":"n","version":"2.0NRT","bright_ti5":"290.28","frp":"1.42","daynight":"N","commune":"Fos-sur-Mer","code_insee":"13039","departement":"Bouches-du-Rhône","region":"Provence-Alpes-Côte d'Azur"}},{"type":"Feature","geometry":{"type":"Point","coordinates":[4.89698,43.44684]},"properties":{"latitude":"43.44684","longitude":"4.89698","bright_ti4":"325.79","scan":"0.44","track":"0.46","acq_date":"2026-06-12","acq_time":"213","satellite":"N20","instrument":"VIIRS","confidence":"n","version":"2.0NRT","bright_ti5":"291.01","frp":"3.51","daynight":"N","commune":"Fos-sur-Mer","code_insee":"13039","departement":"Bouches-du-Rhône","region":"Provence-Alpes-Côte d'Azur"}},{"type":"Feature","geometry":{"type":"Point","coordinates":[1.23039,43.98967]},"properties":{"latitude":"43.98967","longitude":"1.23039","bright_ti4":"297.48","scan":"0.46","track":"0.39","acq_date":"2026-06-12","acq_time":"213","satellite":"N20","instrument":"VIIRS","confidence":"n","version":"2.0NRT","bright_ti5":"283.41","frp":"0.87","daynight":"N","commune":"Montech","code_insee":"82125","departement":"Tarn-et-Garonne","region":"Occitanie"}},{"type":"Feature","geometry":{"type":"Point","coordinates":[5.55152,44.81852]},"properties":{"latitude":"44.81852","longitude":"5.55152","bright_ti4":"306.45","scan":"0.44","track":"0.46","acq_date":"2026-06-12","acq_time":"213","satellite":"N20","instrument":"VIIRS","confidence":"n","version":"2.0NRT","bright_ti5":"278.65","frp":"1.91","daynight":"N","commune":"Chichilianne","code_insee":"38103","departement":"Isère","region":"Auvergne-Rhône-Alpes"}},{"type":"Feature","geometry":{"type":"Point","coordinates":[5.5492,44.81869]},"properties":{"latitude":"44.81869","longitude":"5.5492","bright_ti4":"307.77","scan":"0.44","track":"0.46","acq_date":"2026-06-12","acq_time":"213","satellite":"N20","instrument":"VIIRS","confidence":"n","version":"2.0NRT","bright_ti5":"277.76","frp":"1.52","daynight":"N","commune":"Chichilianne","code_insee":"38103","departement":"Isère","region":"Auvergne-Rhône-Alpes"}},{"type":"Feature","geometry":{"type":"Point","coordinates":[5.82193,45.91424]},"properties":{"latitude":"45.91424","longitude":"5.82193","bright_ti4":"295.48","scan":"0.42","track":"0.45","acq_date":"2026-06-12","acq_time":"213","satellite":"N20","instrument":"VIIRS","confidence":"n","version":"2.0NRT","bright_ti5":"281.67","frp":"0.71","daynight":"N","commune":"Anglefort","code_insee":"01010","departement":"Ain","region":"Auvergne-Rhône-Alpes"}},{"type":"Feature","geometry":{"type":"Point","coordinates":[3.08311,45.94267]},"properties":{"latitude":"45.94267","longitude":"3.08311","bright_ti4":"295.5","scan":"0.49","track":"0.4","acq_date":"2026-06-12","acq_time":"213","satellite":"N20","instrument":"VIIRS","confidence":"n","version":"2.0NRT","bright_ti5":"284.36","frp":"0.3","daynight":"N","commune":"Prompsat","code_insee":"63288","departement":"Puy-de-Dôme","region":"Auvergne-Rhône-Alpes"}},{"type":"Feature","geometry":{"type":"Point","coordinates":[-0.14106,46.80811]},"properties":{"latitude":"46.80811","longitude":"-0.14106","bright_ti4":"296.77","scan":"0.4","track":"0.37","acq_date":"2026-06-12","acq_time":"213","satellite":"N20","instrument":"VIIRS","confidence":"n","version":"2.0NRT","bright_ti5":"283.7","frp":"0.66","daynight":"N","commune":"Airvault","code_insee":"79005","departement":"Deux-Sèvres","region":"Nouvelle-Aquitaine"}},{"type":"Feature","geometry":{"type":"Point","coordinates":[0.79577,47.30044]},"properties":{"latitude":"47.30044","longitude":"0.79577","bright_ti4":"305.07","scan":"0.41","track":"0.37","acq_date":"2026-06-12","acq_time":"213","satellite":"N20","instrument":"VIIRS","confidence":"n","version":"2.0NRT","bright_ti5":"285.56","frp":"5.92","daynight":"N","commune":"Esvres","code_insee":"37104","departement":"Indre-et-Loire","region":"Centre-Val de Loire"}},{"type":"Feature","geometry":{"type":"Point","coordinates":[0.79051,47.3014]},"properties":{"latitude":"47.3014","longitude":"0.79051","bright_ti4":"328.07","scan":"0.41","track":"0.37","acq_date":"2026-06-12","acq_time":"213","satellite":"N20","instrument":"VIIRS","confidence":"n","version":"2.0NRT","bright_ti5":"287.48","frp":"10.64","daynight":"N","commune":"Esvres","code_insee":"37104","departement":"Indre-et-Loire","region":"Centre-Val de Loire"}},{"type":"Feature","geometry":{"type":"Point","coordinates":[3.27487,43.25205]},"properties":{"latitude":"43.25205","longitude":"3.27487","bright_ti4":"334.34","scan":"0.6","track":"0.53","acq_date":"2026-06-12","acq_time":"1157","satellite":"N20","instrument":"VIIRS","confidence":"n","version":"2.0NRT","bright_ti5":"304.82","frp":"4.26","daynight":"D","commune":"Sérignan","code_insee":"34299","departement":"Hérault","region":"Occitanie"}},{"type":"Feature","geometry":{"type":"Point","coordinates":[3.27364,43.25337]},"properties":{"latitude":"43.25337","longitude":"3.27364","bright_ti4":"336.98","scan":"0.6","track":"0.53","acq_date":"2026-06-12","acq_time":"1157","satellite":"N20","instrument":"VIIRS","confidence":"n","version":"2.0NRT","bright_ti5":"304.59","frp":"4.19","daynight":"D","commune":"Sérignan","code_insee":"34299","departement":"Hérault","region":"Occitanie"}},{"type":"Feature","geometry":{"type":"Point","coordinates":[4.90228,43.44685]},"properties":{"latitude":"43.44685","longitude":"4.90228","bright_ti4":"334.76","scan":"0.5","track":"0.49","acq_date":"2026-06-12","acq_time":"1157","satellite":"N20","instrument":"VIIRS","confidence":"l","version":"2.0NRT","bright_ti5":"306.38","frp":"10.2","daynight":"D","commune":"Fos-sur-Mer","code_insee":"13039","departement":"Bouches-du-Rhône","region":"Provence-Alpes-Côte d'Azur"}},{"type":"Feature","geometry":{"type":"Point","coordinates":[4.2699,43.71962]},"properties":{"latitude":"43.71962","longitude":"4.2699","bright_ti4":"332.44","scan":"0.53","track":"0.5","acq_date":"2026-06-12","acq_time":"1157","satellite":"N20","instrument":"VIIRS","confidence":"n","version":"2.0NRT","bright_ti5":"304.43","frp":"1.15","daynight":"D","commune":"Vestric-et-Candiac","code_insee":"30347","departement":"Gard","region":"Occitanie"}},{"type":"Feature","geometry":{"type":"Point","coordinates":[4.83798,43.84343]},"properties":{"latitude":"43.84343","longitude":"4.83798","bright_ti4":"353.32","scan":"0.49","track":"0.49","acq_date":"2026-06-12","acq_time":"1157","satellite":"N20","instrument":"VIIRS","confidence":"n","version":"2.0NRT","bright_ti5":"300.92","frp":"14.21","daynight":"D","commune":"Eyragues","code_insee":"13036","departement":"Bouches-du-Rhône","region":"Provence-Alpes-Côte d'Azur"}},{"type":"Feature","geometry":{"type":"Point","coordinates":[3.40786,46.82056]},"properties":{"latitude":"46.82056","longitude":"3.40786","bright_ti4":"341.65","scan":"0.48","track":"0.48","acq_date":"2026-06-12","acq_time":"1200","satellite":"N20","instrument":"VIIRS","confidence":"n","version":"2.0NRT","bright_ti5":"291.94","frp":"3.93","daynight":"D","commune":"Avril-sur-Loire","code_insee":"58020","departement":"Nièvre","region":"Bourgogne-Franche-Comté"}},{"type":"Feature","geometry":{"type":"Point","coordinates":[1.76157,48.98328]},"properties":{"latitude":"48.98328","longitude":"1.76157","bright_ti4":"330.14","scan":"0.49","track":"0.49","acq_date":"2026-06-12","acq_time":"1200","satellite":"N20","instrument":"VIIRS","confidence":"n","version":"2.0NRT","bright_ti5":"296.55","frp":"3.3","daynight":"D","commune":"Porcheville","code_insee":"78501","departement":"Yvelines","region":"Île-de-France"}},{"type":"Feature","geometry":{"type":"Point","coordinates":[0.72134,46.29143]},"properties":{"latitude":"46.29143","longitude":"0.72134","bright_ti4":"332.68","scan":"0.36","track":"0.58","acq_date":"2026-06-12","acq_time":"1340","satellite":"N20","instrument":"VIIRS","confidence":"n","version":"2.0NRT","bright_ti5":"298.69","frp":"1.83","daynight":"D","commune":"Nérignac","code_insee":"86176","departement":"Vienne","region":"Nouvelle-Aquitaine"}},{"type":"Feature","geometry":{"type":"Point","coordinates":[5.54924,44.81782]},"properties":{"latitude":"44.81782","longitude":"5.54924","bright_ti4":"305.56","scan":"0.46","track":"0.39","acq_date":"2026-06-12","acq_time":"120","satellite":"N21","instrument":"VIIRS","confidence":"n","version":"2.0NRT","bright_ti5":"277.68","frp":"1.98","daynight":"N","commune":"Chichilianne","code_insee":"38103","departement":"Isère","region":"Auvergne-Rhône-Alpes"}},{"type":"Feature","geometry":{"type":"Point","coordinates":[5.82285,45.91266]},"properties":{"latitude":"45.91266","longitude":"5.82285","bright_ti4":"300.28","scan":"0.47","track":"0.39","acq_date":"2026-06-12","acq_time":"120","satellite":"N21","instrument":"VIIRS","confidence":"n","version":"2.0NRT","bright_ti5":"282.84","frp":"1.17","daynight":"N","commune":"Anglefort","code_insee":"01010","departement":"Ain","region":"Auvergne-Rhône-Alpes"}},{"type":"Feature","geometry":{"type":"Point","coordinates":[3.00936,45.94157]},"properties":{"latitude":"45.94157","longitude":"3.00936","bright_ti4":"298.65","scan":"0.4","track":"0.44","acq_date":"2026-06-12","acq_time":"120","satellite":"N21","instrument":"VIIRS","confidence":"n","version":"2.0NRT","bright_ti5":"281.77","frp":"0.43","daynight":"N","commune":"Loubeyrat","code_insee":"63198","departement":"Puy-de-Dôme","region":"Auvergne-Rhône-Alpes"}},{"type":"Feature","geometry":{"type":"Point","coordinates":[8.80443,41.95269]},"properties":{"latitude":"41.95269","longitude":"8.80443","bright_ti4":"298.48","scan":"0.38","track":"0.36","acq_date":"2026-06-12","acq_time":"122","satellite":"N21","instrument":"VIIRS","confidence":"n","version":"2.0NRT","bright_ti5":"282.83","frp":"0.57","daynight":"N","commune":"Sarrola-Carcopino","code_insee":"2A271","departement":"Corse-du-Sud","region":"Corse"}},{"type":"Feature","geometry":{"type":"Point","coordinates":[4.89077,43.43403]},"properties":{"latitude":"43.43403","longitude":"4.89077","bright_ti4":"304.58","scan":"0.47","track":"0.4","acq_date":"2026-06-12","acq_time":"122","satellite":"N21","instrument":"VIIRS","confidence":"n","version":"2.0NRT","bright_ti5":"290.54","frp":"1.35","daynight":"N","commune":"Fos-sur-Mer","code_insee":"13039","departement":"Bouches-du-Rhône","region":"Provence-Alpes-Côte d'Azur"}},{"type":"Feature","geometry":{"type":"Point","coordinates":[4.89815,43.44061]},"properties":{"latitude":"43.44061","longitude":"4.89815","bright_ti4":"307.51","scan":"0.47","track":"0.4","acq_date":"2026-06-12","acq_time":"122","satellite":"N21","instrument":"VIIRS","confidence":"n","version":"2.0NRT","bright_ti5":"289.98","frp":"1.74","daynight":"N","commune":"Fos-sur-Mer","code_insee":"13039","departement":"Bouches-du-Rhône","region":"Provence-Alpes-Côte d'Azur"}},{"type":"Feature","geometry":{"type":"Point","coordinates":[4.88067,43.44262]},"properties":{"latitude":"43.44262","longitude":"4.88067","bright_ti4":"321.35","scan":"0.47","track":"0.4","acq_date":"2026-06-12","acq_time":"122","satellite":"N21","instrument":"VIIRS","confidence":"n","version":"2.0NRT","bright_ti5":"291.06","frp":"2.44","daynight":"N","commune":"Fos-sur-Mer","code_insee":"13039","departement":"Bouches-du-Rhône","region":"Provence-Alpes-Côte d'Azur"}},{"type":"Feature","geometry":{"type":"Point","coordinates":[4.89892,43.44424]},"properties":{"latitude":"43.44424","longitude":"4.89892","bright_ti4":"328.84","scan":"0.47","track":"0.4","acq_date":"2026-06-12","acq_time":"122","satellite":"N21","instrument":"VIIRS","confidence":"n","version":"2.0NRT","bright_ti5":"291.66","frp":"4.68","daynight":"N","commune":"Fos-sur-Mer","code_insee":"13039","departement":"Bouches-du-Rhône","region":"Provence-Alpes-Côte d'Azur"}},{"type":"Feature","geometry":{"type":"Point","coordinates":[5.46241,43.45334]},"properties":{"latitude":"43.45334","longitude":"5.46241","bright_ti4":"299.19","scan":"0.45","track":"0.39","acq_date":"2026-06-12","acq_time":"122","satellite":"N21","instrument":"VIIRS","confidence":"n","version":"2.0NRT","bright_ti5":"288.83","frp":"0.86","daynight":"N","commune":"Gardanne","code_insee":"13041","departement":"Bouches-du-Rhône","region":"Provence-Alpes-Côte d'Azur"}},{"type":"Feature","geometry":{"type":"Point","coordinates":[7.37219,43.79498]},"properties":{"latitude":"43.79498","longitude":"7.37219","bright_ti4":"309.92","scan":"0.4","track":"0.37","acq_date":"2026-06-12","acq_time":"122","satellite":"N21","instrument":"VIIRS","confidence":"n","version":"2.0NRT","bright_ti5":"285.92","frp":"1.47","daynight":"N","commune":"Blausasc","code_insee":"06019","departement":"Alpes-Maritimes","region":"Provence-Alpes-Côte d'Azur"}},{"type":"Feature","geometry":{"type":"Point","coordinates":[1.2307,43.98613]},"properties":{"latitude":"43.98613","longitude":"1.2307","bright_ti4":"300.15","scan":"0.46","track":"0.47","acq_date":"2026-06-12","acq_time":"122","satellite":"N21","instrument":"VIIRS","confidence":"n","version":"2.0NRT","bright_ti5":"284.16","frp":"0.87","daynight":"N","commune":"Montech","code_insee":"82125","departement":"Tarn-et-Garonne","region":"Occitanie"}},{"type":"Feature","geometry":{"type":"Point","coordinates":[4.84877,43.99718]},"properties":{"latitude":"43.99718","longitude":"4.84877","bright_ti4":"308.83","scan":"0.48","track":"0.4","acq_date":"2026-06-12","acq_time":"122","satellite":"N21","instrument":"VIIRS","confidence":"n","version":"2.0NRT","bright_ti5":"288.71","frp":"1.2","daynight":"N","commune":"Sorgues","code_insee":"84129","departement":"Vaucluse","region":"Provence-Alpes-Côte d'Azur"}},{"type":"Feature","geometry":{"type":"Point","coordinates":[0.79147,47.30056]},"properties":{"latitude":"47.30056","longitude":"0.79147","bright_ti4":"304.36","scan":"0.42","track":"0.61","acq_date":"2026-06-12","acq_time":"300","satellite":"N21","instrument":"VIIRS","confidence":"n","version":"2.0NRT","bright_ti5":"283.45","frp":"0.96","daynight":"N","commune":"Esvres","code_insee":"37104","departement":"Indre-et-Loire","region":"Centre-Val de Loire"}},{"type":"Feature","geometry":{"type":"Point","coordinates":[4.89872,43.44418]},"properties":{"latitude":"43.44418","longitude":"4.89872","bright_ti4":"342.54","scan":"0.42","track":"0.38","acq_date":"2026-06-12","acq_time":"1246","satellite":"N21","instrument":"VIIRS","confidence":"n","version":"2.0NRT","bright_ti5":"311.97","frp":"8.32","daynight":"D","commune":"Fos-sur-Mer","code_insee":"13039","departement":"Bouches-du-Rhône","region":"Provence-Alpes-Côte d'Azur"}},{"type":"Feature","geometry":{"type":"Point","coordinates":[2.46268,44.4106]},"properties":{"latitude":"44.4106","longitude":"2.46268","bright_ti4":"345.69","scan":"0.39","track":"0.36","acq_date":"2026-06-12","acq_time":"1246","satellite":"N21","instrument":"VIIRS","confidence":"n","version":"2.0NRT","bright_ti5":"305.41","frp":"6.65","daynight":"D","commune":"Druelle Balsac","code_insee":"12090","departement":"Aveyron","region":"Occitanie"}},{"type":"Feature","geometry":{"type":"Point","coordinates":[2.13644,44.70101]},"properties":{"latitude":"44.70101","longitude":"2.13644","bright_ti4":"331.37","scan":"0.39","track":"0.36","acq_date":"2026-06-12","acq_time":"1246","satellite":"N21","instrument":"VIIRS","confidence":"n","version":"2.0NRT","bright_ti5":"301.6","frp":"1.78","daynight":"D","commune":"Maurs","code_insee":"15122","departement":"Cantal","region":"Auvergne-Rhône-Alpes"}},{"type":"Feature","geometry":{"type":"Point","coordinates":[2.63498,45.57382]},"properties":{"latitude":"45.57382","longitude":"2.63498","bright_ti4":"330.52","scan":"0.39","track":"0.37","acq_date":"2026-06-12","acq_time":"1246","satellite":"N21","instrument":"VIIRS","confidence":"n","version":"2.0NRT","bright_ti5":"299.77","frp":"1.12","daynight":"D","commune":"Tauves","code_insee":"63426","departement":"Puy-de-Dôme","region":"Auvergne-Rhône-Alpes"}}]}