{"type":"FeatureCollection","features":[{"type":"Feature","geometry":{"type":"Point","coordinates":[5.8193,45.91146]},"properties":{"latitude":"45.91146","longitude":"5.8193","bright_ti4":"299.8","scan":"0.38","track":"0.36","acq_date":"2026-06-07","acq_time":"147","satellite":"N","instrument":"VIIRS","confidence":"n","version":"2.0NRT","bright_ti5":"286.93","frp":"1.23","daynight":"N","commune":"Anglefort","code_insee":"01010","departement":"Ain","region":"Auvergne-Rhône-Alpes"}},{"type":"Feature","geometry":{"type":"Point","coordinates":[7.23332,47.62928]},"properties":{"latitude":"47.62928","longitude":"7.23332","bright_ti4":"298.83","scan":"0.39","track":"0.36","acq_date":"2026-06-07","acq_time":"147","satellite":"N","instrument":"VIIRS","confidence":"n","version":"2.0NRT","bright_ti5":"284.12","frp":"0.78","daynight":"N","commune":"Altkirch","code_insee":"68004","departement":"Haut-Rhin","region":"Grand Est"}},{"type":"Feature","geometry":{"type":"Point","coordinates":[7.2355,47.63101]},"properties":{"latitude":"47.63101","longitude":"7.2355","bright_ti4":"297.16","scan":"0.39","track":"0.36","acq_date":"2026-06-07","acq_time":"147","satellite":"N","instrument":"VIIRS","confidence":"n","version":"2.0NRT","bright_ti5":"284.74","frp":"0.35","daynight":"N","commune":"Altkirch","code_insee":"68004","departement":"Haut-Rhin","region":"Grand Est"}},{"type":"Feature","geometry":{"type":"Point","coordinates":[7.05264,48.25833]},"properties":{"latitude":"48.25833","longitude":"7.05264","bright_ti4":"295.04","scan":"0.39","track":"0.36","acq_date":"2026-06-07","acq_time":"147","satellite":"N","instrument":"VIIRS","confidence":"n","version":"2.0NRT","bright_ti5":"280.98","frp":"0.77","daynight":"N","commune":"Raves","code_insee":"88375","departement":"Vosges","region":"Grand Est"}},{"type":"Feature","geometry":{"type":"Point","coordinates":[2.97885,48.38599]},"properties":{"latitude":"48.38599","longitude":"2.97885","bright_ti4":"300.69","scan":"0.43","track":"0.38","acq_date":"2026-06-07","acq_time":"147","satellite":"N","instrument":"VIIRS","confidence":"n","version":"2.0NRT","bright_ti5":"282.98","frp":"0.43","daynight":"N","commune":"Montereau-Fault-Yonne","code_insee":"77305","departement":"Seine-et-Marne","region":"Île-de-France"}},{"type":"Feature","geometry":{"type":"Point","coordinates":[6.11202,48.56351]},"properties":{"latitude":"48.56351","longitude":"6.11202","bright_ti4":"296.71","scan":"0.38","track":"0.36","acq_date":"2026-06-07","acq_time":"147","satellite":"N","instrument":"VIIRS","confidence":"n","version":"2.0NRT","bright_ti5":"282.12","frp":"0.69","daynight":"N","commune":"Frolois","code_insee":"54214","departement":"Meurthe-et-Moselle","region":"Grand Est"}},{"type":"Feature","geometry":{"type":"Point","coordinates":[6.11427,48.61002]},"properties":{"latitude":"48.61002","longitude":"6.11427","bright_ti4":"300.63","scan":"0.38","track":"0.36","acq_date":"2026-06-07","acq_time":"147","satellite":"N","instrument":"VIIRS","confidence":"n","version":"2.0NRT","bright_ti5":"283.52","frp":"1.9","daynight":"N","commune":"Neuves-Maisons","code_insee":"54397","departement":"Meurthe-et-Moselle","region":"Grand Est"}},{"type":"Feature","geometry":{"type":"Point","coordinates":[6.10911,48.61082]},"properties":{"latitude":"48.61082","longitude":"6.10911","bright_ti4":"328.27","scan":"0.38","track":"0.36","acq_date":"2026-06-07","acq_time":"147","satellite":"N","instrument":"VIIRS","confidence":"n","version":"2.0NRT","bright_ti5":"284.52","frp":"1.9","daynight":"N","commune":"Neuves-Maisons","code_insee":"54397","departement":"Meurthe-et-Moselle","region":"Grand Est"}},{"type":"Feature","geometry":{"type":"Point","coordinates":[5.68241,48.71751]},"properties":{"latitude":"48.71751","longitude":"5.68241","bright_ti4":"300.29","scan":"0.39","track":"0.36","acq_date":"2026-06-07","acq_time":"147","satellite":"N","instrument":"VIIRS","confidence":"n","version":"2.0NRT","bright_ti5":"281.16","frp":"0.72","daynight":"N","commune":"Sorcy-Saint-Martin","code_insee":"55496","departement":"Meuse","region":"Grand Est"}},{"type":"Feature","geometry":{"type":"Point","coordinates":[4.56118,48.76894]},"properties":{"latitude":"48.76894","longitude":"4.56118","bright_ti4":"301.82","scan":"0.4","track":"0.37","acq_date":"2026-06-07","acq_time":"147","satellite":"N","instrument":"VIIRS","confidence":"n","version":"2.0NRT","bright_ti5":"283.24","frp":"0.56","daynight":"N","commune":"Couvrot","code_insee":"51195","departement":"Marne","region":"Grand Est"}},{"type":"Feature","geometry":{"type":"Point","coordinates":[5.83099,49.25127]},"properties":{"latitude":"49.25127","longitude":"5.83099","bright_ti4":"302.76","scan":"0.39","track":"0.36","acq_date":"2026-06-07","acq_time":"147","satellite":"N","instrument":"VIIRS","confidence":"n","version":"2.0NRT","bright_ti5":"281.19","frp":"0.55","daynight":"N","commune":"Fléville-Lixières","code_insee":"54198","departement":"Meurthe-et-Moselle","region":"Grand Est"}},{"type":"Feature","geometry":{"type":"Point","coordinates":[0.53535,49.47814]},"properties":{"latitude":"49.47814","longitude":"0.53535","bright_ti4":"296.31","scan":"0.52","track":"0.41","acq_date":"2026-06-07","acq_time":"147","satellite":"N","instrument":"VIIRS","confidence":"n","version":"2.0NRT","bright_ti5":"282.28","frp":"1.72","daynight":"N","commune":"Port-Jérôme-sur-Seine","code_insee":"76476","departement":"Seine-Maritime","region":"Normandie"}},{"type":"Feature","geometry":{"type":"Point","coordinates":[3.49111,50.33028]},"properties":{"latitude":"50.33028","longitude":"3.49111","bright_ti4":"298.75","scan":"0.43","track":"0.38","acq_date":"2026-06-07","acq_time":"147","satellite":"N","instrument":"VIIRS","confidence":"n","version":"2.0NRT","bright_ti5":"283.54","frp":"0.79","daynight":"N","commune":"Trith-Saint-Léger","code_insee":"59603","departement":"Nord","region":"Hauts-de-France"}},{"type":"Feature","geometry":{"type":"Point","coordinates":[3.49324,50.33723]},"properties":{"latitude":"50.33723","longitude":"3.49324","bright_ti4":"301.14","scan":"0.43","track":"0.38","acq_date":"2026-06-07","acq_time":"147","satellite":"N","instrument":"VIIRS","confidence":"n","version":"2.0NRT","bright_ti5":"283.42","frp":"0.77","daynight":"N","commune":"Trith-Saint-Léger","code_insee":"59603","departement":"Nord","region":"Hauts-de-France"}},{"type":"Feature","geometry":{"type":"Point","coordinates":[3.56428,50.40054]},"properties":{"latitude":"50.40054","longitude":"3.56428","bright_ti4":"298.91","scan":"0.43","track":"0.38","acq_date":"2026-06-07","acq_time":"147","satellite":"N","instrument":"VIIRS","confidence":"n","version":"2.0NRT","bright_ti5":"282.78","frp":"0.7","daynight":"N","commune":"Saint-Saulve","code_insee":"59544","departement":"Nord","region":"Hauts-de-France"}},{"type":"Feature","geometry":{"type":"Point","coordinates":[3.02869,43.02507]},"properties":{"latitude":"43.02507","longitude":"3.02869","bright_ti4":"300.67","scan":"0.39","track":"0.36","acq_date":"2026-06-07","acq_time":"149","satellite":"N","instrument":"VIIRS","confidence":"n","version":"2.0NRT","bright_ti5":"289.17","frp":"0.54","daynight":"N","commune":"Port-la-Nouvelle","code_insee":"11266","departement":"Aude","region":"Occitanie"}},{"type":"Feature","geometry":{"type":"Point","coordinates":[4.89226,43.43702]},"properties":{"latitude":"43.43702","longitude":"4.89226","bright_ti4":"298.93","scan":"0.38","track":"0.36","acq_date":"2026-06-07","acq_time":"149","satellite":"N","instrument":"VIIRS","confidence":"n","version":"2.0NRT","bright_ti5":"288.79","frp":"0.63","daynight":"N","commune":"Fos-sur-Mer","code_insee":"13039","departement":"Bouches-du-Rhône","region":"Provence-Alpes-Côte d'Azur"}},{"type":"Feature","geometry":{"type":"Point","coordinates":[4.88284,43.43855]},"properties":{"latitude":"43.43855","longitude":"4.88284","bright_ti4":"299.78","scan":"0.38","track":"0.36","acq_date":"2026-06-07","acq_time":"149","satellite":"N","instrument":"VIIRS","confidence":"n","version":"2.0NRT","bright_ti5":"289.65","frp":"0.88","daynight":"N","commune":"Fos-sur-Mer","code_insee":"13039","departement":"Bouches-du-Rhône","region":"Provence-Alpes-Côte d'Azur"}},{"type":"Feature","geometry":{"type":"Point","coordinates":[4.89326,43.4403]},"properties":{"latitude":"43.4403","longitude":"4.89326","bright_ti4":"301.77","scan":"0.38","track":"0.36","acq_date":"2026-06-07","acq_time":"149","satellite":"N","instrument":"VIIRS","confidence":"n","version":"2.0NRT","bright_ti5":"289.63","frp":"0.63","daynight":"N","commune":"Fos-sur-Mer","code_insee":"13039","departement":"Bouches-du-Rhône","region":"Provence-Alpes-Côte d'Azur"}},{"type":"Feature","geometry":{"type":"Point","coordinates":[4.88385,43.44183]},"properties":{"latitude":"43.44183","longitude":"4.88385","bright_ti4":"310.78","scan":"0.38","track":"0.36","acq_date":"2026-06-07","acq_time":"149","satellite":"N","instrument":"VIIRS","confidence":"n","version":"2.0NRT","bright_ti5":"287.88","frp":"0.88","daynight":"N","commune":"Fos-sur-Mer","code_insee":"13039","departement":"Bouches-du-Rhône","region":"Provence-Alpes-Côte d'Azur"}},{"type":"Feature","geometry":{"type":"Point","coordinates":[4.89897,43.44282]},"properties":{"latitude":"43.44282","longitude":"4.89897","bright_ti4":"327.03","scan":"0.38","track":"0.36","acq_date":"2026-06-07","acq_time":"149","satellite":"N","instrument":"VIIRS","confidence":"n","version":"2.0NRT","bright_ti5":"289.29","frp":"2.15","daynight":"N","commune":"Fos-sur-Mer","code_insee":"13039","departement":"Bouches-du-Rhône","region":"Provence-Alpes-Côte d'Azur"}},{"type":"Feature","geometry":{"type":"Point","coordinates":[4.89426,43.44358]},"properties":{"latitude":"43.44358","longitude":"4.89426","bright_ti4":"299.91","scan":"0.38","track":"0.36","acq_date":"2026-06-07","acq_time":"149","satellite":"N","instrument":"VIIRS","confidence":"n","version":"2.0NRT","bright_ti5":"288.73","frp":"1.6","daynight":"N","commune":"Fos-sur-Mer","code_insee":"13039","departement":"Bouches-du-Rhône","region":"Provence-Alpes-Côte d'Azur"}},{"type":"Feature","geometry":{"type":"Point","coordinates":[4.88955,43.44435]},"properties":{"latitude":"43.44435","longitude":"4.88955","bright_ti4":"301.31","scan":"0.38","track":"0.36","acq_date":"2026-06-07","acq_time":"149","satellite":"N","instrument":"VIIRS","confidence":"n","version":"2.0NRT","bright_ti5":"288.33","frp":"1.6","daynight":"N","commune":"Fos-sur-Mer","code_insee":"13039","departement":"Bouches-du-Rhône","region":"Provence-Alpes-Côte d'Azur"}},{"type":"Feature","geometry":{"type":"Point","coordinates":[4.89997,43.4461]},"properties":{"latitude":"43.4461","longitude":"4.89997","bright_ti4":"330.07","scan":"0.38","track":"0.36","acq_date":"2026-06-07","acq_time":"149","satellite":"N","instrument":"VIIRS","confidence":"n","version":"2.0NRT","bright_ti5":"290.32","frp":"2.15","daynight":"N","commune":"Fos-sur-Mer","code_insee":"13039","departement":"Bouches-du-Rhône","region":"Provence-Alpes-Côte d'Azur"}},{"type":"Feature","geometry":{"type":"Point","coordinates":[4.89526,43.44687]},"properties":{"latitude":"43.44687","longitude":"4.89526","bright_ti4":"330.7","scan":"0.38","track":"0.36","acq_date":"2026-06-07","acq_time":"149","satellite":"N","instrument":"VIIRS","confidence":"n","version":"2.0NRT","bright_ti5":"291.18","frp":"1.6","daynight":"N","commune":"Fos-sur-Mer","code_insee":"13039","departement":"Bouches-du-Rhône","region":"Provence-Alpes-Côte d'Azur"}},{"type":"Feature","geometry":{"type":"Point","coordinates":[7.37416,43.79468]},"properties":{"latitude":"43.79468","longitude":"7.37416","bright_ti4":"310.69","scan":"0.41","track":"0.37","acq_date":"2026-06-07","acq_time":"149","satellite":"N","instrument":"VIIRS","confidence":"n","version":"2.0NRT","bright_ti5":"288.63","frp":"1.13","daynight":"N","commune":"Blausasc","code_insee":"06019","departement":"Alpes-Maritimes","region":"Provence-Alpes-Côte d'Azur"}},{"type":"Feature","geometry":{"type":"Point","coordinates":[4.61879,43.80445]},"properties":{"latitude":"43.80445","longitude":"4.61879","bright_ti4":"302.01","scan":"0.38","track":"0.36","acq_date":"2026-06-07","acq_time":"149","satellite":"N","instrument":"VIIRS","confidence":"n","version":"2.0NRT","bright_ti5":"289.93","frp":"0.53","daynight":"N","commune":"Beaucaire","code_insee":"30032","departement":"Gard","region":"Occitanie"}},{"type":"Feature","geometry":{"type":"Point","coordinates":[4.89662,43.4335]},"properties":{"latitude":"43.4335","longitude":"4.89662","bright_ti4":"326.42","scan":"0.56","track":"0.69","acq_date":"2026-06-07","acq_time":"1134","satellite":"N","instrument":"VIIRS","confidence":"l","version":"2.0NRT","bright_ti5":"299","frp":"7.15","daynight":"D","commune":"Fos-sur-Mer","code_insee":"13039","departement":"Bouches-du-Rhône","region":"Provence-Alpes-Côte d'Azur"}},{"type":"Feature","geometry":{"type":"Point","coordinates":[4.90003,43.44501]},"properties":{"latitude":"43.44501","longitude":"4.90003","bright_ti4":"327.02","scan":"0.45","track":"0.47","acq_date":"2026-06-07","acq_time":"1314","satellite":"N","instrument":"VIIRS","confidence":"n","version":"2.0NRT","bright_ti5":"287.62","frp":"4.2","daynight":"D","commune":"Fos-sur-Mer","code_insee":"13039","departement":"Bouches-du-Rhône","region":"Provence-Alpes-Côte d'Azur"}},{"type":"Feature","geometry":{"type":"Point","coordinates":[4.89782,43.44555]},"properties":{"latitude":"43.44555","longitude":"4.89782","bright_ti4":"327.07","scan":"0.45","track":"0.47","acq_date":"2026-06-07","acq_time":"1314","satellite":"N","instrument":"VIIRS","confidence":"n","version":"2.0NRT","bright_ti5":"287.13","frp":"3.51","daynight":"D","commune":"Fos-sur-Mer","code_insee":"13039","departement":"Bouches-du-Rhône","region":"Provence-Alpes-Côte d'Azur"}},{"type":"Feature","geometry":{"type":"Point","coordinates":[6.11201,48.61296]},"properties":{"latitude":"48.61296","longitude":"6.11201","bright_ti4":"296.2","scan":"0.69","track":"0.74","acq_date":"2026-06-07","acq_time":"26","satellite":"N20","instrument":"VIIRS","confidence":"n","version":"2.0NRT","bright_ti5":"282.05","frp":"1.05","daynight":"N","commune":"Neuves-Maisons","code_insee":"54397","departement":"Meurthe-et-Moselle","region":"Grand Est"}},{"type":"Feature","geometry":{"type":"Point","coordinates":[4.89906,43.44264]},"properties":{"latitude":"43.44264","longitude":"4.89906","bright_ti4":"300.94","scan":"0.77","track":"0.77","acq_date":"2026-06-07","acq_time":"28","satellite":"N20","instrument":"VIIRS","confidence":"n","version":"2.0NRT","bright_ti5":"285.71","frp":"1.62","daynight":"N","commune":"Fos-sur-Mer","code_insee":"13039","departement":"Bouches-du-Rhône","region":"Provence-Alpes-Côte d'Azur"}},{"type":"Feature","geometry":{"type":"Point","coordinates":[4.89401,43.44415]},"properties":{"latitude":"43.44415","longitude":"4.89401","bright_ti4":"308.33","scan":"0.77","track":"0.77","acq_date":"2026-06-07","acq_time":"28","satellite":"N20","instrument":"VIIRS","confidence":"n","version":"2.0NRT","bright_ti5":"286.07","frp":"2.52","daynight":"N","commune":"Fos-sur-Mer","code_insee":"13039","departement":"Bouches-du-Rhône","region":"Provence-Alpes-Côte d'Azur"}},{"type":"Feature","geometry":{"type":"Point","coordinates":[4.89899,43.44986]},"properties":{"latitude":"43.44986","longitude":"4.89899","bright_ti4":"304.27","scan":"0.77","track":"0.77","acq_date":"2026-06-07","acq_time":"28","satellite":"N20","instrument":"VIIRS","confidence":"n","version":"2.0NRT","bright_ti5":"285.89","frp":"1.62","daynight":"N","commune":"Fos-sur-Mer","code_insee":"13039","departement":"Bouches-du-Rhône","region":"Provence-Alpes-Côte d'Azur"}},{"type":"Feature","geometry":{"type":"Point","coordinates":[7.37259,43.7953]},"properties":{"latitude":"43.7953","longitude":"7.37259","bright_ti4":"297.67","scan":"0.58","track":"0.7","acq_date":"2026-06-07","acq_time":"28","satellite":"N20","instrument":"VIIRS","confidence":"n","version":"2.0NRT","bright_ti5":"285.62","frp":"1.03","daynight":"N","commune":"Blausasc","code_insee":"06019","departement":"Alpes-Maritimes","region":"Provence-Alpes-Côte d'Azur"}},{"type":"Feature","geometry":{"type":"Point","coordinates":[6.11056,48.61]},"properties":{"latitude":"48.61","longitude":"6.11056","bright_ti4":"295.49","scan":"0.49","track":"0.41","acq_date":"2026-06-07","acq_time":"206","satellite":"N20","instrument":"VIIRS","confidence":"n","version":"2.0NRT","bright_ti5":"282.94","frp":"0.82","daynight":"N","commune":"Neuves-Maisons","code_insee":"54397","departement":"Meurthe-et-Moselle","region":"Grand Est"}},{"type":"Feature","geometry":{"type":"Point","coordinates":[4.56166,48.76784]},"properties":{"latitude":"48.76784","longitude":"4.56166","bright_ti4":"301.98","scan":"0.44","track":"0.38","acq_date":"2026-06-07","acq_time":"206","satellite":"N20","instrument":"VIIRS","confidence":"n","version":"2.0NRT","bright_ti5":"282.81","frp":"0.69","daynight":"N","commune":"Couvrot","code_insee":"51195","departement":"Marne","region":"Grand Est"}},{"type":"Feature","geometry":{"type":"Point","coordinates":[5.83454,49.25134]},"properties":{"latitude":"49.25134","longitude":"5.83454","bright_ti4":"295.08","scan":"0.47","track":"0.4","acq_date":"2026-06-07","acq_time":"206","satellite":"N20","instrument":"VIIRS","confidence":"n","version":"2.0NRT","bright_ti5":"280.47","frp":"0.29","daynight":"N","commune":"Fléville-Lixières","code_insee":"54198","departement":"Meurthe-et-Moselle","region":"Grand Est"}},{"type":"Feature","geometry":{"type":"Point","coordinates":[5.82932,49.253]},"properties":{"latitude":"49.253","longitude":"5.82932","bright_ti4":"297.88","scan":"0.47","track":"0.4","acq_date":"2026-06-07","acq_time":"206","satellite":"N20","instrument":"VIIRS","confidence":"n","version":"2.0NRT","bright_ti5":"280.37","frp":"0.53","daynight":"N","commune":"Fléville-Lixières","code_insee":"54198","departement":"Meurthe-et-Moselle","region":"Grand Est"}},{"type":"Feature","geometry":{"type":"Point","coordinates":[0.53552,49.47587]},"properties":{"latitude":"49.47587","longitude":"0.53552","bright_ti4":"300.93","scan":"0.38","track":"0.36","acq_date":"2026-06-07","acq_time":"206","satellite":"N20","instrument":"VIIRS","confidence":"n","version":"2.0NRT","bright_ti5":"282.98","frp":"0.79","daynight":"N","commune":"Lillebonne","code_insee":"76384","departement":"Seine-Maritime","region":"Normandie"}},{"type":"Feature","geometry":{"type":"Point","coordinates":[3.56087,50.4015]},"properties":{"latitude":"50.4015","longitude":"3.56087","bright_ti4":"312.71","scan":"0.4","track":"0.37","acq_date":"2026-06-07","acq_time":"206","satellite":"N20","instrument":"VIIRS","confidence":"n","version":"2.0NRT","bright_ti5":"283.13","frp":"1.23","daynight":"N","commune":"Saint-Saulve","code_insee":"59544","departement":"Nord","region":"Hauts-de-France"}},{"type":"Feature","geometry":{"type":"Point","coordinates":[4.89419,43.43408]},"properties":{"latitude":"43.43408","longitude":"4.89419","bright_ti4":"303.12","scan":"0.56","track":"0.43","acq_date":"2026-06-07","acq_time":"209","satellite":"N20","instrument":"VIIRS","confidence":"n","version":"2.0NRT","bright_ti5":"288.7","frp":"1.55","daynight":"N","commune":"Fos-sur-Mer","code_insee":"13039","departement":"Bouches-du-Rhône","region":"Provence-Alpes-Côte d'Azur"}},{"type":"Feature","geometry":{"type":"Point","coordinates":[4.88908,43.43937]},"properties":{"latitude":"43.43937","longitude":"4.88908","bright_ti4":"310.35","scan":"0.56","track":"0.43","acq_date":"2026-06-07","acq_time":"209","satellite":"N20","instrument":"VIIRS","confidence":"n","version":"2.0NRT","bright_ti5":"288.28","frp":"1.55","daynight":"N","commune":"Fos-sur-Mer","code_insee":"13039","departement":"Bouches-du-Rhône","region":"Provence-Alpes-Côte d'Azur"}},{"type":"Feature","geometry":{"type":"Point","coordinates":[4.88241,43.44083]},"properties":{"latitude":"43.44083","longitude":"4.88241","bright_ti4":"308.61","scan":"0.56","track":"0.43","acq_date":"2026-06-07","acq_time":"209","satellite":"N20","instrument":"VIIRS","confidence":"n","version":"2.0NRT","bright_ti5":"287.95","frp":"1.54","daynight":"N","commune":"Fos-sur-Mer","code_insee":"13039","departement":"Bouches-du-Rhône","region":"Provence-Alpes-Côte d'Azur"}},{"type":"Feature","geometry":{"type":"Point","coordinates":[4.89732,43.44171]},"properties":{"latitude":"43.44171","longitude":"4.89732","bright_ti4":"305.07","scan":"0.56","track":"0.43","acq_date":"2026-06-07","acq_time":"209","satellite":"N20","instrument":"VIIRS","confidence":"n","version":"2.0NRT","bright_ti5":"288.26","frp":"3.97","daynight":"N","commune":"Fos-sur-Mer","code_insee":"13039","departement":"Bouches-du-Rhône","region":"Provence-Alpes-Côte d'Azur"}},{"type":"Feature","geometry":{"type":"Point","coordinates":[4.8989,43.44552]},"properties":{"latitude":"43.44552","longitude":"4.8989","bright_ti4":"340.74","scan":"0.56","track":"0.43","acq_date":"2026-06-07","acq_time":"209","satellite":"N20","instrument":"VIIRS","confidence":"n","version":"2.0NRT","bright_ti5":"290.4","frp":"3.97","daynight":"N","commune":"Fos-sur-Mer","code_insee":"13039","departement":"Bouches-du-Rhône","region":"Provence-Alpes-Côte d'Azur"}},{"type":"Feature","geometry":{"type":"Point","coordinates":[4.90049,43.44933]},"properties":{"latitude":"43.44933","longitude":"4.90049","bright_ti4":"328.07","scan":"0.56","track":"0.43","acq_date":"2026-06-07","acq_time":"209","satellite":"N20","instrument":"VIIRS","confidence":"n","version":"2.0NRT","bright_ti5":"288.53","frp":"5.77","daynight":"N","commune":"Fos-sur-Mer","code_insee":"13039","departement":"Bouches-du-Rhône","region":"Provence-Alpes-Côte d'Azur"}},{"type":"Feature","geometry":{"type":"Point","coordinates":[-1.96613,47.40678]},"properties":{"latitude":"47.40678","longitude":"-1.96613","bright_ti4":"298.31","scan":"0.4","track":"0.37","acq_date":"2026-06-07","acq_time":"209","satellite":"N20","instrument":"VIIRS","confidence":"n","version":"2.0NRT","bright_ti5":"280.48","frp":"0.51","daynight":"N","commune":"Campbon","code_insee":"44025","departement":"Loire-Atlantique","region":"Pays de la Loire"}},{"type":"Feature","geometry":{"type":"Point","coordinates":[1.14315,47.8676]},"properties":{"latitude":"47.8676","longitude":"1.14315","bright_ti4":"300.69","scan":"0.39","track":"0.36","acq_date":"2026-06-07","acq_time":"209","satellite":"N20","instrument":"VIIRS","confidence":"n","version":"2.0NRT","bright_ti5":"274.43","frp":"0.71","daynight":"N","commune":"Pezou","code_insee":"41175","departement":"Loir-et-Cher","region":"Centre-Val de Loire"}},{"type":"Feature","geometry":{"type":"Point","coordinates":[-1.03317,48.10876]},"properties":{"latitude":"48.10876","longitude":"-1.03317","bright_ti4":"296.37","scan":"0.39","track":"0.36","acq_date":"2026-06-07","acq_time":"209","satellite":"N20","instrument":"VIIRS","confidence":"n","version":"2.0NRT","bright_ti5":"282.96","frp":"0.48","daynight":"N","commune":"Saint-Pierre-la-Cour","code_insee":"53247","departement":"Mayenne","region":"Pays de la Loire"}},{"type":"Feature","geometry":{"type":"Point","coordinates":[2.98562,48.38577]},"properties":{"latitude":"48.38577","longitude":"2.98562","bright_ti4":"308.16","scan":"0.41","track":"0.37","acq_date":"2026-06-07","acq_time":"209","satellite":"N20","instrument":"VIIRS","confidence":"n","version":"2.0NRT","bright_ti5":"284.9","frp":"1.5","daynight":"N","commune":"Montereau-Fault-Yonne","code_insee":"77305","departement":"Seine-et-Marne","region":"Île-de-France"}},{"type":"Feature","geometry":{"type":"Point","coordinates":[2.98024,48.38676]},"properties":{"latitude":"48.38676","longitude":"2.98024","bright_ti4":"314.77","scan":"0.41","track":"0.37","acq_date":"2026-06-07","acq_time":"209","satellite":"N20","instrument":"VIIRS","confidence":"n","version":"2.0NRT","bright_ti5":"284.79","frp":"1.17","daynight":"N","commune":"Montereau-Fault-Yonne","code_insee":"77305","departement":"Seine-et-Marne","region":"Île-de-France"}},{"type":"Feature","geometry":{"type":"Point","coordinates":[6.08715,43.12063]},"properties":{"latitude":"43.12063","longitude":"6.08715","bright_ti4":"329.51","scan":"0.53","track":"0.5","acq_date":"2026-06-07","acq_time":"1151","satellite":"N20","instrument":"VIIRS","confidence":"n","version":"2.0NRT","bright_ti5":"298.4","frp":"1.95","daynight":"D","commune":"Hyères","code_insee":"83069","departement":"Var","region":"Provence-Alpes-Côte d'Azur"}},{"type":"Feature","geometry":{"type":"Point","coordinates":[4.89494,43.43658]},"properties":{"latitude":"43.43658","longitude":"4.89494","bright_ti4":"326.13","scan":"0.46","track":"0.64","acq_date":"2026-06-07","acq_time":"1331","satellite":"N20","instrument":"VIIRS","confidence":"l","version":"2.0NRT","bright_ti5":"299.59","frp":"4.57","daynight":"D","commune":"Fos-sur-Mer","code_insee":"13039","departement":"Bouches-du-Rhône","region":"Provence-Alpes-Côte d'Azur"}},{"type":"Feature","geometry":{"type":"Point","coordinates":[4.90055,43.44268]},"properties":{"latitude":"43.44268","longitude":"4.90055","bright_ti4":"326.55","scan":"0.46","track":"0.64","acq_date":"2026-06-07","acq_time":"1331","satellite":"N20","instrument":"VIIRS","confidence":"l","version":"2.0NRT","bright_ti5":"297.18","frp":"4.32","daynight":"D","commune":"Fos-sur-Mer","code_insee":"13039","departement":"Bouches-du-Rhône","region":"Provence-Alpes-Côte d'Azur"}},{"type":"Feature","geometry":{"type":"Point","coordinates":[7.37162,43.79354]},"properties":{"latitude":"43.79354","longitude":"7.37162","bright_ti4":"314.11","scan":"0.44","track":"0.39","acq_date":"2026-06-07","acq_time":"113","satellite":"N21","instrument":"VIIRS","confidence":"n","version":"2.0NRT","bright_ti5":"288.81","frp":"1.19","daynight":"N","commune":"Blausasc","code_insee":"06019","departement":"Alpes-Maritimes","region":"Provence-Alpes-Côte d'Azur"}},{"type":"Feature","geometry":{"type":"Point","coordinates":[7.23306,47.62986]},"properties":{"latitude":"47.62986","longitude":"7.23306","bright_ti4":"296.37","scan":"0.49","track":"0.4","acq_date":"2026-06-07","acq_time":"113","satellite":"N21","instrument":"VIIRS","confidence":"n","version":"2.0NRT","bright_ti5":"285.18","frp":"0.8","daynight":"N","commune":"Altkirch","code_insee":"68004","departement":"Haut-Rhin","region":"Grand Est"}},{"type":"Feature","geometry":{"type":"Point","coordinates":[6.11489,48.60982]},"properties":{"latitude":"48.60982","longitude":"6.11489","bright_ti4":"297.78","scan":"0.56","track":"0.43","acq_date":"2026-06-07","acq_time":"113","satellite":"N21","instrument":"VIIRS","confidence":"n","version":"2.0NRT","bright_ti5":"282.49","frp":"1.09","daynight":"N","commune":"Neuves-Maisons","code_insee":"54397","departement":"Meurthe-et-Moselle","region":"Grand Est"}},{"type":"Feature","geometry":{"type":"Point","coordinates":[6.10733,48.61053]},"properties":{"latitude":"48.61053","longitude":"6.10733","bright_ti4":"301.7","scan":"0.56","track":"0.43","acq_date":"2026-06-07","acq_time":"113","satellite":"N21","instrument":"VIIRS","confidence":"n","version":"2.0NRT","bright_ti5":"281.97","frp":"1.09","daynight":"N","commune":"Neuves-Maisons","code_insee":"54397","departement":"Meurthe-et-Moselle","region":"Grand Est"}},{"type":"Feature","geometry":{"type":"Point","coordinates":[5.68259,48.7145]},"properties":{"latitude":"48.7145","longitude":"5.68259","bright_ti4":"296.49","scan":"0.39","track":"0.44","acq_date":"2026-06-07","acq_time":"113","satellite":"N21","instrument":"VIIRS","confidence":"n","version":"2.0NRT","bright_ti5":"280.75","frp":"0.83","daynight":"N","commune":"Sorcy-Saint-Martin","code_insee":"55496","departement":"Meuse","region":"Grand Est"}},{"type":"Feature","geometry":{"type":"Point","coordinates":[5.83089,49.25048]},"properties":{"latitude":"49.25048","longitude":"5.83089","bright_ti4":"296.86","scan":"0.39","track":"0.44","acq_date":"2026-06-07","acq_time":"113","satellite":"N21","instrument":"VIIRS","confidence":"n","version":"2.0NRT","bright_ti5":"281.39","frp":"0.6","daynight":"N","commune":"Fléville-Lixières","code_insee":"54198","departement":"Meurthe-et-Moselle","region":"Grand Est"}},{"type":"Feature","geometry":{"type":"Point","coordinates":[4.88971,43.43523]},"properties":{"latitude":"43.43523","longitude":"4.88971","bright_ti4":"304.55","scan":"0.55","track":"0.42","acq_date":"2026-06-07","acq_time":"115","satellite":"N21","instrument":"VIIRS","confidence":"n","version":"2.0NRT","bright_ti5":"289.78","frp":"1.77","daynight":"N","commune":"Fos-sur-Mer","code_insee":"13039","departement":"Bouches-du-Rhône","region":"Provence-Alpes-Côte d'Azur"}},{"type":"Feature","geometry":{"type":"Point","coordinates":[4.88973,43.43573]},"properties":{"latitude":"43.43573","longitude":"4.88973","bright_ti4":"305.03","scan":"0.55","track":"0.43","acq_date":"2026-06-07","acq_time":"115","satellite":"N21","instrument":"VIIRS","confidence":"n","version":"2.0NRT","bright_ti5":"289.53","frp":"1.35","daynight":"N","commune":"Fos-sur-Mer","code_insee":"13039","departement":"Bouches-du-Rhône","region":"Provence-Alpes-Côte d'Azur"}},{"type":"Feature","geometry":{"type":"Point","coordinates":[4.89044,43.43912]},"properties":{"latitude":"43.43912","longitude":"4.89044","bright_ti4":"304.67","scan":"0.55","track":"0.42","acq_date":"2026-06-07","acq_time":"115","satellite":"N21","instrument":"VIIRS","confidence":"n","version":"2.0NRT","bright_ti5":"289.25","frp":"1","daynight":"N","commune":"Fos-sur-Mer","code_insee":"13039","departement":"Bouches-du-Rhône","region":"Provence-Alpes-Côte d'Azur"}},{"type":"Feature","geometry":{"type":"Point","coordinates":[4.89047,43.43962]},"properties":{"latitude":"43.43962","longitude":"4.89047","bright_ti4":"304.68","scan":"0.55","track":"0.43","acq_date":"2026-06-07","acq_time":"115","satellite":"N21","instrument":"VIIRS","confidence":"n","version":"2.0NRT","bright_ti5":"289.52","frp":"1.35","daynight":"N","commune":"Fos-sur-Mer","code_insee":"13039","departement":"Bouches-du-Rhône","region":"Provence-Alpes-Côte d'Azur"}},{"type":"Feature","geometry":{"type":"Point","coordinates":[4.88368,43.43982]},"properties":{"latitude":"43.43982","longitude":"4.88368","bright_ti4":"308.52","scan":"0.55","track":"0.43","acq_date":"2026-06-07","acq_time":"115","satellite":"N21","instrument":"VIIRS","confidence":"n","version":"2.0NRT","bright_ti5":"288.14","frp":"1","daynight":"N","commune":"Fos-sur-Mer","code_insee":"13039","departement":"Bouches-du-Rhône","region":"Provence-Alpes-Côte d'Azur"}},{"type":"Feature","geometry":{"type":"Point","coordinates":[4.88369,43.44029]},"properties":{"latitude":"43.44029","longitude":"4.88369","bright_ti4":"312.33","scan":"0.55","track":"0.43","acq_date":"2026-06-07","acq_time":"115","satellite":"N21","instrument":"VIIRS","confidence":"n","version":"2.0NRT","bright_ti5":"287.99","frp":"2.72","daynight":"N","commune":"Fos-sur-Mer","code_insee":"13039","departement":"Bouches-du-Rhône","region":"Provence-Alpes-Côte d'Azur"}},{"type":"Feature","geometry":{"type":"Point","coordinates":[4.89792,43.44231]},"properties":{"latitude":"43.44231","longitude":"4.89792","bright_ti4":"316.31","scan":"0.55","track":"0.42","acq_date":"2026-06-07","acq_time":"115","satellite":"N21","instrument":"VIIRS","confidence":"n","version":"2.0NRT","bright_ti5":"289.09","frp":"2.69","daynight":"N","commune":"Fos-sur-Mer","code_insee":"13039","departement":"Bouches-du-Rhône","region":"Provence-Alpes-Côte d'Azur"}},{"type":"Feature","geometry":{"type":"Point","coordinates":[4.89796,43.44284]},"properties":{"latitude":"43.44284","longitude":"4.89796","bright_ti4":"323.64","scan":"0.55","track":"0.42","acq_date":"2026-06-07","acq_time":"115","satellite":"N21","instrument":"VIIRS","confidence":"n","version":"2.0NRT","bright_ti5":"289.5","frp":"6.08","daynight":"N","commune":"Fos-sur-Mer","code_insee":"13039","departement":"Bouches-du-Rhône","region":"Provence-Alpes-Côte d'Azur"}},{"type":"Feature","geometry":{"type":"Point","coordinates":[4.89869,43.44674]},"properties":{"latitude":"43.44674","longitude":"4.89869","bright_ti4":"339.83","scan":"0.55","track":"0.42","acq_date":"2026-06-07","acq_time":"115","satellite":"N21","instrument":"VIIRS","confidence":"n","version":"2.0NRT","bright_ti5":"290.89","frp":"6.08","daynight":"N","commune":"Fos-sur-Mer","code_insee":"13039","departement":"Bouches-du-Rhône","region":"Provence-Alpes-Côte d'Azur"}},{"type":"Feature","geometry":{"type":"Point","coordinates":[0.53175,49.47576]},"properties":{"latitude":"49.47576","longitude":"0.53175","bright_ti4":"295.21","scan":"0.6","track":"0.53","acq_date":"2026-06-07","acq_time":"253","satellite":"N21","instrument":"VIIRS","confidence":"n","version":"2.0NRT","bright_ti5":"282.92","frp":"1.35","daynight":"N","commune":"Lillebonne","code_insee":"76384","departement":"Seine-Maritime","region":"Normandie"}},{"type":"Feature","geometry":{"type":"Point","coordinates":[3.56175,50.40341]},"properties":{"latitude":"50.40341","longitude":"3.56175","bright_ti4":"315.84","scan":"0.37","track":"0.58","acq_date":"2026-06-07","acq_time":"253","satellite":"N21","instrument":"VIIRS","confidence":"n","version":"2.0NRT","bright_ti5":"281.47","frp":"1.92","daynight":"N","commune":"Saint-Saulve","code_insee":"59544","departement":"Nord","region":"Hauts-de-France"}},{"type":"Feature","geometry":{"type":"Point","coordinates":[4.88769,43.44093]},"properties":{"latitude":"43.44093","longitude":"4.88769","bright_ti4":"300.5","scan":"0.72","track":"0.76","acq_date":"2026-06-07","acq_time":"256","satellite":"N21","instrument":"VIIRS","confidence":"n","version":"2.0NRT","bright_ti5":"285.68","frp":"2.39","daynight":"N","commune":"Fos-sur-Mer","code_insee":"13039","departement":"Bouches-du-Rhône","region":"Provence-Alpes-Côte d'Azur"}},{"type":"Feature","geometry":{"type":"Point","coordinates":[4.89999,43.4444]},"properties":{"latitude":"43.4444","longitude":"4.89999","bright_ti4":"310.61","scan":"0.73","track":"0.76","acq_date":"2026-06-07","acq_time":"256","satellite":"N21","instrument":"VIIRS","confidence":"n","version":"2.0NRT","bright_ti5":"286.32","frp":"4.68","daynight":"N","commune":"Fos-sur-Mer","code_insee":"13039","departement":"Bouches-du-Rhône","region":"Provence-Alpes-Côte d'Azur"}},{"type":"Feature","geometry":{"type":"Point","coordinates":[4.90097,43.44482]},"properties":{"latitude":"43.44482","longitude":"4.90097","bright_ti4":"305.15","scan":"0.72","track":"0.76","acq_date":"2026-06-07","acq_time":"256","satellite":"N21","instrument":"VIIRS","confidence":"n","version":"2.0NRT","bright_ti5":"285.88","frp":"2.13","daynight":"N","commune":"Fos-sur-Mer","code_insee":"13039","departement":"Bouches-du-Rhône","region":"Provence-Alpes-Côte d'Azur"}},{"type":"Feature","geometry":{"type":"Point","coordinates":[4.89192,43.44719]},"properties":{"latitude":"43.44719","longitude":"4.89192","bright_ti4":"296.75","scan":"0.72","track":"0.76","acq_date":"2026-06-07","acq_time":"256","satellite":"N21","instrument":"VIIRS","confidence":"n","version":"2.0NRT","bright_ti5":"285.41","frp":"2.39","daynight":"N","commune":"Fos-sur-Mer","code_insee":"13039","departement":"Bouches-du-Rhône","region":"Provence-Alpes-Côte d'Azur"}},{"type":"Feature","geometry":{"type":"Point","coordinates":[4.89291,43.44766]},"properties":{"latitude":"43.44766","longitude":"4.89291","bright_ti4":"300.7","scan":"0.72","track":"0.76","acq_date":"2026-06-07","acq_time":"256","satellite":"N21","instrument":"VIIRS","confidence":"n","version":"2.0NRT","bright_ti5":"285.66","frp":"2.13","daynight":"N","commune":"Fos-sur-Mer","code_insee":"13039","departement":"Bouches-du-Rhône","region":"Provence-Alpes-Côte d'Azur"}},{"type":"Feature","geometry":{"type":"Point","coordinates":[4.89494,43.43482]},"properties":{"latitude":"43.43482","longitude":"4.89494","bright_ti4":"335.45","scan":"0.39","track":"0.36","acq_date":"2026-06-07","acq_time":"1240","satellite":"N21","instrument":"VIIRS","confidence":"l","version":"2.0NRT","bright_ti5":"309.31","frp":"6.38","daynight":"D","commune":"Fos-sur-Mer","code_insee":"13039","departement":"Bouches-du-Rhône","region":"Provence-Alpes-Côte d'Azur"}},{"type":"Feature","geometry":{"type":"Point","coordinates":[4.89713,43.44544]},"properties":{"latitude":"43.44544","longitude":"4.89713","bright_ti4":"341.37","scan":"0.39","track":"0.36","acq_date":"2026-06-07","acq_time":"1240","satellite":"N21","instrument":"VIIRS","confidence":"n","version":"2.0NRT","bright_ti5":"306.13","frp":"8.23","daynight":"D","commune":"Fos-sur-Mer","code_insee":"13039","departement":"Bouches-du-Rhône","region":"Provence-Alpes-Côte d'Azur"}},{"type":"Feature","geometry":{"type":"Point","coordinates":[4.89626,43.44875]},"properties":{"latitude":"43.44875","longitude":"4.89626","bright_ti4":"338.04","scan":"0.39","track":"0.36","acq_date":"2026-06-07","acq_time":"1240","satellite":"N21","instrument":"VIIRS","confidence":"n","version":"2.0NRT","bright_ti5":"302.94","frp":"5.24","daynight":"D","commune":"Fos-sur-Mer","code_insee":"13039","departement":"Bouches-du-Rhône","region":"Provence-Alpes-Côte d'Azur"}},{"type":"Feature","geometry":{"type":"Point","coordinates":[2.9436,45.07892]},"properties":{"latitude":"45.07892","longitude":"2.9436","bright_ti4":"328.25","scan":"0.38","track":"0.36","acq_date":"2026-06-07","acq_time":"1240","satellite":"N21","instrument":"VIIRS","confidence":"n","version":"2.0NRT","bright_ti5":"301.13","frp":"1.51","daynight":"D","commune":"Ussel","code_insee":"15244","departement":"Cantal","region":"Auvergne-Rhône-Alpes"}},{"type":"Feature","geometry":{"type":"Point","coordinates":[6.72012,47.19015]},"properties":{"latitude":"47.19015","longitude":"6.72012","bright_ti4":"332.06","scan":"0.47","track":"0.4","acq_date":"2026-06-07","acq_time":"1240","satellite":"N21","instrument":"VIIRS","confidence":"n","version":"2.0NRT","bright_ti5":"290.35","frp":"4.97","daynight":"D","commune":"Bonnétage","code_insee":"25074","departement":"Doubs","region":"Bourgogne-Franche-Comté"}},{"type":"Feature","geometry":{"type":"Point","coordinates":[1.34682,48.08921]},"properties":{"latitude":"48.08921","longitude":"1.34682","bright_ti4":"326.23","scan":"0.38","track":"0.36","acq_date":"2026-06-07","acq_time":"1240","satellite":"N21","instrument":"VIIRS","confidence":"n","version":"2.0NRT","bright_ti5":"292.33","frp":"2.44","daynight":"D","commune":"Châteaudun","code_insee":"28088","departement":"Eure-et-Loir","region":"Centre-Val de Loire"}},{"type":"Feature","geometry":{"type":"Point","coordinates":[4.03185,48.31871]},"properties":{"latitude":"48.31871","longitude":"4.03185","bright_ti4":"338.69","scan":"0.41","track":"0.37","acq_date":"2026-06-07","acq_time":"1240","satellite":"N21","instrument":"VIIRS","confidence":"n","version":"2.0NRT","bright_ti5":"308.78","frp":"7.08","daynight":"D","commune":"La Chapelle-Saint-Luc","code_insee":"10081","departement":"Aube","region":"Grand Est"}},{"type":"Feature","geometry":{"type":"Point","coordinates":[4.03729,48.31941]},"properties":{"latitude":"48.31941","longitude":"4.03729","bright_ti4":"335.45","scan":"0.41","track":"0.37","acq_date":"2026-06-07","acq_time":"1240","satellite":"N21","instrument":"VIIRS","confidence":"n","version":"2.0NRT","bright_ti5":"304.39","frp":"4.6","daynight":"D","commune":"La Chapelle-Saint-Luc","code_insee":"10081","departement":"Aube","region":"Grand Est"}},{"type":"Feature","geometry":{"type":"Point","coordinates":[1.759,48.98191]},"properties":{"latitude":"48.98191","longitude":"1.759","bright_ti4":"330.95","scan":"0.39","track":"0.36","acq_date":"2026-06-07","acq_time":"1240","satellite":"N21","instrument":"VIIRS","confidence":"n","version":"2.0NRT","bright_ti5":"295.34","frp":"2.21","daynight":"D","commune":"Porcheville","code_insee":"78501","departement":"Yvelines","region":"Île-de-France"}}]}