{"type":"FeatureCollection","features":[{"type":"Feature","geometry":{"type":"Point","coordinates":[5.81906,45.91332]},"properties":{"latitude":"45.91332","longitude":"5.81906","bright_ti4":"300.75","scan":"0.34","track":"0.56","acq_date":"2026-06-15","acq_time":"58","satellite":"N","instrument":"VIIRS","confidence":"n","version":"2.0NRT","bright_ti5":"287.56","frp":"0.45","daynight":"N","commune":"Anglefort","code_insee":"01010","departement":"Ain","region":"Auvergne-Rhône-Alpes"}},{"type":"Feature","geometry":{"type":"Point","coordinates":[1.18686,47.27117]},"properties":{"latitude":"47.27117","longitude":"1.18686","bright_ti4":"305.23","scan":"0.57","track":"0.69","acq_date":"2026-06-15","acq_time":"58","satellite":"N","instrument":"VIIRS","confidence":"n","version":"2.0NRT","bright_ti5":"285.07","frp":"1.36","daynight":"N","commune":"Céré-la-Ronde","code_insee":"37046","departement":"Indre-et-Loire","region":"Centre-Val de Loire"}},{"type":"Feature","geometry":{"type":"Point","coordinates":[6.10856,48.61153]},"properties":{"latitude":"48.61153","longitude":"6.10856","bright_ti4":"303.43","scan":"0.34","track":"0.56","acq_date":"2026-06-15","acq_time":"58","satellite":"N","instrument":"VIIRS","confidence":"n","version":"2.0NRT","bright_ti5":"284.02","frp":"1.29","daynight":"N","commune":"Neuves-Maisons","code_insee":"54397","departement":"Meurthe-et-Moselle","region":"Grand Est"}},{"type":"Feature","geometry":{"type":"Point","coordinates":[5.68127,48.71691]},"properties":{"latitude":"48.71691","longitude":"5.68127","bright_ti4":"295.95","scan":"0.36","track":"0.57","acq_date":"2026-06-15","acq_time":"58","satellite":"N","instrument":"VIIRS","confidence":"n","version":"2.0NRT","bright_ti5":"278.6","frp":"0.35","daynight":"N","commune":"Sorcy-Saint-Martin","code_insee":"55496","departement":"Meuse","region":"Grand Est"}},{"type":"Feature","geometry":{"type":"Point","coordinates":[6.14621,49.32038]},"properties":{"latitude":"49.32038","longitude":"6.14621","bright_ti4":"299.06","scan":"0.35","track":"0.56","acq_date":"2026-06-15","acq_time":"58","satellite":"N","instrument":"VIIRS","confidence":"n","version":"2.0NRT","bright_ti5":"281.83","frp":"0.25","daynight":"N","commune":"Florange","code_insee":"57221","departement":"Moselle","region":"Grand Est"}},{"type":"Feature","geometry":{"type":"Point","coordinates":[2.26805,51.01297]},"properties":{"latitude":"51.01297","longitude":"2.26805","bright_ti4":"297.36","scan":"0.52","track":"0.67","acq_date":"2026-06-15","acq_time":"58","satellite":"N","instrument":"VIIRS","confidence":"n","version":"2.0NRT","bright_ti5":"279.87","frp":"0.48","daynight":"N","commune":"Dunkerque","code_insee":"59183","departement":"Nord","region":"Hauts-de-France"}},{"type":"Feature","geometry":{"type":"Point","coordinates":[2.25282,51.03191]},"properties":{"latitude":"51.03191","longitude":"2.25282","bright_ti4":"296.82","scan":"0.52","track":"0.67","acq_date":"2026-06-15","acq_time":"58","satellite":"N","instrument":"VIIRS","confidence":"n","version":"2.0NRT","bright_ti5":"279.89","frp":"1.17","daynight":"N","commune":"Dunkerque","code_insee":"59183","departement":"Nord","region":"Hauts-de-France"}},{"type":"Feature","geometry":{"type":"Point","coordinates":[2.29974,51.0443]},"properties":{"latitude":"51.0443","longitude":"2.29974","bright_ti4":"296.42","scan":"0.52","track":"0.67","acq_date":"2026-06-15","acq_time":"58","satellite":"N","instrument":"VIIRS","confidence":"n","version":"2.0NRT","bright_ti5":"280.46","frp":"1.6","daynight":"N","commune":"Grande-Synthe","code_insee":"59271","departement":"Nord","region":"Hauts-de-France"}},{"type":"Feature","geometry":{"type":"Point","coordinates":[2.29193,51.04433]},"properties":{"latitude":"51.04433","longitude":"2.29193","bright_ti4":"295.32","scan":"0.52","track":"0.67","acq_date":"2026-06-15","acq_time":"58","satellite":"N","instrument":"VIIRS","confidence":"n","version":"2.0NRT","bright_ti5":"278.99","frp":"1.01","daynight":"N","commune":"Grande-Synthe","code_insee":"59271","departement":"Nord","region":"Hauts-de-France"}},{"type":"Feature","geometry":{"type":"Point","coordinates":[4.89354,43.4343]},"properties":{"latitude":"43.4343","longitude":"4.89354","bright_ti4":"299.96","scan":"0.36","track":"0.57","acq_date":"2026-06-15","acq_time":"100","satellite":"N","instrument":"VIIRS","confidence":"n","version":"2.0NRT","bright_ti5":"289.87","frp":"1.11","daynight":"N","commune":"Fos-sur-Mer","code_insee":"13039","departement":"Bouches-du-Rhône","region":"Provence-Alpes-Côte d'Azur"}},{"type":"Feature","geometry":{"type":"Point","coordinates":[4.8895,43.43987]},"properties":{"latitude":"43.43987","longitude":"4.8895","bright_ti4":"316.27","scan":"0.36","track":"0.57","acq_date":"2026-06-15","acq_time":"100","satellite":"N","instrument":"VIIRS","confidence":"n","version":"2.0NRT","bright_ti5":"291.18","frp":"2.02","daynight":"N","commune":"Fos-sur-Mer","code_insee":"13039","departement":"Bouches-du-Rhône","region":"Provence-Alpes-Côte d'Azur"}},{"type":"Feature","geometry":{"type":"Point","coordinates":[4.89916,43.44477]},"properties":{"latitude":"43.44477","longitude":"4.89916","bright_ti4":"309.75","scan":"0.36","track":"0.57","acq_date":"2026-06-15","acq_time":"100","satellite":"N","instrument":"VIIRS","confidence":"n","version":"2.0NRT","bright_ti5":"290.13","frp":"1.12","daynight":"N","commune":"Fos-sur-Mer","code_insee":"13039","departement":"Bouches-du-Rhône","region":"Provence-Alpes-Côte d'Azur"}},{"type":"Feature","geometry":{"type":"Point","coordinates":[4.8946,43.445]},"properties":{"latitude":"43.445","longitude":"4.8946","bright_ti4":"313.23","scan":"0.36","track":"0.57","acq_date":"2026-06-15","acq_time":"100","satellite":"N","instrument":"VIIRS","confidence":"n","version":"2.0NRT","bright_ti5":"290.46","frp":"1.12","daynight":"N","commune":"Fos-sur-Mer","code_insee":"13039","departement":"Bouches-du-Rhône","region":"Provence-Alpes-Côte d'Azur"}},{"type":"Feature","geometry":{"type":"Point","coordinates":[4.8951,43.45035]},"properties":{"latitude":"43.45035","longitude":"4.8951","bright_ti4":"323.65","scan":"0.36","track":"0.57","acq_date":"2026-06-15","acq_time":"100","satellite":"N","instrument":"VIIRS","confidence":"n","version":"2.0NRT","bright_ti5":"290.95","frp":"1.12","daynight":"N","commune":"Fos-sur-Mer","code_insee":"13039","departement":"Bouches-du-Rhône","region":"Provence-Alpes-Côte d'Azur"}},{"type":"Feature","geometry":{"type":"Point","coordinates":[1.18639,47.27085]},"properties":{"latitude":"47.27085","longitude":"1.18639","bright_ti4":"330.86","scan":"0.4","track":"0.44","acq_date":"2026-06-15","acq_time":"238","satellite":"N","instrument":"VIIRS","confidence":"n","version":"2.0NRT","bright_ti5":"286.65","frp":"2.99","daynight":"N","commune":"Céré-la-Ronde","code_insee":"37046","departement":"Indre-et-Loire","region":"Centre-Val de Loire"}},{"type":"Feature","geometry":{"type":"Point","coordinates":[-0.70168,47.74466]},"properties":{"latitude":"47.74466","longitude":"-0.70168","bright_ti4":"328.31","scan":"0.5","track":"0.41","acq_date":"2026-06-15","acq_time":"238","satellite":"N","instrument":"VIIRS","confidence":"n","version":"2.0NRT","bright_ti5":"285.72","frp":"3.18","daynight":"N","commune":"Ménil","code_insee":"53150","departement":"Mayenne","region":"Pays de la Loire"}},{"type":"Feature","geometry":{"type":"Point","coordinates":[-0.69997,47.74828]},"properties":{"latitude":"47.74828","longitude":"-0.69997","bright_ti4":"309.7","scan":"0.5","track":"0.41","acq_date":"2026-06-15","acq_time":"238","satellite":"N","instrument":"VIIRS","confidence":"n","version":"2.0NRT","bright_ti5":"285.42","frp":"1.08","daynight":"N","commune":"Ménil","code_insee":"53150","departement":"Mayenne","region":"Pays de la Loire"}},{"type":"Feature","geometry":{"type":"Point","coordinates":[7.40658,47.75995]},"properties":{"latitude":"47.75995","longitude":"7.40658","bright_ti4":"301.92","scan":"0.36","track":"0.57","acq_date":"2026-06-15","acq_time":"238","satellite":"N","instrument":"VIIRS","confidence":"n","version":"2.0NRT","bright_ti5":"281.71","frp":"0.66","daynight":"N","commune":"Rixheim","code_insee":"68278","departement":"Haut-Rhin","region":"Grand Est"}},{"type":"Feature","geometry":{"type":"Point","coordinates":[2.9817,48.3876]},"properties":{"latitude":"48.3876","longitude":"2.9817","bright_ti4":"300.22","scan":"0.45","track":"0.47","acq_date":"2026-06-15","acq_time":"238","satellite":"N","instrument":"VIIRS","confidence":"n","version":"2.0NRT","bright_ti5":"285.4","frp":"0.85","daynight":"N","commune":"Montereau-Fault-Yonne","code_insee":"77305","departement":"Seine-et-Marne","region":"Île-de-France"}},{"type":"Feature","geometry":{"type":"Point","coordinates":[6.96563,48.69241]},"properties":{"latitude":"48.69241","longitude":"6.96563","bright_ti4":"298.57","scan":"0.32","track":"0.55","acq_date":"2026-06-15","acq_time":"238","satellite":"N","instrument":"VIIRS","confidence":"n","version":"2.0NRT","bright_ti5":"281.34","frp":"0.49","daynight":"N","commune":"Héming","code_insee":"57314","departement":"Moselle","region":"Grand Est"}},{"type":"Feature","geometry":{"type":"Point","coordinates":[4.56141,48.76953]},"properties":{"latitude":"48.76953","longitude":"4.56141","bright_ti4":"300.04","scan":"0.51","track":"0.49","acq_date":"2026-06-15","acq_time":"238","satellite":"N","instrument":"VIIRS","confidence":"n","version":"2.0NRT","bright_ti5":"282.84","frp":"1.11","daynight":"N","commune":"Couvrot","code_insee":"51195","departement":"Marne","region":"Grand Est"}},{"type":"Feature","geometry":{"type":"Point","coordinates":[0.53408,49.47837]},"properties":{"latitude":"49.47837","longitude":"0.53408","bright_ti4":"303.28","scan":"0.51","track":"0.41","acq_date":"2026-06-15","acq_time":"238","satellite":"N","instrument":"VIIRS","confidence":"n","version":"2.0NRT","bright_ti5":"283.1","frp":"1.54","daynight":"N","commune":"Port-Jérôme-sur-Seine","code_insee":"76476","departement":"Seine-Maritime","region":"Normandie"}},{"type":"Feature","geometry":{"type":"Point","coordinates":[3.48973,50.3315]},"properties":{"latitude":"50.3315","longitude":"3.48973","bright_ti4":"295.45","scan":"0.42","track":"0.45","acq_date":"2026-06-15","acq_time":"238","satellite":"N","instrument":"VIIRS","confidence":"n","version":"2.0NRT","bright_ti5":"281.54","frp":"0.9","daynight":"N","commune":"Trith-Saint-Léger","code_insee":"59603","departement":"Nord","region":"Hauts-de-France"}},{"type":"Feature","geometry":{"type":"Point","coordinates":[3.49443,50.33937]},"properties":{"latitude":"50.33937","longitude":"3.49443","bright_ti4":"297.55","scan":"0.42","track":"0.45","acq_date":"2026-06-15","acq_time":"238","satellite":"N","instrument":"VIIRS","confidence":"n","version":"2.0NRT","bright_ti5":"282.18","frp":"0.95","daynight":"N","commune":"Valenciennes","code_insee":"59606","departement":"Nord","region":"Hauts-de-France"}},{"type":"Feature","geometry":{"type":"Point","coordinates":[2.32008,51.04676]},"properties":{"latitude":"51.04676","longitude":"2.32008","bright_ti4":"311.8","scan":"0.54","track":"0.42","acq_date":"2026-06-15","acq_time":"238","satellite":"N","instrument":"VIIRS","confidence":"n","version":"2.0NRT","bright_ti5":"279.42","frp":"1.99","daynight":"N","commune":"Dunkerque","code_insee":"59183","departement":"Nord","region":"Hauts-de-France"}},{"type":"Feature","geometry":{"type":"Point","coordinates":[2.29565,51.04811]},"properties":{"latitude":"51.04811","longitude":"2.29565","bright_ti4":"296.74","scan":"0.54","track":"0.42","acq_date":"2026-06-15","acq_time":"238","satellite":"N","instrument":"VIIRS","confidence":"n","version":"2.0NRT","bright_ti5":"276.55","frp":"1.88","daynight":"N","commune":"Grande-Synthe","code_insee":"59271","departement":"Nord","region":"Hauts-de-France"}},{"type":"Feature","geometry":{"type":"Point","coordinates":[4.89273,43.43438]},"properties":{"latitude":"43.43438","longitude":"4.89273","bright_ti4":"310.02","scan":"0.37","track":"0.58","acq_date":"2026-06-15","acq_time":"241","satellite":"N","instrument":"VIIRS","confidence":"n","version":"2.0NRT","bright_ti5":"289.44","frp":"2.1","daynight":"N","commune":"Fos-sur-Mer","code_insee":"13039","departement":"Bouches-du-Rhône","region":"Provence-Alpes-Côte d'Azur"}},{"type":"Feature","geometry":{"type":"Point","coordinates":[4.89109,43.44069]},"properties":{"latitude":"43.44069","longitude":"4.89109","bright_ti4":"312.83","scan":"0.37","track":"0.58","acq_date":"2026-06-15","acq_time":"241","satellite":"N","instrument":"VIIRS","confidence":"n","version":"2.0NRT","bright_ti5":"290.82","frp":"1.57","daynight":"N","commune":"Fos-sur-Mer","code_insee":"13039","departement":"Bouches-du-Rhône","region":"Provence-Alpes-Côte d'Azur"}},{"type":"Feature","geometry":{"type":"Point","coordinates":[4.89818,43.44451]},"properties":{"latitude":"43.44451","longitude":"4.89818","bright_ti4":"321.23","scan":"0.37","track":"0.58","acq_date":"2026-06-15","acq_time":"241","satellite":"N","instrument":"VIIRS","confidence":"n","version":"2.0NRT","bright_ti5":"290.05","frp":"1.57","daynight":"N","commune":"Fos-sur-Mer","code_insee":"13039","departement":"Bouches-du-Rhône","region":"Provence-Alpes-Côte d'Azur"}},{"type":"Feature","geometry":{"type":"Point","coordinates":[4.89381,43.44576]},"properties":{"latitude":"43.44576","longitude":"4.89381","bright_ti4":"322.78","scan":"0.37","track":"0.58","acq_date":"2026-06-15","acq_time":"241","satellite":"N","instrument":"VIIRS","confidence":"n","version":"2.0NRT","bright_ti5":"290.69","frp":"1.57","daynight":"N","commune":"Fos-sur-Mer","code_insee":"13039","departement":"Bouches-du-Rhône","region":"Provence-Alpes-Côte d'Azur"}},{"type":"Feature","geometry":{"type":"Point","coordinates":[4.89657,43.45081]},"properties":{"latitude":"43.45081","longitude":"4.89657","bright_ti4":"313.88","scan":"0.37","track":"0.58","acq_date":"2026-06-15","acq_time":"241","satellite":"N","instrument":"VIIRS","confidence":"n","version":"2.0NRT","bright_ti5":"290.04","frp":"0.66","daynight":"N","commune":"Fos-sur-Mer","code_insee":"13039","departement":"Bouches-du-Rhône","region":"Provence-Alpes-Côte d'Azur"}},{"type":"Feature","geometry":{"type":"Point","coordinates":[4.69217,44.08913]},"properties":{"latitude":"44.08913","longitude":"4.69217","bright_ti4":"305.77","scan":"0.35","track":"0.56","acq_date":"2026-06-15","acq_time":"241","satellite":"N","instrument":"VIIRS","confidence":"n","version":"2.0NRT","bright_ti5":"292.38","frp":"0.67","daynight":"N","commune":"Laudun-l'Ardoise","code_insee":"30141","departement":"Gard","region":"Occitanie"}},{"type":"Feature","geometry":{"type":"Point","coordinates":[0.22781,44.98808]},"properties":{"latitude":"44.98808","longitude":"0.22781","bright_ti4":"319.37","scan":"0.41","track":"0.45","acq_date":"2026-06-15","acq_time":"241","satellite":"N","instrument":"VIIRS","confidence":"n","version":"2.0NRT","bright_ti5":"286.68","frp":"2.27","daynight":"N","commune":"Saint-Martial-d'Artenset","code_insee":"24449","departement":"Dordogne","region":"Nouvelle-Aquitaine"}},{"type":"Feature","geometry":{"type":"Point","coordinates":[0.22278,44.98925]},"properties":{"latitude":"44.98925","longitude":"0.22278","bright_ti4":"317.3","scan":"0.41","track":"0.45","acq_date":"2026-06-15","acq_time":"241","satellite":"N","instrument":"VIIRS","confidence":"n","version":"2.0NRT","bright_ti5":"286.96","frp":"2.27","daynight":"N","commune":"Saint-Martial-d'Artenset","code_insee":"24449","departement":"Dordogne","region":"Nouvelle-Aquitaine"}},{"type":"Feature","geometry":{"type":"Point","coordinates":[-0.12997,45.38016]},"properties":{"latitude":"45.38016","longitude":"-0.12997","bright_ti4":"301.38","scan":"0.39","track":"0.44","acq_date":"2026-06-15","acq_time":"241","satellite":"N","instrument":"VIIRS","confidence":"n","version":"2.0NRT","bright_ti5":"287.32","frp":"0.28","daynight":"N","commune":"Condéon","code_insee":"16105","departement":"Charente","region":"Nouvelle-Aquitaine"}},{"type":"Feature","geometry":{"type":"Point","coordinates":[5.82019,45.91134]},"properties":{"latitude":"45.91134","longitude":"5.82019","bright_ti4":"297.79","scan":"0.35","track":"0.56","acq_date":"2026-06-15","acq_time":"241","satellite":"N","instrument":"VIIRS","confidence":"n","version":"2.0NRT","bright_ti5":"287.67","frp":"0.36","daynight":"N","commune":"Anglefort","code_insee":"01010","departement":"Ain","region":"Auvergne-Rhône-Alpes"}},{"type":"Feature","geometry":{"type":"Point","coordinates":[4.90013,43.44614]},"properties":{"latitude":"43.44614","longitude":"4.90013","bright_ti4":"338.58","scan":"0.46","track":"0.39","acq_date":"2026-06-15","acq_time":"1223","satellite":"N","instrument":"VIIRS","confidence":"l","version":"2.0NRT","bright_ti5":"309.82","frp":"13.96","daynight":"D","commune":"Fos-sur-Mer","code_insee":"13039","departement":"Bouches-du-Rhône","region":"Provence-Alpes-Côte d'Azur"}},{"type":"Feature","geometry":{"type":"Point","coordinates":[4.77776,43.97864]},"properties":{"latitude":"43.97864","longitude":"4.77776","bright_ti4":"346.26","scan":"0.46","track":"0.39","acq_date":"2026-06-15","acq_time":"1223","satellite":"N","instrument":"VIIRS","confidence":"n","version":"2.0NRT","bright_ti5":"310.62","frp":"9.01","daynight":"D","commune":"Villeneuve-lès-Avignon","code_insee":"30351","departement":"Gard","region":"Occitanie"}},{"type":"Feature","geometry":{"type":"Point","coordinates":[-0.47952,45.18806]},"properties":{"latitude":"45.18806","longitude":"-0.47952","bright_ti4":"340.72","scan":"0.47","track":"0.48","acq_date":"2026-06-15","acq_time":"1223","satellite":"N","instrument":"VIIRS","confidence":"n","version":"2.0NRT","bright_ti5":"305.41","frp":"3.96","daynight":"D","commune":"Saugon","code_insee":"33502","departement":"Gironde","region":"Nouvelle-Aquitaine"}},{"type":"Feature","geometry":{"type":"Point","coordinates":[-0.48159,45.19225]},"properties":{"latitude":"45.19225","longitude":"-0.48159","bright_ti4":"343.85","scan":"0.47","track":"0.48","acq_date":"2026-06-15","acq_time":"1223","satellite":"N","instrument":"VIIRS","confidence":"n","version":"2.0NRT","bright_ti5":"305.72","frp":"3.96","daynight":"D","commune":"Saugon","code_insee":"33502","departement":"Gironde","region":"Nouvelle-Aquitaine"}},{"type":"Feature","geometry":{"type":"Point","coordinates":[0.40307,45.7074]},"properties":{"latitude":"45.7074","longitude":"0.40307","bright_ti4":"355.07","scan":"0.42","track":"0.45","acq_date":"2026-06-15","acq_time":"1223","satellite":"N","instrument":"VIIRS","confidence":"n","version":"2.0NRT","bright_ti5":"313.56","frp":"8.63","daynight":"D","commune":"Moulins-sur-Tardoire","code_insee":"16406","departement":"Charente","region":"Nouvelle-Aquitaine"}},{"type":"Feature","geometry":{"type":"Point","coordinates":[-0.22472,46.1984]},"properties":{"latitude":"46.1984","longitude":"-0.22472","bright_ti4":"354.82","scan":"0.43","track":"0.46","acq_date":"2026-06-15","acq_time":"1223","satellite":"N","instrument":"VIIRS","confidence":"n","version":"2.0NRT","bright_ti5":"309.1","frp":"6.62","daynight":"D","commune":"Périgné","code_insee":"79204","departement":"Deux-Sèvres","region":"Nouvelle-Aquitaine"}},{"type":"Feature","geometry":{"type":"Point","coordinates":[1.86719,46.50297]},"properties":{"latitude":"46.50297","longitude":"1.86719","bright_ti4":"332.77","scan":"0.52","track":"0.42","acq_date":"2026-06-15","acq_time":"1223","satellite":"N","instrument":"VIIRS","confidence":"l","version":"2.0NRT","bright_ti5":"303.82","frp":"2.64","daynight":"D","commune":"Crozon-sur-Vauvre","code_insee":"36061","departement":"Indre","region":"Centre-Val de Loire"}},{"type":"Feature","geometry":{"type":"Point","coordinates":[1.86552,46.50668]},"properties":{"latitude":"46.50668","longitude":"1.86552","bright_ti4":"330.97","scan":"0.52","track":"0.42","acq_date":"2026-06-15","acq_time":"1223","satellite":"N","instrument":"VIIRS","confidence":"l","version":"2.0NRT","bright_ti5":"303.89","frp":"16.23","daynight":"D","commune":"Saint-Denis-de-Jouhet","code_insee":"36189","departement":"Indre","region":"Centre-Val de Loire"}},{"type":"Feature","geometry":{"type":"Point","coordinates":[1.8721,46.50808]},"properties":{"latitude":"46.50808","longitude":"1.8721","bright_ti4":"339.68","scan":"0.52","track":"0.42","acq_date":"2026-06-15","acq_time":"1223","satellite":"N","instrument":"VIIRS","confidence":"n","version":"2.0NRT","bright_ti5":"309","frp":"16.23","daynight":"D","commune":"Saint-Denis-de-Jouhet","code_insee":"36189","departement":"Indre","region":"Centre-Val de Loire"}},{"type":"Feature","geometry":{"type":"Point","coordinates":[7.28638,47.85246]},"properties":{"latitude":"47.85246","longitude":"7.28638","bright_ti4":"340.93","scan":"0.38","track":"0.36","acq_date":"2026-06-15","acq_time":"1223","satellite":"N","instrument":"VIIRS","confidence":"n","version":"2.0NRT","bright_ti5":"303.18","frp":"3.27","daynight":"D","commune":"Ungersheim","code_insee":"68343","departement":"Haut-Rhin","region":"Grand Est"}},{"type":"Feature","geometry":{"type":"Point","coordinates":[-1.77779,46.58581]},"properties":{"latitude":"46.58581","longitude":"-1.77779","bright_ti4":"342.01","scan":"0.49","track":"0.49","acq_date":"2026-06-15","acq_time":"1225","satellite":"N","instrument":"VIIRS","confidence":"n","version":"2.0NRT","bright_ti5":"306.55","frp":"8.45","daynight":"D","commune":"L'Île-d'Olonne","code_insee":"85112","departement":"Vendée","region":"Pays de la Loire"}},{"type":"Feature","geometry":{"type":"Point","coordinates":[-1.16374,46.76429]},"properties":{"latitude":"46.76429","longitude":"-1.16374","bright_ti4":"343.71","scan":"0.46","track":"0.47","acq_date":"2026-06-15","acq_time":"1225","satellite":"N","instrument":"VIIRS","confidence":"n","version":"2.0NRT","bright_ti5":"308.52","frp":"5.51","daynight":"D","commune":"Sainte-Florence","code_insee":"85212","departement":"Vendée","region":"Pays de la Loire"}},{"type":"Feature","geometry":{"type":"Point","coordinates":[-0.63468,47.14173]},"properties":{"latitude":"47.14173","longitude":"-0.63468","bright_ti4":"348.02","scan":"0.43","track":"0.46","acq_date":"2026-06-15","acq_time":"1225","satellite":"N","instrument":"VIIRS","confidence":"n","version":"2.0NRT","bright_ti5":"307.18","frp":"6.73","daynight":"D","commune":"Coron","code_insee":"49109","departement":"Maine-et-Loire","region":"Pays de la Loire"}},{"type":"Feature","geometry":{"type":"Point","coordinates":[6.11186,48.61049]},"properties":{"latitude":"48.61049","longitude":"6.11186","bright_ti4":"343.49","scan":"0.39","track":"0.36","acq_date":"2026-06-15","acq_time":"1225","satellite":"N","instrument":"VIIRS","confidence":"n","version":"2.0NRT","bright_ti5":"306.12","frp":"12.25","daynight":"D","commune":"Neuves-Maisons","code_insee":"54397","departement":"Meurthe-et-Moselle","region":"Grand Est"}},{"type":"Feature","geometry":{"type":"Point","coordinates":[-1.1055,46.75525]},"properties":{"latitude":"46.75525","longitude":"-1.1055","bright_ti4":"332.13","scan":"0.51","track":"0.66","acq_date":"2026-06-15","acq_time":"1405","satellite":"N","instrument":"VIIRS","confidence":"n","version":"2.0NRT","bright_ti5":"302.03","frp":"1.93","daynight":"D","commune":"L'Oie","code_insee":"85165","departement":"Vendée","region":"Pays de la Loire"}},{"type":"Feature","geometry":{"type":"Point","coordinates":[7.23407,47.63124]},"properties":{"latitude":"47.63124","longitude":"7.23407","bright_ti4":"296.32","scan":"0.49","track":"0.4","acq_date":"2026-06-15","acq_time":"115","satellite":"N20","instrument":"VIIRS","confidence":"n","version":"2.0NRT","bright_ti5":"282.92","frp":"0.59","daynight":"N","commune":"Altkirch","code_insee":"68004","departement":"Haut-Rhin","region":"Grand Est"}},{"type":"Feature","geometry":{"type":"Point","coordinates":[0.09836,48.50497]},"properties":{"latitude":"48.50497","longitude":"0.09836","bright_ti4":"300.11","scan":"0.34","track":"0.56","acq_date":"2026-06-15","acq_time":"115","satellite":"N20","instrument":"VIIRS","confidence":"n","version":"2.0NRT","bright_ti5":"283.94","frp":"0.49","daynight":"N","commune":"Écouves","code_insee":"61341","departement":"Orne","region":"Normandie"}},{"type":"Feature","geometry":{"type":"Point","coordinates":[6.11776,48.61036]},"properties":{"latitude":"48.61036","longitude":"6.11776","bright_ti4":"298.07","scan":"0.55","track":"0.43","acq_date":"2026-06-15","acq_time":"115","satellite":"N20","instrument":"VIIRS","confidence":"n","version":"2.0NRT","bright_ti5":"283.94","frp":"1.81","daynight":"N","commune":"Neuves-Maisons","code_insee":"54397","departement":"Meurthe-et-Moselle","region":"Grand Est"}},{"type":"Feature","geometry":{"type":"Point","coordinates":[6.11022,48.61109]},"properties":{"latitude":"48.61109","longitude":"6.11022","bright_ti4":"324.45","scan":"0.55","track":"0.43","acq_date":"2026-06-15","acq_time":"115","satellite":"N20","instrument":"VIIRS","confidence":"n","version":"2.0NRT","bright_ti5":"283.79","frp":"3.35","daynight":"N","commune":"Neuves-Maisons","code_insee":"54397","departement":"Meurthe-et-Moselle","region":"Grand Est"}},{"type":"Feature","geometry":{"type":"Point","coordinates":[5.68189,48.71795]},"properties":{"latitude":"48.71795","longitude":"5.68189","bright_ti4":"300.22","scan":"0.38","track":"0.43","acq_date":"2026-06-15","acq_time":"115","satellite":"N20","instrument":"VIIRS","confidence":"n","version":"2.0NRT","bright_ti5":"280.73","frp":"0.75","daynight":"N","commune":"Sorcy-Saint-Martin","code_insee":"55496","departement":"Meuse","region":"Grand Est"}},{"type":"Feature","geometry":{"type":"Point","coordinates":[1.75901,48.98452]},"properties":{"latitude":"48.98452","longitude":"1.75901","bright_ti4":"304.47","scan":"0.57","track":"0.52","acq_date":"2026-06-15","acq_time":"115","satellite":"N20","instrument":"VIIRS","confidence":"n","version":"2.0NRT","bright_ti5":"284.84","frp":"1.18","daynight":"N","commune":"Porcheville","code_insee":"78501","departement":"Yvelines","region":"Île-de-France"}},{"type":"Feature","geometry":{"type":"Point","coordinates":[1.76132,48.98558]},"properties":{"latitude":"48.98558","longitude":"1.76132","bright_ti4":"303.2","scan":"0.57","track":"0.52","acq_date":"2026-06-15","acq_time":"115","satellite":"N20","instrument":"VIIRS","confidence":"n","version":"2.0NRT","bright_ti5":"285.11","frp":"1.16","daynight":"N","commune":"Porcheville","code_insee":"78501","departement":"Yvelines","region":"Île-de-France"}},{"type":"Feature","geometry":{"type":"Point","coordinates":[6.10381,49.32548]},"properties":{"latitude":"49.32548","longitude":"6.10381","bright_ti4":"301.46","scan":"0.56","track":"0.43","acq_date":"2026-06-15","acq_time":"115","satellite":"N20","instrument":"VIIRS","confidence":"n","version":"2.0NRT","bright_ti5":"282.45","frp":"0.74","daynight":"N","commune":"Serémange-Erzange","code_insee":"57647","departement":"Moselle","region":"Grand Est"}},{"type":"Feature","geometry":{"type":"Point","coordinates":[0.53339,49.47511]},"properties":{"latitude":"49.47511","longitude":"0.53339","bright_ti4":"297.54","scan":"0.33","track":"0.55","acq_date":"2026-06-15","acq_time":"115","satellite":"N20","instrument":"VIIRS","confidence":"n","version":"2.0NRT","bright_ti5":"277.83","frp":"1.01","daynight":"N","commune":"Lillebonne","code_insee":"76384","departement":"Seine-Maritime","region":"Normandie"}},{"type":"Feature","geometry":{"type":"Point","coordinates":[0.53715,49.47791]},"properties":{"latitude":"49.47791","longitude":"0.53715","bright_ti4":"295.08","scan":"0.33","track":"0.55","acq_date":"2026-06-15","acq_time":"115","satellite":"N20","instrument":"VIIRS","confidence":"n","version":"2.0NRT","bright_ti5":"282.67","frp":"1.89","daynight":"N","commune":"Port-Jérôme-sur-Seine","code_insee":"76476","departement":"Seine-Maritime","region":"Normandie"}},{"type":"Feature","geometry":{"type":"Point","coordinates":[0.53254,49.47813]},"properties":{"latitude":"49.47813","longitude":"0.53254","bright_ti4":"296.87","scan":"0.33","track":"0.55","acq_date":"2026-06-15","acq_time":"115","satellite":"N20","instrument":"VIIRS","confidence":"n","version":"2.0NRT","bright_ti5":"276.07","frp":"0.93","daynight":"N","commune":"Lillebonne","code_insee":"76384","departement":"Seine-Maritime","region":"Normandie"}},{"type":"Feature","geometry":{"type":"Point","coordinates":[0.53396,49.48023]},"properties":{"latitude":"49.48023","longitude":"0.53396","bright_ti4":"299.45","scan":"0.33","track":"0.55","acq_date":"2026-06-15","acq_time":"115","satellite":"N20","instrument":"VIIRS","confidence":"n","version":"2.0NRT","bright_ti5":"277.26","frp":"1.14","daynight":"N","commune":"Port-Jérôme-sur-Seine","code_insee":"76476","departement":"Seine-Maritime","region":"Normandie"}},{"type":"Feature","geometry":{"type":"Point","coordinates":[3.49545,50.33796]},"properties":{"latitude":"50.33796","longitude":"3.49545","bright_ti4":"295.05","scan":"0.49","track":"0.49","acq_date":"2026-06-15","acq_time":"115","satellite":"N20","instrument":"VIIRS","confidence":"n","version":"2.0NRT","bright_ti5":"281.7","frp":"0.89","daynight":"N","commune":"Trith-Saint-Léger","code_insee":"59603","departement":"Nord","region":"Hauts-de-France"}},{"type":"Feature","geometry":{"type":"Point","coordinates":[3.48848,50.33844]},"properties":{"latitude":"50.33844","longitude":"3.48848","bright_ti4":"298.28","scan":"0.49","track":"0.49","acq_date":"2026-06-15","acq_time":"115","satellite":"N20","instrument":"VIIRS","confidence":"n","version":"2.0NRT","bright_ti5":"280.93","frp":"0.89","daynight":"N","commune":"Trith-Saint-Léger","code_insee":"59603","departement":"Nord","region":"Hauts-de-France"}},{"type":"Feature","geometry":{"type":"Point","coordinates":[2.27006,51.01115]},"properties":{"latitude":"51.01115","longitude":"2.27006","bright_ti4":"295.24","scan":"0.57","track":"0.52","acq_date":"2026-06-15","acq_time":"115","satellite":"N20","instrument":"VIIRS","confidence":"n","version":"2.0NRT","bright_ti5":"280.83","frp":"0.5","daynight":"N","commune":"Dunkerque","code_insee":"59183","departement":"Nord","region":"Hauts-de-France"}},{"type":"Feature","geometry":{"type":"Point","coordinates":[2.28998,51.0342]},"properties":{"latitude":"51.0342","longitude":"2.28998","bright_ti4":"302.9","scan":"0.57","track":"0.52","acq_date":"2026-06-15","acq_time":"115","satellite":"N20","instrument":"VIIRS","confidence":"n","version":"2.0NRT","bright_ti5":"283.24","frp":"1.01","daynight":"N","commune":"Grande-Synthe","code_insee":"59271","departement":"Nord","region":"Hauts-de-France"}},{"type":"Feature","geometry":{"type":"Point","coordinates":[2.25713,51.03602]},"properties":{"latitude":"51.03602","longitude":"2.25713","bright_ti4":"303.31","scan":"0.57","track":"0.52","acq_date":"2026-06-15","acq_time":"115","satellite":"N20","instrument":"VIIRS","confidence":"n","version":"2.0NRT","bright_ti5":"283.04","frp":"1.75","daynight":"N","commune":"Dunkerque","code_insee":"59183","departement":"Nord","region":"Hauts-de-France"}},{"type":"Feature","geometry":{"type":"Point","coordinates":[2.29134,51.04378]},"properties":{"latitude":"51.04378","longitude":"2.29134","bright_ti4":"303.18","scan":"0.57","track":"0.52","acq_date":"2026-06-15","acq_time":"115","satellite":"N20","instrument":"VIIRS","confidence":"n","version":"2.0NRT","bright_ti5":"282.56","frp":"3.06","daynight":"N","commune":"Grande-Synthe","code_insee":"59271","departement":"Nord","region":"Hauts-de-France"}},{"type":"Feature","geometry":{"type":"Point","coordinates":[2.30022,51.0481]},"properties":{"latitude":"51.0481","longitude":"2.30022","bright_ti4":"323.07","scan":"0.57","track":"0.52","acq_date":"2026-06-15","acq_time":"115","satellite":"N20","instrument":"VIIRS","confidence":"n","version":"2.0NRT","bright_ti5":"281.36","frp":"3.06","daynight":"N","commune":"Grande-Synthe","code_insee":"59271","departement":"Nord","region":"Hauts-de-France"}},{"type":"Feature","geometry":{"type":"Point","coordinates":[4.89843,43.43277]},"properties":{"latitude":"43.43277","longitude":"4.89843","bright_ti4":"305.18","scan":"0.54","track":"0.42","acq_date":"2026-06-15","acq_time":"117","satellite":"N20","instrument":"VIIRS","confidence":"n","version":"2.0NRT","bright_ti5":"291.09","frp":"1.25","daynight":"N","commune":"Fos-sur-Mer","code_insee":"13039","departement":"Bouches-du-Rhône","region":"Provence-Alpes-Côte d'Azur"}},{"type":"Feature","geometry":{"type":"Point","coordinates":[4.89251,43.43733]},"properties":{"latitude":"43.43733","longitude":"4.89251","bright_ti4":"305.81","scan":"0.54","track":"0.42","acq_date":"2026-06-15","acq_time":"117","satellite":"N20","instrument":"VIIRS","confidence":"n","version":"2.0NRT","bright_ti5":"291.34","frp":"1.25","daynight":"N","commune":"Fos-sur-Mer","code_insee":"13039","departement":"Bouches-du-Rhône","region":"Provence-Alpes-Côte d'Azur"}},{"type":"Feature","geometry":{"type":"Point","coordinates":[4.89327,43.44121]},"properties":{"latitude":"43.44121","longitude":"4.89327","bright_ti4":"310.75","scan":"0.54","track":"0.42","acq_date":"2026-06-15","acq_time":"117","satellite":"N20","instrument":"VIIRS","confidence":"n","version":"2.0NRT","bright_ti5":"291.82","frp":"2.53","daynight":"N","commune":"Fos-sur-Mer","code_insee":"13039","departement":"Bouches-du-Rhône","region":"Provence-Alpes-Côte d'Azur"}},{"type":"Feature","geometry":{"type":"Point","coordinates":[4.90075,43.44441]},"properties":{"latitude":"43.44441","longitude":"4.90075","bright_ti4":"323.06","scan":"0.54","track":"0.42","acq_date":"2026-06-15","acq_time":"117","satellite":"N20","instrument":"VIIRS","confidence":"n","version":"2.0NRT","bright_ti5":"291.43","frp":"2.53","daynight":"N","commune":"Fos-sur-Mer","code_insee":"13039","departement":"Bouches-du-Rhône","region":"Provence-Alpes-Côte d'Azur"}},{"type":"Feature","geometry":{"type":"Point","coordinates":[4.89481,43.44898]},"properties":{"latitude":"43.44898","longitude":"4.89481","bright_ti4":"325.01","scan":"0.54","track":"0.42","acq_date":"2026-06-15","acq_time":"117","satellite":"N20","instrument":"VIIRS","confidence":"n","version":"2.0NRT","bright_ti5":"291.26","frp":"3.04","daynight":"N","commune":"Fos-sur-Mer","code_insee":"13039","departement":"Bouches-du-Rhône","region":"Provence-Alpes-Côte d'Azur"}},{"type":"Feature","geometry":{"type":"Point","coordinates":[1.23144,43.98805]},"properties":{"latitude":"43.98805","longitude":"1.23144","bright_ti4":"298.81","scan":"0.54","track":"0.51","acq_date":"2026-06-15","acq_time":"117","satellite":"N20","instrument":"VIIRS","confidence":"n","version":"2.0NRT","bright_ti5":"288.06","frp":"0.67","daynight":"N","commune":"Montech","code_insee":"82125","departement":"Tarn-et-Garonne","region":"Occitanie"}},{"type":"Feature","geometry":{"type":"Point","coordinates":[4.66111,45.86551]},"properties":{"latitude":"45.86551","longitude":"4.66111","bright_ti4":"296.38","scan":"0.39","track":"0.44","acq_date":"2026-06-15","acq_time":"117","satellite":"N20","instrument":"VIIRS","confidence":"n","version":"2.0NRT","bright_ti5":"286.32","frp":"0.33","daynight":"N","commune":"Belmont-d'Azergues","code_insee":"69020","departement":"Rhône","region":"Auvergne-Rhône-Alpes"}},{"type":"Feature","geometry":{"type":"Point","coordinates":[4.86023,46.79342]},"properties":{"latitude":"46.79342","longitude":"4.86023","bright_ti4":"312.8","scan":"0.4","track":"0.44","acq_date":"2026-06-15","acq_time":"117","satellite":"N20","instrument":"VIIRS","confidence":"n","version":"2.0NRT","bright_ti5":"287.81","frp":"1.76","daynight":"N","commune":"Chalon-sur-Saône","code_insee":"71076","departement":"Saône-et-Loire","region":"Bourgogne-Franche-Comté"}},{"type":"Feature","geometry":{"type":"Point","coordinates":[-0.14044,46.8073]},"properties":{"latitude":"46.8073","longitude":"-0.14044","bright_ti4":"301.67","scan":"0.34","track":"0.56","acq_date":"2026-06-15","acq_time":"117","satellite":"N20","instrument":"VIIRS","confidence":"n","version":"2.0NRT","bright_ti5":"287.35","frp":"0.73","daynight":"N","commune":"Airvault","code_insee":"79005","departement":"Deux-Sèvres","region":"Nouvelle-Aquitaine"}},{"type":"Feature","geometry":{"type":"Point","coordinates":[0.15056,46.88329]},"properties":{"latitude":"46.88329","longitude":"0.15056","bright_ti4":"298.01","scan":"0.33","track":"0.55","acq_date":"2026-06-15","acq_time":"117","satellite":"N20","instrument":"VIIRS","confidence":"n","version":"2.0NRT","bright_ti5":"284.7","frp":"0.22","daynight":"N","commune":"Guesnes","code_insee":"86109","departement":"Vienne","region":"Nouvelle-Aquitaine"}},{"type":"Feature","geometry":{"type":"Point","coordinates":[1.19191,47.27006]},"properties":{"latitude":"47.27006","longitude":"1.19191","bright_ti4":"301","scan":"0.59","track":"0.53","acq_date":"2026-06-15","acq_time":"117","satellite":"N20","instrument":"VIIRS","confidence":"n","version":"2.0NRT","bright_ti5":"285.28","frp":"1.49","daynight":"N","commune":"Céré-la-Ronde","code_insee":"37046","departement":"Indre-et-Loire","region":"Centre-Val de Loire"}},{"type":"Feature","geometry":{"type":"Point","coordinates":[1.18397,47.27051]},"properties":{"latitude":"47.27051","longitude":"1.18397","bright_ti4":"312.93","scan":"0.59","track":"0.53","acq_date":"2026-06-15","acq_time":"117","satellite":"N20","instrument":"VIIRS","confidence":"n","version":"2.0NRT","bright_ti5":"285.9","frp":"1.92","daynight":"N","commune":"Céré-la-Ronde","code_insee":"37046","departement":"Indre-et-Loire","region":"Centre-Val de Loire"}},{"type":"Feature","geometry":{"type":"Point","coordinates":[6.05949,48.88495]},"properties":{"latitude":"48.88495","longitude":"6.05949","bright_ti4":"295.25","scan":"0.53","track":"0.67","acq_date":"2026-06-15","acq_time":"256","satellite":"N20","instrument":"VIIRS","confidence":"n","version":"2.0NRT","bright_ti5":"279.26","frp":"1.07","daynight":"N","commune":"Blénod-lès-Pont-à-Mousson","code_insee":"54079","departement":"Meurthe-et-Moselle","region":"Grand Est"}},{"type":"Feature","geometry":{"type":"Point","coordinates":[6.05425,48.88721]},"properties":{"latitude":"48.88721","longitude":"6.05425","bright_ti4":"303.75","scan":"0.53","track":"0.67","acq_date":"2026-06-15","acq_time":"256","satellite":"N20","instrument":"VIIRS","confidence":"n","version":"2.0NRT","bright_ti5":"279.05","frp":"1.9","daynight":"N","commune":"Blénod-lès-Pont-à-Mousson","code_insee":"54079","departement":"Meurthe-et-Moselle","region":"Grand Est"}},{"type":"Feature","geometry":{"type":"Point","coordinates":[6.14606,49.319]},"properties":{"latitude":"49.319","longitude":"6.14606","bright_ti4":"295.83","scan":"0.51","track":"0.66","acq_date":"2026-06-15","acq_time":"256","satellite":"N20","instrument":"VIIRS","confidence":"n","version":"2.0NRT","bright_ti5":"278.7","frp":"0.62","daynight":"N","commune":"Florange","code_insee":"57221","departement":"Moselle","region":"Grand Est"}},{"type":"Feature","geometry":{"type":"Point","coordinates":[3.49248,50.33223]},"properties":{"latitude":"50.33223","longitude":"3.49248","bright_ti4":"299.45","scan":"0.37","track":"0.58","acq_date":"2026-06-15","acq_time":"256","satellite":"N20","instrument":"VIIRS","confidence":"n","version":"2.0NRT","bright_ti5":"280.16","frp":"0.93","daynight":"N","commune":"Trith-Saint-Léger","code_insee":"59603","departement":"Nord","region":"Hauts-de-France"}},{"type":"Feature","geometry":{"type":"Point","coordinates":[2.29209,51.03495]},"properties":{"latitude":"51.03495","longitude":"2.29209","bright_ti4":"309.83","scan":"0.63","track":"0.54","acq_date":"2026-06-15","acq_time":"256","satellite":"N20","instrument":"VIIRS","confidence":"n","version":"2.0NRT","bright_ti5":"282.51","frp":"2.3","daynight":"N","commune":"Grande-Synthe","code_insee":"59271","departement":"Nord","region":"Hauts-de-France"}},{"type":"Feature","geometry":{"type":"Point","coordinates":[2.28638,51.03527]},"properties":{"latitude":"51.03527","longitude":"2.28638","bright_ti4":"320.67","scan":"0.63","track":"0.54","acq_date":"2026-06-15","acq_time":"256","satellite":"N20","instrument":"VIIRS","confidence":"n","version":"2.0NRT","bright_ti5":"282.69","frp":"3.57","daynight":"N","commune":"Grande-Synthe","code_insee":"59271","departement":"Nord","region":"Hauts-de-France"}},{"type":"Feature","geometry":{"type":"Point","coordinates":[2.28386,51.03735]},"properties":{"latitude":"51.03735","longitude":"2.28386","bright_ti4":"298.28","scan":"0.63","track":"0.54","acq_date":"2026-06-15","acq_time":"256","satellite":"N20","instrument":"VIIRS","confidence":"n","version":"2.0NRT","bright_ti5":"280.55","frp":"2.3","daynight":"N","commune":"Grande-Synthe","code_insee":"59271","departement":"Nord","region":"Hauts-de-France"}},{"type":"Feature","geometry":{"type":"Point","coordinates":[2.30136,51.04203]},"properties":{"latitude":"51.04203","longitude":"2.30136","bright_ti4":"296.76","scan":"0.63","track":"0.54","acq_date":"2026-06-15","acq_time":"256","satellite":"N20","instrument":"VIIRS","confidence":"n","version":"2.0NRT","bright_ti5":"282.96","frp":"1.32","daynight":"N","commune":"Grande-Synthe","code_insee":"59271","departement":"Nord","region":"Hauts-de-France"}},{"type":"Feature","geometry":{"type":"Point","coordinates":[2.29874,51.04408]},"properties":{"latitude":"51.04408","longitude":"2.29874","bright_ti4":"338.27","scan":"0.63","track":"0.54","acq_date":"2026-06-15","acq_time":"256","satellite":"N20","instrument":"VIIRS","confidence":"n","version":"2.0NRT","bright_ti5":"285.53","frp":"10.76","daynight":"N","commune":"Grande-Synthe","code_insee":"59271","departement":"Nord","region":"Hauts-de-France"}},{"type":"Feature","geometry":{"type":"Point","coordinates":[2.29308,51.0444]},"properties":{"latitude":"51.0444","longitude":"2.29308","bright_ti4":"314.37","scan":"0.63","track":"0.54","acq_date":"2026-06-15","acq_time":"256","satellite":"N20","instrument":"VIIRS","confidence":"n","version":"2.0NRT","bright_ti5":"282.63","frp":"2.76","daynight":"N","commune":"Grande-Synthe","code_insee":"59271","departement":"Nord","region":"Hauts-de-France"}},{"type":"Feature","geometry":{"type":"Point","coordinates":[2.32194,51.0484]},"properties":{"latitude":"51.0484","longitude":"2.32194","bright_ti4":"325.34","scan":"0.63","track":"0.54","acq_date":"2026-06-15","acq_time":"256","satellite":"N20","instrument":"VIIRS","confidence":"n","version":"2.0NRT","bright_ti5":"284.68","frp":"5.14","daynight":"N","commune":"Dunkerque","code_insee":"59183","departement":"Nord","region":"Hauts-de-France"}},{"type":"Feature","geometry":{"type":"Point","coordinates":[4.89381,43.43161]},"properties":{"latitude":"43.43161","longitude":"4.89381","bright_ti4":"299.09","scan":"0.72","track":"0.76","acq_date":"2026-06-15","acq_time":"258","satellite":"N20","instrument":"VIIRS","confidence":"n","version":"2.0NRT","bright_ti5":"288.46","frp":"1.75","daynight":"N","commune":"Fos-sur-Mer","code_insee":"13039","departement":"Bouches-du-Rhône","region":"Provence-Alpes-Côte d'Azur"}},{"type":"Feature","geometry":{"type":"Point","coordinates":[4.88987,43.44079]},"properties":{"latitude":"43.44079","longitude":"4.88987","bright_ti4":"306.09","scan":"0.72","track":"0.76","acq_date":"2026-06-15","acq_time":"258","satellite":"N20","instrument":"VIIRS","confidence":"n","version":"2.0NRT","bright_ti5":"288.73","frp":"1.75","daynight":"N","commune":"Fos-sur-Mer","code_insee":"13039","departement":"Bouches-du-Rhône","region":"Provence-Alpes-Côte d'Azur"}},{"type":"Feature","geometry":{"type":"Point","coordinates":[4.89405,43.44711]},"properties":{"latitude":"43.44711","longitude":"4.89405","bright_ti4":"306.65","scan":"0.72","track":"0.76","acq_date":"2026-06-15","acq_time":"258","satellite":"N20","instrument":"VIIRS","confidence":"n","version":"2.0NRT","bright_ti5":"288.97","frp":"2.06","daynight":"N","commune":"Fos-sur-Mer","code_insee":"13039","departement":"Bouches-du-Rhône","region":"Provence-Alpes-Côte d'Azur"}},{"type":"Feature","geometry":{"type":"Point","coordinates":[0.2261,44.98933]},"properties":{"latitude":"44.98933","longitude":"0.2261","bright_ti4":"315.69","scan":"0.4","track":"0.6","acq_date":"2026-06-15","acq_time":"258","satellite":"N20","instrument":"VIIRS","confidence":"n","version":"2.0NRT","bright_ti5":"285.53","frp":"1.65","daynight":"N","commune":"Saint-Martial-d'Artenset","code_insee":"24449","departement":"Dordogne","region":"Nouvelle-Aquitaine"}},{"type":"Feature","geometry":{"type":"Point","coordinates":[-0.12835,45.37867]},"properties":{"latitude":"45.37867","longitude":"-0.12835","bright_ti4":"300.7","scan":"0.37","track":"0.58","acq_date":"2026-06-15","acq_time":"258","satellite":"N20","instrument":"VIIRS","confidence":"n","version":"2.0NRT","bright_ti5":"286.99","frp":"0.53","daynight":"N","commune":"Condéon","code_insee":"16105","departement":"Charente","region":"Nouvelle-Aquitaine"}},{"type":"Feature","geometry":{"type":"Point","coordinates":[1.18823,47.26987]},"properties":{"latitude":"47.26987","longitude":"1.18823","bright_ti4":"322.79","scan":"0.37","track":"0.58","acq_date":"2026-06-15","acq_time":"258","satellite":"N20","instrument":"VIIRS","confidence":"n","version":"2.0NRT","bright_ti5":"285.45","frp":"1.84","daynight":"N","commune":"Céré-la-Ronde","code_insee":"37046","departement":"Indre-et-Loire","region":"Centre-Val de Loire"}},{"type":"Feature","geometry":{"type":"Point","coordinates":[1.19196,47.27061]},"properties":{"latitude":"47.27061","longitude":"1.19196","bright_ti4":"297.89","scan":"0.37","track":"0.58","acq_date":"2026-06-15","acq_time":"258","satellite":"N20","instrument":"VIIRS","confidence":"n","version":"2.0NRT","bright_ti5":"285.18","frp":"1.05","daynight":"N","commune":"Céré-la-Ronde","code_insee":"37046","departement":"Indre-et-Loire","region":"Centre-Val de Loire"}},{"type":"Feature","geometry":{"type":"Point","coordinates":[1.18743,47.27193]},"properties":{"latitude":"47.27193","longitude":"1.18743","bright_ti4":"310.41","scan":"0.37","track":"0.58","acq_date":"2026-06-15","acq_time":"258","satellite":"N20","instrument":"VIIRS","confidence":"n","version":"2.0NRT","bright_ti5":"284.74","frp":"1.05","daynight":"N","commune":"Céré-la-Ronde","code_insee":"37046","departement":"Indre-et-Loire","region":"Centre-Val de Loire"}},{"type":"Feature","geometry":{"type":"Point","coordinates":[-0.69863,47.74477]},"properties":{"latitude":"47.74477","longitude":"-0.69863","bright_ti4":"316.01","scan":"0.6","track":"0.53","acq_date":"2026-06-15","acq_time":"258","satellite":"N20","instrument":"VIIRS","confidence":"n","version":"2.0NRT","bright_ti5":"285.44","frp":"4.09","daynight":"N","commune":"Ménil","code_insee":"53150","departement":"Mayenne","region":"Pays de la Loire"}},{"type":"Feature","geometry":{"type":"Point","coordinates":[1.76295,48.98124]},"properties":{"latitude":"48.98124","longitude":"1.76295","bright_ti4":"305.99","scan":"0.35","track":"0.57","acq_date":"2026-06-15","acq_time":"258","satellite":"N20","instrument":"VIIRS","confidence":"n","version":"2.0NRT","bright_ti5":"282.43","frp":"1","daynight":"N","commune":"Porcheville","code_insee":"78501","departement":"Yvelines","region":"Île-de-France"}},{"type":"Feature","geometry":{"type":"Point","coordinates":[1.75851,48.98256]},"properties":{"latitude":"48.98256","longitude":"1.75851","bright_ti4":"305.56","scan":"0.35","track":"0.57","acq_date":"2026-06-15","acq_time":"258","satellite":"N20","instrument":"VIIRS","confidence":"n","version":"2.0NRT","bright_ti5":"281.6","frp":"1","daynight":"N","commune":"Porcheville","code_insee":"78501","departement":"Yvelines","region":"Île-de-France"}},{"type":"Feature","geometry":{"type":"Point","coordinates":[1.76151,48.98742]},"properties":{"latitude":"48.98742","longitude":"1.76151","bright_ti4":"295.67","scan":"0.35","track":"0.57","acq_date":"2026-06-15","acq_time":"258","satellite":"N20","instrument":"VIIRS","confidence":"n","version":"2.0NRT","bright_ti5":"283.03","frp":"0.72","daynight":"N","commune":"Porcheville","code_insee":"78501","departement":"Yvelines","region":"Île-de-France"}},{"type":"Feature","geometry":{"type":"Point","coordinates":[0.53671,49.47838]},"properties":{"latitude":"49.47838","longitude":"0.53671","bright_ti4":"296.86","scan":"0.6","track":"0.53","acq_date":"2026-06-15","acq_time":"258","satellite":"N20","instrument":"VIIRS","confidence":"n","version":"2.0NRT","bright_ti5":"283.68","frp":"0.94","daynight":"N","commune":"Port-Jérôme-sur-Seine","code_insee":"76476","departement":"Seine-Maritime","region":"Normandie"}},{"type":"Feature","geometry":{"type":"Point","coordinates":[4.89897,43.44531]},"properties":{"latitude":"43.44531","longitude":"4.89897","bright_ti4":"339.44","scan":"0.4","track":"0.37","acq_date":"2026-06-15","acq_time":"1242","satellite":"N20","instrument":"VIIRS","confidence":"l","version":"2.0NRT","bright_ti5":"311.33","frp":"7.39","daynight":"D","commune":"Fos-sur-Mer","code_insee":"13039","departement":"Bouches-du-Rhône","region":"Provence-Alpes-Côte d'Azur"}},{"type":"Feature","geometry":{"type":"Point","coordinates":[3.46766,43.60702]},"properties":{"latitude":"43.60702","longitude":"3.46766","bright_ti4":"341.05","scan":"0.38","track":"0.36","acq_date":"2026-06-15","acq_time":"1242","satellite":"N20","instrument":"VIIRS","confidence":"l","version":"2.0NRT","bright_ti5":"314.41","frp":"4.9","daynight":"D","commune":"Clermont-l'Hérault","code_insee":"34079","departement":"Hérault","region":"Occitanie"}},{"type":"Feature","geometry":{"type":"Point","coordinates":[5.02497,43.6336]},"properties":{"latitude":"43.6336","longitude":"5.02497","bright_ti4":"333.52","scan":"0.4","track":"0.37","acq_date":"2026-06-15","acq_time":"1242","satellite":"N20","instrument":"VIIRS","confidence":"l","version":"2.0NRT","bright_ti5":"306.69","frp":"4.84","daynight":"D","commune":"Grans","code_insee":"13044","departement":"Bouches-du-Rhône","region":"Provence-Alpes-Côte d'Azur"}},{"type":"Feature","geometry":{"type":"Point","coordinates":[4.78072,43.97946]},"properties":{"latitude":"43.97946","longitude":"4.78072","bright_ti4":"338.4","scan":"0.4","track":"0.37","acq_date":"2026-06-15","acq_time":"1242","satellite":"N20","instrument":"VIIRS","confidence":"l","version":"2.0NRT","bright_ti5":"312.56","frp":"6.26","daynight":"D","commune":"Villeneuve-lès-Avignon","code_insee":"30351","departement":"Gard","region":"Occitanie"}},{"type":"Feature","geometry":{"type":"Point","coordinates":[3.64788,46.28473]},"properties":{"latitude":"46.28473","longitude":"3.64788","bright_ti4":"344.2","scan":"0.39","track":"0.36","acq_date":"2026-06-15","acq_time":"1244","satellite":"N20","instrument":"VIIRS","confidence":"n","version":"2.0NRT","bright_ti5":"308.56","frp":"22.74","daynight":"D","commune":"Lapalisse","code_insee":"03138","departement":"Allier","region":"Auvergne-Rhône-Alpes"}},{"type":"Feature","geometry":{"type":"Point","coordinates":[3.64691,46.28804]},"properties":{"latitude":"46.28804","longitude":"3.64691","bright_ti4":"341.14","scan":"0.39","track":"0.36","acq_date":"2026-06-15","acq_time":"1244","satellite":"N20","instrument":"VIIRS","confidence":"n","version":"2.0NRT","bright_ti5":"308.49","frp":"9.31","daynight":"D","commune":"Lapalisse","code_insee":"03138","departement":"Allier","region":"Auvergne-Rhône-Alpes"}},{"type":"Feature","geometry":{"type":"Point","coordinates":[-1.78025,46.58648]},"properties":{"latitude":"46.58648","longitude":"-1.78025","bright_ti4":"340.43","scan":"0.43","track":"0.38","acq_date":"2026-06-15","acq_time":"1244","satellite":"N20","instrument":"VIIRS","confidence":"n","version":"2.0NRT","bright_ti5":"309.71","frp":"11.55","daynight":"D","commune":"L'Île-d'Olonne","code_insee":"85112","departement":"Vendée","region":"Pays de la Loire"}},{"type":"Feature","geometry":{"type":"Point","coordinates":[-0.63341,47.14122]},"properties":{"latitude":"47.14122","longitude":"-0.63341","bright_ti4":"345.47","scan":"0.4","track":"0.37","acq_date":"2026-06-15","acq_time":"1244","satellite":"N20","instrument":"VIIRS","confidence":"n","version":"2.0NRT","bright_ti5":"312.68","frp":"4.15","daynight":"D","commune":"Coron","code_insee":"49109","departement":"Maine-et-Loire","region":"Pays de la Loire"}},{"type":"Feature","geometry":{"type":"Point","coordinates":[2.98403,48.38673]},"properties":{"latitude":"48.38673","longitude":"2.98403","bright_ti4":"341.9","scan":"0.39","track":"0.37","acq_date":"2026-06-15","acq_time":"1244","satellite":"N20","instrument":"VIIRS","confidence":"n","version":"2.0NRT","bright_ti5":"308.82","frp":"4.03","daynight":"D","commune":"Montereau-Fault-Yonne","code_insee":"77305","departement":"Seine-et-Marne","region":"Île-de-France"}},{"type":"Feature","geometry":{"type":"Point","coordinates":[6.05687,48.88323]},"properties":{"latitude":"48.88323","longitude":"6.05687","bright_ti4":"339.08","scan":"0.47","track":"0.4","acq_date":"2026-06-15","acq_time":"1244","satellite":"N20","instrument":"VIIRS","confidence":"n","version":"2.0NRT","bright_ti5":"298.34","frp":"5.94","daynight":"D","commune":"Blénod-lès-Pont-à-Mousson","code_insee":"54079","departement":"Meurthe-et-Moselle","region":"Grand Est"}},{"type":"Feature","geometry":{"type":"Point","coordinates":[3.84834,49.09789]},"properties":{"latitude":"49.09789","longitude":"3.84834","bright_ti4":"344","scan":"0.41","track":"0.37","acq_date":"2026-06-15","acq_time":"1244","satellite":"N20","instrument":"VIIRS","confidence":"n","version":"2.0NRT","bright_ti5":"295.86","frp":"6.26","daynight":"D","commune":"Venteuil","code_insee":"51605","departement":"Marne","region":"Grand Est"}},{"type":"Feature","geometry":{"type":"Point","coordinates":[6.11321,48.60762]},"properties":{"latitude":"48.60762","longitude":"6.11321","bright_ti4":"299.09","scan":"0.71","track":"0.75","acq_date":"2026-06-15","acq_time":"22","satellite":"N21","instrument":"VIIRS","confidence":"n","version":"2.0NRT","bright_ti5":"281.42","frp":"2.07","daynight":"N","commune":"Neuves-Maisons","code_insee":"54397","departement":"Meurthe-et-Moselle","region":"Grand Est"}},{"type":"Feature","geometry":{"type":"Point","coordinates":[0.22637,44.98739]},"properties":{"latitude":"44.98739","longitude":"0.22637","bright_ti4":"340.82","scan":"0.39","track":"0.36","acq_date":"2026-06-15","acq_time":"204","satellite":"N21","instrument":"VIIRS","confidence":"n","version":"2.0NRT","bright_ti5":"289.76","frp":"8.14","daynight":"N","commune":"Saint-Martial-d'Artenset","code_insee":"24449","departement":"Dordogne","region":"Nouvelle-Aquitaine"}},{"type":"Feature","geometry":{"type":"Point","coordinates":[2.70293,45.6639]},"properties":{"latitude":"45.6639","longitude":"2.70293","bright_ti4":"297.56","scan":"0.43","track":"0.38","acq_date":"2026-06-15","acq_time":"204","satellite":"N21","instrument":"VIIRS","confidence":"n","version":"2.0NRT","bright_ti5":"278.4","frp":"0.53","daynight":"N","commune":"Saint-Julien-Puy-Lavèze","code_insee":"63370","departement":"Puy-de-Dôme","region":"Auvergne-Rhône-Alpes"}},{"type":"Feature","geometry":{"type":"Point","coordinates":[-0.14168,46.80782]},"properties":{"latitude":"46.80782","longitude":"-0.14168","bright_ti4":"298.58","scan":"0.38","track":"0.36","acq_date":"2026-06-15","acq_time":"204","satellite":"N21","instrument":"VIIRS","confidence":"n","version":"2.0NRT","bright_ti5":"287.06","frp":"1.14","daynight":"N","commune":"Airvault","code_insee":"79005","departement":"Deux-Sèvres","region":"Nouvelle-Aquitaine"}},{"type":"Feature","geometry":{"type":"Point","coordinates":[0.15271,46.88462]},"properties":{"latitude":"46.88462","longitude":"0.15271","bright_ti4":"298.75","scan":"0.38","track":"0.36","acq_date":"2026-06-15","acq_time":"204","satellite":"N21","instrument":"VIIRS","confidence":"n","version":"2.0NRT","bright_ti5":"284.31","frp":"0.39","daynight":"N","commune":"Guesnes","code_insee":"86109","departement":"Vienne","region":"Nouvelle-Aquitaine"}},{"type":"Feature","geometry":{"type":"Point","coordinates":[1.19007,47.26841]},"properties":{"latitude":"47.26841","longitude":"1.19007","bright_ti4":"297.1","scan":"0.39","track":"0.36","acq_date":"2026-06-15","acq_time":"204","satellite":"N21","instrument":"VIIRS","confidence":"n","version":"2.0NRT","bright_ti5":"285.37","frp":"1.82","daynight":"N","commune":"Céré-la-Ronde","code_insee":"37046","departement":"Indre-et-Loire","region":"Centre-Val de Loire"}},{"type":"Feature","geometry":{"type":"Point","coordinates":[1.18502,47.26926]},"properties":{"latitude":"47.26926","longitude":"1.18502","bright_ti4":"326.9","scan":"0.39","track":"0.36","acq_date":"2026-06-15","acq_time":"204","satellite":"N21","instrument":"VIIRS","confidence":"n","version":"2.0NRT","bright_ti5":"288.36","frp":"3.33","daynight":"N","commune":"Céré-la-Ronde","code_insee":"37046","departement":"Indre-et-Loire","region":"Centre-Val de Loire"}},{"type":"Feature","geometry":{"type":"Point","coordinates":[7.40643,47.75619]},"properties":{"latitude":"47.75619","longitude":"7.40643","bright_ti4":"333.38","scan":"0.57","track":"0.43","acq_date":"2026-06-15","acq_time":"204","satellite":"N21","instrument":"VIIRS","confidence":"n","version":"2.0NRT","bright_ti5":"283.88","frp":"7.63","daynight":"N","commune":"Rixheim","code_insee":"68278","departement":"Haut-Rhin","region":"Grand Est"}},{"type":"Feature","geometry":{"type":"Point","coordinates":[7.40695,47.75719]},"properties":{"latitude":"47.75719","longitude":"7.40695","bright_ti4":"332.91","scan":"0.57","track":"0.43","acq_date":"2026-06-15","acq_time":"204","satellite":"N21","instrument":"VIIRS","confidence":"n","version":"2.0NRT","bright_ti5":"283.33","frp":"6.47","daynight":"N","commune":"Rixheim","code_insee":"68278","departement":"Haut-Rhin","region":"Grand Est"}},{"type":"Feature","geometry":{"type":"Point","coordinates":[2.98498,48.38769]},"properties":{"latitude":"48.38769","longitude":"2.98498","bright_ti4":"297.85","scan":"0.41","track":"0.37","acq_date":"2026-06-15","acq_time":"204","satellite":"N21","instrument":"VIIRS","confidence":"n","version":"2.0NRT","bright_ti5":"284.26","frp":"0.47","daynight":"N","commune":"Montereau-Fault-Yonne","code_insee":"77305","departement":"Seine-et-Marne","region":"Île-de-France"}},{"type":"Feature","geometry":{"type":"Point","coordinates":[2.97962,48.38866]},"properties":{"latitude":"48.38866","longitude":"2.97962","bright_ti4":"298.89","scan":"0.41","track":"0.37","acq_date":"2026-06-15","acq_time":"204","satellite":"N21","instrument":"VIIRS","confidence":"n","version":"2.0NRT","bright_ti5":"286.15","frp":"0.47","daynight":"N","commune":"Montereau-Fault-Yonne","code_insee":"77305","departement":"Seine-et-Marne","region":"Île-de-France"}},{"type":"Feature","geometry":{"type":"Point","coordinates":[0.0996,48.50444]},"properties":{"latitude":"48.50444","longitude":"0.0996","bright_ti4":"298.94","scan":"0.38","track":"0.36","acq_date":"2026-06-15","acq_time":"204","satellite":"N21","instrument":"VIIRS","confidence":"n","version":"2.0NRT","bright_ti5":"284.65","frp":"0.59","daynight":"N","commune":"Écouves","code_insee":"61341","departement":"Orne","region":"Normandie"}},{"type":"Feature","geometry":{"type":"Point","coordinates":[6.11653,48.61067]},"properties":{"latitude":"48.61067","longitude":"6.11653","bright_ti4":"299.21","scan":"0.49","track":"0.4","acq_date":"2026-06-15","acq_time":"204","satellite":"N21","instrument":"VIIRS","confidence":"n","version":"2.0NRT","bright_ti5":"280.73","frp":"1.2","daynight":"N","commune":"Neuves-Maisons","code_insee":"54397","departement":"Meurthe-et-Moselle","region":"Grand Est"}},{"type":"Feature","geometry":{"type":"Point","coordinates":[5.68156,48.71671]},"properties":{"latitude":"48.71671","longitude":"5.68156","bright_ti4":"296.14","scan":"0.47","track":"0.4","acq_date":"2026-06-15","acq_time":"204","satellite":"N21","instrument":"VIIRS","confidence":"n","version":"2.0NRT","bright_ti5":"279.93","frp":"1.16","daynight":"N","commune":"Sorcy-Saint-Martin","code_insee":"55496","departement":"Meuse","region":"Grand Est"}},{"type":"Feature","geometry":{"type":"Point","coordinates":[4.56357,48.76825]},"properties":{"latitude":"48.76825","longitude":"4.56357","bright_ti4":"304.58","scan":"0.44","track":"0.38","acq_date":"2026-06-15","acq_time":"204","satellite":"N21","instrument":"VIIRS","confidence":"n","version":"2.0NRT","bright_ti5":"284.89","frp":"1.31","daynight":"N","commune":"Couvrot","code_insee":"51195","departement":"Marne","region":"Grand Est"}},{"type":"Feature","geometry":{"type":"Point","coordinates":[6.0522,48.88413]},"properties":{"latitude":"48.88413","longitude":"6.0522","bright_ti4":"296.15","scan":"0.48","track":"0.4","acq_date":"2026-06-15","acq_time":"204","satellite":"N21","instrument":"VIIRS","confidence":"n","version":"2.0NRT","bright_ti5":"281.67","frp":"0.64","daynight":"N","commune":"Blénod-lès-Pont-à-Mousson","code_insee":"54079","departement":"Meurthe-et-Moselle","region":"Grand Est"}},{"type":"Feature","geometry":{"type":"Point","coordinates":[1.75995,48.98127]},"properties":{"latitude":"48.98127","longitude":"1.75995","bright_ti4":"297.16","scan":"0.39","track":"0.36","acq_date":"2026-06-15","acq_time":"204","satellite":"N21","instrument":"VIIRS","confidence":"n","version":"2.0NRT","bright_ti5":"285.46","frp":"0.93","daynight":"N","commune":"Porcheville","code_insee":"78501","departement":"Yvelines","region":"Île-de-France"}},{"type":"Feature","geometry":{"type":"Point","coordinates":[1.76119,48.98452]},"properties":{"latitude":"48.98452","longitude":"1.76119","bright_ti4":"310.84","scan":"0.39","track":"0.36","acq_date":"2026-06-15","acq_time":"204","satellite":"N21","instrument":"VIIRS","confidence":"n","version":"2.0NRT","bright_ti5":"285.55","frp":"0.93","daynight":"N","commune":"Porcheville","code_insee":"78501","departement":"Yvelines","region":"Île-de-France"}},{"type":"Feature","geometry":{"type":"Point","coordinates":[6.14403,49.3186]},"properties":{"latitude":"49.3186","longitude":"6.14403","bright_ti4":"295.85","scan":"0.48","track":"0.4","acq_date":"2026-06-15","acq_time":"204","satellite":"N21","instrument":"VIIRS","confidence":"n","version":"2.0NRT","bright_ti5":"281.15","frp":"1.15","daynight":"N","commune":"Florange","code_insee":"57221","departement":"Moselle","region":"Grand Est"}},{"type":"Feature","geometry":{"type":"Point","coordinates":[0.53277,49.47837]},"properties":{"latitude":"49.47837","longitude":"0.53277","bright_ti4":"298.06","scan":"0.38","track":"0.36","acq_date":"2026-06-15","acq_time":"204","satellite":"N21","instrument":"VIIRS","confidence":"n","version":"2.0NRT","bright_ti5":"284.48","frp":"1.17","daynight":"N","commune":"Lillebonne","code_insee":"76384","departement":"Seine-Maritime","region":"Normandie"}},{"type":"Feature","geometry":{"type":"Point","coordinates":[2.26812,51.01154]},"properties":{"latitude":"51.01154","longitude":"2.26812","bright_ti4":"295.26","scan":"0.39","track":"0.36","acq_date":"2026-06-15","acq_time":"204","satellite":"N21","instrument":"VIIRS","confidence":"n","version":"2.0NRT","bright_ti5":"281.48","frp":"0.46","daynight":"N","commune":"Dunkerque","code_insee":"59183","departement":"Nord","region":"Hauts-de-France"}},{"type":"Feature","geometry":{"type":"Point","coordinates":[2.25463,51.03446]},"properties":{"latitude":"51.03446","longitude":"2.25463","bright_ti4":"300.37","scan":"0.39","track":"0.36","acq_date":"2026-06-15","acq_time":"204","satellite":"N21","instrument":"VIIRS","confidence":"n","version":"2.0NRT","bright_ti5":"279.63","frp":"0.92","daynight":"N","commune":"Dunkerque","code_insee":"59183","departement":"Nord","region":"Hauts-de-France"}},{"type":"Feature","geometry":{"type":"Point","coordinates":[2.28953,51.03564]},"properties":{"latitude":"51.03564","longitude":"2.28953","bright_ti4":"299.04","scan":"0.39","track":"0.36","acq_date":"2026-06-15","acq_time":"204","satellite":"N21","instrument":"VIIRS","confidence":"n","version":"2.0NRT","bright_ti5":"283.87","frp":"0.6","daynight":"N","commune":"Grande-Synthe","code_insee":"59271","departement":"Nord","region":"Hauts-de-France"}},{"type":"Feature","geometry":{"type":"Point","coordinates":[2.2922,51.04211]},"properties":{"latitude":"51.04211","longitude":"2.2922","bright_ti4":"305.57","scan":"0.39","track":"0.36","acq_date":"2026-06-15","acq_time":"204","satellite":"N21","instrument":"VIIRS","confidence":"n","version":"2.0NRT","bright_ti5":"285.33","frp":"6.46","daynight":"N","commune":"Grande-Synthe","code_insee":"59271","departement":"Nord","region":"Hauts-de-France"}},{"type":"Feature","geometry":{"type":"Point","coordinates":[2.30429,51.04358]},"properties":{"latitude":"51.04358","longitude":"2.30429","bright_ti4":"297.03","scan":"0.39","track":"0.36","acq_date":"2026-06-15","acq_time":"204","satellite":"N21","instrument":"VIIRS","confidence":"n","version":"2.0NRT","bright_ti5":"282.4","frp":"0.64","daynight":"N","commune":"Grande-Synthe","code_insee":"59271","departement":"Nord","region":"Hauts-de-France"}},{"type":"Feature","geometry":{"type":"Point","coordinates":[2.29891,51.04446]},"properties":{"latitude":"51.04446","longitude":"2.29891","bright_ti4":"313.91","scan":"0.39","track":"0.36","acq_date":"2026-06-15","acq_time":"204","satellite":"N21","instrument":"VIIRS","confidence":"n","version":"2.0NRT","bright_ti5":"288.24","frp":"6.46","daynight":"N","commune":"Grande-Synthe","code_insee":"59271","departement":"Nord","region":"Hauts-de-France"}},{"type":"Feature","geometry":{"type":"Point","coordinates":[2.29354,51.04535]},"properties":{"latitude":"51.04535","longitude":"2.29354","bright_ti4":"327.04","scan":"0.39","track":"0.36","acq_date":"2026-06-15","acq_time":"204","satellite":"N21","instrument":"VIIRS","confidence":"n","version":"2.0NRT","bright_ti5":"284.15","frp":"6.46","daynight":"N","commune":"Grande-Synthe","code_insee":"59271","departement":"Nord","region":"Hauts-de-France"}},{"type":"Feature","geometry":{"type":"Point","coordinates":[4.89321,43.43276]},"properties":{"latitude":"43.43276","longitude":"4.89321","bright_ti4":"303.21","scan":"0.56","track":"0.43","acq_date":"2026-06-15","acq_time":"206","satellite":"N21","instrument":"VIIRS","confidence":"n","version":"2.0NRT","bright_ti5":"290.63","frp":"1.52","daynight":"N","commune":"Fos-sur-Mer","code_insee":"13039","departement":"Bouches-du-Rhône","region":"Provence-Alpes-Côte d'Azur"}},{"type":"Feature","geometry":{"type":"Point","coordinates":[4.89476,43.43655]},"properties":{"latitude":"43.43655","longitude":"4.89476","bright_ti4":"308.57","scan":"0.56","track":"0.43","acq_date":"2026-06-15","acq_time":"206","satellite":"N21","instrument":"VIIRS","confidence":"n","version":"2.0NRT","bright_ti5":"290.51","frp":"1.52","daynight":"N","commune":"Fos-sur-Mer","code_insee":"13039","departement":"Bouches-du-Rhône","region":"Provence-Alpes-Côte d'Azur"}},{"type":"Feature","geometry":{"type":"Point","coordinates":[4.88968,43.44177]},"properties":{"latitude":"43.44177","longitude":"4.88968","bright_ti4":"306.82","scan":"0.56","track":"0.43","acq_date":"2026-06-15","acq_time":"206","satellite":"N21","instrument":"VIIRS","confidence":"n","version":"2.0NRT","bright_ti5":"291.27","frp":"1.09","daynight":"N","commune":"Fos-sur-Mer","code_insee":"13039","departement":"Bouches-du-Rhône","region":"Provence-Alpes-Côte d'Azur"}},{"type":"Feature","geometry":{"type":"Point","coordinates":[4.89789,43.44414]},"properties":{"latitude":"43.44414","longitude":"4.89789","bright_ti4":"329.83","scan":"0.56","track":"0.43","acq_date":"2026-06-15","acq_time":"206","satellite":"N21","instrument":"VIIRS","confidence":"n","version":"2.0NRT","bright_ti5":"292.39","frp":"5.37","daynight":"N","commune":"Fos-sur-Mer","code_insee":"13039","departement":"Bouches-du-Rhône","region":"Provence-Alpes-Côte d'Azur"}},{"type":"Feature","geometry":{"type":"Point","coordinates":[4.89125,43.44556]},"properties":{"latitude":"43.44556","longitude":"4.89125","bright_ti4":"301.67","scan":"0.56","track":"0.43","acq_date":"2026-06-15","acq_time":"206","satellite":"N21","instrument":"VIIRS","confidence":"n","version":"2.0NRT","bright_ti5":"290.68","frp":"1.09","daynight":"N","commune":"Fos-sur-Mer","code_insee":"13039","departement":"Bouches-du-Rhône","region":"Provence-Alpes-Côte d'Azur"}},{"type":"Feature","geometry":{"type":"Point","coordinates":[4.89947,43.44793]},"properties":{"latitude":"43.44793","longitude":"4.89947","bright_ti4":"318.58","scan":"0.56","track":"0.43","acq_date":"2026-06-15","acq_time":"206","satellite":"N21","instrument":"VIIRS","confidence":"n","version":"2.0NRT","bright_ti5":"290.95","frp":"1.88","daynight":"N","commune":"Fos-sur-Mer","code_insee":"13039","departement":"Bouches-du-Rhône","region":"Provence-Alpes-Côte d'Azur"}},{"type":"Feature","geometry":{"type":"Point","coordinates":[1.23135,43.98727]},"properties":{"latitude":"43.98727","longitude":"1.23135","bright_ti4":"302.12","scan":"0.41","track":"0.37","acq_date":"2026-06-15","acq_time":"206","satellite":"N21","instrument":"VIIRS","confidence":"n","version":"2.0NRT","bright_ti5":"288.31","frp":"0.55","daynight":"N","commune":"Montech","code_insee":"82125","departement":"Tarn-et-Garonne","region":"Occitanie"}},{"type":"Feature","geometry":{"type":"Point","coordinates":[9.51537,42.18827]},"properties":{"latitude":"42.18827","longitude":"9.51537","bright_ti4":"332.5","scan":"0.4","track":"0.44","acq_date":"2026-06-15","acq_time":"1147","satellite":"N21","instrument":"VIIRS","confidence":"n","version":"2.0NRT","bright_ti5":"299.59","frp":"2.68","daynight":"D","commune":"Linguizzetta","code_insee":"2B143","departement":"Haute-Corse","region":"Corse"}},{"type":"Feature","geometry":{"type":"Point","coordinates":[4.77685,43.97565]},"properties":{"latitude":"43.97565","longitude":"4.77685","bright_ti4":"336.09","scan":"0.6","track":"0.53","acq_date":"2026-06-15","acq_time":"1149","satellite":"N21","instrument":"VIIRS","confidence":"n","version":"2.0NRT","bright_ti5":"304","frp":"15.3","daynight":"D","commune":"Villeneuve-lès-Avignon","code_insee":"30351","departement":"Gard","region":"Occitanie"}},{"type":"Feature","geometry":{"type":"Point","coordinates":[4.78358,43.97739]},"properties":{"latitude":"43.97739","longitude":"4.78358","bright_ti4":"340.73","scan":"0.6","track":"0.53","acq_date":"2026-06-15","acq_time":"1149","satellite":"N21","instrument":"VIIRS","confidence":"n","version":"2.0NRT","bright_ti5":"304.55","frp":"15.3","daynight":"D","commune":"Villeneuve-lès-Avignon","code_insee":"30351","departement":"Gard","region":"Occitanie"}},{"type":"Feature","geometry":{"type":"Point","coordinates":[4.78059,43.98095]},"properties":{"latitude":"43.98095","longitude":"4.78059","bright_ti4":"340.48","scan":"0.6","track":"0.53","acq_date":"2026-06-15","acq_time":"1149","satellite":"N21","instrument":"VIIRS","confidence":"n","version":"2.0NRT","bright_ti5":"306.26","frp":"18.69","daynight":"D","commune":"Villeneuve-lès-Avignon","code_insee":"30351","departement":"Gard","region":"Occitanie"}},{"type":"Feature","geometry":{"type":"Point","coordinates":[1.31866,46.3115]},"properties":{"latitude":"46.3115","longitude":"1.31866","bright_ti4":"341.86","scan":"0.37","track":"0.58","acq_date":"2026-06-15","acq_time":"1149","satellite":"N21","instrument":"VIIRS","confidence":"n","version":"2.0NRT","bright_ti5":"304.31","frp":"3.7","daynight":"D","commune":"Mailhac-sur-Benaize","code_insee":"87090","departement":"Haute-Vienne","region":"Nouvelle-Aquitaine"}},{"type":"Feature","geometry":{"type":"Point","coordinates":[-1.77847,46.58511]},"properties":{"latitude":"46.58511","longitude":"-1.77847","bright_ti4":"367","scan":"0.49","track":"0.65","acq_date":"2026-06-15","acq_time":"1149","satellite":"N21","instrument":"VIIRS","confidence":"h","version":"2.0NRT","bright_ti5":"303.06","frp":"15.26","daynight":"D","commune":"L'Île-d'Olonne","code_insee":"85112","departement":"Vendée","region":"Pays de la Loire"}},{"type":"Feature","geometry":{"type":"Point","coordinates":[-1.78136,46.58824]},"properties":{"latitude":"46.58824","longitude":"-1.78136","bright_ti4":"367","scan":"0.49","track":"0.65","acq_date":"2026-06-15","acq_time":"1149","satellite":"N21","instrument":"VIIRS","confidence":"h","version":"2.0NRT","bright_ti5":"301.88","frp":"11.26","daynight":"D","commune":"L'Île-d'Olonne","code_insee":"85112","departement":"Vendée","region":"Pays de la Loire"}},{"type":"Feature","geometry":{"type":"Point","coordinates":[-1.18759,46.83648]},"properties":{"latitude":"46.83648","longitude":"-1.18759","bright_ti4":"331.81","scan":"0.46","track":"0.63","acq_date":"2026-06-15","acq_time":"1149","satellite":"N21","instrument":"VIIRS","confidence":"n","version":"2.0NRT","bright_ti5":"302.25","frp":"3.43","daynight":"D","commune":"Saint-André-Goule-d'Oie","code_insee":"85196","departement":"Vendée","region":"Pays de la Loire"}},{"type":"Feature","geometry":{"type":"Point","coordinates":[-0.58283,47.03611]},"properties":{"latitude":"47.03611","longitude":"-0.58283","bright_ti4":"335.12","scan":"0.42","track":"0.61","acq_date":"2026-06-15","acq_time":"1149","satellite":"N21","instrument":"VIIRS","confidence":"n","version":"2.0NRT","bright_ti5":"306.05","frp":"7.52","daynight":"D","commune":"Somloire","code_insee":"49336","departement":"Maine-et-Loire","region":"Pays de la Loire"}},{"type":"Feature","geometry":{"type":"Point","coordinates":[-0.57758,47.03772]},"properties":{"latitude":"47.03772","longitude":"-0.57758","bright_ti4":"342.96","scan":"0.42","track":"0.61","acq_date":"2026-06-15","acq_time":"1149","satellite":"N21","instrument":"VIIRS","confidence":"n","version":"2.0NRT","bright_ti5":"302.58","frp":"5.41","daynight":"D","commune":"Somloire","code_insee":"49336","departement":"Maine-et-Loire","region":"Pays de la Loire"}},{"type":"Feature","geometry":{"type":"Point","coordinates":[-0.63246,47.13748]},"properties":{"latitude":"47.13748","longitude":"-0.63246","bright_ti4":"339.22","scan":"0.42","track":"0.61","acq_date":"2026-06-15","acq_time":"1149","satellite":"N21","instrument":"VIIRS","confidence":"n","version":"2.0NRT","bright_ti5":"303.3","frp":"3.64","daynight":"D","commune":"Coron","code_insee":"49109","departement":"Maine-et-Loire","region":"Pays de la Loire"}},{"type":"Feature","geometry":{"type":"Point","coordinates":[-0.6355,47.14277]},"properties":{"latitude":"47.14277","longitude":"-0.6355","bright_ti4":"333.08","scan":"0.42","track":"0.61","acq_date":"2026-06-15","acq_time":"1149","satellite":"N21","instrument":"VIIRS","confidence":"n","version":"2.0NRT","bright_ti5":"302.08","frp":"3.64","daynight":"D","commune":"Coron","code_insee":"49109","departement":"Maine-et-Loire","region":"Pays de la Loire"}},{"type":"Feature","geometry":{"type":"Point","coordinates":[6.11052,48.6091]},"properties":{"latitude":"48.6091","longitude":"6.11052","bright_ti4":"327.16","scan":"0.4","track":"0.44","acq_date":"2026-06-15","acq_time":"1149","satellite":"N21","instrument":"VIIRS","confidence":"l","version":"2.0NRT","bright_ti5":"300.34","frp":"3.76","daynight":"D","commune":"Neuves-Maisons","code_insee":"54397","departement":"Meurthe-et-Moselle","region":"Grand Est"}},{"type":"Feature","geometry":{"type":"Point","coordinates":[4.89611,43.44469]},"properties":{"latitude":"43.44469","longitude":"4.89611","bright_ti4":"355.12","scan":"0.46","track":"0.63","acq_date":"2026-06-15","acq_time":"1329","satellite":"N21","instrument":"VIIRS","confidence":"n","version":"2.0NRT","bright_ti5":"303.48","frp":"11.67","daynight":"D","commune":"Fos-sur-Mer","code_insee":"13039","departement":"Bouches-du-Rhône","region":"Provence-Alpes-Côte d'Azur"}},{"type":"Feature","geometry":{"type":"Point","coordinates":[4.89371,43.44957]},"properties":{"latitude":"43.44957","longitude":"4.89371","bright_ti4":"340.13","scan":"0.46","track":"0.63","acq_date":"2026-06-15","acq_time":"1329","satellite":"N21","instrument":"VIIRS","confidence":"n","version":"2.0NRT","bright_ti5":"301.77","frp":"12.26","daynight":"D","commune":"Fos-sur-Mer","code_insee":"13039","departement":"Bouches-du-Rhône","region":"Provence-Alpes-Côte d'Azur"}},{"type":"Feature","geometry":{"type":"Point","coordinates":[1.9349,43.73572]},"properties":{"latitude":"43.73572","longitude":"1.9349","bright_ti4":"348.41","scan":"0.32","track":"0.55","acq_date":"2026-06-15","acq_time":"1329","satellite":"N21","instrument":"VIIRS","confidence":"n","version":"2.0NRT","bright_ti5":"308.35","frp":"3","daynight":"D","commune":"Briatexte","code_insee":"81039","departement":"Tarn","region":"Occitanie"}},{"type":"Feature","geometry":{"type":"Point","coordinates":[1.88047,46.48143]},"properties":{"latitude":"46.48143","longitude":"1.88047","bright_ti4":"352.87","scan":"0.34","track":"0.56","acq_date":"2026-06-15","acq_time":"1329","satellite":"N21","instrument":"VIIRS","confidence":"n","version":"2.0NRT","bright_ti5":"300.54","frp":"4.31","daynight":"D","commune":"Crozon-sur-Vauvre","code_insee":"36061","departement":"Indre","region":"Centre-Val de Loire"}},{"type":"Feature","geometry":{"type":"Point","coordinates":[1.88015,46.4866]},"properties":{"latitude":"46.4866","longitude":"1.88015","bright_ti4":"343.43","scan":"0.34","track":"0.56","acq_date":"2026-06-15","acq_time":"1329","satellite":"N21","instrument":"VIIRS","confidence":"n","version":"2.0NRT","bright_ti5":"303.14","frp":"2.94","daynight":"D","commune":"Crozon-sur-Vauvre","code_insee":"36061","departement":"Indre","region":"Centre-Val de Loire"}},{"type":"Feature","geometry":{"type":"Point","coordinates":[-0.92838,46.5824]},"properties":{"latitude":"46.5824","longitude":"-0.92838","bright_ti4":"341.09","scan":"0.5","track":"0.49","acq_date":"2026-06-15","acq_time":"1329","satellite":"N21","instrument":"VIIRS","confidence":"n","version":"2.0NRT","bright_ti5":"308.32","frp":"11.13","daynight":"D","commune":"Saint-Laurent-de-la-Salle","code_insee":"85237","departement":"Vendée","region":"Pays de la Loire"}},{"type":"Feature","geometry":{"type":"Point","coordinates":[-1.77987,46.58622]},"properties":{"latitude":"46.58622","longitude":"-1.77987","bright_ti4":"342.04","scan":"0.46","track":"0.47","acq_date":"2026-06-15","acq_time":"1329","satellite":"N21","instrument":"VIIRS","confidence":"n","version":"2.0NRT","bright_ti5":"307.91","frp":"7.78","daynight":"D","commune":"L'Île-d'Olonne","code_insee":"85112","departement":"Vendée","region":"Pays de la Loire"}},{"type":"Feature","geometry":{"type":"Point","coordinates":[-1.78151,46.58766]},"properties":{"latitude":"46.58766","longitude":"-1.78151","bright_ti4":"345.41","scan":"0.46","track":"0.47","acq_date":"2026-06-15","acq_time":"1329","satellite":"N21","instrument":"VIIRS","confidence":"n","version":"2.0NRT","bright_ti5":"304.8","frp":"7.68","daynight":"D","commune":"L'Île-d'Olonne","code_insee":"85112","departement":"Vendée","region":"Pays de la Loire"}},{"type":"Feature","geometry":{"type":"Point","coordinates":[1.49251,46.6733]},"properties":{"latitude":"46.6733","longitude":"1.49251","bright_ti4":"339.72","scan":"0.33","track":"0.55","acq_date":"2026-06-15","acq_time":"1329","satellite":"N21","instrument":"VIIRS","confidence":"n","version":"2.0NRT","bright_ti5":"304.97","frp":"4.2","daynight":"D","commune":"Chasseneuil","code_insee":"36042","departement":"Indre","region":"Centre-Val de Loire"}}]}