{"type":"FeatureCollection","features":[{"type":"Feature","geometry":{"type":"Point","coordinates":[6.14504,49.31834]},"properties":{"latitude":"49.31834","longitude":"6.14504","bright_ti4":"297.75","scan":"0.57","track":"0.69","acq_date":"2026-07-18","acq_time":"39","satellite":"N","instrument":"VIIRS","confidence":"n","version":"2.0NRT","bright_ti5":"281.77","frp":"1.56","daynight":"N","commune":"Florange","code_insee":"57221","departement":"Moselle","region":"Grand Est"}},{"type":"Feature","geometry":{"type":"Point","coordinates":[9.07339,42.27716]},"properties":{"latitude":"42.27716","longitude":"9.07339","bright_ti4":"314.79","scan":"0.38","track":"0.59","acq_date":"2026-07-18","acq_time":"41","satellite":"N","instrument":"VIIRS","confidence":"n","version":"2.0NRT","bright_ti5":"291.31","frp":"1.25","daynight":"N","commune":"Corte","code_insee":"2B096","departement":"Haute-Corse","region":"Corse"}},{"type":"Feature","geometry":{"type":"Point","coordinates":[9.07413,42.27731]},"properties":{"latitude":"42.27731","longitude":"9.07413","bright_ti4":"313.44","scan":"0.38","track":"0.59","acq_date":"2026-07-18","acq_time":"41","satellite":"N","instrument":"VIIRS","confidence":"n","version":"2.0NRT","bright_ti5":"291.53","frp":"0.77","daynight":"N","commune":"Corte","code_insee":"2B096","departement":"Haute-Corse","region":"Corse"}},{"type":"Feature","geometry":{"type":"Point","coordinates":[9.06942,42.27753]},"properties":{"latitude":"42.27753","longitude":"9.06942","bright_ti4":"300.59","scan":"0.38","track":"0.59","acq_date":"2026-07-18","acq_time":"41","satellite":"N","instrument":"VIIRS","confidence":"n","version":"2.0NRT","bright_ti5":"290.05","frp":"0.77","daynight":"N","commune":"Corte","code_insee":"2B096","departement":"Haute-Corse","region":"Corse"}},{"type":"Feature","geometry":{"type":"Point","coordinates":[9.08548,42.28201]},"properties":{"latitude":"42.28201","longitude":"9.08548","bright_ti4":"305.2","scan":"0.38","track":"0.58","acq_date":"2026-07-18","acq_time":"41","satellite":"N","instrument":"VIIRS","confidence":"n","version":"2.0NRT","bright_ti5":"291.63","frp":"0.47","daynight":"N","commune":"Corte","code_insee":"2B096","departement":"Haute-Corse","region":"Corse"}},{"type":"Feature","geometry":{"type":"Point","coordinates":[4.88428,43.43439]},"properties":{"latitude":"43.43439","longitude":"4.88428","bright_ti4":"317.24","scan":"0.62","track":"0.71","acq_date":"2026-07-18","acq_time":"41","satellite":"N","instrument":"VIIRS","confidence":"n","version":"2.0NRT","bright_ti5":"294.44","frp":"3.64","daynight":"N","commune":"Fos-sur-Mer","code_insee":"13039","departement":"Bouches-du-Rhône","region":"Provence-Alpes-Côte d'Azur"}},{"type":"Feature","geometry":{"type":"Point","coordinates":[-1.03766,48.10665]},"properties":{"latitude":"48.10665","longitude":"-1.03766","bright_ti4":"306.29","scan":"0.39","track":"0.36","acq_date":"2026-07-18","acq_time":"219","satellite":"N","instrument":"VIIRS","confidence":"n","version":"2.0NRT","bright_ti5":"289.4","frp":"1.13","daynight":"N","commune":"Saint-Pierre-la-Cour","code_insee":"53247","departement":"Mayenne","region":"Pays de la Loire"}},{"type":"Feature","geometry":{"type":"Point","coordinates":[2.98234,48.38736]},"properties":{"latitude":"48.38736","longitude":"2.98234","bright_ti4":"310.57","scan":"0.45","track":"0.39","acq_date":"2026-07-18","acq_time":"219","satellite":"N","instrument":"VIIRS","confidence":"n","version":"2.0NRT","bright_ti5":"290.1","frp":"1.53","daynight":"N","commune":"Montereau-Fault-Yonne","code_insee":"77305","departement":"Seine-et-Marne","region":"Île-de-France"}},{"type":"Feature","geometry":{"type":"Point","coordinates":[2.98328,48.38866]},"properties":{"latitude":"48.38866","longitude":"2.98328","bright_ti4":"303.43","scan":"0.45","track":"0.39","acq_date":"2026-07-18","acq_time":"219","satellite":"N","instrument":"VIIRS","confidence":"n","version":"2.0NRT","bright_ti5":"288.91","frp":"0.68","daynight":"N","commune":"Montereau-Fault-Yonne","code_insee":"77305","departement":"Seine-et-Marne","region":"Île-de-France"}},{"type":"Feature","geometry":{"type":"Point","coordinates":[4.56622,48.76783]},"properties":{"latitude":"48.76783","longitude":"4.56622","bright_ti4":"298.35","scan":"0.5","track":"0.41","acq_date":"2026-07-18","acq_time":"219","satellite":"N","instrument":"VIIRS","confidence":"n","version":"2.0NRT","bright_ti5":"287.78","frp":"1.09","daynight":"N","commune":"Couvrot","code_insee":"51195","departement":"Marne","region":"Grand Est"}},{"type":"Feature","geometry":{"type":"Point","coordinates":[2.16017,48.97562]},"properties":{"latitude":"48.97562","longitude":"2.16017","bright_ti4":"298.47","scan":"0.42","track":"0.38","acq_date":"2026-07-18","acq_time":"219","satellite":"N","instrument":"VIIRS","confidence":"n","version":"2.0NRT","bright_ti5":"287.68","frp":"0.56","daynight":"N","commune":"Saint-Germain-en-Laye","code_insee":"78551","departement":"Yvelines","region":"Île-de-France"}},{"type":"Feature","geometry":{"type":"Point","coordinates":[1.7598,48.98195]},"properties":{"latitude":"48.98195","longitude":"1.7598","bright_ti4":"304.83","scan":"0.41","track":"0.37","acq_date":"2026-07-18","acq_time":"219","satellite":"N","instrument":"VIIRS","confidence":"n","version":"2.0NRT","bright_ti5":"288.21","frp":"1.56","daynight":"N","commune":"Porcheville","code_insee":"78501","departement":"Yvelines","region":"Île-de-France"}},{"type":"Feature","geometry":{"type":"Point","coordinates":[1.76121,48.98531]},"properties":{"latitude":"48.98531","longitude":"1.76121","bright_ti4":"322.38","scan":"0.41","track":"0.37","acq_date":"2026-07-18","acq_time":"219","satellite":"N","instrument":"VIIRS","confidence":"n","version":"2.0NRT","bright_ti5":"289.36","frp":"1.56","daynight":"N","commune":"Porcheville","code_insee":"78501","departement":"Yvelines","region":"Île-de-France"}},{"type":"Feature","geometry":{"type":"Point","coordinates":[6.14569,49.31871]},"properties":{"latitude":"49.31871","longitude":"6.14569","bright_ti4":"298.72","scan":"0.55","track":"0.43","acq_date":"2026-07-18","acq_time":"219","satellite":"N","instrument":"VIIRS","confidence":"n","version":"2.0NRT","bright_ti5":"285.84","frp":"0.66","daynight":"N","commune":"Florange","code_insee":"57221","departement":"Moselle","region":"Grand Est"}},{"type":"Feature","geometry":{"type":"Point","coordinates":[6.09981,49.32493]},"properties":{"latitude":"49.32493","longitude":"6.09981","bright_ti4":"304.21","scan":"0.55","track":"0.43","acq_date":"2026-07-18","acq_time":"219","satellite":"N","instrument":"VIIRS","confidence":"n","version":"2.0NRT","bright_ti5":"286.39","frp":"1.48","daynight":"N","commune":"Serémange-Erzange","code_insee":"57647","departement":"Moselle","region":"Grand Est"}},{"type":"Feature","geometry":{"type":"Point","coordinates":[0.53673,49.47601]},"properties":{"latitude":"49.47601","longitude":"0.53673","bright_ti4":"299.01","scan":"0.39","track":"0.36","acq_date":"2026-07-18","acq_time":"219","satellite":"N","instrument":"VIIRS","confidence":"n","version":"2.0NRT","bright_ti5":"287.46","frp":"0.95","daynight":"N","commune":"Port-Jérôme-sur-Seine","code_insee":"76476","departement":"Seine-Maritime","region":"Normandie"}},{"type":"Feature","geometry":{"type":"Point","coordinates":[3.49097,50.33055]},"properties":{"latitude":"50.33055","longitude":"3.49097","bright_ti4":"302.06","scan":"0.44","track":"0.38","acq_date":"2026-07-18","acq_time":"219","satellite":"N","instrument":"VIIRS","confidence":"n","version":"2.0NRT","bright_ti5":"287.47","frp":"0.66","daynight":"N","commune":"Trith-Saint-Léger","code_insee":"59603","departement":"Nord","region":"Hauts-de-France"}},{"type":"Feature","geometry":{"type":"Point","coordinates":[3.49424,50.33736]},"properties":{"latitude":"50.33736","longitude":"3.49424","bright_ti4":"300.77","scan":"0.44","track":"0.38","acq_date":"2026-07-18","acq_time":"219","satellite":"N","instrument":"VIIRS","confidence":"n","version":"2.0NRT","bright_ti5":"288.38","frp":"0.89","daynight":"N","commune":"Trith-Saint-Léger","code_insee":"59603","departement":"Nord","region":"Hauts-de-France"}},{"type":"Feature","geometry":{"type":"Point","coordinates":[3.55887,50.40271]},"properties":{"latitude":"50.40271","longitude":"3.55887","bright_ti4":"299.66","scan":"0.44","track":"0.38","acq_date":"2026-07-18","acq_time":"219","satellite":"N","instrument":"VIIRS","confidence":"n","version":"2.0NRT","bright_ti5":"287.39","frp":"1.3","daynight":"N","commune":"Saint-Saulve","code_insee":"59544","departement":"Nord","region":"Hauts-de-France"}},{"type":"Feature","geometry":{"type":"Point","coordinates":[1.89609,50.97165]},"properties":{"latitude":"50.97165","longitude":"1.89609","bright_ti4":"299.32","scan":"0.4","track":"0.37","acq_date":"2026-07-18","acq_time":"219","satellite":"N","instrument":"VIIRS","confidence":"n","version":"2.0NRT","bright_ti5":"285.38","frp":"0.33","daynight":"N","commune":"Calais","code_insee":"62193","departement":"Pas-de-Calais","region":"Hauts-de-France"}},{"type":"Feature","geometry":{"type":"Point","coordinates":[2.27586,51.03487]},"properties":{"latitude":"51.03487","longitude":"2.27586","bright_ti4":"296.39","scan":"0.4","track":"0.37","acq_date":"2026-07-18","acq_time":"219","satellite":"N","instrument":"VIIRS","confidence":"n","version":"2.0NRT","bright_ti5":"285.91","frp":"0.71","daynight":"N","commune":"Grande-Synthe","code_insee":"59271","departement":"Nord","region":"Hauts-de-France"}},{"type":"Feature","geometry":{"type":"Point","coordinates":[2.29879,51.04501]},"properties":{"latitude":"51.04501","longitude":"2.29879","bright_ti4":"296.05","scan":"0.4","track":"0.37","acq_date":"2026-07-18","acq_time":"219","satellite":"N","instrument":"VIIRS","confidence":"n","version":"2.0NRT","bright_ti5":"285.2","frp":"0.31","daynight":"N","commune":"Grande-Synthe","code_insee":"59271","departement":"Nord","region":"Hauts-de-France"}},{"type":"Feature","geometry":{"type":"Point","coordinates":[2.29317,51.04604]},"properties":{"latitude":"51.04604","longitude":"2.29317","bright_ti4":"296.65","scan":"0.4","track":"0.37","acq_date":"2026-07-18","acq_time":"219","satellite":"N","instrument":"VIIRS","confidence":"n","version":"2.0NRT","bright_ti5":"286.24","frp":"0.65","daynight":"N","commune":"Grande-Synthe","code_insee":"59271","departement":"Nord","region":"Hauts-de-France"}},{"type":"Feature","geometry":{"type":"Point","coordinates":[9.07854,42.27797]},"properties":{"latitude":"42.27797","longitude":"9.07854","bright_ti4":"305.64","scan":"0.38","track":"0.58","acq_date":"2026-07-18","acq_time":"221","satellite":"N","instrument":"VIIRS","confidence":"n","version":"2.0NRT","bright_ti5":"290.4","frp":"0.54","daynight":"N","commune":"Corte","code_insee":"2B096","departement":"Haute-Corse","region":"Corse"}},{"type":"Feature","geometry":{"type":"Point","coordinates":[9.08303,42.28255]},"properties":{"latitude":"42.28255","longitude":"9.08303","bright_ti4":"309.56","scan":"0.38","track":"0.58","acq_date":"2026-07-18","acq_time":"221","satellite":"N","instrument":"VIIRS","confidence":"n","version":"2.0NRT","bright_ti5":"290.53","frp":"0.94","daynight":"N","commune":"Corte","code_insee":"2B096","departement":"Haute-Corse","region":"Corse"}},{"type":"Feature","geometry":{"type":"Point","coordinates":[9.0876,42.28711]},"properties":{"latitude":"42.28711","longitude":"9.0876","bright_ti4":"309.21","scan":"0.38","track":"0.58","acq_date":"2026-07-18","acq_time":"221","satellite":"N","instrument":"VIIRS","confidence":"n","version":"2.0NRT","bright_ti5":"292.57","frp":"0.94","daynight":"N","commune":"Corte","code_insee":"2B096","departement":"Haute-Corse","region":"Corse"}},{"type":"Feature","geometry":{"type":"Point","coordinates":[0.09502,42.87441]},"properties":{"latitude":"42.87441","longitude":"0.09502","bright_ti4":"326.12","scan":"0.44","track":"0.38","acq_date":"2026-07-18","acq_time":"221","satellite":"N","instrument":"VIIRS","confidence":"n","version":"2.0NRT","bright_ti5":"285.82","frp":"1.87","daynight":"N","commune":"Barèges","code_insee":"65481","departement":"Hautes-Pyrénées","region":"Occitanie"}},{"type":"Feature","geometry":{"type":"Point","coordinates":[0.09051,42.87527]},"properties":{"latitude":"42.87527","longitude":"0.09051","bright_ti4":"296.77","scan":"0.44","track":"0.38","acq_date":"2026-07-18","acq_time":"221","satellite":"N","instrument":"VIIRS","confidence":"n","version":"2.0NRT","bright_ti5":"284.28","frp":"1.87","daynight":"N","commune":"Barèges","code_insee":"65481","departement":"Hautes-Pyrénées","region":"Occitanie"}},{"type":"Feature","geometry":{"type":"Point","coordinates":[4.89139,43.43288]},"properties":{"latitude":"43.43288","longitude":"4.89139","bright_ti4":"312.16","scan":"0.44","track":"0.46","acq_date":"2026-07-18","acq_time":"221","satellite":"N","instrument":"VIIRS","confidence":"n","version":"2.0NRT","bright_ti5":"295.81","frp":"2.99","daynight":"N","commune":"Fos-sur-Mer","code_insee":"13039","departement":"Bouches-du-Rhône","region":"Provence-Alpes-Côte d'Azur"}},{"type":"Feature","geometry":{"type":"Point","coordinates":[4.88262,43.43951]},"properties":{"latitude":"43.43951","longitude":"4.88262","bright_ti4":"316.44","scan":"0.44","track":"0.46","acq_date":"2026-07-18","acq_time":"221","satellite":"N","instrument":"VIIRS","confidence":"n","version":"2.0NRT","bright_ti5":"295.02","frp":"2.21","daynight":"N","commune":"Fos-sur-Mer","code_insee":"13039","departement":"Bouches-du-Rhône","region":"Provence-Alpes-Côte d'Azur"}},{"type":"Feature","geometry":{"type":"Point","coordinates":[0.94016,43.70089]},"properties":{"latitude":"43.70089","longitude":"0.94016","bright_ti4":"308.07","scan":"0.46","track":"0.39","acq_date":"2026-07-18","acq_time":"221","satellite":"N","instrument":"VIIRS","confidence":"n","version":"2.0NRT","bright_ti5":"288.4","frp":"1.08","daynight":"N","commune":"Touget","code_insee":"32448","departement":"Gers","region":"Occitanie"}},{"type":"Feature","geometry":{"type":"Point","coordinates":[0.94217,43.70132]},"properties":{"latitude":"43.70132","longitude":"0.94217","bright_ti4":"305.96","scan":"0.46","track":"0.39","acq_date":"2026-07-18","acq_time":"221","satellite":"N","instrument":"VIIRS","confidence":"n","version":"2.0NRT","bright_ti5":"288.6","frp":"0.59","daynight":"N","commune":"Sirac","code_insee":"32435","departement":"Gers","region":"Occitanie"}},{"type":"Feature","geometry":{"type":"Point","coordinates":[1.22881,43.98755]},"properties":{"latitude":"43.98755","longitude":"1.22881","bright_ti4":"300.84","scan":"0.46","track":"0.39","acq_date":"2026-07-18","acq_time":"221","satellite":"N","instrument":"VIIRS","confidence":"n","version":"2.0NRT","bright_ti5":"289.31","frp":"0.53","daynight":"N","commune":"Montech","code_insee":"82125","departement":"Tarn-et-Garonne","region":"Occitanie"}},{"type":"Feature","geometry":{"type":"Point","coordinates":[5.66606,45.23208]},"properties":{"latitude":"45.23208","longitude":"5.66606","bright_ti4":"305.01","scan":"0.44","track":"0.46","acq_date":"2026-07-18","acq_time":"221","satellite":"N","instrument":"VIIRS","confidence":"n","version":"2.0NRT","bright_ti5":"290.95","frp":"0.83","daynight":"N","commune":"Saint-Égrève","code_insee":"38382","departement":"Isère","region":"Auvergne-Rhône-Alpes"}},{"type":"Feature","geometry":{"type":"Point","coordinates":[5.82149,45.91069]},"properties":{"latitude":"45.91069","longitude":"5.82149","bright_ti4":"303.72","scan":"0.43","track":"0.46","acq_date":"2026-07-18","acq_time":"221","satellite":"N","instrument":"VIIRS","confidence":"n","version":"2.0NRT","bright_ti5":"289.37","frp":"0.55","daynight":"N","commune":"Anglefort","code_insee":"01010","departement":"Ain","region":"Auvergne-Rhône-Alpes"}},{"type":"Feature","geometry":{"type":"Point","coordinates":[-2.75701,47.66571]},"properties":{"latitude":"47.66571","longitude":"-2.75701","bright_ti4":"310.9","scan":"0.39","track":"0.36","acq_date":"2026-07-18","acq_time":"221","satellite":"N","instrument":"VIIRS","confidence":"n","version":"2.0NRT","bright_ti5":"289.23","frp":"1.42","daynight":"N","commune":"Vannes","code_insee":"56260","departement":"Morbihan","region":"Bretagne"}},{"type":"Feature","geometry":{"type":"Point","coordinates":[-2.75592,47.66899]},"properties":{"latitude":"47.66899","longitude":"-2.75592","bright_ti4":"305.66","scan":"0.39","track":"0.36","acq_date":"2026-07-18","acq_time":"221","satellite":"N","instrument":"VIIRS","confidence":"n","version":"2.0NRT","bright_ti5":"288.71","frp":"0.66","daynight":"N","commune":"Vannes","code_insee":"56260","departement":"Morbihan","region":"Bretagne"}},{"type":"Feature","geometry":{"type":"Point","coordinates":[9.07548,42.27622]},"properties":{"latitude":"42.27622","longitude":"9.07548","bright_ti4":"338.88","scan":"0.51","track":"0.41","acq_date":"2026-07-18","acq_time":"1206","satellite":"N","instrument":"VIIRS","confidence":"n","version":"2.0NRT","bright_ti5":"304.77","frp":"10.41","daynight":"D","commune":"Corte","code_insee":"2B096","departement":"Haute-Corse","region":"Corse"}},{"type":"Feature","geometry":{"type":"Point","coordinates":[8.94262,42.32399]},"properties":{"latitude":"42.32399","longitude":"8.94262","bright_ti4":"331.69","scan":"0.51","track":"0.41","acq_date":"2026-07-18","acq_time":"1206","satellite":"N","instrument":"VIIRS","confidence":"n","version":"2.0NRT","bright_ti5":"301.36","frp":"4.75","daynight":"D","commune":"Albertacce","code_insee":"2B007","departement":"Haute-Corse","region":"Corse"}},{"type":"Feature","geometry":{"type":"Point","coordinates":[8.94103,42.32766]},"properties":{"latitude":"42.32766","longitude":"8.94103","bright_ti4":"342.03","scan":"0.51","track":"0.41","acq_date":"2026-07-18","acq_time":"1206","satellite":"N","instrument":"VIIRS","confidence":"n","version":"2.0NRT","bright_ti5":"303.06","frp":"4.75","daynight":"D","commune":"Albertacce","code_insee":"2B007","departement":"Haute-Corse","region":"Corse"}},{"type":"Feature","geometry":{"type":"Point","coordinates":[2.77291,42.70221]},"properties":{"latitude":"42.70221","longitude":"2.77291","bright_ti4":"342.54","scan":"0.32","track":"0.55","acq_date":"2026-07-18","acq_time":"1206","satellite":"N","instrument":"VIIRS","confidence":"n","version":"2.0NRT","bright_ti5":"298.8","frp":"2.02","daynight":"D","commune":"Pézilla-la-Rivière","code_insee":"66140","departement":"Pyrénées-Orientales","region":"Occitanie"}},{"type":"Feature","geometry":{"type":"Point","coordinates":[0.13057,46.83187]},"properties":{"latitude":"46.83187","longitude":"0.13057","bright_ti4":"367","scan":"0.32","track":"0.55","acq_date":"2026-07-18","acq_time":"1208","satellite":"N","instrument":"VIIRS","confidence":"h","version":"2.0NRT","bright_ti5":"300.1","frp":"7.38","daynight":"D","commune":"Saint-Jean-de-Sauves","code_insee":"86225","departement":"Vienne","region":"Nouvelle-Aquitaine"}},{"type":"Feature","geometry":{"type":"Point","coordinates":[7.2252,47.67633]},"properties":{"latitude":"47.67633","longitude":"7.2252","bright_ti4":"346.95","scan":"0.48","track":"0.4","acq_date":"2026-07-18","acq_time":"1208","satellite":"N","instrument":"VIIRS","confidence":"n","version":"2.0NRT","bright_ti5":"303.61","frp":"6.65","daynight":"D","commune":"Spechbach","code_insee":"68320","departement":"Haut-Rhin","region":"Grand Est"}},{"type":"Feature","geometry":{"type":"Point","coordinates":[7.22362,47.67989]},"properties":{"latitude":"47.67989","longitude":"7.22362","bright_ti4":"343.34","scan":"0.48","track":"0.4","acq_date":"2026-07-18","acq_time":"1208","satellite":"N","instrument":"VIIRS","confidence":"n","version":"2.0NRT","bright_ti5":"300.82","frp":"6.65","daynight":"D","commune":"Spechbach","code_insee":"68320","departement":"Haut-Rhin","region":"Grand Est"}},{"type":"Feature","geometry":{"type":"Point","coordinates":[7.43793,47.73838]},"properties":{"latitude":"47.73838","longitude":"7.43793","bright_ti4":"340.62","scan":"0.47","track":"0.4","acq_date":"2026-07-18","acq_time":"1208","satellite":"N","instrument":"VIIRS","confidence":"n","version":"2.0NRT","bright_ti5":"296.15","frp":"3.34","daynight":"D","commune":"Habsheim","code_insee":"68118","departement":"Haut-Rhin","region":"Grand Est"}},{"type":"Feature","geometry":{"type":"Point","coordinates":[7.43636,47.74191]},"properties":{"latitude":"47.74191","longitude":"7.43636","bright_ti4":"341.81","scan":"0.47","track":"0.4","acq_date":"2026-07-18","acq_time":"1208","satellite":"N","instrument":"VIIRS","confidence":"n","version":"2.0NRT","bright_ti5":"303.44","frp":"5.87","daynight":"D","commune":"Habsheim","code_insee":"68118","departement":"Haut-Rhin","region":"Grand Est"}},{"type":"Feature","geometry":{"type":"Point","coordinates":[0.08921,42.87172]},"properties":{"latitude":"42.87172","longitude":"0.08921","bright_ti4":"336.31","scan":"0.32","track":"0.55","acq_date":"2026-07-18","acq_time":"1346","satellite":"N","instrument":"VIIRS","confidence":"n","version":"2.0NRT","bright_ti5":"296","frp":"3.77","daynight":"D","commune":"Barèges","code_insee":"65481","departement":"Hautes-Pyrénées","region":"Occitanie"}},{"type":"Feature","geometry":{"type":"Point","coordinates":[0.09175,42.87186]},"properties":{"latitude":"42.87186","longitude":"0.09175","bright_ti4":"344.38","scan":"0.32","track":"0.55","acq_date":"2026-07-18","acq_time":"1346","satellite":"N","instrument":"VIIRS","confidence":"n","version":"2.0NRT","bright_ti5":"296.2","frp":"3.88","daynight":"D","commune":"Barèges","code_insee":"65481","departement":"Hautes-Pyrénées","region":"Occitanie"}},{"type":"Feature","geometry":{"type":"Point","coordinates":[0.09428,42.87199]},"properties":{"latitude":"42.87199","longitude":"0.09428","bright_ti4":"336.82","scan":"0.32","track":"0.55","acq_date":"2026-07-18","acq_time":"1346","satellite":"N","instrument":"VIIRS","confidence":"n","version":"2.0NRT","bright_ti5":"293.79","frp":"3.88","daynight":"D","commune":"Barèges","code_insee":"65481","departement":"Hautes-Pyrénées","region":"Occitanie"}},{"type":"Feature","geometry":{"type":"Point","coordinates":[0.09691,42.87214]},"properties":{"latitude":"42.87214","longitude":"0.09691","bright_ti4":"336.96","scan":"0.32","track":"0.55","acq_date":"2026-07-18","acq_time":"1346","satellite":"N","instrument":"VIIRS","confidence":"n","version":"2.0NRT","bright_ti5":"296.49","frp":"5.01","daynight":"D","commune":"Barèges","code_insee":"65481","departement":"Hautes-Pyrénées","region":"Occitanie"}},{"type":"Feature","geometry":{"type":"Point","coordinates":[0.08215,42.88154]},"properties":{"latitude":"42.88154","longitude":"0.08215","bright_ti4":"351.18","scan":"0.32","track":"0.55","acq_date":"2026-07-18","acq_time":"1346","satellite":"N","instrument":"VIIRS","confidence":"n","version":"2.0NRT","bright_ti5":"297.88","frp":"5.7","daynight":"D","commune":"Barèges","code_insee":"65481","departement":"Hautes-Pyrénées","region":"Occitanie"}},{"type":"Feature","geometry":{"type":"Point","coordinates":[0.08582,42.88175]},"properties":{"latitude":"42.88175","longitude":"0.08582","bright_ti4":"345.09","scan":"0.32","track":"0.55","acq_date":"2026-07-18","acq_time":"1346","satellite":"N","instrument":"VIIRS","confidence":"n","version":"2.0NRT","bright_ti5":"299.07","frp":"8.17","daynight":"D","commune":"Barèges","code_insee":"65481","departement":"Hautes-Pyrénées","region":"Occitanie"}},{"type":"Feature","geometry":{"type":"Point","coordinates":[0.08878,42.88192]},"properties":{"latitude":"42.88192","longitude":"0.08878","bright_ti4":"367","scan":"0.32","track":"0.55","acq_date":"2026-07-18","acq_time":"1346","satellite":"N","instrument":"VIIRS","confidence":"h","version":"2.0NRT","bright_ti5":"299.78","frp":"8.17","daynight":"D","commune":"Barèges","code_insee":"65481","departement":"Hautes-Pyrénées","region":"Occitanie"}},{"type":"Feature","geometry":{"type":"Point","coordinates":[0.4934,45.0104]},"properties":{"latitude":"45.0104","longitude":"0.4934","bright_ti4":"339.24","scan":"0.35","track":"0.57","acq_date":"2026-07-18","acq_time":"1346","satellite":"N","instrument":"VIIRS","confidence":"n","version":"2.0NRT","bright_ti5":"302.29","frp":"2.65","daynight":"D","commune":"Saint-Hilaire-d'Estissac","code_insee":"24422","departement":"Dordogne","region":"Nouvelle-Aquitaine"}},{"type":"Feature","geometry":{"type":"Point","coordinates":[0.12875,46.8313]},"properties":{"latitude":"46.8313","longitude":"0.12875","bright_ti4":"342","scan":"0.35","track":"0.56","acq_date":"2026-07-18","acq_time":"1348","satellite":"N","instrument":"VIIRS","confidence":"n","version":"2.0NRT","bright_ti5":"299.27","frp":"3.53","daynight":"D","commune":"Saint-Jean-de-Sauves","code_insee":"86225","departement":"Vienne","region":"Nouvelle-Aquitaine"}},{"type":"Feature","geometry":{"type":"Point","coordinates":[0.13341,46.83151]},"properties":{"latitude":"46.83151","longitude":"0.13341","bright_ti4":"331.73","scan":"0.35","track":"0.56","acq_date":"2026-07-18","acq_time":"1348","satellite":"N","instrument":"VIIRS","confidence":"n","version":"2.0NRT","bright_ti5":"297.14","frp":"3.53","daynight":"D","commune":"Saint-Jean-de-Sauves","code_insee":"86225","departement":"Vienne","region":"Nouvelle-Aquitaine"}},{"type":"Feature","geometry":{"type":"Point","coordinates":[0.13179,46.83565]},"properties":{"latitude":"46.83565","longitude":"0.13179","bright_ti4":"339.7","scan":"0.35","track":"0.56","acq_date":"2026-07-18","acq_time":"1348","satellite":"N","instrument":"VIIRS","confidence":"n","version":"2.0NRT","bright_ti5":"299.13","frp":"5.14","daynight":"D","commune":"Saint-Jean-de-Sauves","code_insee":"86225","departement":"Vienne","region":"Nouvelle-Aquitaine"}},{"type":"Feature","geometry":{"type":"Point","coordinates":[6.14576,49.32074]},"properties":{"latitude":"49.32074","longitude":"6.14576","bright_ti4":"302.02","scan":"0.59","track":"0.53","acq_date":"2026-07-18","acq_time":"58","satellite":"N20","instrument":"VIIRS","confidence":"n","version":"2.0NRT","bright_ti5":"286.56","frp":"0.72","daynight":"N","commune":"Florange","code_insee":"57221","departement":"Moselle","region":"Grand Est"}},{"type":"Feature","geometry":{"type":"Point","coordinates":[6.10255,49.32502]},"properties":{"latitude":"49.32502","longitude":"6.10255","bright_ti4":"299.22","scan":"0.6","track":"0.53","acq_date":"2026-07-18","acq_time":"58","satellite":"N20","instrument":"VIIRS","confidence":"n","version":"2.0NRT","bright_ti5":"286.18","frp":"1.01","daynight":"N","commune":"Serémange-Erzange","code_insee":"57647","departement":"Moselle","region":"Grand Est"}},{"type":"Feature","geometry":{"type":"Point","coordinates":[0.53364,49.47915]},"properties":{"latitude":"49.47915","longitude":"0.53364","bright_ti4":"298.39","scan":"0.54","track":"0.68","acq_date":"2026-07-18","acq_time":"58","satellite":"N20","instrument":"VIIRS","confidence":"n","version":"2.0NRT","bright_ti5":"285.19","frp":"1.34","daynight":"N","commune":"Port-Jérôme-sur-Seine","code_insee":"76476","departement":"Seine-Maritime","region":"Normandie"}},{"type":"Feature","geometry":{"type":"Point","coordinates":[2.26806,51.02802]},"properties":{"latitude":"51.02802","longitude":"2.26806","bright_ti4":"299.43","scan":"0.46","track":"0.63","acq_date":"2026-07-18","acq_time":"58","satellite":"N20","instrument":"VIIRS","confidence":"n","version":"2.0NRT","bright_ti5":"285.06","frp":"1.25","daynight":"N","commune":"Grande-Synthe","code_insee":"59271","departement":"Nord","region":"Hauts-de-France"}},{"type":"Feature","geometry":{"type":"Point","coordinates":[2.28831,51.03365]},"properties":{"latitude":"51.03365","longitude":"2.28831","bright_ti4":"300.31","scan":"0.46","track":"0.63","acq_date":"2026-07-18","acq_time":"58","satellite":"N20","instrument":"VIIRS","confidence":"n","version":"2.0NRT","bright_ti5":"285.32","frp":"1.52","daynight":"N","commune":"Grande-Synthe","code_insee":"59271","departement":"Nord","region":"Hauts-de-France"}},{"type":"Feature","geometry":{"type":"Point","coordinates":[2.28738,51.03526]},"properties":{"latitude":"51.03526","longitude":"2.28738","bright_ti4":"307.53","scan":"0.46","track":"0.63","acq_date":"2026-07-18","acq_time":"58","satellite":"N20","instrument":"VIIRS","confidence":"n","version":"2.0NRT","bright_ti5":"285.84","frp":"1.44","daynight":"N","commune":"Grande-Synthe","code_insee":"59271","departement":"Nord","region":"Hauts-de-France"}},{"type":"Feature","geometry":{"type":"Point","coordinates":[2.28075,51.03537]},"properties":{"latitude":"51.03537","longitude":"2.28075","bright_ti4":"305.06","scan":"0.46","track":"0.63","acq_date":"2026-07-18","acq_time":"58","satellite":"N20","instrument":"VIIRS","confidence":"n","version":"2.0NRT","bright_ti5":"284.65","frp":"2.13","daynight":"N","commune":"Grande-Synthe","code_insee":"59271","departement":"Nord","region":"Hauts-de-France"}},{"type":"Feature","geometry":{"type":"Point","coordinates":[2.28191,51.03961]},"properties":{"latitude":"51.03961","longitude":"2.28191","bright_ti4":"308.22","scan":"0.46","track":"0.63","acq_date":"2026-07-18","acq_time":"58","satellite":"N20","instrument":"VIIRS","confidence":"n","version":"2.0NRT","bright_ti5":"284.9","frp":"2.4","daynight":"N","commune":"Grande-Synthe","code_insee":"59271","departement":"Nord","region":"Hauts-de-France"}},{"type":"Feature","geometry":{"type":"Point","coordinates":[2.28088,51.04125]},"properties":{"latitude":"51.04125","longitude":"2.28088","bright_ti4":"301.4","scan":"0.46","track":"0.63","acq_date":"2026-07-18","acq_time":"58","satellite":"N20","instrument":"VIIRS","confidence":"n","version":"2.0NRT","bright_ti5":"284.47","frp":"1.4","daynight":"N","commune":"Grande-Synthe","code_insee":"59271","departement":"Nord","region":"Hauts-de-France"}},{"type":"Feature","geometry":{"type":"Point","coordinates":[2.30214,51.04522]},"properties":{"latitude":"51.04522","longitude":"2.30214","bright_ti4":"298.58","scan":"0.45","track":"0.63","acq_date":"2026-07-18","acq_time":"58","satellite":"N20","instrument":"VIIRS","confidence":"n","version":"2.0NRT","bright_ti5":"285.13","frp":"1.47","daynight":"N","commune":"Grande-Synthe","code_insee":"59271","departement":"Nord","region":"Hauts-de-France"}},{"type":"Feature","geometry":{"type":"Point","coordinates":[2.29549,51.04531]},"properties":{"latitude":"51.04531","longitude":"2.29549","bright_ti4":"322.66","scan":"0.46","track":"0.63","acq_date":"2026-07-18","acq_time":"58","satellite":"N20","instrument":"VIIRS","confidence":"n","version":"2.0NRT","bright_ti5":"286.6","frp":"1.47","daynight":"N","commune":"Grande-Synthe","code_insee":"59271","departement":"Nord","region":"Hauts-de-France"}},{"type":"Feature","geometry":{"type":"Point","coordinates":[2.32096,51.0464]},"properties":{"latitude":"51.0464","longitude":"2.32096","bright_ti4":"296.89","scan":"0.45","track":"0.63","acq_date":"2026-07-18","acq_time":"58","satellite":"N20","instrument":"VIIRS","confidence":"n","version":"2.0NRT","bright_ti5":"285.49","frp":"0.93","daynight":"N","commune":"Dunkerque","code_insee":"59183","departement":"Nord","region":"Hauts-de-France"}},{"type":"Feature","geometry":{"type":"Point","coordinates":[9.08481,42.27794]},"properties":{"latitude":"42.27794","longitude":"9.08481","bright_ti4":"311.3","scan":"0.55","track":"0.43","acq_date":"2026-07-18","acq_time":"100","satellite":"N20","instrument":"VIIRS","confidence":"n","version":"2.0NRT","bright_ti5":"291.92","frp":"1.07","daynight":"N","commune":"Corte","code_insee":"2B096","departement":"Haute-Corse","region":"Corse"}},{"type":"Feature","geometry":{"type":"Point","coordinates":[9.08508,42.27817]},"properties":{"latitude":"42.27817","longitude":"9.08508","bright_ti4":"310.88","scan":"0.55","track":"0.43","acq_date":"2026-07-18","acq_time":"100","satellite":"N20","instrument":"VIIRS","confidence":"n","version":"2.0NRT","bright_ti5":"292.17","frp":"2.04","daynight":"N","commune":"Corte","code_insee":"2B096","departement":"Haute-Corse","region":"Corse"}},{"type":"Feature","geometry":{"type":"Point","coordinates":[9.079,42.27853]},"properties":{"latitude":"42.27853","longitude":"9.079","bright_ti4":"313.2","scan":"0.55","track":"0.43","acq_date":"2026-07-18","acq_time":"100","satellite":"N20","instrument":"VIIRS","confidence":"n","version":"2.0NRT","bright_ti5":"291.76","frp":"1.07","daynight":"N","commune":"Corte","code_insee":"2B096","departement":"Haute-Corse","region":"Corse"}},{"type":"Feature","geometry":{"type":"Point","coordinates":[9.07929,42.27877]},"properties":{"latitude":"42.27877","longitude":"9.07929","bright_ti4":"313.29","scan":"0.55","track":"0.43","acq_date":"2026-07-18","acq_time":"100","satellite":"N20","instrument":"VIIRS","confidence":"n","version":"2.0NRT","bright_ti5":"292.04","frp":"1.9","daynight":"N","commune":"Corte","code_insee":"2B096","departement":"Haute-Corse","region":"Corse"}},{"type":"Feature","geometry":{"type":"Point","coordinates":[9.08562,42.28581]},"properties":{"latitude":"42.28581","longitude":"9.08562","bright_ti4":"311.58","scan":"0.55","track":"0.43","acq_date":"2026-07-18","acq_time":"100","satellite":"N20","instrument":"VIIRS","confidence":"n","version":"2.0NRT","bright_ti5":"293.32","frp":"1.89","daynight":"N","commune":"Corte","code_insee":"2B096","departement":"Haute-Corse","region":"Corse"}},{"type":"Feature","geometry":{"type":"Point","coordinates":[9.08589,42.28605]},"properties":{"latitude":"42.28605","longitude":"9.08589","bright_ti4":"310.87","scan":"0.55","track":"0.43","acq_date":"2026-07-18","acq_time":"100","satellite":"N20","instrument":"VIIRS","confidence":"n","version":"2.0NRT","bright_ti5":"293.15","frp":"1.6","daynight":"N","commune":"Corte","code_insee":"2B096","departement":"Haute-Corse","region":"Corse"}},{"type":"Feature","geometry":{"type":"Point","coordinates":[8.94637,42.32374]},"properties":{"latitude":"42.32374","longitude":"8.94637","bright_ti4":"307.91","scan":"0.56","track":"0.43","acq_date":"2026-07-18","acq_time":"100","satellite":"N20","instrument":"VIIRS","confidence":"n","version":"2.0NRT","bright_ti5":"295.39","frp":"1.56","daynight":"N","commune":"Albertacce","code_insee":"2B007","departement":"Haute-Corse","region":"Corse"}},{"type":"Feature","geometry":{"type":"Point","coordinates":[4.89018,43.43426]},"properties":{"latitude":"43.43426","longitude":"4.89018","bright_ti4":"326.94","scan":"0.6","track":"0.53","acq_date":"2026-07-18","acq_time":"100","satellite":"N20","instrument":"VIIRS","confidence":"n","version":"2.0NRT","bright_ti5":"296.78","frp":"6.99","daynight":"N","commune":"Fos-sur-Mer","code_insee":"13039","departement":"Bouches-du-Rhône","region":"Provence-Alpes-Côte d'Azur"}},{"type":"Feature","geometry":{"type":"Point","coordinates":[0.94228,43.70365]},"properties":{"latitude":"43.70365","longitude":"0.94228","bright_ti4":"300.63","scan":"0.48","track":"0.65","acq_date":"2026-07-18","acq_time":"100","satellite":"N20","instrument":"VIIRS","confidence":"n","version":"2.0NRT","bright_ti5":"286.85","frp":"0.72","daynight":"N","commune":"Sirac","code_insee":"32435","departement":"Gers","region":"Occitanie"}},{"type":"Feature","geometry":{"type":"Point","coordinates":[0.93619,43.70381]},"properties":{"latitude":"43.70381","longitude":"0.93619","bright_ti4":"297.92","scan":"0.48","track":"0.65","acq_date":"2026-07-18","acq_time":"100","satellite":"N20","instrument":"VIIRS","confidence":"n","version":"2.0NRT","bright_ti5":"286.37","frp":"0.72","daynight":"N","commune":"Sirac","code_insee":"32435","departement":"Gers","region":"Occitanie"}},{"type":"Feature","geometry":{"type":"Point","coordinates":[5.66597,45.231]},"properties":{"latitude":"45.231","longitude":"5.66597","bright_ti4":"302.17","scan":"0.58","track":"0.52","acq_date":"2026-07-18","acq_time":"100","satellite":"N20","instrument":"VIIRS","confidence":"n","version":"2.0NRT","bright_ti5":"289.09","frp":"0.49","daynight":"N","commune":"Saint-Égrève","code_insee":"38382","departement":"Isère","region":"Auvergne-Rhône-Alpes"}},{"type":"Feature","geometry":{"type":"Point","coordinates":[5.66629,45.23179]},"properties":{"latitude":"45.23179","longitude":"5.66629","bright_ti4":"302.45","scan":"0.58","track":"0.52","acq_date":"2026-07-18","acq_time":"100","satellite":"N20","instrument":"VIIRS","confidence":"n","version":"2.0NRT","bright_ti5":"289.09","frp":"1.3","daynight":"N","commune":"Saint-Égrève","code_insee":"38382","departement":"Isère","region":"Auvergne-Rhône-Alpes"}},{"type":"Feature","geometry":{"type":"Point","coordinates":[5.81875,45.91436]},"properties":{"latitude":"45.91436","longitude":"5.81875","bright_ti4":"302.02","scan":"0.57","track":"0.52","acq_date":"2026-07-18","acq_time":"100","satellite":"N20","instrument":"VIIRS","confidence":"n","version":"2.0NRT","bright_ti5":"289.1","frp":"1.17","daynight":"N","commune":"Anglefort","code_insee":"01010","departement":"Ain","region":"Auvergne-Rhône-Alpes"}},{"type":"Feature","geometry":{"type":"Point","coordinates":[9.08679,42.28764]},"properties":{"latitude":"42.28764","longitude":"9.08679","bright_ti4":"303.03","scan":"0.76","track":"0.77","acq_date":"2026-07-18","acq_time":"241","satellite":"N20","instrument":"VIIRS","confidence":"n","version":"2.0NRT","bright_ti5":"290.69","frp":"2.7","daynight":"N","commune":"Corte","code_insee":"2B096","departement":"Haute-Corse","region":"Corse"}},{"type":"Feature","geometry":{"type":"Point","coordinates":[0.94271,43.70167]},"properties":{"latitude":"43.70167","longitude":"0.94271","bright_ti4":"302.31","scan":"0.57","track":"0.52","acq_date":"2026-07-18","acq_time":"241","satellite":"N20","instrument":"VIIRS","confidence":"n","version":"2.0NRT","bright_ti5":"287.34","frp":"0.72","daynight":"N","commune":"Sirac","code_insee":"32435","departement":"Gers","region":"Occitanie"}},{"type":"Feature","geometry":{"type":"Point","coordinates":[4.69277,44.09054]},"properties":{"latitude":"44.09054","longitude":"4.69277","bright_ti4":"312.39","scan":"0.42","track":"0.61","acq_date":"2026-07-18","acq_time":"241","satellite":"N20","instrument":"VIIRS","confidence":"n","version":"2.0NRT","bright_ti5":"293.34","frp":"1.1","daynight":"N","commune":"Laudun-l'Ardoise","code_insee":"30141","departement":"Gard","region":"Occitanie"}},{"type":"Feature","geometry":{"type":"Point","coordinates":[5.66673,45.23088]},"properties":{"latitude":"45.23088","longitude":"5.66673","bright_ti4":"305.51","scan":"0.43","track":"0.62","acq_date":"2026-07-18","acq_time":"241","satellite":"N20","instrument":"VIIRS","confidence":"n","version":"2.0NRT","bright_ti5":"289.36","frp":"0.36","daynight":"N","commune":"Saint-Égrève","code_insee":"38382","departement":"Isère","region":"Auvergne-Rhône-Alpes"}},{"type":"Feature","geometry":{"type":"Point","coordinates":[5.67021,45.23157]},"properties":{"latitude":"45.23157","longitude":"5.67021","bright_ti4":"301.14","scan":"0.43","track":"0.62","acq_date":"2026-07-18","acq_time":"241","satellite":"N20","instrument":"VIIRS","confidence":"n","version":"2.0NRT","bright_ti5":"289.95","frp":"0.89","daynight":"N","commune":"Saint-Égrève","code_insee":"38382","departement":"Isère","region":"Auvergne-Rhône-Alpes"}},{"type":"Feature","geometry":{"type":"Point","coordinates":[-1.03559,48.10722]},"properties":{"latitude":"48.10722","longitude":"-1.03559","bright_ti4":"300.83","scan":"0.55","track":"0.42","acq_date":"2026-07-18","acq_time":"241","satellite":"N20","instrument":"VIIRS","confidence":"n","version":"2.0NRT","bright_ti5":"289.31","frp":"1.74","daynight":"N","commune":"Saint-Pierre-la-Cour","code_insee":"53247","departement":"Mayenne","region":"Pays de la Loire"}},{"type":"Feature","geometry":{"type":"Point","coordinates":[6.96396,48.69227]},"properties":{"latitude":"48.69227","longitude":"6.96396","bright_ti4":"295.8","scan":"0.38","track":"0.58","acq_date":"2026-07-18","acq_time":"241","satellite":"N20","instrument":"VIIRS","confidence":"n","version":"2.0NRT","bright_ti5":"284.92","frp":"0.76","daynight":"N","commune":"Héming","code_insee":"57314","departement":"Moselle","region":"Grand Est"}},{"type":"Feature","geometry":{"type":"Point","coordinates":[6.96845,48.69302]},"properties":{"latitude":"48.69302","longitude":"6.96845","bright_ti4":"296.8","scan":"0.38","track":"0.59","acq_date":"2026-07-18","acq_time":"241","satellite":"N20","instrument":"VIIRS","confidence":"n","version":"2.0NRT","bright_ti5":"285.24","frp":"0.47","daynight":"N","commune":"Héming","code_insee":"57314","departement":"Moselle","region":"Grand Est"}},{"type":"Feature","geometry":{"type":"Point","coordinates":[2.15699,48.97578]},"properties":{"latitude":"48.97578","longitude":"2.15699","bright_ti4":"296.87","scan":"0.46","track":"0.47","acq_date":"2026-07-18","acq_time":"241","satellite":"N20","instrument":"VIIRS","confidence":"n","version":"2.0NRT","bright_ti5":"285.83","frp":"0.38","daynight":"N","commune":"Saint-Germain-en-Laye","code_insee":"78551","departement":"Yvelines","region":"Île-de-France"}},{"type":"Feature","geometry":{"type":"Point","coordinates":[1.7594,48.98397]},"properties":{"latitude":"48.98397","longitude":"1.7594","bright_ti4":"317.81","scan":"0.45","track":"0.47","acq_date":"2026-07-18","acq_time":"241","satellite":"N20","instrument":"VIIRS","confidence":"n","version":"2.0NRT","bright_ti5":"288.52","frp":"2.37","daynight":"N","commune":"Porcheville","code_insee":"78501","departement":"Yvelines","region":"Île-de-France"}},{"type":"Feature","geometry":{"type":"Point","coordinates":[6.0974,49.32391]},"properties":{"latitude":"49.32391","longitude":"6.0974","bright_ti4":"296.46","scan":"0.33","track":"0.55","acq_date":"2026-07-18","acq_time":"241","satellite":"N20","instrument":"VIIRS","confidence":"n","version":"2.0NRT","bright_ti5":"284.49","frp":"0.6","daynight":"N","commune":"Serémange-Erzange","code_insee":"57647","departement":"Moselle","region":"Grand Est"}},{"type":"Feature","geometry":{"type":"Point","coordinates":[6.0931,49.32515]},"properties":{"latitude":"49.32515","longitude":"6.0931","bright_ti4":"295.76","scan":"0.33","track":"0.55","acq_date":"2026-07-18","acq_time":"241","satellite":"N20","instrument":"VIIRS","confidence":"n","version":"2.0NRT","bright_ti5":"284.25","frp":"0.54","daynight":"N","commune":"Serémange-Erzange","code_insee":"57647","departement":"Moselle","region":"Grand Est"}},{"type":"Feature","geometry":{"type":"Point","coordinates":[6.1004,49.32864]},"properties":{"latitude":"49.32864","longitude":"6.1004","bright_ti4":"307.2","scan":"0.33","track":"0.55","acq_date":"2026-07-18","acq_time":"241","satellite":"N20","instrument":"VIIRS","confidence":"n","version":"2.0NRT","bright_ti5":"284.15","frp":"0.96","daynight":"N","commune":"Serémange-Erzange","code_insee":"57647","departement":"Moselle","region":"Grand Est"}},{"type":"Feature","geometry":{"type":"Point","coordinates":[0.5334,49.47623]},"properties":{"latitude":"49.47623","longitude":"0.5334","bright_ti4":"305.23","scan":"0.39","track":"0.44","acq_date":"2026-07-18","acq_time":"241","satellite":"N20","instrument":"VIIRS","confidence":"n","version":"2.0NRT","bright_ti5":"288.47","frp":"1.36","daynight":"N","commune":"Lillebonne","code_insee":"76384","departement":"Seine-Maritime","region":"Normandie"}},{"type":"Feature","geometry":{"type":"Point","coordinates":[3.49454,50.33769]},"properties":{"latitude":"50.33769","longitude":"3.49454","bright_ti4":"310.05","scan":"0.48","track":"0.48","acq_date":"2026-07-18","acq_time":"241","satellite":"N20","instrument":"VIIRS","confidence":"n","version":"2.0NRT","bright_ti5":"287.1","frp":"1.65","daynight":"N","commune":"Trith-Saint-Léger","code_insee":"59603","departement":"Nord","region":"Hauts-de-France"}},{"type":"Feature","geometry":{"type":"Point","coordinates":[3.56249,50.40158]},"properties":{"latitude":"50.40158","longitude":"3.56249","bright_ti4":"321.78","scan":"0.48","track":"0.48","acq_date":"2026-07-18","acq_time":"241","satellite":"N20","instrument":"VIIRS","confidence":"n","version":"2.0NRT","bright_ti5":"286.97","frp":"2.89","daynight":"N","commune":"Saint-Saulve","code_insee":"59544","departement":"Nord","region":"Hauts-de-France"}},{"type":"Feature","geometry":{"type":"Point","coordinates":[0.0927,42.87279]},"properties":{"latitude":"42.87279","longitude":"0.0927","bright_ti4":"315.87","scan":"0.55","track":"0.51","acq_date":"2026-07-18","acq_time":"243","satellite":"N20","instrument":"VIIRS","confidence":"n","version":"2.0NRT","bright_ti5":"284.23","frp":"4.13","daynight":"N","commune":"Barèges","code_insee":"65481","departement":"Hautes-Pyrénées","region":"Occitanie"}},{"type":"Feature","geometry":{"type":"Point","coordinates":[0.09886,42.8762]},"properties":{"latitude":"42.8762","longitude":"0.09886","bright_ti4":"298.93","scan":"0.55","track":"0.51","acq_date":"2026-07-18","acq_time":"243","satellite":"N20","instrument":"VIIRS","confidence":"n","version":"2.0NRT","bright_ti5":"282.11","frp":"1.7","daynight":"N","commune":"Barèges","code_insee":"65481","departement":"Hautes-Pyrénées","region":"Occitanie"}},{"type":"Feature","geometry":{"type":"Point","coordinates":[9.07836,42.27633]},"properties":{"latitude":"42.27633","longitude":"9.07836","bright_ti4":"351.72","scan":"0.39","track":"0.36","acq_date":"2026-07-18","acq_time":"1223","satellite":"N20","instrument":"VIIRS","confidence":"n","version":"2.0NRT","bright_ti5":"309.38","frp":"9.7","daynight":"D","commune":"Corte","code_insee":"2B096","departement":"Haute-Corse","region":"Corse"}},{"type":"Feature","geometry":{"type":"Point","coordinates":[9.08783,42.27771]},"properties":{"latitude":"42.27771","longitude":"9.08783","bright_ti4":"342.76","scan":"0.39","track":"0.36","acq_date":"2026-07-18","acq_time":"1223","satellite":"N20","instrument":"VIIRS","confidence":"n","version":"2.0NRT","bright_ti5":"308.42","frp":"6.36","daynight":"D","commune":"Corte","code_insee":"2B096","departement":"Haute-Corse","region":"Corse"}},{"type":"Feature","geometry":{"type":"Point","coordinates":[9.08606,42.28428]},"properties":{"latitude":"42.28428","longitude":"9.08606","bright_ti4":"334.41","scan":"0.39","track":"0.36","acq_date":"2026-07-18","acq_time":"1223","satellite":"N20","instrument":"VIIRS","confidence":"n","version":"2.0NRT","bright_ti5":"303.48","frp":"1.97","daynight":"D","commune":"Corte","code_insee":"2B096","departement":"Haute-Corse","region":"Corse"}},{"type":"Feature","geometry":{"type":"Point","coordinates":[8.93515,42.32693]},"properties":{"latitude":"42.32693","longitude":"8.93515","bright_ti4":"330.74","scan":"0.39","track":"0.36","acq_date":"2026-07-18","acq_time":"1223","satellite":"N20","instrument":"VIIRS","confidence":"l","version":"2.0NRT","bright_ti5":"303.7","frp":"1.55","daynight":"D","commune":"Albertacce","code_insee":"2B007","departement":"Haute-Corse","region":"Corse"}},{"type":"Feature","geometry":{"type":"Point","coordinates":[8.93984,42.32763]},"properties":{"latitude":"42.32763","longitude":"8.93984","bright_ti4":"341.44","scan":"0.39","track":"0.36","acq_date":"2026-07-18","acq_time":"1223","satellite":"N20","instrument":"VIIRS","confidence":"n","version":"2.0NRT","bright_ti5":"304.6","frp":"3.6","daynight":"D","commune":"Albertacce","code_insee":"2B007","departement":"Haute-Corse","region":"Corse"}},{"type":"Feature","geometry":{"type":"Point","coordinates":[4.89039,43.43393]},"properties":{"latitude":"43.43393","longitude":"4.89039","bright_ti4":"345.97","scan":"0.42","track":"0.38","acq_date":"2026-07-18","acq_time":"1223","satellite":"N20","instrument":"VIIRS","confidence":"l","version":"2.0NRT","bright_ti5":"315.98","frp":"8.46","daynight":"D","commune":"Fos-sur-Mer","code_insee":"13039","departement":"Bouches-du-Rhône","region":"Provence-Alpes-Côte d'Azur"}},{"type":"Feature","geometry":{"type":"Point","coordinates":[0.12955,46.8327]},"properties":{"latitude":"46.8327","longitude":"0.12955","bright_ti4":"334.8","scan":"0.53","track":"0.42","acq_date":"2026-07-18","acq_time":"1225","satellite":"N20","instrument":"VIIRS","confidence":"n","version":"2.0NRT","bright_ti5":"303.52","frp":"12.61","daynight":"D","commune":"Saint-Jean-de-Sauves","code_insee":"86225","departement":"Vienne","region":"Nouvelle-Aquitaine"}},{"type":"Feature","geometry":{"type":"Point","coordinates":[1.50706,47.72432]},"properties":{"latitude":"47.72432","longitude":"1.50706","bright_ti4":"337.13","scan":"0.46","track":"0.39","acq_date":"2026-07-18","acq_time":"1225","satellite":"N20","instrument":"VIIRS","confidence":"l","version":"2.0NRT","bright_ti5":"311.2","frp":"7.53","daynight":"D","commune":"Mer","code_insee":"41136","departement":"Loir-et-Cher","region":"Centre-Val de Loire"}},{"type":"Feature","geometry":{"type":"Point","coordinates":[-3.97539,48.64094]},"properties":{"latitude":"48.64094","longitude":"-3.97539","bright_ti4":"331.92","scan":"0.47","track":"0.48","acq_date":"2026-07-18","acq_time":"1225","satellite":"N20","instrument":"VIIRS","confidence":"n","version":"2.0NRT","bright_ti5":"299.25","frp":"0.85","daynight":"D","commune":"Plouénan","code_insee":"29184","departement":"Finistère","region":"Bretagne"}},{"type":"Feature","geometry":{"type":"Point","coordinates":[5.6551,49.27725]},"properties":{"latitude":"49.27725","longitude":"5.6551","bright_ti4":"335.58","scan":"0.38","track":"0.36","acq_date":"2026-07-18","acq_time":"1225","satellite":"N20","instrument":"VIIRS","confidence":"n","version":"2.0NRT","bright_ti5":"307.08","frp":"1.86","daynight":"D","commune":"Senon","code_insee":"55481","departement":"Meuse","region":"Grand Est"}},{"type":"Feature","geometry":{"type":"Point","coordinates":[0.32664,45.82627]},"properties":{"latitude":"45.82627","longitude":"0.32664","bright_ti4":"334.72","scan":"0.71","track":"0.75","acq_date":"2026-07-18","acq_time":"1405","satellite":"N20","instrument":"VIIRS","confidence":"n","version":"2.0NRT","bright_ti5":"297.33","frp":"8.62","daynight":"D","commune":"Val-de-Bonnieure","code_insee":"16300","departement":"Charente","region":"Nouvelle-Aquitaine"}},{"type":"Feature","geometry":{"type":"Point","coordinates":[0.33284,45.82793]},"properties":{"latitude":"45.82793","longitude":"0.33284","bright_ti4":"337.99","scan":"0.71","track":"0.75","acq_date":"2026-07-18","acq_time":"1405","satellite":"N20","instrument":"VIIRS","confidence":"n","version":"2.0NRT","bright_ti5":"296.74","frp":"8.11","daynight":"D","commune":"Val-de-Bonnieure","code_insee":"16300","departement":"Charente","region":"Nouvelle-Aquitaine"}},{"type":"Feature","geometry":{"type":"Point","coordinates":[-3.74467,48.21472]},"properties":{"latitude":"48.21472","longitude":"-3.74467","bright_ti4":"355.13","scan":"0.46","track":"0.64","acq_date":"2026-07-18","acq_time":"1408","satellite":"N20","instrument":"VIIRS","confidence":"n","version":"2.0NRT","bright_ti5":"297.99","frp":"6.79","daynight":"D","commune":"Plonévez-du-Faou","code_insee":"29175","departement":"Finistère","region":"Bretagne"}},{"type":"Feature","geometry":{"type":"Point","coordinates":[-3.74567,48.21725]},"properties":{"latitude":"48.21725","longitude":"-3.74567","bright_ti4":"342.4","scan":"0.46","track":"0.64","acq_date":"2026-07-18","acq_time":"1408","satellite":"N20","instrument":"VIIRS","confidence":"n","version":"2.0NRT","bright_ti5":"298.31","frp":"7.07","daynight":"D","commune":"Landeleau","code_insee":"29102","departement":"Finistère","region":"Bretagne"}},{"type":"Feature","geometry":{"type":"Point","coordinates":[-3.73897,48.21738]},"properties":{"latitude":"48.21738","longitude":"-3.73897","bright_ti4":"340.51","scan":"0.46","track":"0.64","acq_date":"2026-07-18","acq_time":"1408","satellite":"N20","instrument":"VIIRS","confidence":"n","version":"2.0NRT","bright_ti5":"296.33","frp":"6.39","daynight":"D","commune":"Landeleau","code_insee":"29102","departement":"Finistère","region":"Bretagne"}},{"type":"Feature","geometry":{"type":"Point","coordinates":[6.96645,48.69082]},"properties":{"latitude":"48.69082","longitude":"6.96645","bright_ti4":"307.09","scan":"0.4","track":"0.37","acq_date":"2026-07-18","acq_time":"143","satellite":"N21","instrument":"VIIRS","confidence":"n","version":"2.0NRT","bright_ti5":"288.52","frp":"1.13","daynight":"N","commune":"Héming","code_insee":"57314","departement":"Moselle","region":"Grand Est"}},{"type":"Feature","geometry":{"type":"Point","coordinates":[3.49139,50.32821]},"properties":{"latitude":"50.32821","longitude":"3.49139","bright_ti4":"299.34","scan":"0.4","track":"0.37","acq_date":"2026-07-18","acq_time":"143","satellite":"N21","instrument":"VIIRS","confidence":"n","version":"2.0NRT","bright_ti5":"287.94","frp":"0.83","daynight":"N","commune":"Trith-Saint-Léger","code_insee":"59603","departement":"Nord","region":"Hauts-de-France"}},{"type":"Feature","geometry":{"type":"Point","coordinates":[3.49468,50.33819]},"properties":{"latitude":"50.33819","longitude":"3.49468","bright_ti4":"309.07","scan":"0.4","track":"0.37","acq_date":"2026-07-18","acq_time":"143","satellite":"N21","instrument":"VIIRS","confidence":"n","version":"2.0NRT","bright_ti5":"289.25","frp":"1.32","daynight":"N","commune":"Trith-Saint-Léger","code_insee":"59603","departement":"Nord","region":"Hauts-de-France"}},{"type":"Feature","geometry":{"type":"Point","coordinates":[3.56291,50.40003]},"properties":{"latitude":"50.40003","longitude":"3.56291","bright_ti4":"317.01","scan":"0.4","track":"0.37","acq_date":"2026-07-18","acq_time":"143","satellite":"N21","instrument":"VIIRS","confidence":"n","version":"2.0NRT","bright_ti5":"288.36","frp":"1.94","daynight":"N","commune":"Saint-Saulve","code_insee":"59544","departement":"Nord","region":"Hauts-de-France"}},{"type":"Feature","geometry":{"type":"Point","coordinates":[3.56402,50.40335]},"properties":{"latitude":"50.40335","longitude":"3.56402","bright_ti4":"302.17","scan":"0.4","track":"0.37","acq_date":"2026-07-18","acq_time":"143","satellite":"N21","instrument":"VIIRS","confidence":"n","version":"2.0NRT","bright_ti5":"286.23","frp":"0.89","daynight":"N","commune":"Saint-Saulve","code_insee":"59544","departement":"Nord","region":"Hauts-de-France"}},{"type":"Feature","geometry":{"type":"Point","coordinates":[1.89633,50.97089]},"properties":{"latitude":"50.97089","longitude":"1.89633","bright_ti4":"298.34","scan":"0.44","track":"0.38","acq_date":"2026-07-18","acq_time":"143","satellite":"N21","instrument":"VIIRS","confidence":"n","version":"2.0NRT","bright_ti5":"285.33","frp":"1.23","daynight":"N","commune":"Calais","code_insee":"62193","departement":"Pas-de-Calais","region":"Hauts-de-France"}},{"type":"Feature","geometry":{"type":"Point","coordinates":[2.28437,51.03259]},"properties":{"latitude":"51.03259","longitude":"2.28437","bright_ti4":"321.03","scan":"0.43","track":"0.38","acq_date":"2026-07-18","acq_time":"143","satellite":"N21","instrument":"VIIRS","confidence":"n","version":"2.0NRT","bright_ti5":"288.9","frp":"3.04","daynight":"N","commune":"Grande-Synthe","code_insee":"59271","departement":"Nord","region":"Hauts-de-France"}},{"type":"Feature","geometry":{"type":"Point","coordinates":[2.27829,51.03334]},"properties":{"latitude":"51.03334","longitude":"2.27829","bright_ti4":"325.37","scan":"0.43","track":"0.38","acq_date":"2026-07-18","acq_time":"143","satellite":"N21","instrument":"VIIRS","confidence":"n","version":"2.0NRT","bright_ti5":"288.15","frp":"2.73","daynight":"N","commune":"Grande-Synthe","code_insee":"59271","departement":"Nord","region":"Hauts-de-France"}},{"type":"Feature","geometry":{"type":"Point","coordinates":[2.29361,51.04219]},"properties":{"latitude":"51.04219","longitude":"2.29361","bright_ti4":"306","scan":"0.43","track":"0.38","acq_date":"2026-07-18","acq_time":"143","satellite":"N21","instrument":"VIIRS","confidence":"n","version":"2.0NRT","bright_ti5":"289.52","frp":"1.51","daynight":"N","commune":"Grande-Synthe","code_insee":"59271","departement":"Nord","region":"Hauts-de-France"}},{"type":"Feature","geometry":{"type":"Point","coordinates":[2.30074,51.0449]},"properties":{"latitude":"51.0449","longitude":"2.30074","bright_ti4":"300.09","scan":"0.43","track":"0.38","acq_date":"2026-07-18","acq_time":"143","satellite":"N21","instrument":"VIIRS","confidence":"n","version":"2.0NRT","bright_ti5":"287.28","frp":"2.08","daynight":"N","commune":"Grande-Synthe","code_insee":"59271","departement":"Nord","region":"Hauts-de-France"}},{"type":"Feature","geometry":{"type":"Point","coordinates":[2.29466,51.04565]},"properties":{"latitude":"51.04565","longitude":"2.29466","bright_ti4":"328.4","scan":"0.43","track":"0.38","acq_date":"2026-07-18","acq_time":"143","satellite":"N21","instrument":"VIIRS","confidence":"n","version":"2.0NRT","bright_ti5":"290.16","frp":"3.95","daynight":"N","commune":"Grande-Synthe","code_insee":"59271","departement":"Nord","region":"Hauts-de-France"}},{"type":"Feature","geometry":{"type":"Point","coordinates":[2.32001,51.0461]},"properties":{"latitude":"51.0461","longitude":"2.32001","bright_ti4":"306.14","scan":"0.43","track":"0.38","acq_date":"2026-07-18","acq_time":"143","satellite":"N21","instrument":"VIIRS","confidence":"n","version":"2.0NRT","bright_ti5":"289.45","frp":"1.8","daynight":"N","commune":"Dunkerque","code_insee":"59183","departement":"Nord","region":"Hauts-de-France"}},{"type":"Feature","geometry":{"type":"Point","coordinates":[9.07818,42.27828]},"properties":{"latitude":"42.27828","longitude":"9.07818","bright_ti4":"311.71","scan":"0.56","track":"0.43","acq_date":"2026-07-18","acq_time":"145","satellite":"N21","instrument":"VIIRS","confidence":"n","version":"2.0NRT","bright_ti5":"291.11","frp":"2.9","daynight":"N","commune":"Corte","code_insee":"2B096","departement":"Haute-Corse","region":"Corse"}},{"type":"Feature","geometry":{"type":"Point","coordinates":[9.08947,42.28413]},"properties":{"latitude":"42.28413","longitude":"9.08947","bright_ti4":"303.03","scan":"0.56","track":"0.43","acq_date":"2026-07-18","acq_time":"145","satellite":"N21","instrument":"VIIRS","confidence":"n","version":"2.0NRT","bright_ti5":"292.45","frp":"1.68","daynight":"N","commune":"Corte","code_insee":"2B096","departement":"Haute-Corse","region":"Corse"}},{"type":"Feature","geometry":{"type":"Point","coordinates":[9.08269,42.28558]},"properties":{"latitude":"42.28558","longitude":"9.08269","bright_ti4":"314.69","scan":"0.56","track":"0.43","acq_date":"2026-07-18","acq_time":"145","satellite":"N21","instrument":"VIIRS","confidence":"n","version":"2.0NRT","bright_ti5":"294.38","frp":"1.68","daynight":"N","commune":"Corte","code_insee":"2B096","departement":"Haute-Corse","region":"Corse"}},{"type":"Feature","geometry":{"type":"Point","coordinates":[8.94357,42.32351]},"properties":{"latitude":"42.32351","longitude":"8.94357","bright_ti4":"316.95","scan":"0.56","track":"0.43","acq_date":"2026-07-18","acq_time":"145","satellite":"N21","instrument":"VIIRS","confidence":"n","version":"2.0NRT","bright_ti5":"296.09","frp":"2.71","daynight":"N","commune":"Albertacce","code_insee":"2B007","departement":"Haute-Corse","region":"Corse"}},{"type":"Feature","geometry":{"type":"Point","coordinates":[0.09545,42.87397]},"properties":{"latitude":"42.87397","longitude":"0.09545","bright_ti4":"317.65","scan":"0.42","track":"0.37","acq_date":"2026-07-18","acq_time":"145","satellite":"N21","instrument":"VIIRS","confidence":"n","version":"2.0NRT","bright_ti5":"284.09","frp":"1.76","daynight":"N","commune":"Barèges","code_insee":"65481","departement":"Hautes-Pyrénées","region":"Occitanie"}},{"type":"Feature","geometry":{"type":"Point","coordinates":[0.08967,42.87475]},"properties":{"latitude":"42.87475","longitude":"0.08967","bright_ti4":"306.84","scan":"0.42","track":"0.37","acq_date":"2026-07-18","acq_time":"145","satellite":"N21","instrument":"VIIRS","confidence":"n","version":"2.0NRT","bright_ti5":"285.68","frp":"1.73","daynight":"N","commune":"Barèges","code_insee":"65481","departement":"Hautes-Pyrénées","region":"Occitanie"}},{"type":"Feature","geometry":{"type":"Point","coordinates":[4.89264,43.43242]},"properties":{"latitude":"43.43242","longitude":"4.89264","bright_ti4":"314.18","scan":"0.4","track":"0.37","acq_date":"2026-07-18","acq_time":"145","satellite":"N21","instrument":"VIIRS","confidence":"n","version":"2.0NRT","bright_ti5":"296.3","frp":"3.6","daynight":"N","commune":"Fos-sur-Mer","code_insee":"13039","departement":"Bouches-du-Rhône","region":"Provence-Alpes-Côte d'Azur"}},{"type":"Feature","geometry":{"type":"Point","coordinates":[4.88783,43.43324]},"properties":{"latitude":"43.43324","longitude":"4.88783","bright_ti4":"329.73","scan":"0.4","track":"0.37","acq_date":"2026-07-18","acq_time":"145","satellite":"N21","instrument":"VIIRS","confidence":"n","version":"2.0NRT","bright_ti5":"298.91","frp":"2.75","daynight":"N","commune":"Fos-sur-Mer","code_insee":"13039","departement":"Bouches-du-Rhône","region":"Provence-Alpes-Côte d'Azur"}},{"type":"Feature","geometry":{"type":"Point","coordinates":[4.8889,43.43654]},"properties":{"latitude":"43.43654","longitude":"4.8889","bright_ti4":"310.82","scan":"0.4","track":"0.37","acq_date":"2026-07-18","acq_time":"145","satellite":"N21","instrument":"VIIRS","confidence":"n","version":"2.0NRT","bright_ti5":"296.24","frp":"2.75","daynight":"N","commune":"Fos-sur-Mer","code_insee":"13039","departement":"Bouches-du-Rhône","region":"Provence-Alpes-Côte d'Azur"}},{"type":"Feature","geometry":{"type":"Point","coordinates":[4.87928,43.4382]},"properties":{"latitude":"43.4382","longitude":"4.87928","bright_ti4":"325.33","scan":"0.4","track":"0.37","acq_date":"2026-07-18","acq_time":"145","satellite":"N21","instrument":"VIIRS","confidence":"n","version":"2.0NRT","bright_ti5":"296.71","frp":"2.14","daynight":"N","commune":"Fos-sur-Mer","code_insee":"13039","departement":"Bouches-du-Rhône","region":"Provence-Alpes-Côte d'Azur"}},{"type":"Feature","geometry":{"type":"Point","coordinates":[0.93937,43.70114]},"properties":{"latitude":"43.70114","longitude":"0.93937","bright_ti4":"311.79","scan":"0.4","track":"0.37","acq_date":"2026-07-18","acq_time":"145","satellite":"N21","instrument":"VIIRS","confidence":"n","version":"2.0NRT","bright_ti5":"288.84","frp":"1.41","daynight":"N","commune":"Touget","code_insee":"32448","departement":"Gers","region":"Occitanie"}},{"type":"Feature","geometry":{"type":"Point","coordinates":[4.65304,43.82803]},"properties":{"latitude":"43.82803","longitude":"4.65304","bright_ti4":"306.37","scan":"0.39","track":"0.36","acq_date":"2026-07-18","acq_time":"145","satellite":"N21","instrument":"VIIRS","confidence":"n","version":"2.0NRT","bright_ti5":"295.1","frp":"0.78","daynight":"N","commune":"Tarascon","code_insee":"13108","departement":"Bouches-du-Rhône","region":"Provence-Alpes-Côte d'Azur"}},{"type":"Feature","geometry":{"type":"Point","coordinates":[5.82127,45.91317]},"properties":{"latitude":"45.91317","longitude":"5.82127","bright_ti4":"301.72","scan":"0.4","track":"0.37","acq_date":"2026-07-18","acq_time":"145","satellite":"N21","instrument":"VIIRS","confidence":"n","version":"2.0NRT","bright_ti5":"291.05","frp":"0.59","daynight":"N","commune":"Anglefort","code_insee":"01010","departement":"Ain","region":"Auvergne-Rhône-Alpes"}},{"type":"Feature","geometry":{"type":"Point","coordinates":[5.5528,47.13494]},"properties":{"latitude":"47.13494","longitude":"5.5528","bright_ti4":"300.6","scan":"0.39","track":"0.36","acq_date":"2026-07-18","acq_time":"145","satellite":"N21","instrument":"VIIRS","confidence":"n","version":"2.0NRT","bright_ti5":"288.27","frp":"0.67","daynight":"N","commune":"Rochefort-sur-Nenon","code_insee":"39462","departement":"Jura","region":"Bourgogne-Franche-Comté"}},{"type":"Feature","geometry":{"type":"Point","coordinates":[-2.7529,47.66782]},"properties":{"latitude":"47.66782","longitude":"-2.7529","bright_ti4":"321.67","scan":"0.39","track":"0.44","acq_date":"2026-07-18","acq_time":"145","satellite":"N21","instrument":"VIIRS","confidence":"n","version":"2.0NRT","bright_ti5":"289.26","frp":"2.08","daynight":"N","commune":"Vannes","code_insee":"56260","departement":"Morbihan","region":"Bretagne"}},{"type":"Feature","geometry":{"type":"Point","coordinates":[-1.03505,48.1083]},"properties":{"latitude":"48.1083","longitude":"-1.03505","bright_ti4":"299.56","scan":"0.51","track":"0.41","acq_date":"2026-07-18","acq_time":"145","satellite":"N21","instrument":"VIIRS","confidence":"n","version":"2.0NRT","bright_ti5":"289.14","frp":"0.84","daynight":"N","commune":"Saint-Pierre-la-Cour","code_insee":"53247","departement":"Mayenne","region":"Pays de la Loire"}},{"type":"Feature","geometry":{"type":"Point","coordinates":[2.98234,48.38711]},"properties":{"latitude":"48.38711","longitude":"2.98234","bright_ti4":"319.25","scan":"0.4","track":"0.37","acq_date":"2026-07-18","acq_time":"145","satellite":"N21","instrument":"VIIRS","confidence":"n","version":"2.0NRT","bright_ti5":"291.29","frp":"1.92","daynight":"N","commune":"Montereau-Fault-Yonne","code_insee":"77305","departement":"Seine-et-Marne","region":"Île-de-France"}},{"type":"Feature","geometry":{"type":"Point","coordinates":[6.10876,48.56353]},"properties":{"latitude":"48.56353","longitude":"6.10876","bright_ti4":"300.98","scan":"0.39","track":"0.36","acq_date":"2026-07-18","acq_time":"145","satellite":"N21","instrument":"VIIRS","confidence":"n","version":"2.0NRT","bright_ti5":"287.69","frp":"0.74","daynight":"N","commune":"Xeuilley","code_insee":"54596","departement":"Meurthe-et-Moselle","region":"Grand Est"}},{"type":"Feature","geometry":{"type":"Point","coordinates":[4.5615,48.76788]},"properties":{"latitude":"48.76788","longitude":"4.5615","bright_ti4":"306.32","scan":"0.39","track":"0.36","acq_date":"2026-07-18","acq_time":"145","satellite":"N21","instrument":"VIIRS","confidence":"n","version":"2.0NRT","bright_ti5":"289.41","frp":"1.17","daynight":"N","commune":"Couvrot","code_insee":"51195","departement":"Marne","region":"Grand Est"}},{"type":"Feature","geometry":{"type":"Point","coordinates":[1.7584,48.98297]},"properties":{"latitude":"48.98297","longitude":"1.7584","bright_ti4":"326.28","scan":"0.43","track":"0.38","acq_date":"2026-07-18","acq_time":"145","satellite":"N21","instrument":"VIIRS","confidence":"n","version":"2.0NRT","bright_ti5":"290.12","frp":"3.03","daynight":"N","commune":"Porcheville","code_insee":"78501","departement":"Yvelines","region":"Île-de-France"}},{"type":"Feature","geometry":{"type":"Point","coordinates":[1.758,48.98191]},"properties":{"latitude":"48.98191","longitude":"1.758","bright_ti4":"301.09","scan":"0.74","track":"0.76","acq_date":"2026-07-18","acq_time":"325","satellite":"N21","instrument":"VIIRS","confidence":"n","version":"2.0NRT","bright_ti5":"285.94","frp":"1.62","daynight":"N","commune":"Porcheville","code_insee":"78501","departement":"Yvelines","region":"Île-de-France"}},{"type":"Feature","geometry":{"type":"Point","coordinates":[9.07576,42.27662]},"properties":{"latitude":"42.27662","longitude":"9.07576","bright_ti4":"367","scan":"0.35","track":"0.57","acq_date":"2026-07-18","acq_time":"1130","satellite":"N21","instrument":"VIIRS","confidence":"h","version":"2.0NRT","bright_ti5":"301.63","frp":"6.34","daynight":"D","commune":"Corte","code_insee":"2B096","departement":"Haute-Corse","region":"Corse"}},{"type":"Feature","geometry":{"type":"Point","coordinates":[0.13087,46.83486]},"properties":{"latitude":"46.83486","longitude":"0.13087","bright_ti4":"341.16","scan":"0.64","track":"0.72","acq_date":"2026-07-18","acq_time":"1132","satellite":"N21","instrument":"VIIRS","confidence":"n","version":"2.0NRT","bright_ti5":"293.95","frp":"8.32","daynight":"D","commune":"Saint-Jean-de-Sauves","code_insee":"86225","departement":"Vienne","region":"Nouvelle-Aquitaine"}},{"type":"Feature","geometry":{"type":"Point","coordinates":[0.09229,42.87485]},"properties":{"latitude":"42.87485","longitude":"0.09229","bright_ti4":"338.57","scan":"0.47","track":"0.4","acq_date":"2026-07-18","acq_time":"1310","satellite":"N21","instrument":"VIIRS","confidence":"n","version":"2.0NRT","bright_ti5":"291.06","frp":"4.85","daynight":"D","commune":"Barèges","code_insee":"65481","departement":"Hautes-Pyrénées","region":"Occitanie"}},{"type":"Feature","geometry":{"type":"Point","coordinates":[0.09713,42.8754]},"properties":{"latitude":"42.8754","longitude":"0.09713","bright_ti4":"330.68","scan":"0.47","track":"0.4","acq_date":"2026-07-18","acq_time":"1310","satellite":"N21","instrument":"VIIRS","confidence":"n","version":"2.0NRT","bright_ti5":"293.06","frp":"4.85","daynight":"D","commune":"Barèges","code_insee":"65481","departement":"Hautes-Pyrénées","region":"Occitanie"}},{"type":"Feature","geometry":{"type":"Point","coordinates":[4.89729,43.44606]},"properties":{"latitude":"43.44606","longitude":"4.89729","bright_ti4":"339.05","scan":"0.53","track":"0.5","acq_date":"2026-07-18","acq_time":"1310","satellite":"N21","instrument":"VIIRS","confidence":"l","version":"2.0NRT","bright_ti5":"311.42","frp":"10.4","daynight":"D","commune":"Fos-sur-Mer","code_insee":"13039","departement":"Bouches-du-Rhône","region":"Provence-Alpes-Côte d'Azur"}},{"type":"Feature","geometry":{"type":"Point","coordinates":[0.18069,45.89022]},"properties":{"latitude":"45.89022","longitude":"0.18069","bright_ti4":"333.49","scan":"0.51","track":"0.41","acq_date":"2026-07-18","acq_time":"1312","satellite":"N21","instrument":"VIIRS","confidence":"l","version":"2.0NRT","bright_ti5":"304.46","frp":"2.2","daynight":"D","commune":"Mansle-les-Fontaines","code_insee":"16206","departement":"Charente","region":"Nouvelle-Aquitaine"}},{"type":"Feature","geometry":{"type":"Point","coordinates":[4.0264,49.01957]},"properties":{"latitude":"49.01957","longitude":"4.0264","bright_ti4":"339.11","scan":"0.55","track":"0.51","acq_date":"2026-07-18","acq_time":"1312","satellite":"N21","instrument":"VIIRS","confidence":"n","version":"2.0NRT","bright_ti5":"300.42","frp":"12.67","daynight":"D","commune":"Chouilly","code_insee":"51153","departement":"Marne","region":"Grand Est"}},{"type":"Feature","geometry":{"type":"Point","coordinates":[4.48248,49.07016]},"properties":{"latitude":"49.07016","longitude":"4.48248","bright_ti4":"367","scan":"0.57","track":"0.52","acq_date":"2026-07-18","acq_time":"1312","satellite":"N21","instrument":"VIIRS","confidence":"h","version":"2.0NRT","bright_ti5":"331.84","frp":"193.51","daynight":"D","commune":"La Cheppe","code_insee":"51147","departement":"Marne","region":"Grand Est"}},{"type":"Feature","geometry":{"type":"Point","coordinates":[2.29413,51.04554]},"properties":{"latitude":"51.04554","longitude":"2.29413","bright_ti4":"339.21","scan":"0.48","track":"0.48","acq_date":"2026-07-18","acq_time":"1314","satellite":"N21","instrument":"VIIRS","confidence":"n","version":"2.0NRT","bright_ti5":"295.19","frp":"9.98","daynight":"D","commune":"Grande-Synthe","code_insee":"59271","departement":"Nord","region":"Hauts-de-France"}}]}