{"type":"FeatureCollection","features":[{"type":"Feature","geometry":{"type":"Point","coordinates":[6.11255,48.56297]},"properties":{"latitude":"48.56297","longitude":"6.11255","bright_ti4":"303.19","scan":"0.4","track":"0.37","acq_date":"2026-07-16","acq_time":"137","satellite":"N20","instrument":"VIIRS","confidence":"n","version":"2.0NRT","bright_ti5":"289.78","frp":"0.84","daynight":"N","commune":"Frolois","code_insee":"54214","departement":"Meurthe-et-Moselle","region":"Grand Est"}},{"type":"Feature","geometry":{"type":"Point","coordinates":[6.96514,48.69193]},"properties":{"latitude":"48.69193","longitude":"6.96514","bright_ti4":"300.85","scan":"0.39","track":"0.36","acq_date":"2026-07-16","acq_time":"137","satellite":"N20","instrument":"VIIRS","confidence":"n","version":"2.0NRT","bright_ti5":"289.21","frp":"0.67","daynight":"N","commune":"Héming","code_insee":"57314","departement":"Moselle","region":"Grand Est"}},{"type":"Feature","geometry":{"type":"Point","coordinates":[4.56416,48.77017]},"properties":{"latitude":"48.77017","longitude":"4.56416","bright_ti4":"302.58","scan":"0.43","track":"0.38","acq_date":"2026-07-16","acq_time":"137","satellite":"N20","instrument":"VIIRS","confidence":"n","version":"2.0NRT","bright_ti5":"291.56","frp":"0.66","daynight":"N","commune":"Couvrot","code_insee":"51195","departement":"Marne","region":"Grand Est"}},{"type":"Feature","geometry":{"type":"Point","coordinates":[6.05628,48.88403]},"properties":{"latitude":"48.88403","longitude":"6.05628","bright_ti4":"310.03","scan":"0.4","track":"0.37","acq_date":"2026-07-16","acq_time":"137","satellite":"N20","instrument":"VIIRS","confidence":"n","version":"2.0NRT","bright_ti5":"289.68","frp":"1.25","daynight":"N","commune":"Blénod-lès-Pont-à-Mousson","code_insee":"54079","departement":"Meurthe-et-Moselle","region":"Grand Est"}},{"type":"Feature","geometry":{"type":"Point","coordinates":[1.76345,48.98222]},"properties":{"latitude":"48.98222","longitude":"1.76345","bright_ti4":"302.24","scan":"0.53","track":"0.42","acq_date":"2026-07-16","acq_time":"137","satellite":"N20","instrument":"VIIRS","confidence":"n","version":"2.0NRT","bright_ti5":"290.8","frp":"0.84","daynight":"N","commune":"Porcheville","code_insee":"78501","departement":"Yvelines","region":"Île-de-France"}},{"type":"Feature","geometry":{"type":"Point","coordinates":[1.76229,48.98354]},"properties":{"latitude":"48.98354","longitude":"1.76229","bright_ti4":"311.48","scan":"0.53","track":"0.42","acq_date":"2026-07-16","acq_time":"137","satellite":"N20","instrument":"VIIRS","confidence":"n","version":"2.0NRT","bright_ti5":"291.96","frp":"1.23","daynight":"N","commune":"Porcheville","code_insee":"78501","departement":"Yvelines","region":"Île-de-France"}},{"type":"Feature","geometry":{"type":"Point","coordinates":[1.76443,48.98606]},"properties":{"latitude":"48.98606","longitude":"1.76443","bright_ti4":"301.98","scan":"0.53","track":"0.42","acq_date":"2026-07-16","acq_time":"137","satellite":"N20","instrument":"VIIRS","confidence":"n","version":"2.0NRT","bright_ti5":"290.16","frp":"0.84","daynight":"N","commune":"Porcheville","code_insee":"78501","departement":"Yvelines","region":"Île-de-France"}},{"type":"Feature","geometry":{"type":"Point","coordinates":[3.12669,49.17653]},"properties":{"latitude":"49.17653","longitude":"3.12669","bright_ti4":"299.08","scan":"0.48","track":"0.4","acq_date":"2026-07-16","acq_time":"137","satellite":"N20","instrument":"VIIRS","confidence":"n","version":"2.0NRT","bright_ti5":"288.63","frp":"0.36","daynight":"N","commune":"La Ferté-Milon","code_insee":"02307","departement":"Aisne","region":"Hauts-de-France"}},{"type":"Feature","geometry":{"type":"Point","coordinates":[0.53634,49.47842]},"properties":{"latitude":"49.47842","longitude":"0.53634","bright_ti4":"300.75","scan":"0.4","track":"0.44","acq_date":"2026-07-16","acq_time":"137","satellite":"N20","instrument":"VIIRS","confidence":"n","version":"2.0NRT","bright_ti5":"287.24","frp":"0.7","daynight":"N","commune":"Port-Jérôme-sur-Seine","code_insee":"76476","departement":"Seine-Maritime","region":"Normandie"}},{"type":"Feature","geometry":{"type":"Point","coordinates":[2.26667,51.01276]},"properties":{"latitude":"51.01276","longitude":"2.26667","bright_ti4":"301.31","scan":"0.54","track":"0.42","acq_date":"2026-07-16","acq_time":"137","satellite":"N20","instrument":"VIIRS","confidence":"n","version":"2.0NRT","bright_ti5":"290.64","frp":"0.62","daynight":"N","commune":"Dunkerque","code_insee":"59183","departement":"Nord","region":"Hauts-de-France"}},{"type":"Feature","geometry":{"type":"Point","coordinates":[2.27052,51.02821]},"properties":{"latitude":"51.02821","longitude":"2.27052","bright_ti4":"324.33","scan":"0.54","track":"0.42","acq_date":"2026-07-16","acq_time":"137","satellite":"N20","instrument":"VIIRS","confidence":"n","version":"2.0NRT","bright_ti5":"292.54","frp":"3.09","daynight":"N","commune":"Grande-Synthe","code_insee":"59271","departement":"Nord","region":"Hauts-de-France"}},{"type":"Feature","geometry":{"type":"Point","coordinates":[2.2878,51.03444]},"properties":{"latitude":"51.03444","longitude":"2.2878","bright_ti4":"329.01","scan":"0.54","track":"0.42","acq_date":"2026-07-16","acq_time":"137","satellite":"N20","instrument":"VIIRS","confidence":"n","version":"2.0NRT","bright_ti5":"292.93","frp":"4.22","daynight":"N","commune":"Grande-Synthe","code_insee":"59271","departement":"Nord","region":"Hauts-de-France"}},{"type":"Feature","geometry":{"type":"Point","coordinates":[2.29833,51.04527]},"properties":{"latitude":"51.04527","longitude":"2.29833","bright_ti4":"337.3","scan":"0.54","track":"0.42","acq_date":"2026-07-16","acq_time":"137","satellite":"N20","instrument":"VIIRS","confidence":"n","version":"2.0NRT","bright_ti5":"293.36","frp":"8.73","daynight":"N","commune":"Grande-Synthe","code_insee":"59271","departement":"Nord","region":"Hauts-de-France"}},{"type":"Feature","geometry":{"type":"Point","coordinates":[9.08554,42.27965]},"properties":{"latitude":"42.27965","longitude":"9.08554","bright_ti4":"340.99","scan":"0.43","track":"0.38","acq_date":"2026-07-16","acq_time":"139","satellite":"N20","instrument":"VIIRS","confidence":"n","version":"2.0NRT","bright_ti5":"300.44","frp":"29.21","daynight":"N","commune":"Corte","code_insee":"2B096","departement":"Haute-Corse","region":"Corse"}},{"type":"Feature","geometry":{"type":"Point","coordinates":[9.08686,42.28303]},"properties":{"latitude":"42.28303","longitude":"9.08686","bright_ti4":"327.05","scan":"0.43","track":"0.38","acq_date":"2026-07-16","acq_time":"139","satellite":"N20","instrument":"VIIRS","confidence":"n","version":"2.0NRT","bright_ti5":"293.98","frp":"2.88","daynight":"N","commune":"Corte","code_insee":"2B096","departement":"Haute-Corse","region":"Corse"}},{"type":"Feature","geometry":{"type":"Point","coordinates":[8.93825,42.32198]},"properties":{"latitude":"42.32198","longitude":"8.93825","bright_ti4":"336.17","scan":"0.43","track":"0.38","acq_date":"2026-07-16","acq_time":"139","satellite":"N20","instrument":"VIIRS","confidence":"n","version":"2.0NRT","bright_ti5":"297.84","frp":"5.55","daynight":"N","commune":"Albertacce","code_insee":"2B007","departement":"Haute-Corse","region":"Corse"}},{"type":"Feature","geometry":{"type":"Point","coordinates":[8.93298,42.32298]},"properties":{"latitude":"42.32298","longitude":"8.93298","bright_ti4":"348.09","scan":"0.43","track":"0.38","acq_date":"2026-07-16","acq_time":"139","satellite":"N20","instrument":"VIIRS","confidence":"n","version":"2.0NRT","bright_ti5":"298.1","frp":"5.55","daynight":"N","commune":"Albertacce","code_insee":"2B007","departement":"Haute-Corse","region":"Corse"}},{"type":"Feature","geometry":{"type":"Point","coordinates":[8.92778,42.32396]},"properties":{"latitude":"42.32396","longitude":"8.92778","bright_ti4":"314.98","scan":"0.43","track":"0.38","acq_date":"2026-07-16","acq_time":"139","satellite":"N20","instrument":"VIIRS","confidence":"n","version":"2.0NRT","bright_ti5":"295.12","frp":"1.45","daynight":"N","commune":"Albertacce","code_insee":"2B007","departement":"Haute-Corse","region":"Corse"}},{"type":"Feature","geometry":{"type":"Point","coordinates":[8.92263,42.32493]},"properties":{"latitude":"42.32493","longitude":"8.92263","bright_ti4":"305.15","scan":"0.43","track":"0.38","acq_date":"2026-07-16","acq_time":"139","satellite":"N20","instrument":"VIIRS","confidence":"n","version":"2.0NRT","bright_ti5":"294.3","frp":"1.45","daynight":"N","commune":"Albertacce","code_insee":"2B007","departement":"Haute-Corse","region":"Corse"}},{"type":"Feature","geometry":{"type":"Point","coordinates":[8.93974,42.32532]},"properties":{"latitude":"42.32532","longitude":"8.93974","bright_ti4":"322.52","scan":"0.43","track":"0.38","acq_date":"2026-07-16","acq_time":"139","satellite":"N20","instrument":"VIIRS","confidence":"n","version":"2.0NRT","bright_ti5":"298","frp":"2.84","daynight":"N","commune":"Albertacce","code_insee":"2B007","departement":"Haute-Corse","region":"Corse"}},{"type":"Feature","geometry":{"type":"Point","coordinates":[8.91744,42.3259]},"properties":{"latitude":"42.3259","longitude":"8.91744","bright_ti4":"305.36","scan":"0.43","track":"0.38","acq_date":"2026-07-16","acq_time":"139","satellite":"N20","instrument":"VIIRS","confidence":"n","version":"2.0NRT","bright_ti5":"294.23","frp":"1.72","daynight":"N","commune":"Albertacce","code_insee":"2B007","departement":"Haute-Corse","region":"Corse"}},{"type":"Feature","geometry":{"type":"Point","coordinates":[8.93453,42.3263]},"properties":{"latitude":"42.3263","longitude":"8.93453","bright_ti4":"324.99","scan":"0.43","track":"0.38","acq_date":"2026-07-16","acq_time":"139","satellite":"N20","instrument":"VIIRS","confidence":"n","version":"2.0NRT","bright_ti5":"297.1","frp":"2.84","daynight":"N","commune":"Albertacce","code_insee":"2B007","departement":"Haute-Corse","region":"Corse"}},{"type":"Feature","geometry":{"type":"Point","coordinates":[8.91221,42.32689]},"properties":{"latitude":"42.32689","longitude":"8.91221","bright_ti4":"321.64","scan":"0.43","track":"0.38","acq_date":"2026-07-16","acq_time":"139","satellite":"N20","instrument":"VIIRS","confidence":"n","version":"2.0NRT","bright_ti5":"294.53","frp":"1.72","daynight":"N","commune":"Albertacce","code_insee":"2B007","departement":"Haute-Corse","region":"Corse"}},{"type":"Feature","geometry":{"type":"Point","coordinates":[8.9294,42.32726]},"properties":{"latitude":"42.32726","longitude":"8.9294","bright_ti4":"307.12","scan":"0.43","track":"0.38","acq_date":"2026-07-16","acq_time":"139","satellite":"N20","instrument":"VIIRS","confidence":"n","version":"2.0NRT","bright_ti5":"296.27","frp":"2.89","daynight":"N","commune":"Albertacce","code_insee":"2B007","departement":"Haute-Corse","region":"Corse"}},{"type":"Feature","geometry":{"type":"Point","coordinates":[8.90698,42.32787]},"properties":{"latitude":"42.32787","longitude":"8.90698","bright_ti4":"309.04","scan":"0.43","track":"0.38","acq_date":"2026-07-16","acq_time":"139","satellite":"N20","instrument":"VIIRS","confidence":"n","version":"2.0NRT","bright_ti5":"293.06","frp":"1.17","daynight":"N","commune":"Albertacce","code_insee":"2B007","departement":"Haute-Corse","region":"Corse"}},{"type":"Feature","geometry":{"type":"Point","coordinates":[8.90162,42.32888]},"properties":{"latitude":"42.32888","longitude":"8.90162","bright_ti4":"311.59","scan":"0.43","track":"0.38","acq_date":"2026-07-16","acq_time":"139","satellite":"N20","instrument":"VIIRS","confidence":"n","version":"2.0NRT","bright_ti5":"292.32","frp":"1.17","daynight":"N","commune":"Albertacce","code_insee":"2B007","departement":"Haute-Corse","region":"Corse"}},{"type":"Feature","geometry":{"type":"Point","coordinates":[1.04987,42.83857]},"properties":{"latitude":"42.83857","longitude":"1.04987","bright_ti4":"305.17","scan":"0.49","track":"0.4","acq_date":"2026-07-16","acq_time":"139","satellite":"N20","instrument":"VIIRS","confidence":"n","version":"2.0NRT","bright_ti5":"289.1","frp":"3.08","daynight":"N","commune":"Bordes-Uchentein","code_insee":"09062","departement":"Ariège","region":"Occitanie"}},{"type":"Feature","geometry":{"type":"Point","coordinates":[1.0424,42.83939]},"properties":{"latitude":"42.83939","longitude":"1.0424","bright_ti4":"352.81","scan":"0.49","track":"0.4","acq_date":"2026-07-16","acq_time":"139","satellite":"N20","instrument":"VIIRS","confidence":"n","version":"2.0NRT","bright_ti5":"297.49","frp":"7.53","daynight":"N","commune":"Bordes-Uchentein","code_insee":"09062","departement":"Ariège","region":"Occitanie"}},{"type":"Feature","geometry":{"type":"Point","coordinates":[1.03471,42.84024]},"properties":{"latitude":"42.84024","longitude":"1.03471","bright_ti4":"316.28","scan":"0.49","track":"0.4","acq_date":"2026-07-16","acq_time":"139","satellite":"N20","instrument":"VIIRS","confidence":"n","version":"2.0NRT","bright_ti5":"290.34","frp":"7.53","daynight":"N","commune":"Bordes-Uchentein","code_insee":"09062","departement":"Ariège","region":"Occitanie"}},{"type":"Feature","geometry":{"type":"Point","coordinates":[1.05074,42.84224]},"properties":{"latitude":"42.84224","longitude":"1.05074","bright_ti4":"317.56","scan":"0.49","track":"0.4","acq_date":"2026-07-16","acq_time":"139","satellite":"N20","instrument":"VIIRS","confidence":"n","version":"2.0NRT","bright_ti5":"290.27","frp":"2.1","daynight":"N","commune":"Arrien-en-Bethmale","code_insee":"09017","departement":"Ariège","region":"Occitanie"}},{"type":"Feature","geometry":{"type":"Point","coordinates":[1.0438,42.84301]},"properties":{"latitude":"42.84301","longitude":"1.0438","bright_ti4":"321.44","scan":"0.49","track":"0.4","acq_date":"2026-07-16","acq_time":"139","satellite":"N20","instrument":"VIIRS","confidence":"n","version":"2.0NRT","bright_ti5":"289.86","frp":"2.85","daynight":"N","commune":"Bordes-Uchentein","code_insee":"09062","departement":"Ariège","region":"Occitanie"}},{"type":"Feature","geometry":{"type":"Point","coordinates":[4.8964,43.43398]},"properties":{"latitude":"43.43398","longitude":"4.8964","bright_ti4":"315.06","scan":"0.39","track":"0.36","acq_date":"2026-07-16","acq_time":"139","satellite":"N20","instrument":"VIIRS","confidence":"n","version":"2.0NRT","bright_ti5":"296.1","frp":"2.07","daynight":"N","commune":"Fos-sur-Mer","code_insee":"13039","departement":"Bouches-du-Rhône","region":"Provence-Alpes-Côte d'Azur"}},{"type":"Feature","geometry":{"type":"Point","coordinates":[4.89163,43.43467]},"properties":{"latitude":"43.43467","longitude":"4.89163","bright_ti4":"341.25","scan":"0.39","track":"0.36","acq_date":"2026-07-16","acq_time":"139","satellite":"N20","instrument":"VIIRS","confidence":"n","version":"2.0NRT","bright_ti5":"297.12","frp":"2.07","daynight":"N","commune":"Fos-sur-Mer","code_insee":"13039","departement":"Bouches-du-Rhône","region":"Provence-Alpes-Côte d'Azur"}},{"type":"Feature","geometry":{"type":"Point","coordinates":[4.88686,43.43537]},"properties":{"latitude":"43.43537","longitude":"4.88686","bright_ti4":"315.71","scan":"0.39","track":"0.36","acq_date":"2026-07-16","acq_time":"139","satellite":"N20","instrument":"VIIRS","confidence":"n","version":"2.0NRT","bright_ti5":"295.68","frp":"2.67","daynight":"N","commune":"Fos-sur-Mer","code_insee":"13039","departement":"Bouches-du-Rhône","region":"Provence-Alpes-Côte d'Azur"}},{"type":"Feature","geometry":{"type":"Point","coordinates":[4.89255,43.43797]},"properties":{"latitude":"43.43797","longitude":"4.89255","bright_ti4":"312.64","scan":"0.39","track":"0.36","acq_date":"2026-07-16","acq_time":"139","satellite":"N20","instrument":"VIIRS","confidence":"n","version":"2.0NRT","bright_ti5":"295.92","frp":"2.07","daynight":"N","commune":"Fos-sur-Mer","code_insee":"13039","departement":"Bouches-du-Rhône","region":"Provence-Alpes-Côte d'Azur"}},{"type":"Feature","geometry":{"type":"Point","coordinates":[4.88391,43.44267]},"properties":{"latitude":"43.44267","longitude":"4.88391","bright_ti4":"318.94","scan":"0.39","track":"0.36","acq_date":"2026-07-16","acq_time":"139","satellite":"N20","instrument":"VIIRS","confidence":"n","version":"2.0NRT","bright_ti5":"295.13","frp":"1","daynight":"N","commune":"Fos-sur-Mer","code_insee":"13039","departement":"Bouches-du-Rhône","region":"Provence-Alpes-Côte d'Azur"}},{"type":"Feature","geometry":{"type":"Point","coordinates":[4.89915,43.44387]},"properties":{"latitude":"43.44387","longitude":"4.89915","bright_ti4":"327.07","scan":"0.39","track":"0.36","acq_date":"2026-07-16","acq_time":"139","satellite":"N20","instrument":"VIIRS","confidence":"n","version":"2.0NRT","bright_ti5":"296.3","frp":"2.82","daynight":"N","commune":"Fos-sur-Mer","code_insee":"13039","departement":"Bouches-du-Rhône","region":"Provence-Alpes-Côte d'Azur"}},{"type":"Feature","geometry":{"type":"Point","coordinates":[4.8896,43.44527]},"properties":{"latitude":"43.44527","longitude":"4.8896","bright_ti4":"310.46","scan":"0.39","track":"0.36","acq_date":"2026-07-16","acq_time":"139","satellite":"N20","instrument":"VIIRS","confidence":"n","version":"2.0NRT","bright_ti5":"294.92","frp":"1","daynight":"N","commune":"Fos-sur-Mer","code_insee":"13039","departement":"Bouches-du-Rhône","region":"Provence-Alpes-Côte d'Azur"}},{"type":"Feature","geometry":{"type":"Point","coordinates":[4.89529,43.44786]},"properties":{"latitude":"43.44786","longitude":"4.89529","bright_ti4":"328.98","scan":"0.39","track":"0.36","acq_date":"2026-07-16","acq_time":"139","satellite":"N20","instrument":"VIIRS","confidence":"n","version":"2.0NRT","bright_ti5":"295.71","frp":"2.85","daynight":"N","commune":"Fos-sur-Mer","code_insee":"13039","departement":"Bouches-du-Rhône","region":"Provence-Alpes-Côte d'Azur"}},{"type":"Feature","geometry":{"type":"Point","coordinates":[4.03057,44.5423]},"properties":{"latitude":"44.5423","longitude":"4.03057","bright_ti4":"307.34","scan":"0.41","track":"0.37","acq_date":"2026-07-16","acq_time":"139","satellite":"N20","instrument":"VIIRS","confidence":"n","version":"2.0NRT","bright_ti5":"295.05","frp":"1.43","daynight":"N","commune":"Sablières","code_insee":"07202","departement":"Ardèche","region":"Auvergne-Rhône-Alpes"}},{"type":"Feature","geometry":{"type":"Point","coordinates":[4.02562,44.54296]},"properties":{"latitude":"44.54296","longitude":"4.02562","bright_ti4":"312.34","scan":"0.41","track":"0.37","acq_date":"2026-07-16","acq_time":"139","satellite":"N20","instrument":"VIIRS","confidence":"n","version":"2.0NRT","bright_ti5":"292.92","frp":"1.61","daynight":"N","commune":"Montselgues","code_insee":"07163","departement":"Ardèche","region":"Auvergne-Rhône-Alpes"}},{"type":"Feature","geometry":{"type":"Point","coordinates":[5.66668,45.22998]},"properties":{"latitude":"45.22998","longitude":"5.66668","bright_ti4":"305","scan":"0.39","track":"0.36","acq_date":"2026-07-16","acq_time":"139","satellite":"N20","instrument":"VIIRS","confidence":"n","version":"2.0NRT","bright_ti5":"291.41","frp":"0.85","daynight":"N","commune":"Saint-Égrève","code_insee":"38382","departement":"Isère","region":"Auvergne-Rhône-Alpes"}},{"type":"Feature","geometry":{"type":"Point","coordinates":[5.82209,45.91306]},"properties":{"latitude":"45.91306","longitude":"5.82209","bright_ti4":"296.65","scan":"0.39","track":"0.36","acq_date":"2026-07-16","acq_time":"139","satellite":"N20","instrument":"VIIRS","confidence":"n","version":"2.0NRT","bright_ti5":"284.22","frp":"0.53","daynight":"N","commune":"Anglefort","code_insee":"01010","departement":"Ain","region":"Auvergne-Rhône-Alpes"}},{"type":"Feature","geometry":{"type":"Point","coordinates":[-0.13896,46.80795]},"properties":{"latitude":"46.80795","longitude":"-0.13896","bright_ti4":"298.07","scan":"0.4","track":"0.44","acq_date":"2026-07-16","acq_time":"139","satellite":"N20","instrument":"VIIRS","confidence":"n","version":"2.0NRT","bright_ti5":"285.65","frp":"0.5","daynight":"N","commune":"Airvault","code_insee":"79005","departement":"Deux-Sèvres","region":"Nouvelle-Aquitaine"}},{"type":"Feature","geometry":{"type":"Point","coordinates":[-0.14067,46.80897]},"properties":{"latitude":"46.80897","longitude":"-0.14067","bright_ti4":"299.11","scan":"0.4","track":"0.44","acq_date":"2026-07-16","acq_time":"139","satellite":"N20","instrument":"VIIRS","confidence":"n","version":"2.0NRT","bright_ti5":"285.38","frp":"0.37","daynight":"N","commune":"Airvault","code_insee":"79005","departement":"Deux-Sèvres","region":"Nouvelle-Aquitaine"}},{"type":"Feature","geometry":{"type":"Point","coordinates":[4.17933,46.97826]},"properties":{"latitude":"46.97826","longitude":"4.17933","bright_ti4":"318.46","scan":"0.42","track":"0.38","acq_date":"2026-07-16","acq_time":"139","satellite":"N20","instrument":"VIIRS","confidence":"n","version":"2.0NRT","bright_ti5":"285.76","frp":"2.11","daynight":"N","commune":"La Grande-Verrière","code_insee":"71223","departement":"Saône-et-Loire","region":"Bourgogne-Franche-Comté"}},{"type":"Feature","geometry":{"type":"Point","coordinates":[4.17377,46.97898]},"properties":{"latitude":"46.97898","longitude":"4.17377","bright_ti4":"297.68","scan":"0.42","track":"0.38","acq_date":"2026-07-16","acq_time":"139","satellite":"N20","instrument":"VIIRS","confidence":"n","version":"2.0NRT","bright_ti5":"283.28","frp":"0.4","daynight":"N","commune":"La Grande-Verrière","code_insee":"71223","departement":"Saône-et-Loire","region":"Bourgogne-Franche-Comté"}},{"type":"Feature","geometry":{"type":"Point","coordinates":[0.38309,47.61614]},"properties":{"latitude":"47.61614","longitude":"0.38309","bright_ti4":"336.39","scan":"0.39","track":"0.44","acq_date":"2026-07-16","acq_time":"139","satellite":"N20","instrument":"VIIRS","confidence":"n","version":"2.0NRT","bright_ti5":"280","frp":"4.42","daynight":"N","commune":"Saint-Aubin-le-Dépeint","code_insee":"37207","departement":"Indre-et-Loire","region":"Centre-Val de Loire"}},{"type":"Feature","geometry":{"type":"Point","coordinates":[0.37789,47.61663]},"properties":{"latitude":"47.61663","longitude":"0.37789","bright_ti4":"316.7","scan":"0.39","track":"0.44","acq_date":"2026-07-16","acq_time":"139","satellite":"N20","instrument":"VIIRS","confidence":"n","version":"2.0NRT","bright_ti5":"274.89","frp":"4.42","daynight":"N","commune":"Saint-Aubin-le-Dépeint","code_insee":"37207","departement":"Indre-et-Loire","region":"Centre-Val de Loire"}},{"type":"Feature","geometry":{"type":"Point","coordinates":[0.38506,47.61663]},"properties":{"latitude":"47.61663","longitude":"0.38506","bright_ti4":"313.24","scan":"0.39","track":"0.44","acq_date":"2026-07-16","acq_time":"139","satellite":"N20","instrument":"VIIRS","confidence":"n","version":"2.0NRT","bright_ti5":"275.96","frp":"6.17","daynight":"N","commune":"Saint-Aubin-le-Dépeint","code_insee":"37207","departement":"Indre-et-Loire","region":"Centre-Val de Loire"}},{"type":"Feature","geometry":{"type":"Point","coordinates":[0.37985,47.6171]},"properties":{"latitude":"47.6171","longitude":"0.37985","bright_ti4":"342.79","scan":"0.39","track":"0.44","acq_date":"2026-07-16","acq_time":"139","satellite":"N20","instrument":"VIIRS","confidence":"n","version":"2.0NRT","bright_ti5":"279.78","frp":"7.28","daynight":"N","commune":"Saint-Aubin-le-Dépeint","code_insee":"37207","departement":"Indre-et-Loire","region":"Centre-Val de Loire"}},{"type":"Feature","geometry":{"type":"Point","coordinates":[0.38388,47.62016]},"properties":{"latitude":"47.62016","longitude":"0.38388","bright_ti4":"300.73","scan":"0.39","track":"0.44","acq_date":"2026-07-16","acq_time":"139","satellite":"N20","instrument":"VIIRS","confidence":"n","version":"2.0NRT","bright_ti5":"275.31","frp":"4.42","daynight":"N","commune":"Saint-Aubin-le-Dépeint","code_insee":"37207","departement":"Indre-et-Loire","region":"Centre-Val de Loire"}},{"type":"Feature","geometry":{"type":"Point","coordinates":[0.37867,47.62066]},"properties":{"latitude":"47.62066","longitude":"0.37867","bright_ti4":"295.02","scan":"0.39","track":"0.44","acq_date":"2026-07-16","acq_time":"139","satellite":"N20","instrument":"VIIRS","confidence":"n","version":"2.0NRT","bright_ti5":"274.9","frp":"4.42","daynight":"N","commune":"Saint-Aubin-le-Dépeint","code_insee":"37207","departement":"Indre-et-Loire","region":"Centre-Val de Loire"}},{"type":"Feature","geometry":{"type":"Point","coordinates":[0.38064,47.62112]},"properties":{"latitude":"47.62112","longitude":"0.38064","bright_ti4":"295.33","scan":"0.39","track":"0.44","acq_date":"2026-07-16","acq_time":"139","satellite":"N20","instrument":"VIIRS","confidence":"n","version":"2.0NRT","bright_ti5":"275.19","frp":"7.28","daynight":"N","commune":"Saint-Aubin-le-Dépeint","code_insee":"37207","departement":"Indre-et-Loire","region":"Centre-Val de Loire"}},{"type":"Feature","geometry":{"type":"Point","coordinates":[2.63874,48.37517]},"properties":{"latitude":"48.37517","longitude":"2.63874","bright_ti4":"302.4","scan":"0.49","track":"0.4","acq_date":"2026-07-16","acq_time":"139","satellite":"N20","instrument":"VIIRS","confidence":"n","version":"2.0NRT","bright_ti5":"290.64","frp":"1.87","daynight":"N","commune":"Fontainebleau","code_insee":"77186","departement":"Seine-et-Marne","region":"Île-de-France"}},{"type":"Feature","geometry":{"type":"Point","coordinates":[2.64616,48.37815]},"properties":{"latitude":"48.37815","longitude":"2.64616","bright_ti4":"312.58","scan":"0.49","track":"0.4","acq_date":"2026-07-16","acq_time":"139","satellite":"N20","instrument":"VIIRS","confidence":"n","version":"2.0NRT","bright_ti5":"295.22","frp":"2.87","daynight":"N","commune":"Fontainebleau","code_insee":"77186","departement":"Seine-et-Marne","region":"Île-de-France"}},{"type":"Feature","geometry":{"type":"Point","coordinates":[2.65356,48.38113]},"properties":{"latitude":"48.38113","longitude":"2.65356","bright_ti4":"304.15","scan":"0.49","track":"0.4","acq_date":"2026-07-16","acq_time":"139","satellite":"N20","instrument":"VIIRS","confidence":"n","version":"2.0NRT","bright_ti5":"291.44","frp":"1.55","daynight":"N","commune":"Fontainebleau","code_insee":"77186","departement":"Seine-et-Marne","region":"Île-de-France"}},{"type":"Feature","geometry":{"type":"Point","coordinates":[2.65446,48.38481]},"properties":{"latitude":"48.38481","longitude":"2.65446","bright_ti4":"307.7","scan":"0.49","track":"0.4","acq_date":"2026-07-16","acq_time":"139","satellite":"N20","instrument":"VIIRS","confidence":"n","version":"2.0NRT","bright_ti5":"292.11","frp":"1.55","daynight":"N","commune":"Fontainebleau","code_insee":"77186","departement":"Seine-et-Marne","region":"Île-de-France"}},{"type":"Feature","geometry":{"type":"Point","coordinates":[2.98077,48.38619]},"properties":{"latitude":"48.38619","longitude":"2.98077","bright_ti4":"308.21","scan":"0.47","track":"0.4","acq_date":"2026-07-16","acq_time":"139","satellite":"N20","instrument":"VIIRS","confidence":"n","version":"2.0NRT","bright_ti5":"291.81","frp":"1.43","daynight":"N","commune":"Montereau-Fault-Yonne","code_insee":"77305","departement":"Seine-et-Marne","region":"Île-de-France"}},{"type":"Feature","geometry":{"type":"Point","coordinates":[2.65535,48.38849]},"properties":{"latitude":"48.38849","longitude":"2.65535","bright_ti4":"304.11","scan":"0.49","track":"0.4","acq_date":"2026-07-16","acq_time":"139","satellite":"N20","instrument":"VIIRS","confidence":"n","version":"2.0NRT","bright_ti5":"291.5","frp":"1.5","daynight":"N","commune":"Fontainebleau","code_insee":"77186","departement":"Seine-et-Marne","region":"Île-de-France"}},{"type":"Feature","geometry":{"type":"Point","coordinates":[2.64607,48.40464]},"properties":{"latitude":"48.40464","longitude":"2.64607","bright_ti4":"303.46","scan":"0.49","track":"0.4","acq_date":"2026-07-16","acq_time":"139","satellite":"N20","instrument":"VIIRS","confidence":"n","version":"2.0NRT","bright_ti5":"291.8","frp":"1.76","daynight":"N","commune":"Fontainebleau","code_insee":"77186","departement":"Seine-et-Marne","region":"Île-de-France"}},{"type":"Feature","geometry":{"type":"Point","coordinates":[1.75883,48.98733]},"properties":{"latitude":"48.98733","longitude":"1.75883","bright_ti4":"300.14","scan":"0.55","track":"0.68","acq_date":"2026-07-16","acq_time":"315","satellite":"N20","instrument":"VIIRS","confidence":"n","version":"2.0NRT","bright_ti5":"285.94","frp":"1.13","daynight":"N","commune":"Limay","code_insee":"78335","departement":"Yvelines","region":"Île-de-France"}},{"type":"Feature","geometry":{"type":"Point","coordinates":[0.53369,49.47553]},"properties":{"latitude":"49.47553","longitude":"0.53369","bright_ti4":"298.1","scan":"0.47","track":"0.64","acq_date":"2026-07-16","acq_time":"315","satellite":"N20","instrument":"VIIRS","confidence":"n","version":"2.0NRT","bright_ti5":"287.23","frp":"1.26","daynight":"N","commune":"Lillebonne","code_insee":"76384","departement":"Seine-Maritime","region":"Normandie"}},{"type":"Feature","geometry":{"type":"Point","coordinates":[2.26776,51.0154]},"properties":{"latitude":"51.0154","longitude":"2.26776","bright_ti4":"301.41","scan":"0.49","track":"0.65","acq_date":"2026-07-16","acq_time":"315","satellite":"N20","instrument":"VIIRS","confidence":"n","version":"2.0NRT","bright_ti5":"288.96","frp":"0.68","daynight":"N","commune":"Grande-Synthe","code_insee":"59271","departement":"Nord","region":"Hauts-de-France"}},{"type":"Feature","geometry":{"type":"Point","coordinates":[2.27066,51.02814]},"properties":{"latitude":"51.02814","longitude":"2.27066","bright_ti4":"311.26","scan":"0.49","track":"0.65","acq_date":"2026-07-16","acq_time":"315","satellite":"N20","instrument":"VIIRS","confidence":"n","version":"2.0NRT","bright_ti5":"289.63","frp":"1.43","daynight":"N","commune":"Grande-Synthe","code_insee":"59271","departement":"Nord","region":"Hauts-de-France"}},{"type":"Feature","geometry":{"type":"Point","coordinates":[2.28597,51.03661]},"properties":{"latitude":"51.03661","longitude":"2.28597","bright_ti4":"315.87","scan":"0.49","track":"0.65","acq_date":"2026-07-16","acq_time":"315","satellite":"N20","instrument":"VIIRS","confidence":"n","version":"2.0NRT","bright_ti5":"289.64","frp":"3.27","daynight":"N","commune":"Grande-Synthe","code_insee":"59271","departement":"Nord","region":"Hauts-de-France"}},{"type":"Feature","geometry":{"type":"Point","coordinates":[2.29517,51.04717]},"properties":{"latitude":"51.04717","longitude":"2.29517","bright_ti4":"314.15","scan":"0.49","track":"0.65","acq_date":"2026-07-16","acq_time":"315","satellite":"N20","instrument":"VIIRS","confidence":"n","version":"2.0NRT","bright_ti5":"289.82","frp":"2.46","daynight":"N","commune":"Grande-Synthe","code_insee":"59271","departement":"Nord","region":"Hauts-de-France"}},{"type":"Feature","geometry":{"type":"Point","coordinates":[0.37924,47.6182]},"properties":{"latitude":"47.6182","longitude":"0.37924","bright_ti4":"302.27","scan":"0.54","track":"0.68","acq_date":"2026-07-16","acq_time":"317","satellite":"N20","instrument":"VIIRS","confidence":"n","version":"2.0NRT","bright_ti5":"278.78","frp":"1.44","daynight":"N","commune":"Saint-Aubin-le-Dépeint","code_insee":"37207","departement":"Indre-et-Loire","region":"Centre-Val de Loire"}},{"type":"Feature","geometry":{"type":"Point","coordinates":[9.08251,42.27507]},"properties":{"latitude":"42.27507","longitude":"9.08251","bright_ti4":"349.43","scan":"0.48","track":"0.65","acq_date":"2026-07-16","acq_time":"1121","satellite":"N20","instrument":"VIIRS","confidence":"n","version":"2.0NRT","bright_ti5":"297.73","frp":"6.7","daynight":"D","commune":"Corte","code_insee":"2B096","departement":"Haute-Corse","region":"Corse"}},{"type":"Feature","geometry":{"type":"Point","coordinates":[9.08138,42.28117]},"properties":{"latitude":"42.28117","longitude":"9.08138","bright_ti4":"337.47","scan":"0.48","track":"0.65","acq_date":"2026-07-16","acq_time":"1121","satellite":"N20","instrument":"VIIRS","confidence":"n","version":"2.0NRT","bright_ti5":"296.95","frp":"6.7","daynight":"D","commune":"Corte","code_insee":"2B096","departement":"Haute-Corse","region":"Corse"}},{"type":"Feature","geometry":{"type":"Point","coordinates":[2.08007,50.03435]},"properties":{"latitude":"50.03435","longitude":"2.08007","bright_ti4":"352.79","scan":"0.53","track":"0.67","acq_date":"2026-07-16","acq_time":"1123","satellite":"N20","instrument":"VIIRS","confidence":"n","version":"2.0NRT","bright_ti5":"297.45","frp":"11.01","daynight":"D","commune":"Ville-le-Marclet","code_insee":"80795","departement":"Somme","region":"Hauts-de-France"}},{"type":"Feature","geometry":{"type":"Point","coordinates":[2.08522,50.03614]},"properties":{"latitude":"50.03614","longitude":"2.08522","bright_ti4":"367","scan":"0.53","track":"0.67","acq_date":"2026-07-16","acq_time":"1123","satellite":"N20","instrument":"VIIRS","confidence":"h","version":"2.0NRT","bright_ti5":"296.17","frp":"13.83","daynight":"D","commune":"Ville-le-Marclet","code_insee":"80795","departement":"Somme","region":"Hauts-de-France"}},{"type":"Feature","geometry":{"type":"Point","coordinates":[2.08644,50.03658]},"properties":{"latitude":"50.03658","longitude":"2.08644","bright_ti4":"339.82","scan":"0.53","track":"0.67","acq_date":"2026-07-16","acq_time":"1123","satellite":"N20","instrument":"VIIRS","confidence":"n","version":"2.0NRT","bright_ti5":"295.76","frp":"8.13","daynight":"D","commune":"Ville-le-Marclet","code_insee":"80795","departement":"Somme","region":"Hauts-de-France"}},{"type":"Feature","geometry":{"type":"Point","coordinates":[1.72641,50.07329]},"properties":{"latitude":"50.07329","longitude":"1.72641","bright_ti4":"334.44","scan":"0.55","track":"0.68","acq_date":"2026-07-16","acq_time":"1123","satellite":"N20","instrument":"VIIRS","confidence":"n","version":"2.0NRT","bright_ti5":"290.46","frp":"34.55","daynight":"D","commune":"Moyenneville","code_insee":"80578","departement":"Somme","region":"Hauts-de-France"}},{"type":"Feature","geometry":{"type":"Point","coordinates":[1.73316,50.07568]},"properties":{"latitude":"50.07568","longitude":"1.73316","bright_ti4":"336.32","scan":"0.55","track":"0.68","acq_date":"2026-07-16","acq_time":"1123","satellite":"N20","instrument":"VIIRS","confidence":"n","version":"2.0NRT","bright_ti5":"300.56","frp":"49.89","daynight":"D","commune":"Moyenneville","code_insee":"80578","departement":"Somme","region":"Hauts-de-France"}},{"type":"Feature","geometry":{"type":"Point","coordinates":[1.73178,50.07701]},"properties":{"latitude":"50.07701","longitude":"1.73178","bright_ti4":"336.12","scan":"0.55","track":"0.68","acq_date":"2026-07-16","acq_time":"1123","satellite":"N20","instrument":"VIIRS","confidence":"n","version":"2.0NRT","bright_ti5":"296.23","frp":"70.37","daynight":"D","commune":"Moyenneville","code_insee":"80578","departement":"Somme","region":"Hauts-de-France"}},{"type":"Feature","geometry":{"type":"Point","coordinates":[1.7398,50.07803]},"properties":{"latitude":"50.07803","longitude":"1.7398","bright_ti4":"356.21","scan":"0.55","track":"0.68","acq_date":"2026-07-16","acq_time":"1123","satellite":"N20","instrument":"VIIRS","confidence":"l","version":"2.0NRT","bright_ti5":"282.05","frp":"49.89","daynight":"D","commune":"Moyenneville","code_insee":"80578","departement":"Somme","region":"Hauts-de-France"}},{"type":"Feature","geometry":{"type":"Point","coordinates":[1.73846,50.07933]},"properties":{"latitude":"50.07933","longitude":"1.73846","bright_ti4":"356.6","scan":"0.55","track":"0.68","acq_date":"2026-07-16","acq_time":"1123","satellite":"N20","instrument":"VIIRS","confidence":"l","version":"2.0NRT","bright_ti5":"280.57","frp":"47.93","daynight":"D","commune":"Moyenneville","code_insee":"80578","departement":"Somme","region":"Hauts-de-France"}},{"type":"Feature","geometry":{"type":"Point","coordinates":[2.28914,51.03415]},"properties":{"latitude":"51.03415","longitude":"2.28914","bright_ti4":"330.74","scan":"0.48","track":"0.65","acq_date":"2026-07-16","acq_time":"1123","satellite":"N20","instrument":"VIIRS","confidence":"n","version":"2.0NRT","bright_ti5":"298.69","frp":"5.09","daynight":"D","commune":"Grande-Synthe","code_insee":"59271","departement":"Nord","region":"Hauts-de-France"}},{"type":"Feature","geometry":{"type":"Point","coordinates":[2.29688,51.04358]},"properties":{"latitude":"51.04358","longitude":"2.29688","bright_ti4":"341.79","scan":"0.48","track":"0.65","acq_date":"2026-07-16","acq_time":"1123","satellite":"N20","instrument":"VIIRS","confidence":"n","version":"2.0NRT","bright_ti5":"297.38","frp":"9.36","daynight":"D","commune":"Grande-Synthe","code_insee":"59271","departement":"Nord","region":"Hauts-de-France"}},{"type":"Feature","geometry":{"type":"Point","coordinates":[2.31975,51.04452]},"properties":{"latitude":"51.04452","longitude":"2.31975","bright_ti4":"333.35","scan":"0.48","track":"0.65","acq_date":"2026-07-16","acq_time":"1123","satellite":"N20","instrument":"VIIRS","confidence":"n","version":"2.0NRT","bright_ti5":"298.21","frp":"3.06","daynight":"D","commune":"Dunkerque","code_insee":"59183","departement":"Nord","region":"Hauts-de-France"}},{"type":"Feature","geometry":{"type":"Point","coordinates":[2.30299,51.04565]},"properties":{"latitude":"51.04565","longitude":"2.30299","bright_ti4":"329.84","scan":"0.48","track":"0.65","acq_date":"2026-07-16","acq_time":"1123","satellite":"N20","instrument":"VIIRS","confidence":"n","version":"2.0NRT","bright_ti5":"296.06","frp":"5.83","daynight":"D","commune":"Grande-Synthe","code_insee":"59271","departement":"Nord","region":"Hauts-de-France"}},{"type":"Feature","geometry":{"type":"Point","coordinates":[2.32582,51.04658]},"properties":{"latitude":"51.04658","longitude":"2.32582","bright_ti4":"332.69","scan":"0.48","track":"0.65","acq_date":"2026-07-16","acq_time":"1123","satellite":"N20","instrument":"VIIRS","confidence":"n","version":"2.0NRT","bright_ti5":"298.33","frp":"3.06","daynight":"D","commune":"Dunkerque","code_insee":"59183","departement":"Nord","region":"Hauts-de-France"}},{"type":"Feature","geometry":{"type":"Point","coordinates":[2.95919,42.59132]},"properties":{"latitude":"42.59132","longitude":"2.95919","bright_ti4":"344.92","scan":"0.47","track":"0.39","acq_date":"2026-07-16","acq_time":"1301","satellite":"N20","instrument":"VIIRS","confidence":"n","version":"2.0NRT","bright_ti5":"290.34","frp":"5.42","daynight":"D","commune":"Elne","code_insee":"66065","departement":"Pyrénées-Orientales","region":"Occitanie"}},{"type":"Feature","geometry":{"type":"Point","coordinates":[0.09221,42.87612]},"properties":{"latitude":"42.87612","longitude":"0.09221","bright_ti4":"353.41","scan":"0.39","track":"0.37","acq_date":"2026-07-16","acq_time":"1301","satellite":"N20","instrument":"VIIRS","confidence":"n","version":"2.0NRT","bright_ti5":"307.59","frp":"33.55","daynight":"D","commune":"Barèges","code_insee":"65481","departement":"Hautes-Pyrénées","region":"Occitanie"}},{"type":"Feature","geometry":{"type":"Point","coordinates":[0.08699,42.87883]},"properties":{"latitude":"42.87883","longitude":"0.08699","bright_ti4":"335.59","scan":"0.39","track":"0.37","acq_date":"2026-07-16","acq_time":"1301","satellite":"N20","instrument":"VIIRS","confidence":"n","version":"2.0NRT","bright_ti5":"304.74","frp":"3.43","daynight":"D","commune":"Barèges","code_insee":"65481","departement":"Hautes-Pyrénées","region":"Occitanie"}},{"type":"Feature","geometry":{"type":"Point","coordinates":[-1.04146,43.58456]},"properties":{"latitude":"43.58456","longitude":"-1.04146","bright_ti4":"332.1","scan":"0.39","track":"0.36","acq_date":"2026-07-16","acq_time":"1301","satellite":"N20","instrument":"VIIRS","confidence":"n","version":"2.0NRT","bright_ti5":"297.88","frp":"2.64","daynight":"D","commune":"Pouillon","code_insee":"40233","departement":"Landes","region":"Nouvelle-Aquitaine"}},{"type":"Feature","geometry":{"type":"Point","coordinates":[0.57817,44.40226]},"properties":{"latitude":"44.40226","longitude":"0.57817","bright_ti4":"338.14","scan":"0.41","track":"0.37","acq_date":"2026-07-16","acq_time":"1301","satellite":"N20","instrument":"VIIRS","confidence":"n","version":"2.0NRT","bright_ti5":"303.27","frp":"1.95","daynight":"D","commune":"Sainte-Livrade-sur-Lot","code_insee":"47252","departement":"Lot-et-Garonne","region":"Nouvelle-Aquitaine"}},{"type":"Feature","geometry":{"type":"Point","coordinates":[0.58331,44.40294]},"properties":{"latitude":"44.40294","longitude":"0.58331","bright_ti4":"331.92","scan":"0.41","track":"0.37","acq_date":"2026-07-16","acq_time":"1301","satellite":"N20","instrument":"VIIRS","confidence":"l","version":"2.0NRT","bright_ti5":"303.13","frp":"1.04","daynight":"D","commune":"Sainte-Livrade-sur-Lot","code_insee":"47252","departement":"Lot-et-Garonne","region":"Nouvelle-Aquitaine"}},{"type":"Feature","geometry":{"type":"Point","coordinates":[3.48829,48.86217]},"properties":{"latitude":"48.86217","longitude":"3.48829","bright_ti4":"332.05","scan":"0.57","track":"0.43","acq_date":"2026-07-16","acq_time":"1304","satellite":"N20","instrument":"VIIRS","confidence":"l","version":"2.0NRT","bright_ti5":"304.15","frp":"6.22","daynight":"D","commune":"Mécringes","code_insee":"51359","departement":"Marne","region":"Grand Est"}},{"type":"Feature","geometry":{"type":"Point","coordinates":[1.76393,48.98224]},"properties":{"latitude":"48.98224","longitude":"1.76393","bright_ti4":"331.92","scan":"0.49","track":"0.41","acq_date":"2026-07-16","acq_time":"1304","satellite":"N20","instrument":"VIIRS","confidence":"l","version":"2.0NRT","bright_ti5":"304.19","frp":"2.85","daynight":"D","commune":"Porcheville","code_insee":"78501","departement":"Yvelines","region":"Île-de-France"}},{"type":"Feature","geometry":{"type":"Point","coordinates":[1.76262,48.98304]},"properties":{"latitude":"48.98304","longitude":"1.76262","bright_ti4":"332.12","scan":"0.49","track":"0.41","acq_date":"2026-07-16","acq_time":"1304","satellite":"N20","instrument":"VIIRS","confidence":"l","version":"2.0NRT","bright_ti5":"304.96","frp":"1.21","daynight":"D","commune":"Porcheville","code_insee":"78501","departement":"Yvelines","region":"Île-de-France"}},{"type":"Feature","geometry":{"type":"Point","coordinates":[3.0939,49.9534]},"properties":{"latitude":"49.9534","longitude":"3.0939","bright_ti4":"367","scan":"0.57","track":"0.43","acq_date":"2026-07-16","acq_time":"1304","satellite":"N20","instrument":"VIIRS","confidence":"h","version":"2.0NRT","bright_ti5":"308.52","frp":"19","daynight":"D","commune":"Roisel","code_insee":"80677","departement":"Somme","region":"Hauts-de-France"}},{"type":"Feature","geometry":{"type":"Point","coordinates":[2.27706,51.03203]},"properties":{"latitude":"51.03203","longitude":"2.27706","bright_ti4":"334.91","scan":"0.54","track":"0.42","acq_date":"2026-07-16","acq_time":"1304","satellite":"N20","instrument":"VIIRS","confidence":"n","version":"2.0NRT","bright_ti5":"303.64","frp":"8.18","daynight":"D","commune":"Grande-Synthe","code_insee":"59271","departement":"Nord","region":"Hauts-de-France"}},{"type":"Feature","geometry":{"type":"Point","coordinates":[2.29262,51.03348]},"properties":{"latitude":"51.03348","longitude":"2.29262","bright_ti4":"334.68","scan":"0.54","track":"0.42","acq_date":"2026-07-16","acq_time":"1304","satellite":"N20","instrument":"VIIRS","confidence":"n","version":"2.0NRT","bright_ti5":"301.86","frp":"3.23","daynight":"D","commune":"Grande-Synthe","code_insee":"59271","departement":"Nord","region":"Hauts-de-France"}},{"type":"Feature","geometry":{"type":"Point","coordinates":[2.29773,51.04589]},"properties":{"latitude":"51.04589","longitude":"2.29773","bright_ti4":"334.24","scan":"0.54","track":"0.42","acq_date":"2026-07-16","acq_time":"1304","satellite":"N20","instrument":"VIIRS","confidence":"n","version":"2.0NRT","bright_ti5":"299.94","frp":"8","daynight":"D","commune":"Grande-Synthe","code_insee":"59271","departement":"Nord","region":"Hauts-de-France"}},{"type":"Feature","geometry":{"type":"Point","coordinates":[5.81929,45.91068]},"properties":{"latitude":"45.91068","longitude":"5.81929","bright_ti4":"295.33","scan":"0.42","track":"0.61","acq_date":"2026-07-16","acq_time":"41","satellite":"N21","instrument":"VIIRS","confidence":"n","version":"2.0NRT","bright_ti5":"279.81","frp":"0.59","daynight":"N","commune":"Anglefort","code_insee":"01010","departement":"Ain","region":"Auvergne-Rhône-Alpes"}},{"type":"Feature","geometry":{"type":"Point","coordinates":[0.37638,47.61637]},"properties":{"latitude":"47.61637","longitude":"0.37638","bright_ti4":"335.95","scan":"0.78","track":"0.78","acq_date":"2026-07-16","acq_time":"41","satellite":"N21","instrument":"VIIRS","confidence":"n","version":"2.0NRT","bright_ti5":"255.22","frp":"6.69","daynight":"N","commune":"Saint-Aubin-le-Dépeint","code_insee":"37207","departement":"Indre-et-Loire","region":"Centre-Val de Loire"}},{"type":"Feature","geometry":{"type":"Point","coordinates":[0.38684,47.61657]},"properties":{"latitude":"47.61657","longitude":"0.38684","bright_ti4":"297.9","scan":"0.78","track":"0.78","acq_date":"2026-07-16","acq_time":"41","satellite":"N21","instrument":"VIIRS","confidence":"n","version":"2.0NRT","bright_ti5":"256.19","frp":"6.69","daynight":"N","commune":"Saint-Aubin-le-Dépeint","code_insee":"37207","departement":"Indre-et-Loire","region":"Centre-Val de Loire"}},{"type":"Feature","geometry":{"type":"Point","coordinates":[0.37586,47.6189]},"properties":{"latitude":"47.6189","longitude":"0.37586","bright_ti4":"335.79","scan":"0.78","track":"0.78","acq_date":"2026-07-16","acq_time":"41","satellite":"N21","instrument":"VIIRS","confidence":"n","version":"2.0NRT","bright_ti5":"258.37","frp":"11.58","daynight":"N","commune":"Saint-Aubin-le-Dépeint","code_insee":"37207","departement":"Indre-et-Loire","region":"Centre-Val de Loire"}},{"type":"Feature","geometry":{"type":"Point","coordinates":[0.38632,47.61914]},"properties":{"latitude":"47.61914","longitude":"0.38632","bright_ti4":"296.52","scan":"0.78","track":"0.78","acq_date":"2026-07-16","acq_time":"41","satellite":"N21","instrument":"VIIRS","confidence":"n","version":"2.0NRT","bright_ti5":"257.25","frp":"6.46","daynight":"N","commune":"Saint-Aubin-le-Dépeint","code_insee":"37207","departement":"Indre-et-Loire","region":"Centre-Val de Loire"}},{"type":"Feature","geometry":{"type":"Point","coordinates":[0.55532,49.47598]},"properties":{"latitude":"49.47598","longitude":"0.55532","bright_ti4":"300.04","scan":"0.77","track":"0.77","acq_date":"2026-07-16","acq_time":"41","satellite":"N21","instrument":"VIIRS","confidence":"n","version":"2.0NRT","bright_ti5":"286.4","frp":"2.19","daynight":"N","commune":"Port-Jérôme-sur-Seine","code_insee":"76476","departement":"Seine-Maritime","region":"Normandie"}},{"type":"Feature","geometry":{"type":"Point","coordinates":[2.27161,51.02485]},"properties":{"latitude":"51.02485","longitude":"2.27161","bright_ti4":"316.36","scan":"0.64","track":"0.72","acq_date":"2026-07-16","acq_time":"41","satellite":"N21","instrument":"VIIRS","confidence":"n","version":"2.0NRT","bright_ti5":"290.3","frp":"4.48","daynight":"N","commune":"Grande-Synthe","code_insee":"59271","departement":"Nord","region":"Hauts-de-France"}},{"type":"Feature","geometry":{"type":"Point","coordinates":[2.28986,51.03178]},"properties":{"latitude":"51.03178","longitude":"2.28986","bright_ti4":"314.43","scan":"0.64","track":"0.72","acq_date":"2026-07-16","acq_time":"41","satellite":"N21","instrument":"VIIRS","confidence":"n","version":"2.0NRT","bright_ti5":"289.82","frp":"5.59","daynight":"N","commune":"Grande-Synthe","code_insee":"59271","departement":"Nord","region":"Hauts-de-France"}},{"type":"Feature","geometry":{"type":"Point","coordinates":[2.28028,51.03834]},"properties":{"latitude":"51.03834","longitude":"2.28028","bright_ti4":"308.74","scan":"0.64","track":"0.72","acq_date":"2026-07-16","acq_time":"41","satellite":"N21","instrument":"VIIRS","confidence":"n","version":"2.0NRT","bright_ti5":"289.83","frp":"4.57","daynight":"N","commune":"Grande-Synthe","code_insee":"59271","departement":"Nord","region":"Hauts-de-France"}},{"type":"Feature","geometry":{"type":"Point","coordinates":[2.2985,51.04527]},"properties":{"latitude":"51.04527","longitude":"2.2985","bright_ti4":"312.97","scan":"0.64","track":"0.72","acq_date":"2026-07-16","acq_time":"41","satellite":"N21","instrument":"VIIRS","confidence":"n","version":"2.0NRT","bright_ti5":"290.8","frp":"4.12","daynight":"N","commune":"Grande-Synthe","code_insee":"59271","departement":"Nord","region":"Hauts-de-France"}},{"type":"Feature","geometry":{"type":"Point","coordinates":[9.08047,42.27979]},"properties":{"latitude":"42.27979","longitude":"9.08047","bright_ti4":"335.13","scan":"0.53","track":"0.5","acq_date":"2026-07-16","acq_time":"43","satellite":"N21","instrument":"VIIRS","confidence":"n","version":"2.0NRT","bright_ti5":"292.18","frp":"5.8","daynight":"N","commune":"Corte","code_insee":"2B096","departement":"Haute-Corse","region":"Corse"}},{"type":"Feature","geometry":{"type":"Point","coordinates":[9.08148,42.28328]},"properties":{"latitude":"42.28328","longitude":"9.08148","bright_ti4":"333.14","scan":"0.53","track":"0.5","acq_date":"2026-07-16","acq_time":"43","satellite":"N21","instrument":"VIIRS","confidence":"n","version":"2.0NRT","bright_ti5":"293.49","frp":"7.26","daynight":"N","commune":"Corte","code_insee":"2B096","departement":"Haute-Corse","region":"Corse"}},{"type":"Feature","geometry":{"type":"Point","coordinates":[9.07967,42.28451]},"properties":{"latitude":"42.28451","longitude":"9.07967","bright_ti4":"305.82","scan":"0.53","track":"0.5","acq_date":"2026-07-16","acq_time":"43","satellite":"N21","instrument":"VIIRS","confidence":"n","version":"2.0NRT","bright_ti5":"292.98","frp":"2.33","daynight":"N","commune":"Corte","code_insee":"2B096","departement":"Haute-Corse","region":"Corse"}},{"type":"Feature","geometry":{"type":"Point","coordinates":[8.93379,42.32165]},"properties":{"latitude":"42.32165","longitude":"8.93379","bright_ti4":"321.23","scan":"0.54","track":"0.51","acq_date":"2026-07-16","acq_time":"43","satellite":"N21","instrument":"VIIRS","confidence":"n","version":"2.0NRT","bright_ti5":"295.28","frp":"4.37","daynight":"N","commune":"Albertacce","code_insee":"2B007","departement":"Haute-Corse","region":"Corse"}},{"type":"Feature","geometry":{"type":"Point","coordinates":[8.93297,42.3264]},"properties":{"latitude":"42.3264","longitude":"8.93297","bright_ti4":"311.62","scan":"0.54","track":"0.51","acq_date":"2026-07-16","acq_time":"43","satellite":"N21","instrument":"VIIRS","confidence":"n","version":"2.0NRT","bright_ti5":"296.06","frp":"4.52","daynight":"N","commune":"Albertacce","code_insee":"2B007","departement":"Haute-Corse","region":"Corse"}},{"type":"Feature","geometry":{"type":"Point","coordinates":[8.90965,42.32803]},"properties":{"latitude":"42.32803","longitude":"8.90965","bright_ti4":"308.54","scan":"0.55","track":"0.51","acq_date":"2026-07-16","acq_time":"43","satellite":"N21","instrument":"VIIRS","confidence":"n","version":"2.0NRT","bright_ti5":"293.72","frp":"3.85","daynight":"N","commune":"Albertacce","code_insee":"2B007","departement":"Haute-Corse","region":"Corse"}},{"type":"Feature","geometry":{"type":"Point","coordinates":[8.90414,42.32842]},"properties":{"latitude":"42.32842","longitude":"8.90414","bright_ti4":"303.49","scan":"0.55","track":"0.51","acq_date":"2026-07-16","acq_time":"43","satellite":"N21","instrument":"VIIRS","confidence":"n","version":"2.0NRT","bright_ti5":"292.53","frp":"2.3","daynight":"N","commune":"Albertacce","code_insee":"2B007","departement":"Haute-Corse","region":"Corse"}},{"type":"Feature","geometry":{"type":"Point","coordinates":[4.89377,43.43193]},"properties":{"latitude":"43.43193","longitude":"4.89377","bright_ti4":"312.8","scan":"0.45","track":"0.63","acq_date":"2026-07-16","acq_time":"43","satellite":"N21","instrument":"VIIRS","confidence":"n","version":"2.0NRT","bright_ti5":"293.96","frp":"2.15","daynight":"N","commune":"Fos-sur-Mer","code_insee":"13039","departement":"Bouches-du-Rhône","region":"Provence-Alpes-Côte d'Azur"}},{"type":"Feature","geometry":{"type":"Point","coordinates":[4.8882,43.43212]},"properties":{"latitude":"43.43212","longitude":"4.8882","bright_ti4":"307","scan":"0.45","track":"0.63","acq_date":"2026-07-16","acq_time":"43","satellite":"N21","instrument":"VIIRS","confidence":"n","version":"2.0NRT","bright_ti5":"294.28","frp":"2.15","daynight":"N","commune":"Fos-sur-Mer","code_insee":"13039","departement":"Bouches-du-Rhône","region":"Provence-Alpes-Côte d'Azur"}},{"type":"Feature","geometry":{"type":"Point","coordinates":[4.88851,43.43792]},"properties":{"latitude":"43.43792","longitude":"4.88851","bright_ti4":"325.53","scan":"0.45","track":"0.63","acq_date":"2026-07-16","acq_time":"43","satellite":"N21","instrument":"VIIRS","confidence":"n","version":"2.0NRT","bright_ti5":"293.53","frp":"2.15","daynight":"N","commune":"Fos-sur-Mer","code_insee":"13039","departement":"Bouches-du-Rhône","region":"Provence-Alpes-Côte d'Azur"}},{"type":"Feature","geometry":{"type":"Point","coordinates":[4.9,43.44333]},"properties":{"latitude":"43.44333","longitude":"4.9","bright_ti4":"304.9","scan":"0.45","track":"0.63","acq_date":"2026-07-16","acq_time":"43","satellite":"N21","instrument":"VIIRS","confidence":"n","version":"2.0NRT","bright_ti5":"293.33","frp":"1.53","daynight":"N","commune":"Fos-sur-Mer","code_insee":"13039","departement":"Bouches-du-Rhône","region":"Provence-Alpes-Côte d'Azur"}},{"type":"Feature","geometry":{"type":"Point","coordinates":[4.89861,43.4438]},"properties":{"latitude":"43.4438","longitude":"4.89861","bright_ti4":"310.86","scan":"0.45","track":"0.63","acq_date":"2026-07-16","acq_time":"43","satellite":"N21","instrument":"VIIRS","confidence":"n","version":"2.0NRT","bright_ti5":"293.94","frp":"2.11","daynight":"N","commune":"Fos-sur-Mer","code_insee":"13039","departement":"Bouches-du-Rhône","region":"Provence-Alpes-Côte d'Azur"}},{"type":"Feature","geometry":{"type":"Point","coordinates":[4.89474,43.44932]},"properties":{"latitude":"43.44932","longitude":"4.89474","bright_ti4":"308.81","scan":"0.45","track":"0.63","acq_date":"2026-07-16","acq_time":"43","satellite":"N21","instrument":"VIIRS","confidence":"n","version":"2.0NRT","bright_ti5":"292.75","frp":"2.54","daynight":"N","commune":"Fos-sur-Mer","code_insee":"13039","departement":"Bouches-du-Rhône","region":"Provence-Alpes-Côte d'Azur"}},{"type":"Feature","geometry":{"type":"Point","coordinates":[4.89335,43.44976]},"properties":{"latitude":"43.44976","longitude":"4.89335","bright_ti4":"303.58","scan":"0.45","track":"0.63","acq_date":"2026-07-16","acq_time":"43","satellite":"N21","instrument":"VIIRS","confidence":"n","version":"2.0NRT","bright_ti5":"292.79","frp":"2.32","daynight":"N","commune":"Fos-sur-Mer","code_insee":"13039","departement":"Bouches-du-Rhône","region":"Provence-Alpes-Côte d'Azur"}},{"type":"Feature","geometry":{"type":"Point","coordinates":[4.02584,44.53963]},"properties":{"latitude":"44.53963","longitude":"4.02584","bright_ti4":"301.71","scan":"0.51","track":"0.66","acq_date":"2026-07-16","acq_time":"43","satellite":"N21","instrument":"VIIRS","confidence":"n","version":"2.0NRT","bright_ti5":"290.57","frp":"0.7","daynight":"N","commune":"Montselgues","code_insee":"07163","departement":"Ardèche","region":"Auvergne-Rhône-Alpes"}},{"type":"Feature","geometry":{"type":"Point","coordinates":[4.02529,44.54453]},"properties":{"latitude":"44.54453","longitude":"4.02529","bright_ti4":"306.77","scan":"0.51","track":"0.66","acq_date":"2026-07-16","acq_time":"43","satellite":"N21","instrument":"VIIRS","confidence":"n","version":"2.0NRT","bright_ti5":"292.21","frp":"2.49","daynight":"N","commune":"Montselgues","code_insee":"07163","departement":"Ardèche","region":"Auvergne-Rhône-Alpes"}},{"type":"Feature","geometry":{"type":"Point","coordinates":[4.02587,44.54571]},"properties":{"latitude":"44.54571","longitude":"4.02587","bright_ti4":"303.54","scan":"0.51","track":"0.66","acq_date":"2026-07-16","acq_time":"43","satellite":"N21","instrument":"VIIRS","confidence":"n","version":"2.0NRT","bright_ti5":"291.45","frp":"1.11","daynight":"N","commune":"Montselgues","code_insee":"07163","departement":"Ardèche","region":"Auvergne-Rhône-Alpes"}},{"type":"Feature","geometry":{"type":"Point","coordinates":[-1.0374,48.10892]},"properties":{"latitude":"48.10892","longitude":"-1.0374","bright_ti4":"298.67","scan":"0.43","track":"0.38","acq_date":"2026-07-16","acq_time":"221","satellite":"N21","instrument":"VIIRS","confidence":"n","version":"2.0NRT","bright_ti5":"281.33","frp":"0.69","daynight":"N","commune":"Saint-Pierre-la-Cour","code_insee":"53247","departement":"Mayenne","region":"Pays de la Loire"}},{"type":"Feature","geometry":{"type":"Point","coordinates":[2.63933,48.37593]},"properties":{"latitude":"48.37593","longitude":"2.63933","bright_ti4":"303.38","scan":"0.56","track":"0.43","acq_date":"2026-07-16","acq_time":"221","satellite":"N21","instrument":"VIIRS","confidence":"n","version":"2.0NRT","bright_ti5":"291.5","frp":"1.31","daynight":"N","commune":"Fontainebleau","code_insee":"77186","departement":"Seine-et-Marne","region":"Île-de-France"}},{"type":"Feature","geometry":{"type":"Point","coordinates":[2.64853,48.37804]},"properties":{"latitude":"48.37804","longitude":"2.64853","bright_ti4":"306.71","scan":"0.56","track":"0.43","acq_date":"2026-07-16","acq_time":"221","satellite":"N21","instrument":"VIIRS","confidence":"n","version":"2.0NRT","bright_ti5":"292.49","frp":"2.87","daynight":"N","commune":"Fontainebleau","code_insee":"77186","departement":"Seine-et-Marne","region":"Île-de-France"}},{"type":"Feature","geometry":{"type":"Point","coordinates":[2.98415,48.38573]},"properties":{"latitude":"48.38573","longitude":"2.98415","bright_ti4":"302.23","scan":"0.38","track":"0.43","acq_date":"2026-07-16","acq_time":"221","satellite":"N21","instrument":"VIIRS","confidence":"n","version":"2.0NRT","bright_ti5":"291.21","frp":"1.41","daynight":"N","commune":"Montereau-Fault-Yonne","code_insee":"77305","departement":"Seine-et-Marne","region":"Île-de-France"}},{"type":"Feature","geometry":{"type":"Point","coordinates":[2.97922,48.38686]},"properties":{"latitude":"48.38686","longitude":"2.97922","bright_ti4":"306.99","scan":"0.38","track":"0.43","acq_date":"2026-07-16","acq_time":"221","satellite":"N21","instrument":"VIIRS","confidence":"n","version":"2.0NRT","bright_ti5":"292.24","frp":"1.43","daynight":"N","commune":"Montereau-Fault-Yonne","code_insee":"77305","departement":"Seine-et-Marne","region":"Île-de-France"}},{"type":"Feature","geometry":{"type":"Point","coordinates":[4.5636,48.76769]},"properties":{"latitude":"48.76769","longitude":"4.5636","bright_ti4":"301.69","scan":"0.43","track":"0.46","acq_date":"2026-07-16","acq_time":"221","satellite":"N21","instrument":"VIIRS","confidence":"n","version":"2.0NRT","bright_ti5":"290.92","frp":"1.2","daynight":"N","commune":"Couvrot","code_insee":"51195","departement":"Marne","region":"Grand Est"}},{"type":"Feature","geometry":{"type":"Point","coordinates":[1.75992,48.98272]},"properties":{"latitude":"48.98272","longitude":"1.75992","bright_ti4":"324.15","scan":"0.5","track":"0.41","acq_date":"2026-07-16","acq_time":"221","satellite":"N21","instrument":"VIIRS","confidence":"n","version":"2.0NRT","bright_ti5":"291.71","frp":"3.13","daynight":"N","commune":"Porcheville","code_insee":"78501","departement":"Yvelines","region":"Île-de-France"}},{"type":"Feature","geometry":{"type":"Point","coordinates":[1.76026,48.98408]},"properties":{"latitude":"48.98408","longitude":"1.76026","bright_ti4":"323.78","scan":"0.5","track":"0.41","acq_date":"2026-07-16","acq_time":"221","satellite":"N21","instrument":"VIIRS","confidence":"n","version":"2.0NRT","bright_ti5":"291.79","frp":"3.49","daynight":"N","commune":"Porcheville","code_insee":"78501","departement":"Yvelines","region":"Île-de-France"}},{"type":"Feature","geometry":{"type":"Point","coordinates":[3.34779,49.23963]},"properties":{"latitude":"49.23963","longitude":"3.34779","bright_ti4":"301.29","scan":"0.57","track":"0.43","acq_date":"2026-07-16","acq_time":"221","satellite":"N21","instrument":"VIIRS","confidence":"n","version":"2.0NRT","bright_ti5":"288.38","frp":"1","daynight":"N","commune":"Le Plessier-Huleu","code_insee":"02606","departement":"Aisne","region":"Hauts-de-France"}},{"type":"Feature","geometry":{"type":"Point","coordinates":[3.34034,49.24133]},"properties":{"latitude":"49.24133","longitude":"3.34034","bright_ti4":"300.51","scan":"0.57","track":"0.43","acq_date":"2026-07-16","acq_time":"221","satellite":"N21","instrument":"VIIRS","confidence":"n","version":"2.0NRT","bright_ti5":"287.1","frp":"1","daynight":"N","commune":"Le Plessier-Huleu","code_insee":"02606","departement":"Aisne","region":"Hauts-de-France"}},{"type":"Feature","geometry":{"type":"Point","coordinates":[0.53525,49.47493]},"properties":{"latitude":"49.47493","longitude":"0.53525","bright_ti4":"303.18","scan":"0.45","track":"0.39","acq_date":"2026-07-16","acq_time":"221","satellite":"N21","instrument":"VIIRS","confidence":"n","version":"2.0NRT","bright_ti5":"289.63","frp":"1.53","daynight":"N","commune":"Lillebonne","code_insee":"76384","departement":"Seine-Maritime","region":"Normandie"}},{"type":"Feature","geometry":{"type":"Point","coordinates":[3.49464,50.33752]},"properties":{"latitude":"50.33752","longitude":"3.49464","bright_ti4":"305.6","scan":"0.54","track":"0.42","acq_date":"2026-07-16","acq_time":"221","satellite":"N21","instrument":"VIIRS","confidence":"n","version":"2.0NRT","bright_ti5":"291.65","frp":"1.62","daynight":"N","commune":"Trith-Saint-Léger","code_insee":"59603","departement":"Nord","region":"Hauts-de-France"}},{"type":"Feature","geometry":{"type":"Point","coordinates":[3.56248,50.40113]},"properties":{"latitude":"50.40113","longitude":"3.56248","bright_ti4":"304.15","scan":"0.55","track":"0.42","acq_date":"2026-07-16","acq_time":"221","satellite":"N21","instrument":"VIIRS","confidence":"n","version":"2.0NRT","bright_ti5":"290.6","frp":"1.16","daynight":"N","commune":"Saint-Saulve","code_insee":"59544","departement":"Nord","region":"Hauts-de-France"}},{"type":"Feature","geometry":{"type":"Point","coordinates":[3.56192,50.40272]},"properties":{"latitude":"50.40272","longitude":"3.56192","bright_ti4":"301.93","scan":"0.54","track":"0.42","acq_date":"2026-07-16","acq_time":"221","satellite":"N21","instrument":"VIIRS","confidence":"n","version":"2.0NRT","bright_ti5":"290.05","frp":"1.5","daynight":"N","commune":"Saint-Saulve","code_insee":"59544","departement":"Nord","region":"Hauts-de-France"}},{"type":"Feature","geometry":{"type":"Point","coordinates":[2.26979,51.01296]},"properties":{"latitude":"51.01296","longitude":"2.26979","bright_ti4":"301.69","scan":"0.48","track":"0.4","acq_date":"2026-07-16","acq_time":"221","satellite":"N21","instrument":"VIIRS","confidence":"n","version":"2.0NRT","bright_ti5":"290.61","frp":"0.27","daynight":"N","commune":"Grande-Synthe","code_insee":"59271","departement":"Nord","region":"Hauts-de-France"}},{"type":"Feature","geometry":{"type":"Point","coordinates":[2.27064,51.02832]},"properties":{"latitude":"51.02832","longitude":"2.27064","bright_ti4":"320.52","scan":"0.48","track":"0.4","acq_date":"2026-07-16","acq_time":"221","satellite":"N21","instrument":"VIIRS","confidence":"n","version":"2.0NRT","bright_ti5":"292.24","frp":"2.71","daynight":"N","commune":"Grande-Synthe","code_insee":"59271","departement":"Nord","region":"Hauts-de-France"}},{"type":"Feature","geometry":{"type":"Point","coordinates":[2.26971,51.02884]},"properties":{"latitude":"51.02884","longitude":"2.26971","bright_ti4":"315.22","scan":"0.48","track":"0.4","acq_date":"2026-07-16","acq_time":"221","satellite":"N21","instrument":"VIIRS","confidence":"n","version":"2.0NRT","bright_ti5":"291.99","frp":"2.48","daynight":"N","commune":"Grande-Synthe","code_insee":"59271","departement":"Nord","region":"Hauts-de-France"}},{"type":"Feature","geometry":{"type":"Point","coordinates":[2.28644,51.0331]},"properties":{"latitude":"51.0331","longitude":"2.28644","bright_ti4":"318.99","scan":"0.48","track":"0.4","acq_date":"2026-07-16","acq_time":"221","satellite":"N21","instrument":"VIIRS","confidence":"n","version":"2.0NRT","bright_ti5":"292.55","frp":"2.01","daynight":"N","commune":"Grande-Synthe","code_insee":"59271","departement":"Nord","region":"Hauts-de-France"}},{"type":"Feature","geometry":{"type":"Point","coordinates":[2.2883,51.0366]},"properties":{"latitude":"51.0366","longitude":"2.2883","bright_ti4":"305.39","scan":"0.48","track":"0.4","acq_date":"2026-07-16","acq_time":"221","satellite":"N21","instrument":"VIIRS","confidence":"n","version":"2.0NRT","bright_ti5":"291.71","frp":"2.01","daynight":"N","commune":"Grande-Synthe","code_insee":"59271","departement":"Nord","region":"Hauts-de-France"}},{"type":"Feature","geometry":{"type":"Point","coordinates":[2.29853,51.04223]},"properties":{"latitude":"51.04223","longitude":"2.29853","bright_ti4":"303.66","scan":"0.48","track":"0.4","acq_date":"2026-07-16","acq_time":"221","satellite":"N21","instrument":"VIIRS","confidence":"n","version":"2.0NRT","bright_ti5":"293.34","frp":"2.18","daynight":"N","commune":"Grande-Synthe","code_insee":"59271","departement":"Nord","region":"Hauts-de-France"}},{"type":"Feature","geometry":{"type":"Point","coordinates":[2.30039,51.04574]},"properties":{"latitude":"51.04574","longitude":"2.30039","bright_ti4":"326.64","scan":"0.48","track":"0.4","acq_date":"2026-07-16","acq_time":"221","satellite":"N21","instrument":"VIIRS","confidence":"n","version":"2.0NRT","bright_ti5":"292.03","frp":"4.78","daynight":"N","commune":"Grande-Synthe","code_insee":"59271","departement":"Nord","region":"Hauts-de-France"}},{"type":"Feature","geometry":{"type":"Point","coordinates":[2.29386,51.0471]},"properties":{"latitude":"51.0471","longitude":"2.29386","bright_ti4":"325.19","scan":"0.48","track":"0.4","acq_date":"2026-07-16","acq_time":"221","satellite":"N21","instrument":"VIIRS","confidence":"n","version":"2.0NRT","bright_ti5":"293.23","frp":"4.78","daynight":"N","commune":"Grande-Synthe","code_insee":"59271","departement":"Nord","region":"Hauts-de-France"}},{"type":"Feature","geometry":{"type":"Point","coordinates":[9.08973,42.27915]},"properties":{"latitude":"42.27915","longitude":"9.08973","bright_ti4":"338.14","scan":"0.54","track":"0.68","acq_date":"2026-07-16","acq_time":"224","satellite":"N21","instrument":"VIIRS","confidence":"n","version":"2.0NRT","bright_ti5":"292.7","frp":"6.25","daynight":"N","commune":"Corte","code_insee":"2B096","departement":"Haute-Corse","region":"Corse"}},{"type":"Feature","geometry":{"type":"Point","coordinates":[9.08854,42.27979]},"properties":{"latitude":"42.27979","longitude":"9.08854","bright_ti4":"338.35","scan":"0.54","track":"0.68","acq_date":"2026-07-16","acq_time":"224","satellite":"N21","instrument":"VIIRS","confidence":"n","version":"2.0NRT","bright_ti5":"292.7","frp":"7.96","daynight":"N","commune":"Corte","code_insee":"2B096","departement":"Haute-Corse","region":"Corse"}},{"type":"Feature","geometry":{"type":"Point","coordinates":[8.93803,42.31903]},"properties":{"latitude":"42.31903","longitude":"8.93803","bright_ti4":"308.08","scan":"0.53","track":"0.67","acq_date":"2026-07-16","acq_time":"224","satellite":"N21","instrument":"VIIRS","confidence":"n","version":"2.0NRT","bright_ti5":"292.46","frp":"3.05","daynight":"N","commune":"Albertacce","code_insee":"2B007","departement":"Haute-Corse","region":"Corse"}},{"type":"Feature","geometry":{"type":"Point","coordinates":[8.93744,42.32039]},"properties":{"latitude":"42.32039","longitude":"8.93744","bright_ti4":"308.24","scan":"0.53","track":"0.67","acq_date":"2026-07-16","acq_time":"224","satellite":"N21","instrument":"VIIRS","confidence":"n","version":"2.0NRT","bright_ti5":"292.73","frp":"4.92","daynight":"N","commune":"Albertacce","code_insee":"2B007","departement":"Haute-Corse","region":"Corse"}},{"type":"Feature","geometry":{"type":"Point","coordinates":[8.92981,42.32154]},"properties":{"latitude":"42.32154","longitude":"8.92981","bright_ti4":"321.1","scan":"0.53","track":"0.67","acq_date":"2026-07-16","acq_time":"224","satellite":"N21","instrument":"VIIRS","confidence":"n","version":"2.0NRT","bright_ti5":"292.66","frp":"3.05","daynight":"N","commune":"Albertacce","code_insee":"2B007","departement":"Haute-Corse","region":"Corse"}},{"type":"Feature","geometry":{"type":"Point","coordinates":[8.93064,42.32251]},"properties":{"latitude":"42.32251","longitude":"8.93064","bright_ti4":"324.38","scan":"0.53","track":"0.67","acq_date":"2026-07-16","acq_time":"224","satellite":"N21","instrument":"VIIRS","confidence":"n","version":"2.0NRT","bright_ti5":"293.45","frp":"4","daynight":"N","commune":"Albertacce","code_insee":"2B007","departement":"Haute-Corse","region":"Corse"}},{"type":"Feature","geometry":{"type":"Point","coordinates":[8.92433,42.32448]},"properties":{"latitude":"42.32448","longitude":"8.92433","bright_ti4":"304.4","scan":"0.53","track":"0.67","acq_date":"2026-07-16","acq_time":"224","satellite":"N21","instrument":"VIIRS","confidence":"n","version":"2.0NRT","bright_ti5":"291.86","frp":"4","daynight":"N","commune":"Albertacce","code_insee":"2B007","departement":"Haute-Corse","region":"Corse"}},{"type":"Feature","geometry":{"type":"Point","coordinates":[8.9372,42.32596]},"properties":{"latitude":"42.32596","longitude":"8.9372","bright_ti4":"308.66","scan":"0.53","track":"0.67","acq_date":"2026-07-16","acq_time":"224","satellite":"N21","instrument":"VIIRS","confidence":"n","version":"2.0NRT","bright_ti5":"293.65","frp":"3.05","daynight":"N","commune":"Albertacce","code_insee":"2B007","departement":"Haute-Corse","region":"Corse"}},{"type":"Feature","geometry":{"type":"Point","coordinates":[8.91042,42.32747]},"properties":{"latitude":"42.32747","longitude":"8.91042","bright_ti4":"312.76","scan":"0.53","track":"0.67","acq_date":"2026-07-16","acq_time":"224","satellite":"N21","instrument":"VIIRS","confidence":"n","version":"2.0NRT","bright_ti5":"292.02","frp":"2.75","daynight":"N","commune":"Albertacce","code_insee":"2B007","departement":"Haute-Corse","region":"Corse"}},{"type":"Feature","geometry":{"type":"Point","coordinates":[8.91162,42.32845]},"properties":{"latitude":"42.32845","longitude":"8.91162","bright_ti4":"309.76","scan":"0.53","track":"0.67","acq_date":"2026-07-16","acq_time":"224","satellite":"N21","instrument":"VIIRS","confidence":"n","version":"2.0NRT","bright_ti5":"292.13","frp":"5.57","daynight":"N","commune":"Albertacce","code_insee":"2B007","departement":"Haute-Corse","region":"Corse"}},{"type":"Feature","geometry":{"type":"Point","coordinates":[8.90331,42.32963]},"properties":{"latitude":"42.32963","longitude":"8.90331","bright_ti4":"303.69","scan":"0.53","track":"0.67","acq_date":"2026-07-16","acq_time":"224","satellite":"N21","instrument":"VIIRS","confidence":"n","version":"2.0NRT","bright_ti5":"291.1","frp":"2.75","daynight":"N","commune":"Albertacce","code_insee":"2B007","departement":"Haute-Corse","region":"Corse"}},{"type":"Feature","geometry":{"type":"Point","coordinates":[8.9046,42.33064]},"properties":{"latitude":"42.33064","longitude":"8.9046","bright_ti4":"303.91","scan":"0.53","track":"0.67","acq_date":"2026-07-16","acq_time":"224","satellite":"N21","instrument":"VIIRS","confidence":"n","version":"2.0NRT","bright_ti5":"291.9","frp":"2.93","daynight":"N","commune":"Albertacce","code_insee":"2B007","departement":"Haute-Corse","region":"Corse"}},{"type":"Feature","geometry":{"type":"Point","coordinates":[1.04431,42.83601]},"properties":{"latitude":"42.83601","longitude":"1.04431","bright_ti4":"299.16","scan":"0.43","track":"0.46","acq_date":"2026-07-16","acq_time":"224","satellite":"N21","instrument":"VIIRS","confidence":"n","version":"2.0NRT","bright_ti5":"288.79","frp":"1.57","daynight":"N","commune":"Bordes-Uchentein","code_insee":"09062","departement":"Ariège","region":"Occitanie"}},{"type":"Feature","geometry":{"type":"Point","coordinates":[1.04048,42.83688]},"properties":{"latitude":"42.83688","longitude":"1.04048","bright_ti4":"349.98","scan":"0.43","track":"0.46","acq_date":"2026-07-16","acq_time":"224","satellite":"N21","instrument":"VIIRS","confidence":"n","version":"2.0NRT","bright_ti5":"295.55","frp":"9.33","daynight":"N","commune":"Bordes-Uchentein","code_insee":"09062","departement":"Ariège","region":"Occitanie"}},{"type":"Feature","geometry":{"type":"Point","coordinates":[1.03664,42.83775]},"properties":{"latitude":"42.83775","longitude":"1.03664","bright_ti4":"336.43","scan":"0.43","track":"0.46","acq_date":"2026-07-16","acq_time":"224","satellite":"N21","instrument":"VIIRS","confidence":"n","version":"2.0NRT","bright_ti5":"293.55","frp":"9.33","daynight":"N","commune":"Bordes-Uchentein","code_insee":"09062","departement":"Ariège","region":"Occitanie"}},{"type":"Feature","geometry":{"type":"Point","coordinates":[1.04892,42.83934]},"properties":{"latitude":"42.83934","longitude":"1.04892","bright_ti4":"341.1","scan":"0.43","track":"0.46","acq_date":"2026-07-16","acq_time":"224","satellite":"N21","instrument":"VIIRS","confidence":"n","version":"2.0NRT","bright_ti5":"302.41","frp":"15.71","daynight":"N","commune":"Bordes-Uchentein","code_insee":"09062","departement":"Ariège","region":"Occitanie"}},{"type":"Feature","geometry":{"type":"Point","coordinates":[1.04505,42.84021]},"properties":{"latitude":"42.84021","longitude":"1.04505","bright_ti4":"354.35","scan":"0.43","track":"0.46","acq_date":"2026-07-16","acq_time":"224","satellite":"N21","instrument":"VIIRS","confidence":"n","version":"2.0NRT","bright_ti5":"312.76","frp":"15.71","daynight":"N","commune":"Bordes-Uchentein","code_insee":"09062","departement":"Ariège","region":"Occitanie"}},{"type":"Feature","geometry":{"type":"Point","coordinates":[1.04123,42.84109]},"properties":{"latitude":"42.84109","longitude":"1.04123","bright_ti4":"335.75","scan":"0.43","track":"0.46","acq_date":"2026-07-16","acq_time":"224","satellite":"N21","instrument":"VIIRS","confidence":"n","version":"2.0NRT","bright_ti5":"295.67","frp":"4.52","daynight":"N","commune":"Bordes-Uchentein","code_insee":"09062","departement":"Ariège","region":"Occitanie"}},{"type":"Feature","geometry":{"type":"Point","coordinates":[1.03753,42.84193]},"properties":{"latitude":"42.84193","longitude":"1.03753","bright_ti4":"307.97","scan":"0.43","track":"0.46","acq_date":"2026-07-16","acq_time":"224","satellite":"N21","instrument":"VIIRS","confidence":"n","version":"2.0NRT","bright_ti5":"289.82","frp":"4.52","daynight":"N","commune":"Bordes-Uchentein","code_insee":"09062","departement":"Ariège","region":"Occitanie"}},{"type":"Feature","geometry":{"type":"Point","coordinates":[1.04608,42.84437]},"properties":{"latitude":"42.84437","longitude":"1.04608","bright_ti4":"298.47","scan":"0.43","track":"0.46","acq_date":"2026-07-16","acq_time":"224","satellite":"N21","instrument":"VIIRS","confidence":"n","version":"2.0NRT","bright_ti5":"286.65","frp":"15.71","daynight":"N","commune":"Arrien-en-Bethmale","code_insee":"09017","departement":"Ariège","region":"Occitanie"}},{"type":"Feature","geometry":{"type":"Point","coordinates":[0.98893,43.18474]},"properties":{"latitude":"43.18474","longitude":"0.98893","bright_ti4":"301.95","scan":"0.42","track":"0.45","acq_date":"2026-07-16","acq_time":"224","satellite":"N21","instrument":"VIIRS","confidence":"n","version":"2.0NRT","bright_ti5":"290.56","frp":"1.02","daynight":"N","commune":"Martres-Tolosane","code_insee":"31324","departement":"Haute-Garonne","region":"Occitanie"}},{"type":"Feature","geometry":{"type":"Point","coordinates":[4.88875,43.43542]},"properties":{"latitude":"43.43542","longitude":"4.88875","bright_ti4":"307.99","scan":"0.62","track":"0.54","acq_date":"2026-07-16","acq_time":"224","satellite":"N21","instrument":"VIIRS","confidence":"n","version":"2.0NRT","bright_ti5":"277.69","frp":"1.94","daynight":"N","commune":"Fos-sur-Mer","code_insee":"13039","departement":"Bouches-du-Rhône","region":"Provence-Alpes-Côte d'Azur"}},{"type":"Feature","geometry":{"type":"Point","coordinates":[4.89111,43.44009]},"properties":{"latitude":"43.44009","longitude":"4.89111","bright_ti4":"300","scan":"0.62","track":"0.54","acq_date":"2026-07-16","acq_time":"224","satellite":"N21","instrument":"VIIRS","confidence":"n","version":"2.0NRT","bright_ti5":"279.45","frp":"1.94","daynight":"N","commune":"Fos-sur-Mer","code_insee":"13039","departement":"Bouches-du-Rhône","region":"Provence-Alpes-Côte d'Azur"}},{"type":"Feature","geometry":{"type":"Point","coordinates":[4.02792,44.5403]},"properties":{"latitude":"44.5403","longitude":"4.02792","bright_ti4":"304.83","scan":"0.53","track":"0.5","acq_date":"2026-07-16","acq_time":"224","satellite":"N21","instrument":"VIIRS","confidence":"n","version":"2.0NRT","bright_ti5":"291.06","frp":"1.12","daynight":"N","commune":"Montselgues","code_insee":"07163","departement":"Ardèche","region":"Auvergne-Rhône-Alpes"}},{"type":"Feature","geometry":{"type":"Point","coordinates":[5.6661,45.22941]},"properties":{"latitude":"45.22941","longitude":"5.6661","bright_ti4":"301.08","scan":"0.61","track":"0.53","acq_date":"2026-07-16","acq_time":"224","satellite":"N21","instrument":"VIIRS","confidence":"n","version":"2.0NRT","bright_ti5":"290.82","frp":"1.27","daynight":"N","commune":"Saint-Égrève","code_insee":"38382","departement":"Isère","region":"Auvergne-Rhône-Alpes"}},{"type":"Feature","geometry":{"type":"Point","coordinates":[0.38474,47.61444]},"properties":{"latitude":"47.61444","longitude":"0.38474","bright_ti4":"296.36","scan":"0.48","track":"0.4","acq_date":"2026-07-16","acq_time":"224","satellite":"N21","instrument":"VIIRS","confidence":"n","version":"2.0NRT","bright_ti5":"274.75","frp":"5.12","daynight":"N","commune":"Saint-Aubin-le-Dépeint","code_insee":"37207","departement":"Indre-et-Loire","region":"Centre-Val de Loire"}},{"type":"Feature","geometry":{"type":"Point","coordinates":[0.37861,47.6157]},"properties":{"latitude":"47.6157","longitude":"0.37861","bright_ti4":"329.23","scan":"0.48","track":"0.4","acq_date":"2026-07-16","acq_time":"224","satellite":"N21","instrument":"VIIRS","confidence":"n","version":"2.0NRT","bright_ti5":"278.15","frp":"5.12","daynight":"N","commune":"Saint-Aubin-le-Dépeint","code_insee":"37207","departement":"Indre-et-Loire","region":"Centre-Val de Loire"}},{"type":"Feature","geometry":{"type":"Point","coordinates":[0.38022,47.61923]},"properties":{"latitude":"47.61923","longitude":"0.38022","bright_ti4":"297.48","scan":"0.48","track":"0.4","acq_date":"2026-07-16","acq_time":"224","satellite":"N21","instrument":"VIIRS","confidence":"n","version":"2.0NRT","bright_ti5":"275.3","frp":"1.04","daynight":"N","commune":"Saint-Aubin-le-Dépeint","code_insee":"37207","departement":"Indre-et-Loire","region":"Centre-Val de Loire"}},{"type":"Feature","geometry":{"type":"Point","coordinates":[-3.23879,47.79603]},"properties":{"latitude":"47.79603","longitude":"-3.23879","bright_ti4":"298.35","scan":"0.39","track":"0.36","acq_date":"2026-07-16","acq_time":"224","satellite":"N21","instrument":"VIIRS","confidence":"n","version":"2.0NRT","bright_ti5":"282.07","frp":"0.34","daynight":"N","commune":"Kervignac","code_insee":"56094","departement":"Morbihan","region":"Bretagne"}},{"type":"Feature","geometry":{"type":"Point","coordinates":[9.08421,42.27778]},"properties":{"latitude":"42.27778","longitude":"9.08421","bright_ti4":"334.94","scan":"0.41","track":"0.37","acq_date":"2026-07-16","acq_time":"1208","satellite":"N21","instrument":"VIIRS","confidence":"n","version":"2.0NRT","bright_ti5":"304.81","frp":"8.13","daynight":"D","commune":"Corte","code_insee":"2B096","departement":"Haute-Corse","region":"Corse"}},{"type":"Feature","geometry":{"type":"Point","coordinates":[9.07853,42.28031]},"properties":{"latitude":"42.28031","longitude":"9.07853","bright_ti4":"333.94","scan":"0.41","track":"0.37","acq_date":"2026-07-16","acq_time":"1208","satellite":"N21","instrument":"VIIRS","confidence":"l","version":"2.0NRT","bright_ti5":"304.34","frp":"7.09","daynight":"D","commune":"Corte","code_insee":"2B096","departement":"Haute-Corse","region":"Corse"}},{"type":"Feature","geometry":{"type":"Point","coordinates":[9.0832,42.28113]},"properties":{"latitude":"42.28113","longitude":"9.0832","bright_ti4":"350.39","scan":"0.41","track":"0.37","acq_date":"2026-07-16","acq_time":"1208","satellite":"N21","instrument":"VIIRS","confidence":"n","version":"2.0NRT","bright_ti5":"309.32","frp":"8.13","daynight":"D","commune":"Corte","code_insee":"2B096","departement":"Haute-Corse","region":"Corse"}},{"type":"Feature","geometry":{"type":"Point","coordinates":[9.07994,42.28148]},"properties":{"latitude":"42.28148","longitude":"9.07994","bright_ti4":"340.03","scan":"0.41","track":"0.37","acq_date":"2026-07-16","acq_time":"1208","satellite":"N21","instrument":"VIIRS","confidence":"n","version":"2.0NRT","bright_ti5":"304.85","frp":"3.77","daynight":"D","commune":"Corte","code_insee":"2B096","departement":"Haute-Corse","region":"Corse"}},{"type":"Feature","geometry":{"type":"Point","coordinates":[9.08459,42.2823]},"properties":{"latitude":"42.2823","longitude":"9.08459","bright_ti4":"338.02","scan":"0.41","track":"0.37","acq_date":"2026-07-16","acq_time":"1208","satellite":"N21","instrument":"VIIRS","confidence":"n","version":"2.0NRT","bright_ti5":"304.94","frp":"4.16","daynight":"D","commune":"Corte","code_insee":"2B096","departement":"Haute-Corse","region":"Corse"}},{"type":"Feature","geometry":{"type":"Point","coordinates":[4.41836,48.76909]},"properties":{"latitude":"48.76909","longitude":"4.41836","bright_ti4":"340.46","scan":"0.46","track":"0.39","acq_date":"2026-07-16","acq_time":"1210","satellite":"N21","instrument":"VIIRS","confidence":"l","version":"2.0NRT","bright_ti5":"313.29","frp":"53.82","daynight":"D","commune":"Faux-Vésigneul","code_insee":"51244","departement":"Marne","region":"Grand Est"}},{"type":"Feature","geometry":{"type":"Point","coordinates":[1.76317,48.98418]},"properties":{"latitude":"48.98418","longitude":"1.76317","bright_ti4":"331.33","scan":"0.56","track":"0.43","acq_date":"2026-07-16","acq_time":"1210","satellite":"N21","instrument":"VIIRS","confidence":"l","version":"2.0NRT","bright_ti5":"306.17","frp":"2.65","daynight":"D","commune":"Porcheville","code_insee":"78501","departement":"Yvelines","region":"Île-de-France"}},{"type":"Feature","geometry":{"type":"Point","coordinates":[1.91216,49.16376]},"properties":{"latitude":"49.16376","longitude":"1.91216","bright_ti4":"330.28","scan":"0.55","track":"0.42","acq_date":"2026-07-16","acq_time":"1210","satellite":"N21","instrument":"VIIRS","confidence":"l","version":"2.0NRT","bright_ti5":"303.91","frp":"91.94","daynight":"D","commune":"Chars","code_insee":"95142","departement":"Val-d'Oise","region":"Île-de-France"}},{"type":"Feature","geometry":{"type":"Point","coordinates":[1.73303,50.0742]},"properties":{"latitude":"50.0742","longitude":"1.73303","bright_ti4":"339.27","scan":"0.53","track":"0.42","acq_date":"2026-07-16","acq_time":"1210","satellite":"N21","instrument":"VIIRS","confidence":"n","version":"2.0NRT","bright_ti5":"308.71","frp":"13.44","daynight":"D","commune":"Moyenneville","code_insee":"80578","departement":"Somme","region":"Hauts-de-France"}},{"type":"Feature","geometry":{"type":"Point","coordinates":[2.28774,51.03617]},"properties":{"latitude":"51.03617","longitude":"2.28774","bright_ti4":"336.06","scan":"0.49","track":"0.4","acq_date":"2026-07-16","acq_time":"1210","satellite":"N21","instrument":"VIIRS","confidence":"n","version":"2.0NRT","bright_ti5":"302.12","frp":"4.6","daynight":"D","commune":"Grande-Synthe","code_insee":"59271","departement":"Nord","region":"Hauts-de-France"}},{"type":"Feature","geometry":{"type":"Point","coordinates":[2.29729,51.04599]},"properties":{"latitude":"51.04599","longitude":"2.29729","bright_ti4":"335.21","scan":"0.48","track":"0.4","acq_date":"2026-07-16","acq_time":"1210","satellite":"N21","instrument":"VIIRS","confidence":"n","version":"2.0NRT","bright_ti5":"299.28","frp":"8.07","daynight":"D","commune":"Grande-Synthe","code_insee":"59271","departement":"Nord","region":"Hauts-de-France"}},{"type":"Feature","geometry":{"type":"Point","coordinates":[2.31897,51.0466]},"properties":{"latitude":"51.0466","longitude":"2.31897","bright_ti4":"347.27","scan":"0.48","track":"0.4","acq_date":"2026-07-16","acq_time":"1210","satellite":"N21","instrument":"VIIRS","confidence":"n","version":"2.0NRT","bright_ti5":"304.01","frp":"7.8","daynight":"D","commune":"Dunkerque","code_insee":"59183","departement":"Nord","region":"Hauts-de-France"}},{"type":"Feature","geometry":{"type":"Point","coordinates":[1.04316,42.83987]},"properties":{"latitude":"42.83987","longitude":"1.04316","bright_ti4":"354.45","scan":"0.51","track":"0.66","acq_date":"2026-07-16","acq_time":"1348","satellite":"N21","instrument":"VIIRS","confidence":"n","version":"2.0NRT","bright_ti5":"309.59","frp":"14.57","daynight":"D","commune":"Bordes-Uchentein","code_insee":"09062","departement":"Ariège","region":"Occitanie"}},{"type":"Feature","geometry":{"type":"Point","coordinates":[1.04674,42.83996]},"properties":{"latitude":"42.83996","longitude":"1.04674","bright_ti4":"334.96","scan":"0.52","track":"0.66","acq_date":"2026-07-16","acq_time":"1348","satellite":"N21","instrument":"VIIRS","confidence":"l","version":"2.0NRT","bright_ti5":"306.27","frp":"14.57","daynight":"D","commune":"Bordes-Uchentein","code_insee":"09062","departement":"Ariège","region":"Occitanie"}},{"type":"Feature","geometry":{"type":"Point","coordinates":[1.0549,42.84017]},"properties":{"latitude":"42.84017","longitude":"1.0549","bright_ti4":"340.11","scan":"0.52","track":"0.67","acq_date":"2026-07-16","acq_time":"1348","satellite":"N21","instrument":"VIIRS","confidence":"n","version":"2.0NRT","bright_ti5":"298.31","frp":"26.31","daynight":"D","commune":"Bordes-Uchentein","code_insee":"09062","departement":"Ariège","region":"Occitanie"}},{"type":"Feature","geometry":{"type":"Point","coordinates":[1.04206,42.84019]},"properties":{"latitude":"42.84019","longitude":"1.04206","bright_ti4":"336.22","scan":"0.52","track":"0.66","acq_date":"2026-07-16","acq_time":"1348","satellite":"N21","instrument":"VIIRS","confidence":"l","version":"2.0NRT","bright_ti5":"307.76","frp":"20.14","daynight":"D","commune":"Bordes-Uchentein","code_insee":"09062","departement":"Ariège","region":"Occitanie"}},{"type":"Feature","geometry":{"type":"Point","coordinates":[1.04557,42.84027]},"properties":{"latitude":"42.84027","longitude":"1.04557","bright_ti4":"339.96","scan":"0.52","track":"0.66","acq_date":"2026-07-16","acq_time":"1348","satellite":"N21","instrument":"VIIRS","confidence":"n","version":"2.0NRT","bright_ti5":"308.81","frp":"15.85","daynight":"D","commune":"Bordes-Uchentein","code_insee":"09062","departement":"Ariège","region":"Occitanie"}},{"type":"Feature","geometry":{"type":"Point","coordinates":[1.0599,42.84029]},"properties":{"latitude":"42.84029","longitude":"1.0599","bright_ti4":"367","scan":"0.52","track":"0.67","acq_date":"2026-07-16","acq_time":"1348","satellite":"N21","instrument":"VIIRS","confidence":"h","version":"2.0NRT","bright_ti5":"300.65","frp":"40.17","daynight":"D","commune":"Bethmale","code_insee":"09055","departement":"Ariège","region":"Occitanie"}},{"type":"Feature","geometry":{"type":"Point","coordinates":[1.05353,42.84044]},"properties":{"latitude":"42.84044","longitude":"1.05353","bright_ti4":"333.85","scan":"0.52","track":"0.67","acq_date":"2026-07-16","acq_time":"1348","satellite":"N21","instrument":"VIIRS","confidence":"n","version":"2.0NRT","bright_ti5":"292.84","frp":"11.89","daynight":"D","commune":"Arrien-en-Bethmale","code_insee":"09017","departement":"Ariège","region":"Occitanie"}},{"type":"Feature","geometry":{"type":"Point","coordinates":[1.05853,42.84055]},"properties":{"latitude":"42.84055","longitude":"1.05853","bright_ti4":"367","scan":"0.52","track":"0.67","acq_date":"2026-07-16","acq_time":"1348","satellite":"N21","instrument":"VIIRS","confidence":"h","version":"2.0NRT","bright_ti5":"302.71","frp":"11.89","daynight":"D","commune":"Bethmale","code_insee":"09055","departement":"Ariège","region":"Occitanie"}},{"type":"Feature","geometry":{"type":"Point","coordinates":[1.05147,42.8462]},"properties":{"latitude":"42.8462","longitude":"1.05147","bright_ti4":"354.86","scan":"0.52","track":"0.66","acq_date":"2026-07-16","acq_time":"1348","satellite":"N21","instrument":"VIIRS","confidence":"n","version":"2.0NRT","bright_ti5":"291.94","frp":"26.31","daynight":"D","commune":"Arrien-en-Bethmale","code_insee":"09017","departement":"Ariège","region":"Occitanie"}},{"type":"Feature","geometry":{"type":"Point","coordinates":[1.05785,42.84636]},"properties":{"latitude":"42.84636","longitude":"1.05785","bright_ti4":"367","scan":"0.52","track":"0.67","acq_date":"2026-07-16","acq_time":"1348","satellite":"N21","instrument":"VIIRS","confidence":"h","version":"2.0NRT","bright_ti5":"308.37","frp":"26.31","daynight":"D","commune":"Arrien-en-Bethmale","code_insee":"09017","departement":"Ariège","region":"Occitanie"}},{"type":"Feature","geometry":{"type":"Point","coordinates":[1.05608,42.84661]},"properties":{"latitude":"42.84661","longitude":"1.05608","bright_ti4":"353.67","scan":"0.52","track":"0.67","acq_date":"2026-07-16","acq_time":"1348","satellite":"N21","instrument":"VIIRS","confidence":"n","version":"2.0NRT","bright_ti5":"306.71","frp":"36.03","daynight":"D","commune":"Arrien-en-Bethmale","code_insee":"09017","departement":"Ariège","region":"Occitanie"}},{"type":"Feature","geometry":{"type":"Point","coordinates":[1.06207,42.84673]},"properties":{"latitude":"42.84673","longitude":"1.06207","bright_ti4":"353.79","scan":"0.52","track":"0.67","acq_date":"2026-07-16","acq_time":"1348","satellite":"N21","instrument":"VIIRS","confidence":"n","version":"2.0NRT","bright_ti5":"297.53","frp":"36.03","daynight":"D","commune":"Bethmale","code_insee":"09055","departement":"Ariège","region":"Occitanie"}},{"type":"Feature","geometry":{"type":"Point","coordinates":[1.04229,42.85208]},"properties":{"latitude":"42.85208","longitude":"1.04229","bright_ti4":"338.83","scan":"0.51","track":"0.66","acq_date":"2026-07-16","acq_time":"1348","satellite":"N21","instrument":"VIIRS","confidence":"n","version":"2.0NRT","bright_ti5":"300.32","frp":"10.71","daynight":"D","commune":"Bordes-Uchentein","code_insee":"09062","departement":"Ariège","region":"Occitanie"}},{"type":"Feature","geometry":{"type":"Point","coordinates":[1.04747,42.85222]},"properties":{"latitude":"42.85222","longitude":"1.04747","bright_ti4":"367","scan":"0.52","track":"0.66","acq_date":"2026-07-16","acq_time":"1348","satellite":"N21","instrument":"VIIRS","confidence":"h","version":"2.0NRT","bright_ti5":"300.63","frp":"10.71","daynight":"D","commune":"Arrien-en-Bethmale","code_insee":"09017","departement":"Ariège","region":"Occitanie"}},{"type":"Feature","geometry":{"type":"Point","coordinates":[1.04539,42.8525]},"properties":{"latitude":"42.8525","longitude":"1.04539","bright_ti4":"367","scan":"0.52","track":"0.66","acq_date":"2026-07-16","acq_time":"1348","satellite":"N21","instrument":"VIIRS","confidence":"h","version":"2.0NRT","bright_ti5":"301.27","frp":"43.76","daynight":"D","commune":"Bordes-Uchentein","code_insee":"09062","departement":"Ariège","region":"Occitanie"}},{"type":"Feature","geometry":{"type":"Point","coordinates":[0.08388,42.87509]},"properties":{"latitude":"42.87509","longitude":"0.08388","bright_ti4":"355.64","scan":"0.46","track":"0.64","acq_date":"2026-07-16","acq_time":"1348","satellite":"N21","instrument":"VIIRS","confidence":"n","version":"2.0NRT","bright_ti5":"305.75","frp":"32.8","daynight":"D","commune":"Barèges","code_insee":"65481","departement":"Hautes-Pyrénées","region":"Occitanie"}},{"type":"Feature","geometry":{"type":"Point","coordinates":[0.08856,42.87524]},"properties":{"latitude":"42.87524","longitude":"0.08856","bright_ti4":"367","scan":"0.46","track":"0.64","acq_date":"2026-07-16","acq_time":"1348","satellite":"N21","instrument":"VIIRS","confidence":"h","version":"2.0NRT","bright_ti5":"313.77","frp":"32.8","daynight":"D","commune":"Barèges","code_insee":"65481","departement":"Hautes-Pyrénées","region":"Occitanie"}},{"type":"Feature","geometry":{"type":"Point","coordinates":[0.092,42.87534]},"properties":{"latitude":"42.87534","longitude":"0.092","bright_ti4":"367","scan":"0.46","track":"0.64","acq_date":"2026-07-16","acq_time":"1348","satellite":"N21","instrument":"VIIRS","confidence":"h","version":"2.0NRT","bright_ti5":"308.06","frp":"32.11","daynight":"D","commune":"Barèges","code_insee":"65481","departement":"Hautes-Pyrénées","region":"Occitanie"}},{"type":"Feature","geometry":{"type":"Point","coordinates":[0.09511,42.87545]},"properties":{"latitude":"42.87545","longitude":"0.09511","bright_ti4":"367","scan":"0.46","track":"0.64","acq_date":"2026-07-16","acq_time":"1348","satellite":"N21","instrument":"VIIRS","confidence":"h","version":"2.0NRT","bright_ti5":"301.33","frp":"32.11","daynight":"D","commune":"Barèges","code_insee":"65481","departement":"Hautes-Pyrénées","region":"Occitanie"}},{"type":"Feature","geometry":{"type":"Point","coordinates":[0.08493,42.88096]},"properties":{"latitude":"42.88096","longitude":"0.08493","bright_ti4":"336.1","scan":"0.46","track":"0.64","acq_date":"2026-07-16","acq_time":"1348","satellite":"N21","instrument":"VIIRS","confidence":"n","version":"2.0NRT","bright_ti5":"304.59","frp":"123.1","daynight":"D","commune":"Barèges","code_insee":"65481","departement":"Hautes-Pyrénées","region":"Occitanie"}},{"type":"Feature","geometry":{"type":"Point","coordinates":[0.08878,42.88109]},"properties":{"latitude":"42.88109","longitude":"0.08878","bright_ti4":"207.38","scan":"0.46","track":"0.64","acq_date":"2026-07-16","acq_time":"1348","satellite":"N21","instrument":"VIIRS","confidence":"l","version":"2.0NRT","bright_ti5":"321.58","frp":"123.1","daynight":"D","commune":"Barèges","code_insee":"65481","departement":"Hautes-Pyrénées","region":"Occitanie"}},{"type":"Feature","geometry":{"type":"Point","coordinates":[0.09476,42.88128]},"properties":{"latitude":"42.88128","longitude":"0.09476","bright_ti4":"352.11","scan":"0.46","track":"0.64","acq_date":"2026-07-16","acq_time":"1348","satellite":"N21","instrument":"VIIRS","confidence":"n","version":"2.0NRT","bright_ti5":"297.93","frp":"263.65","daynight":"D","commune":"Barèges","code_insee":"65481","departement":"Hautes-Pyrénées","region":"Occitanie"}},{"type":"Feature","geometry":{"type":"Point","coordinates":[2.28945,51.03313]},"properties":{"latitude":"51.03313","longitude":"2.28945","bright_ti4":"334.22","scan":"0.63","track":"0.72","acq_date":"2026-07-16","acq_time":"1350","satellite":"N21","instrument":"VIIRS","confidence":"n","version":"2.0NRT","bright_ti5":"296.6","frp":"6.6","daynight":"D","commune":"Grande-Synthe","code_insee":"59271","departement":"Nord","region":"Hauts-de-France"}}]}