{"type":"FeatureCollection","features":[{"type":"Feature","geometry":{"type":"Point","coordinates":[6.80929,49.13428]},"properties":{"latitude":"49.13428","longitude":"6.80929","bright_ti4":"310.45","scan":"0.39","track":"0.36","acq_date":"2026-06-28","acq_time":"154","satellite":"N","instrument":"VIIRS","confidence":"n","version":"2.0NRT","bright_ti5":"291.6","frp":"1.55","daynight":"N","commune":"Betting","code_insee":"57073","departement":"Moselle","region":"Grand Est"}},{"type":"Feature","geometry":{"type":"Point","coordinates":[3.49003,50.33123]},"properties":{"latitude":"50.33123","longitude":"3.49003","bright_ti4":"305.28","scan":"0.4","track":"0.37","acq_date":"2026-06-28","acq_time":"154","satellite":"N","instrument":"VIIRS","confidence":"n","version":"2.0NRT","bright_ti5":"291.53","frp":"0.75","daynight":"N","commune":"Trith-Saint-Léger","code_insee":"59603","departement":"Nord","region":"Hauts-de-France"}},{"type":"Feature","geometry":{"type":"Point","coordinates":[1.89197,50.97069]},"properties":{"latitude":"50.97069","longitude":"1.89197","bright_ti4":"300.8","scan":"0.44","track":"0.38","acq_date":"2026-06-28","acq_time":"154","satellite":"N","instrument":"VIIRS","confidence":"n","version":"2.0NRT","bright_ti5":"290.41","frp":"0.52","daynight":"N","commune":"Calais","code_insee":"62193","departement":"Pas-de-Calais","region":"Hauts-de-France"}},{"type":"Feature","geometry":{"type":"Point","coordinates":[2.31809,51.04739]},"properties":{"latitude":"51.04739","longitude":"2.31809","bright_ti4":"300.68","scan":"0.43","track":"0.38","acq_date":"2026-06-28","acq_time":"154","satellite":"N","instrument":"VIIRS","confidence":"n","version":"2.0NRT","bright_ti5":"265","frp":"1.63","daynight":"N","commune":"Dunkerque","code_insee":"59183","departement":"Nord","region":"Hauts-de-France"}},{"type":"Feature","geometry":{"type":"Point","coordinates":[1.57221,43.05882]},"properties":{"latitude":"43.05882","longitude":"1.57221","bright_ti4":"308.92","scan":"0.39","track":"0.36","acq_date":"2026-06-28","acq_time":"156","satellite":"N","instrument":"VIIRS","confidence":"n","version":"2.0NRT","bright_ti5":"292.23","frp":"0.48","daynight":"N","commune":"Loubens","code_insee":"09173","departement":"Ariège","region":"Occitanie"}},{"type":"Feature","geometry":{"type":"Point","coordinates":[0.99125,43.18797]},"properties":{"latitude":"43.18797","longitude":"0.99125","bright_ti4":"306.12","scan":"0.4","track":"0.37","acq_date":"2026-06-28","acq_time":"156","satellite":"N","instrument":"VIIRS","confidence":"n","version":"2.0NRT","bright_ti5":"293.67","frp":"0.8","daynight":"N","commune":"Martres-Tolosane","code_insee":"31324","departement":"Haute-Garonne","region":"Occitanie"}},{"type":"Feature","geometry":{"type":"Point","coordinates":[4.88367,43.44228]},"properties":{"latitude":"43.44228","longitude":"4.88367","bright_ti4":"310.7","scan":"0.4","track":"0.37","acq_date":"2026-06-28","acq_time":"156","satellite":"N","instrument":"VIIRS","confidence":"n","version":"2.0NRT","bright_ti5":"294.69","frp":"2.16","daynight":"N","commune":"Fos-sur-Mer","code_insee":"13039","departement":"Bouches-du-Rhône","region":"Provence-Alpes-Côte d'Azur"}},{"type":"Feature","geometry":{"type":"Point","coordinates":[4.8994,43.44303]},"properties":{"latitude":"43.44303","longitude":"4.8994","bright_ti4":"324.62","scan":"0.4","track":"0.37","acq_date":"2026-06-28","acq_time":"156","satellite":"N","instrument":"VIIRS","confidence":"n","version":"2.0NRT","bright_ti5":"294.59","frp":"5.81","daynight":"N","commune":"Fos-sur-Mer","code_insee":"13039","departement":"Bouches-du-Rhône","region":"Provence-Alpes-Côte d'Azur"}},{"type":"Feature","geometry":{"type":"Point","coordinates":[4.88965,43.44475]},"properties":{"latitude":"43.44475","longitude":"4.88965","bright_ti4":"305.21","scan":"0.4","track":"0.37","acq_date":"2026-06-28","acq_time":"156","satellite":"N","instrument":"VIIRS","confidence":"n","version":"2.0NRT","bright_ti5":"295.18","frp":"1.29","daynight":"N","commune":"Fos-sur-Mer","code_insee":"13039","departement":"Bouches-du-Rhône","region":"Provence-Alpes-Côte d'Azur"}},{"type":"Feature","geometry":{"type":"Point","coordinates":[4.90051,43.44636]},"properties":{"latitude":"43.44636","longitude":"4.90051","bright_ti4":"336.65","scan":"0.4","track":"0.37","acq_date":"2026-06-28","acq_time":"156","satellite":"N","instrument":"VIIRS","confidence":"n","version":"2.0NRT","bright_ti5":"297.36","frp":"5.81","daynight":"N","commune":"Fos-sur-Mer","code_insee":"13039","departement":"Bouches-du-Rhône","region":"Provence-Alpes-Côte d'Azur"}},{"type":"Feature","geometry":{"type":"Point","coordinates":[4.89563,43.44722]},"properties":{"latitude":"43.44722","longitude":"4.89563","bright_ti4":"339.8","scan":"0.4","track":"0.37","acq_date":"2026-06-28","acq_time":"156","satellite":"N","instrument":"VIIRS","confidence":"n","version":"2.0NRT","bright_ti5":"299.02","frp":"5.81","daynight":"N","commune":"Fos-sur-Mer","code_insee":"13039","departement":"Bouches-du-Rhône","region":"Provence-Alpes-Côte d'Azur"}},{"type":"Feature","geometry":{"type":"Point","coordinates":[7.37254,43.7933]},"properties":{"latitude":"43.7933","longitude":"7.37254","bright_ti4":"306.71","scan":"0.46","track":"0.39","acq_date":"2026-06-28","acq_time":"156","satellite":"N","instrument":"VIIRS","confidence":"n","version":"2.0NRT","bright_ti5":"294.31","frp":"1.2","daynight":"N","commune":"Blausasc","code_insee":"06019","departement":"Alpes-Maritimes","region":"Provence-Alpes-Côte d'Azur"}},{"type":"Feature","geometry":{"type":"Point","coordinates":[3.3876,45.2193]},"properties":{"latitude":"45.2193","longitude":"3.3876","bright_ti4":"306.32","scan":"0.38","track":"0.36","acq_date":"2026-06-28","acq_time":"156","satellite":"N","instrument":"VIIRS","confidence":"n","version":"2.0NRT","bright_ti5":"291.46","frp":"1.26","daynight":"N","commune":"Villeneuve-d'Allier","code_insee":"43264","departement":"Haute-Loire","region":"Auvergne-Rhône-Alpes"}},{"type":"Feature","geometry":{"type":"Point","coordinates":[3.38862,45.22258]},"properties":{"latitude":"45.22258","longitude":"3.38862","bright_ti4":"312.14","scan":"0.38","track":"0.36","acq_date":"2026-06-28","acq_time":"156","satellite":"N","instrument":"VIIRS","confidence":"n","version":"2.0NRT","bright_ti5":"290.99","frp":"1.26","daynight":"N","commune":"Villeneuve-d'Allier","code_insee":"43264","departement":"Haute-Loire","region":"Auvergne-Rhône-Alpes"}},{"type":"Feature","geometry":{"type":"Point","coordinates":[3.38965,45.22586]},"properties":{"latitude":"45.22586","longitude":"3.38965","bright_ti4":"305.22","scan":"0.38","track":"0.36","acq_date":"2026-06-28","acq_time":"156","satellite":"N","instrument":"VIIRS","confidence":"n","version":"2.0NRT","bright_ti5":"291.22","frp":"0.87","daynight":"N","commune":"Villeneuve-d'Allier","code_insee":"43264","departement":"Haute-Loire","region":"Auvergne-Rhône-Alpes"}},{"type":"Feature","geometry":{"type":"Point","coordinates":[4.23441,45.86508]},"properties":{"latitude":"45.86508","longitude":"4.23441","bright_ti4":"306.31","scan":"0.38","track":"0.36","acq_date":"2026-06-28","acq_time":"156","satellite":"N","instrument":"VIIRS","confidence":"n","version":"2.0NRT","bright_ti5":"290.56","frp":"0.57","daynight":"N","commune":"Saint-Just-la-Pendue","code_insee":"42249","departement":"Loire","region":"Auvergne-Rhône-Alpes"}},{"type":"Feature","geometry":{"type":"Point","coordinates":[5.82039,45.91127]},"properties":{"latitude":"45.91127","longitude":"5.82039","bright_ti4":"304.94","scan":"0.4","track":"0.37","acq_date":"2026-06-28","acq_time":"156","satellite":"N","instrument":"VIIRS","confidence":"n","version":"2.0NRT","bright_ti5":"294.42","frp":"0.71","daynight":"N","commune":"Anglefort","code_insee":"01010","departement":"Ain","region":"Auvergne-Rhône-Alpes"}},{"type":"Feature","geometry":{"type":"Point","coordinates":[7.23699,47.62876]},"properties":{"latitude":"47.62876","longitude":"7.23699","bright_ti4":"305.15","scan":"0.41","track":"0.37","acq_date":"2026-06-28","acq_time":"156","satellite":"N","instrument":"VIIRS","confidence":"n","version":"2.0NRT","bright_ti5":"294.52","frp":"0.93","daynight":"N","commune":"Altkirch","code_insee":"68004","departement":"Haut-Rhin","region":"Grand Est"}},{"type":"Feature","geometry":{"type":"Point","coordinates":[-1.03515,48.10831]},"properties":{"latitude":"48.10831","longitude":"-1.03515","bright_ti4":"300.47","scan":"0.5","track":"0.41","acq_date":"2026-06-28","acq_time":"156","satellite":"N","instrument":"VIIRS","confidence":"n","version":"2.0NRT","bright_ti5":"289.68","frp":"1.09","daynight":"N","commune":"Saint-Pierre-la-Cour","code_insee":"53247","departement":"Mayenne","region":"Pays de la Loire"}},{"type":"Feature","geometry":{"type":"Point","coordinates":[2.98065,48.38766]},"properties":{"latitude":"48.38766","longitude":"2.98065","bright_ti4":"320.34","scan":"0.4","track":"0.37","acq_date":"2026-06-28","acq_time":"156","satellite":"N","instrument":"VIIRS","confidence":"n","version":"2.0NRT","bright_ti5":"295.77","frp":"2.2","daynight":"N","commune":"Montereau-Fault-Yonne","code_insee":"77305","departement":"Seine-et-Marne","region":"Île-de-France"}},{"type":"Feature","geometry":{"type":"Point","coordinates":[2.19051,48.55272]},"properties":{"latitude":"48.55272","longitude":"2.19051","bright_ti4":"312.2","scan":"0.41","track":"0.37","acq_date":"2026-06-28","acq_time":"156","satellite":"N","instrument":"VIIRS","confidence":"n","version":"2.0NRT","bright_ti5":"291.08","frp":"1.29","daynight":"N","commune":"Saint-Yon","code_insee":"91581","departement":"Essonne","region":"Île-de-France"}},{"type":"Feature","geometry":{"type":"Point","coordinates":[6.11184,48.56265]},"properties":{"latitude":"48.56265","longitude":"6.11184","bright_ti4":"305.35","scan":"0.39","track":"0.36","acq_date":"2026-06-28","acq_time":"156","satellite":"N","instrument":"VIIRS","confidence":"n","version":"2.0NRT","bright_ti5":"292.85","frp":"0.29","daynight":"N","commune":"Xeuilley","code_insee":"54596","departement":"Meurthe-et-Moselle","region":"Grand Est"}},{"type":"Feature","geometry":{"type":"Point","coordinates":[6.10879,48.61199]},"properties":{"latitude":"48.61199","longitude":"6.10879","bright_ti4":"306.94","scan":"0.39","track":"0.36","acq_date":"2026-06-28","acq_time":"156","satellite":"N","instrument":"VIIRS","confidence":"n","version":"2.0NRT","bright_ti5":"294.52","frp":"1.2","daynight":"N","commune":"Neuves-Maisons","code_insee":"54397","departement":"Meurthe-et-Moselle","region":"Grand Est"}},{"type":"Feature","geometry":{"type":"Point","coordinates":[2.73857,48.95002]},"properties":{"latitude":"48.95002","longitude":"2.73857","bright_ti4":"306.54","scan":"0.4","track":"0.37","acq_date":"2026-06-28","acq_time":"156","satellite":"N","instrument":"VIIRS","confidence":"n","version":"2.0NRT","bright_ti5":"292.14","frp":"0.79","daynight":"N","commune":"Fresnes-sur-Marne","code_insee":"77196","departement":"Seine-et-Marne","region":"Île-de-France"}},{"type":"Feature","geometry":{"type":"Point","coordinates":[2.73774,48.95057]},"properties":{"latitude":"48.95057","longitude":"2.73774","bright_ti4":"308.17","scan":"0.4","track":"0.37","acq_date":"2026-06-28","acq_time":"156","satellite":"N","instrument":"VIIRS","confidence":"n","version":"2.0NRT","bright_ti5":"292.05","frp":"0.88","daynight":"N","commune":"Fresnes-sur-Marne","code_insee":"77196","departement":"Seine-et-Marne","region":"Île-de-France"}},{"type":"Feature","geometry":{"type":"Point","coordinates":[0.53599,49.47544]},"properties":{"latitude":"49.47544","longitude":"0.53599","bright_ti4":"302.1","scan":"0.46","track":"0.39","acq_date":"2026-06-28","acq_time":"156","satellite":"N","instrument":"VIIRS","confidence":"n","version":"2.0NRT","bright_ti5":"291","frp":"1.34","daynight":"N","commune":"Lillebonne","code_insee":"76384","departement":"Seine-Maritime","region":"Normandie"}},{"type":"Feature","geometry":{"type":"Point","coordinates":[0.80542,49.4846]},"properties":{"latitude":"49.4846","longitude":"0.80542","bright_ti4":"303.46","scan":"0.45","track":"0.39","acq_date":"2026-06-28","acq_time":"156","satellite":"N","instrument":"VIIRS","confidence":"n","version":"2.0NRT","bright_ti5":"290.67","frp":"0.63","daynight":"N","commune":"Le Trait","code_insee":"76709","departement":"Seine-Maritime","region":"Normandie"}},{"type":"Feature","geometry":{"type":"Point","coordinates":[2.27959,51.02947]},"properties":{"latitude":"51.02947","longitude":"2.27959","bright_ti4":"313.42","scan":"0.62","track":"0.72","acq_date":"2026-06-28","acq_time":"334","satellite":"N","instrument":"VIIRS","confidence":"n","version":"2.0NRT","bright_ti5":"288.35","frp":"2.86","daynight":"N","commune":"Grande-Synthe","code_insee":"59271","departement":"Nord","region":"Hauts-de-France"}},{"type":"Feature","geometry":{"type":"Point","coordinates":[2.2771,51.03324]},"properties":{"latitude":"51.03324","longitude":"2.2771","bright_ti4":"318.22","scan":"0.62","track":"0.72","acq_date":"2026-06-28","acq_time":"334","satellite":"N","instrument":"VIIRS","confidence":"n","version":"2.0NRT","bright_ti5":"288.21","frp":"2.66","daynight":"N","commune":"Grande-Synthe","code_insee":"59271","departement":"Nord","region":"Hauts-de-France"}},{"type":"Feature","geometry":{"type":"Point","coordinates":[2.28518,51.03524]},"properties":{"latitude":"51.03524","longitude":"2.28518","bright_ti4":"319.31","scan":"0.62","track":"0.72","acq_date":"2026-06-28","acq_time":"334","satellite":"N","instrument":"VIIRS","confidence":"n","version":"2.0NRT","bright_ti5":"288.83","frp":"2.86","daynight":"N","commune":"Grande-Synthe","code_insee":"59271","departement":"Nord","region":"Hauts-de-France"}},{"type":"Feature","geometry":{"type":"Point","coordinates":[2.29072,51.03596]},"properties":{"latitude":"51.03596","longitude":"2.29072","bright_ti4":"306.56","scan":"0.62","track":"0.72","acq_date":"2026-06-28","acq_time":"334","satellite":"N","instrument":"VIIRS","confidence":"n","version":"2.0NRT","bright_ti5":"288.15","frp":"3.09","daynight":"N","commune":"Grande-Synthe","code_insee":"59271","departement":"Nord","region":"Hauts-de-France"}},{"type":"Feature","geometry":{"type":"Point","coordinates":[2.28275,51.03898]},"properties":{"latitude":"51.03898","longitude":"2.28275","bright_ti4":"303.31","scan":"0.62","track":"0.72","acq_date":"2026-06-28","acq_time":"334","satellite":"N","instrument":"VIIRS","confidence":"n","version":"2.0NRT","bright_ti5":"288.16","frp":"2.66","daynight":"N","commune":"Grande-Synthe","code_insee":"59271","departement":"Nord","region":"Hauts-de-France"}},{"type":"Feature","geometry":{"type":"Point","coordinates":[2.2908,51.04099]},"properties":{"latitude":"51.04099","longitude":"2.2908","bright_ti4":"300.03","scan":"0.62","track":"0.72","acq_date":"2026-06-28","acq_time":"334","satellite":"N","instrument":"VIIRS","confidence":"n","version":"2.0NRT","bright_ti5":"288.27","frp":"4","daynight":"N","commune":"Grande-Synthe","code_insee":"59271","departement":"Nord","region":"Hauts-de-France"}},{"type":"Feature","geometry":{"type":"Point","coordinates":[2.29634,51.04171]},"properties":{"latitude":"51.04171","longitude":"2.29634","bright_ti4":"307.48","scan":"0.62","track":"0.72","acq_date":"2026-06-28","acq_time":"334","satellite":"N","instrument":"VIIRS","confidence":"n","version":"2.0NRT","bright_ti5":"288.23","frp":"4.53","daynight":"N","commune":"Grande-Synthe","code_insee":"59271","departement":"Nord","region":"Hauts-de-France"}},{"type":"Feature","geometry":{"type":"Point","coordinates":[2.2884,51.04472]},"properties":{"latitude":"51.04472","longitude":"2.2884","bright_ti4":"312.87","scan":"0.62","track":"0.72","acq_date":"2026-06-28","acq_time":"334","satellite":"N","instrument":"VIIRS","confidence":"n","version":"2.0NRT","bright_ti5":"287.9","frp":"3.29","daynight":"N","commune":"Grande-Synthe","code_insee":"59271","departement":"Nord","region":"Hauts-de-France"}},{"type":"Feature","geometry":{"type":"Point","coordinates":[2.2964,51.04675]},"properties":{"latitude":"51.04675","longitude":"2.2964","bright_ti4":"343.25","scan":"0.62","track":"0.72","acq_date":"2026-06-28","acq_time":"334","satellite":"N","instrument":"VIIRS","confidence":"n","version":"2.0NRT","bright_ti5":"289.09","frp":"4","daynight":"N","commune":"Grande-Synthe","code_insee":"59271","departement":"Nord","region":"Hauts-de-France"}},{"type":"Feature","geometry":{"type":"Point","coordinates":[4.89999,43.44897]},"properties":{"latitude":"43.44897","longitude":"4.89999","bright_ti4":"332.2","scan":"0.48","track":"0.64","acq_date":"2026-06-28","acq_time":"1140","satellite":"N","instrument":"VIIRS","confidence":"n","version":"2.0NRT","bright_ti5":"301.03","frp":"8.46","daynight":"D","commune":"Fos-sur-Mer","code_insee":"13039","departement":"Bouches-du-Rhône","region":"Provence-Alpes-Côte d'Azur"}},{"type":"Feature","geometry":{"type":"Point","coordinates":[4.06608,46.60495]},"properties":{"latitude":"46.60495","longitude":"4.06608","bright_ti4":"337.25","scan":"0.42","track":"0.61","acq_date":"2026-06-28","acq_time":"1142","satellite":"N","instrument":"VIIRS","confidence":"n","version":"2.0NRT","bright_ti5":"298.96","frp":"1.52","daynight":"D","commune":"Gueugnon","code_insee":"71230","departement":"Saône-et-Loire","region":"Bourgogne-Franche-Comté"}},{"type":"Feature","geometry":{"type":"Point","coordinates":[2.83726,42.61499]},"properties":{"latitude":"42.61499","longitude":"2.83726","bright_ti4":"335.85","scan":"0.42","track":"0.45","acq_date":"2026-06-28","acq_time":"1321","satellite":"N","instrument":"VIIRS","confidence":"n","version":"2.0NRT","bright_ti5":"303.32","frp":"3.06","daynight":"D","commune":"Trouillas","code_insee":"66217","departement":"Pyrénées-Orientales","region":"Occitanie"}},{"type":"Feature","geometry":{"type":"Point","coordinates":[4.89051,43.43864]},"properties":{"latitude":"43.43864","longitude":"4.89051","bright_ti4":"335.07","scan":"0.54","track":"0.51","acq_date":"2026-06-28","acq_time":"1321","satellite":"N","instrument":"VIIRS","confidence":"l","version":"2.0NRT","bright_ti5":"308.2","frp":"7.02","daynight":"D","commune":"Fos-sur-Mer","code_insee":"13039","departement":"Bouches-du-Rhône","region":"Provence-Alpes-Côte d'Azur"}},{"type":"Feature","geometry":{"type":"Point","coordinates":[4.89618,43.44856]},"properties":{"latitude":"43.44856","longitude":"4.89618","bright_ti4":"341.95","scan":"0.54","track":"0.51","acq_date":"2026-06-28","acq_time":"1321","satellite":"N","instrument":"VIIRS","confidence":"n","version":"2.0NRT","bright_ti5":"305.14","frp":"7.21","daynight":"D","commune":"Fos-sur-Mer","code_insee":"13039","departement":"Bouches-du-Rhône","region":"Provence-Alpes-Côte d'Azur"}},{"type":"Feature","geometry":{"type":"Point","coordinates":[5.15253,43.57616]},"properties":{"latitude":"43.57616","longitude":"5.15253","bright_ti4":"343.04","scan":"0.56","track":"0.52","acq_date":"2026-06-28","acq_time":"1321","satellite":"N","instrument":"VIIRS","confidence":"n","version":"2.0NRT","bright_ti5":"308.96","frp":"6.43","daynight":"D","commune":"Lançon-Provence","code_insee":"13051","departement":"Bouches-du-Rhône","region":"Provence-Alpes-Côte d'Azur"}},{"type":"Feature","geometry":{"type":"Point","coordinates":[5.15214,43.58097]},"properties":{"latitude":"43.58097","longitude":"5.15214","bright_ti4":"344.74","scan":"0.56","track":"0.52","acq_date":"2026-06-28","acq_time":"1321","satellite":"N","instrument":"VIIRS","confidence":"n","version":"2.0NRT","bright_ti5":"308.14","frp":"13.84","daynight":"D","commune":"Lançon-Provence","code_insee":"13051","departement":"Bouches-du-Rhône","region":"Provence-Alpes-Côte d'Azur"}},{"type":"Feature","geometry":{"type":"Point","coordinates":[3.69712,48.3652]},"properties":{"latitude":"48.3652","longitude":"3.69712","bright_ti4":"348.16","scan":"0.53","track":"0.5","acq_date":"2026-06-28","acq_time":"1323","satellite":"N","instrument":"VIIRS","confidence":"n","version":"2.0NRT","bright_ti5":"300.43","frp":"27.33","daynight":"D","commune":"Saint-Lupien","code_insee":"10348","departement":"Aube","region":"Grand Est"}},{"type":"Feature","geometry":{"type":"Point","coordinates":[3.69586,48.36698]},"properties":{"latitude":"48.36698","longitude":"3.69586","bright_ti4":"356.17","scan":"0.53","track":"0.5","acq_date":"2026-06-28","acq_time":"1323","satellite":"N","instrument":"VIIRS","confidence":"n","version":"2.0NRT","bright_ti5":"303.98","frp":"32.47","daynight":"D","commune":"Saint-Lupien","code_insee":"10348","departement":"Aube","region":"Grand Est"}},{"type":"Feature","geometry":{"type":"Point","coordinates":[3.69648,48.36989]},"properties":{"latitude":"48.36989","longitude":"3.69648","bright_ti4":"351.45","scan":"0.53","track":"0.5","acq_date":"2026-06-28","acq_time":"1323","satellite":"N","instrument":"VIIRS","confidence":"n","version":"2.0NRT","bright_ti5":"302.23","frp":"27.33","daynight":"D","commune":"Saint-Lupien","code_insee":"10348","departement":"Aube","region":"Grand Est"}},{"type":"Feature","geometry":{"type":"Point","coordinates":[3.69523,48.37167]},"properties":{"latitude":"48.37167","longitude":"3.69523","bright_ti4":"355.7","scan":"0.53","track":"0.5","acq_date":"2026-06-28","acq_time":"1323","satellite":"N","instrument":"VIIRS","confidence":"n","version":"2.0NRT","bright_ti5":"298.3","frp":"32.47","daynight":"D","commune":"Saint-Lupien","code_insee":"10348","departement":"Aube","region":"Grand Est"}},{"type":"Feature","geometry":{"type":"Point","coordinates":[2.27047,51.02957]},"properties":{"latitude":"51.02957","longitude":"2.27047","bright_ti4":"333.8","scan":"0.49","track":"0.48","acq_date":"2026-06-28","acq_time":"1323","satellite":"N","instrument":"VIIRS","confidence":"n","version":"2.0NRT","bright_ti5":"292.61","frp":"4.36","daynight":"D","commune":"Grande-Synthe","code_insee":"59271","departement":"Nord","region":"Hauts-de-France"}},{"type":"Feature","geometry":{"type":"Point","coordinates":[2.29107,51.03545]},"properties":{"latitude":"51.03545","longitude":"2.29107","bright_ti4":"330.06","scan":"0.49","track":"0.49","acq_date":"2026-06-28","acq_time":"1323","satellite":"N","instrument":"VIIRS","confidence":"n","version":"2.0NRT","bright_ti5":"292.31","frp":"5.41","daynight":"D","commune":"Grande-Synthe","code_insee":"59271","departement":"Nord","region":"Hauts-de-France"}},{"type":"Feature","geometry":{"type":"Point","coordinates":[4.89688,43.44306]},"properties":{"latitude":"43.44306","longitude":"4.89688","bright_ti4":"307.68","scan":"0.64","track":"0.72","acq_date":"2026-06-28","acq_time":"35","satellite":"N20","instrument":"VIIRS","confidence":"n","version":"2.0NRT","bright_ti5":"292.76","frp":"2.67","daynight":"N","commune":"Fos-sur-Mer","code_insee":"13039","departement":"Bouches-du-Rhône","region":"Provence-Alpes-Côte d'Azur"}},{"type":"Feature","geometry":{"type":"Point","coordinates":[4.88064,43.44318]},"properties":{"latitude":"43.44318","longitude":"4.88064","bright_ti4":"308.77","scan":"0.64","track":"0.72","acq_date":"2026-06-28","acq_time":"35","satellite":"N20","instrument":"VIIRS","confidence":"n","version":"2.0NRT","bright_ti5":"293.59","frp":"2.65","daynight":"N","commune":"Fos-sur-Mer","code_insee":"13039","departement":"Bouches-du-Rhône","region":"Provence-Alpes-Côte d'Azur"}},{"type":"Feature","geometry":{"type":"Point","coordinates":[7.37491,43.79737]},"properties":{"latitude":"43.79737","longitude":"7.37491","bright_ti4":"303.88","scan":"0.48","track":"0.65","acq_date":"2026-06-28","acq_time":"35","satellite":"N20","instrument":"VIIRS","confidence":"n","version":"2.0NRT","bright_ti5":"292.04","frp":"0.78","daynight":"N","commune":"Blausasc","code_insee":"06019","departement":"Alpes-Maritimes","region":"Provence-Alpes-Côte d'Azur"}},{"type":"Feature","geometry":{"type":"Point","coordinates":[3.38783,45.22066]},"properties":{"latitude":"45.22066","longitude":"3.38783","bright_ti4":"300.34","scan":"0.77","track":"0.77","acq_date":"2026-06-28","acq_time":"35","satellite":"N20","instrument":"VIIRS","confidence":"n","version":"2.0NRT","bright_ti5":"289.58","frp":"1.62","daynight":"N","commune":"Villeneuve-d'Allier","code_insee":"43264","departement":"Haute-Loire","region":"Auvergne-Rhône-Alpes"}},{"type":"Feature","geometry":{"type":"Point","coordinates":[3.38613,45.22276]},"properties":{"latitude":"45.22276","longitude":"3.38613","bright_ti4":"305.51","scan":"0.77","track":"0.77","acq_date":"2026-06-28","acq_time":"35","satellite":"N20","instrument":"VIIRS","confidence":"n","version":"2.0NRT","bright_ti5":"290.31","frp":"1.09","daynight":"N","commune":"Villeneuve-d'Allier","code_insee":"43264","departement":"Haute-Loire","region":"Auvergne-Rhône-Alpes"}},{"type":"Feature","geometry":{"type":"Point","coordinates":[3.38804,45.22786]},"properties":{"latitude":"45.22786","longitude":"3.38804","bright_ti4":"305.37","scan":"0.77","track":"0.77","acq_date":"2026-06-28","acq_time":"35","satellite":"N20","instrument":"VIIRS","confidence":"n","version":"2.0NRT","bright_ti5":"290.34","frp":"1.62","daynight":"N","commune":"Villeneuve-d'Allier","code_insee":"43264","departement":"Haute-Loire","region":"Auvergne-Rhône-Alpes"}},{"type":"Feature","geometry":{"type":"Point","coordinates":[3.38599,45.22996]},"properties":{"latitude":"45.22996","longitude":"3.38599","bright_ti4":"300.74","scan":"0.77","track":"0.77","acq_date":"2026-06-28","acq_time":"35","satellite":"N20","instrument":"VIIRS","confidence":"n","version":"2.0NRT","bright_ti5":"290.03","frp":"1.09","daynight":"N","commune":"Vieille-Brioude","code_insee":"43262","departement":"Haute-Loire","region":"Auvergne-Rhône-Alpes"}},{"type":"Feature","geometry":{"type":"Point","coordinates":[5.66948,45.23101]},"properties":{"latitude":"45.23101","longitude":"5.66948","bright_ti4":"304.49","scan":"0.44","track":"0.46","acq_date":"2026-06-28","acq_time":"213","satellite":"N20","instrument":"VIIRS","confidence":"n","version":"2.0NRT","bright_ti5":"293.45","frp":"0.34","daynight":"N","commune":"Saint-Égrève","code_insee":"38382","departement":"Isère","region":"Auvergne-Rhône-Alpes"}},{"type":"Feature","geometry":{"type":"Point","coordinates":[4.76253,46.93193]},"properties":{"latitude":"46.93193","longitude":"4.76253","bright_ti4":"306.49","scan":"0.55","track":"0.43","acq_date":"2026-06-28","acq_time":"213","satellite":"N20","instrument":"VIIRS","confidence":"n","version":"2.0NRT","bright_ti5":"292.27","frp":"0.77","daynight":"N","commune":"Corpeau","code_insee":"21196","departement":"Côte-d'Or","region":"Bourgogne-Franche-Comté"}},{"type":"Feature","geometry":{"type":"Point","coordinates":[-2.05671,47.31838]},"properties":{"latitude":"47.31838","longitude":"-2.05671","bright_ti4":"301.69","scan":"0.38","track":"0.36","acq_date":"2026-06-28","acq_time":"213","satellite":"N20","instrument":"VIIRS","confidence":"n","version":"2.0NRT","bright_ti5":"289.01","frp":"0.37","daynight":"N","commune":"Donges","code_insee":"44052","departement":"Loire-Atlantique","region":"Pays de la Loire"}},{"type":"Feature","geometry":{"type":"Point","coordinates":[-1.03739,48.10991]},"properties":{"latitude":"48.10991","longitude":"-1.03739","bright_ti4":"304.46","scan":"0.38","track":"0.36","acq_date":"2026-06-28","acq_time":"213","satellite":"N20","instrument":"VIIRS","confidence":"n","version":"2.0NRT","bright_ti5":"290.04","frp":"0.66","daynight":"N","commune":"Saint-Pierre-la-Cour","code_insee":"53247","departement":"Mayenne","region":"Pays de la Loire"}},{"type":"Feature","geometry":{"type":"Point","coordinates":[2.9843,48.38743]},"properties":{"latitude":"48.38743","longitude":"2.9843","bright_ti4":"319.4","scan":"0.45","track":"0.39","acq_date":"2026-06-28","acq_time":"213","satellite":"N20","instrument":"VIIRS","confidence":"n","version":"2.0NRT","bright_ti5":"295.02","frp":"2.41","daynight":"N","commune":"Montereau-Fault-Yonne","code_insee":"77305","departement":"Seine-et-Marne","region":"Île-de-France"}},{"type":"Feature","geometry":{"type":"Point","coordinates":[2.18753,48.55085]},"properties":{"latitude":"48.55085","longitude":"2.18753","bright_ti4":"313.29","scan":"0.42","track":"0.38","acq_date":"2026-06-28","acq_time":"213","satellite":"N20","instrument":"VIIRS","confidence":"n","version":"2.0NRT","bright_ti5":"291.07","frp":"0.83","daynight":"N","commune":"Saint-Yon","code_insee":"91581","departement":"Essonne","region":"Île-de-France"}},{"type":"Feature","geometry":{"type":"Point","coordinates":[2.7363,48.94934]},"properties":{"latitude":"48.94934","longitude":"2.7363","bright_ti4":"310.34","scan":"0.43","track":"0.38","acq_date":"2026-06-28","acq_time":"213","satellite":"N20","instrument":"VIIRS","confidence":"n","version":"2.0NRT","bright_ti5":"292","frp":"0.63","daynight":"N","commune":"Fresnes-sur-Marne","code_insee":"77196","departement":"Seine-et-Marne","region":"Île-de-France"}},{"type":"Feature","geometry":{"type":"Point","coordinates":[0.5377,49.47649]},"properties":{"latitude":"49.47649","longitude":"0.5377","bright_ti4":"305.08","scan":"0.39","track":"0.36","acq_date":"2026-06-28","acq_time":"213","satellite":"N20","instrument":"VIIRS","confidence":"n","version":"2.0NRT","bright_ti5":"291.64","frp":"0.9","daynight":"N","commune":"Port-Jérôme-sur-Seine","code_insee":"76476","departement":"Seine-Maritime","region":"Normandie"}},{"type":"Feature","geometry":{"type":"Point","coordinates":[0.80356,49.48531]},"properties":{"latitude":"49.48531","longitude":"0.80356","bright_ti4":"304.76","scan":"0.39","track":"0.36","acq_date":"2026-06-28","acq_time":"213","satellite":"N20","instrument":"VIIRS","confidence":"n","version":"2.0NRT","bright_ti5":"290.62","frp":"0.73","daynight":"N","commune":"Le Trait","code_insee":"76709","departement":"Seine-Maritime","region":"Normandie"}},{"type":"Feature","geometry":{"type":"Point","coordinates":[3.48735,50.32981]},"properties":{"latitude":"50.32981","longitude":"3.48735","bright_ti4":"301.45","scan":"0.43","track":"0.38","acq_date":"2026-06-28","acq_time":"213","satellite":"N20","instrument":"VIIRS","confidence":"n","version":"2.0NRT","bright_ti5":"290.58","frp":"0.41","daynight":"N","commune":"Trith-Saint-Léger","code_insee":"59603","departement":"Nord","region":"Hauts-de-France"}},{"type":"Feature","geometry":{"type":"Point","coordinates":[1.89394,50.97015]},"properties":{"latitude":"50.97015","longitude":"1.89394","bright_ti4":"304.9","scan":"0.4","track":"0.37","acq_date":"2026-06-28","acq_time":"213","satellite":"N20","instrument":"VIIRS","confidence":"n","version":"2.0NRT","bright_ti5":"290.52","frp":"0.58","daynight":"N","commune":"Calais","code_insee":"62193","departement":"Pas-de-Calais","region":"Hauts-de-France"}},{"type":"Feature","geometry":{"type":"Point","coordinates":[2.28171,51.02932]},"properties":{"latitude":"51.02932","longitude":"2.28171","bright_ti4":"318.83","scan":"0.4","track":"0.37","acq_date":"2026-06-28","acq_time":"213","satellite":"N20","instrument":"VIIRS","confidence":"n","version":"2.0NRT","bright_ti5":"296.92","frp":"8.01","daynight":"N","commune":"Grande-Synthe","code_insee":"59271","departement":"Nord","region":"Hauts-de-France"}},{"type":"Feature","geometry":{"type":"Point","coordinates":[2.27614,51.03033]},"properties":{"latitude":"51.03033","longitude":"2.27614","bright_ti4":"302.95","scan":"0.4","track":"0.37","acq_date":"2026-06-28","acq_time":"213","satellite":"N20","instrument":"VIIRS","confidence":"n","version":"2.0NRT","bright_ti5":"290.25","frp":"9.07","daynight":"N","commune":"Grande-Synthe","code_insee":"59271","departement":"Nord","region":"Hauts-de-France"}},{"type":"Feature","geometry":{"type":"Point","coordinates":[2.28878,51.03159]},"properties":{"latitude":"51.03159","longitude":"2.28878","bright_ti4":"312.42","scan":"0.4","track":"0.37","acq_date":"2026-06-28","acq_time":"213","satellite":"N20","instrument":"VIIRS","confidence":"n","version":"2.0NRT","bright_ti5":"291.64","frp":"8.01","daynight":"N","commune":"Grande-Synthe","code_insee":"59271","departement":"Nord","region":"Hauts-de-France"}},{"type":"Feature","geometry":{"type":"Point","coordinates":[2.28321,51.0326]},"properties":{"latitude":"51.0326","longitude":"2.28321","bright_ti4":"311.19","scan":"0.4","track":"0.37","acq_date":"2026-06-28","acq_time":"213","satellite":"N20","instrument":"VIIRS","confidence":"n","version":"2.0NRT","bright_ti5":"291.15","frp":"8.01","daynight":"N","commune":"Grande-Synthe","code_insee":"59271","departement":"Nord","region":"Hauts-de-France"}},{"type":"Feature","geometry":{"type":"Point","coordinates":[2.25385,51.03437]},"properties":{"latitude":"51.03437","longitude":"2.25385","bright_ti4":"306.52","scan":"0.4","track":"0.37","acq_date":"2026-06-28","acq_time":"213","satellite":"N20","instrument":"VIIRS","confidence":"n","version":"2.0NRT","bright_ti5":"291.03","frp":"0.64","daynight":"N","commune":"Dunkerque","code_insee":"59183","departement":"Nord","region":"Hauts-de-France"}},{"type":"Feature","geometry":{"type":"Point","coordinates":[2.29028,51.03487]},"properties":{"latitude":"51.03487","longitude":"2.29028","bright_ti4":"329.21","scan":"0.4","track":"0.37","acq_date":"2026-06-28","acq_time":"213","satellite":"N20","instrument":"VIIRS","confidence":"n","version":"2.0NRT","bright_ti5":"293.57","frp":"2.16","daynight":"N","commune":"Grande-Synthe","code_insee":"59271","departement":"Nord","region":"Hauts-de-France"}},{"type":"Feature","geometry":{"type":"Point","coordinates":[2.2847,51.03588]},"properties":{"latitude":"51.03588","longitude":"2.2847","bright_ti4":"317.85","scan":"0.4","track":"0.37","acq_date":"2026-06-28","acq_time":"213","satellite":"N20","instrument":"VIIRS","confidence":"n","version":"2.0NRT","bright_ti5":"290.89","frp":"2.16","daynight":"N","commune":"Grande-Synthe","code_insee":"59271","departement":"Nord","region":"Hauts-de-France"}},{"type":"Feature","geometry":{"type":"Point","coordinates":[2.29328,51.04144]},"properties":{"latitude":"51.04144","longitude":"2.29328","bright_ti4":"311.27","scan":"0.4","track":"0.37","acq_date":"2026-06-28","acq_time":"213","satellite":"N20","instrument":"VIIRS","confidence":"n","version":"2.0NRT","bright_ti5":"292.58","frp":"3.6","daynight":"N","commune":"Grande-Synthe","code_insee":"59271","departement":"Nord","region":"Hauts-de-France"}},{"type":"Feature","geometry":{"type":"Point","coordinates":[2.30036,51.04371]},"properties":{"latitude":"51.04371","longitude":"2.30036","bright_ti4":"309.76","scan":"0.4","track":"0.37","acq_date":"2026-06-28","acq_time":"213","satellite":"N20","instrument":"VIIRS","confidence":"n","version":"2.0NRT","bright_ti5":"293.04","frp":"3.47","daynight":"N","commune":"Grande-Synthe","code_insee":"59271","departement":"Nord","region":"Hauts-de-France"}},{"type":"Feature","geometry":{"type":"Point","coordinates":[2.29478,51.04472]},"properties":{"latitude":"51.04472","longitude":"2.29478","bright_ti4":"329.06","scan":"0.4","track":"0.37","acq_date":"2026-06-28","acq_time":"213","satellite":"N20","instrument":"VIIRS","confidence":"n","version":"2.0NRT","bright_ti5":"293.46","frp":"3.6","daynight":"N","commune":"Grande-Synthe","code_insee":"59271","departement":"Nord","region":"Hauts-de-France"}},{"type":"Feature","geometry":{"type":"Point","coordinates":[2.3201,51.04724]},"properties":{"latitude":"51.04724","longitude":"2.3201","bright_ti4":"331.28","scan":"0.4","track":"0.37","acq_date":"2026-06-28","acq_time":"213","satellite":"N20","instrument":"VIIRS","confidence":"n","version":"2.0NRT","bright_ti5":"294.41","frp":"3.41","daynight":"N","commune":"Dunkerque","code_insee":"59183","departement":"Nord","region":"Hauts-de-France"}},{"type":"Feature","geometry":{"type":"Point","coordinates":[0.9902,43.18538]},"properties":{"latitude":"43.18538","longitude":"0.9902","bright_ti4":"307.31","scan":"0.46","track":"0.39","acq_date":"2026-06-28","acq_time":"215","satellite":"N20","instrument":"VIIRS","confidence":"n","version":"2.0NRT","bright_ti5":"293.25","frp":"1.14","daynight":"N","commune":"Martres-Tolosane","code_insee":"31324","departement":"Haute-Garonne","region":"Occitanie"}},{"type":"Feature","geometry":{"type":"Point","coordinates":[4.89661,43.44095]},"properties":{"latitude":"43.44095","longitude":"4.89661","bright_ti4":"307.87","scan":"0.44","track":"0.46","acq_date":"2026-06-28","acq_time":"215","satellite":"N20","instrument":"VIIRS","confidence":"n","version":"2.0NRT","bright_ti5":"294.19","frp":"2.82","daynight":"N","commune":"Fos-sur-Mer","code_insee":"13039","departement":"Bouches-du-Rhône","region":"Provence-Alpes-Côte d'Azur"}},{"type":"Feature","geometry":{"type":"Point","coordinates":[4.89844,43.44504]},"properties":{"latitude":"43.44504","longitude":"4.89844","bright_ti4":"333.18","scan":"0.44","track":"0.46","acq_date":"2026-06-28","acq_time":"215","satellite":"N20","instrument":"VIIRS","confidence":"n","version":"2.0NRT","bright_ti5":"297.16","frp":"2.82","daynight":"N","commune":"Fos-sur-Mer","code_insee":"13039","departement":"Bouches-du-Rhône","region":"Provence-Alpes-Côte d'Azur"}},{"type":"Feature","geometry":{"type":"Point","coordinates":[4.89319,43.44627]},"properties":{"latitude":"43.44627","longitude":"4.89319","bright_ti4":"315.14","scan":"0.44","track":"0.46","acq_date":"2026-06-28","acq_time":"215","satellite":"N20","instrument":"VIIRS","confidence":"n","version":"2.0NRT","bright_ti5":"294.75","frp":"2.91","daynight":"N","commune":"Fos-sur-Mer","code_insee":"13039","departement":"Bouches-du-Rhône","region":"Provence-Alpes-Côte d'Azur"}},{"type":"Feature","geometry":{"type":"Point","coordinates":[4.90027,43.44912]},"properties":{"latitude":"43.44912","longitude":"4.90027","bright_ti4":"306.36","scan":"0.44","track":"0.46","acq_date":"2026-06-28","acq_time":"215","satellite":"N20","instrument":"VIIRS","confidence":"n","version":"2.0NRT","bright_ti5":"294.54","frp":"0.92","daynight":"N","commune":"Fos-sur-Mer","code_insee":"13039","departement":"Bouches-du-Rhône","region":"Provence-Alpes-Côte d'Azur"}},{"type":"Feature","geometry":{"type":"Point","coordinates":[4.89501,43.45036]},"properties":{"latitude":"43.45036","longitude":"4.89501","bright_ti4":"315.15","scan":"0.44","track":"0.46","acq_date":"2026-06-28","acq_time":"215","satellite":"N20","instrument":"VIIRS","confidence":"n","version":"2.0NRT","bright_ti5":"292.3","frp":"1.43","daynight":"N","commune":"Fos-sur-Mer","code_insee":"13039","departement":"Bouches-du-Rhône","region":"Provence-Alpes-Côte d'Azur"}},{"type":"Feature","geometry":{"type":"Point","coordinates":[4.89297,43.43655]},"properties":{"latitude":"43.43655","longitude":"4.89297","bright_ti4":"337.9","scan":"0.5","track":"0.49","acq_date":"2026-06-28","acq_time":"1200","satellite":"N20","instrument":"VIIRS","confidence":"l","version":"2.0NRT","bright_ti5":"310.19","frp":"10.31","daynight":"D","commune":"Fos-sur-Mer","code_insee":"13039","departement":"Bouches-du-Rhône","region":"Provence-Alpes-Côte d'Azur"}},{"type":"Feature","geometry":{"type":"Point","coordinates":[4.90276,43.44366]},"properties":{"latitude":"43.44366","longitude":"4.90276","bright_ti4":"336.34","scan":"0.5","track":"0.49","acq_date":"2026-06-28","acq_time":"1200","satellite":"N20","instrument":"VIIRS","confidence":"l","version":"2.0NRT","bright_ti5":"307.44","frp":"3.99","daynight":"D","commune":"Fos-sur-Mer","code_insee":"13039","departement":"Bouches-du-Rhône","region":"Provence-Alpes-Côte d'Azur"}},{"type":"Feature","geometry":{"type":"Point","coordinates":[4.90002,43.44587]},"properties":{"latitude":"43.44587","longitude":"4.90002","bright_ti4":"339.72","scan":"0.5","track":"0.49","acq_date":"2026-06-28","acq_time":"1200","satellite":"N20","instrument":"VIIRS","confidence":"n","version":"2.0NRT","bright_ti5":"308.19","frp":"7.69","daynight":"D","commune":"Fos-sur-Mer","code_insee":"13039","departement":"Bouches-du-Rhône","region":"Provence-Alpes-Côte d'Azur"}},{"type":"Feature","geometry":{"type":"Point","coordinates":[4.83582,43.84455]},"properties":{"latitude":"43.84455","longitude":"4.83582","bright_ti4":"341","scan":"0.49","track":"0.48","acq_date":"2026-06-28","acq_time":"1200","satellite":"N20","instrument":"VIIRS","confidence":"n","version":"2.0NRT","bright_ti5":"304.55","frp":"2.37","daynight":"D","commune":"Eyragues","code_insee":"13036","departement":"Bouches-du-Rhône","region":"Provence-Alpes-Côte d'Azur"}},{"type":"Feature","geometry":{"type":"Point","coordinates":[0.66193,47.58906]},"properties":{"latitude":"47.58906","longitude":"0.66193","bright_ti4":"338.72","scan":"0.6","track":"0.53","acq_date":"2026-06-28","acq_time":"1200","satellite":"N20","instrument":"VIIRS","confidence":"n","version":"2.0NRT","bright_ti5":"295.19","frp":"7.41","daynight":"D","commune":"Beaumont-Louestault","code_insee":"37021","departement":"Indre-et-Loire","region":"Centre-Val de Loire"}},{"type":"Feature","geometry":{"type":"Point","coordinates":[6.11319,48.61211]},"properties":{"latitude":"48.61211","longitude":"6.11319","bright_ti4":"339.83","scan":"0.51","track":"0.41","acq_date":"2026-06-28","acq_time":"1200","satellite":"N20","instrument":"VIIRS","confidence":"n","version":"2.0NRT","bright_ti5":"307.11","frp":"7.4","daynight":"D","commune":"Neuves-Maisons","code_insee":"54397","departement":"Meurthe-et-Moselle","region":"Grand Est"}},{"type":"Feature","geometry":{"type":"Point","coordinates":[5.15288,43.57818]},"properties":{"latitude":"43.57818","longitude":"5.15288","bright_ti4":"330.87","scan":"0.58","track":"0.7","acq_date":"2026-06-28","acq_time":"1340","satellite":"N20","instrument":"VIIRS","confidence":"n","version":"2.0NRT","bright_ti5":"302.94","frp":"2.65","daynight":"D","commune":"Lançon-Provence","code_insee":"13051","departement":"Bouches-du-Rhône","region":"Provence-Alpes-Côte d'Azur"}},{"type":"Feature","geometry":{"type":"Point","coordinates":[2.27415,51.02543]},"properties":{"latitude":"51.02543","longitude":"2.27415","bright_ti4":"332.01","scan":"0.46","track":"0.63","acq_date":"2026-06-28","acq_time":"1342","satellite":"N20","instrument":"VIIRS","confidence":"n","version":"2.0NRT","bright_ti5":"295.79","frp":"3.2","daynight":"D","commune":"Grande-Synthe","code_insee":"59271","departement":"Nord","region":"Hauts-de-France"}},{"type":"Feature","geometry":{"type":"Point","coordinates":[2.27413,51.02923]},"properties":{"latitude":"51.02923","longitude":"2.27413","bright_ti4":"329.86","scan":"0.46","track":"0.63","acq_date":"2026-06-28","acq_time":"1342","satellite":"N20","instrument":"VIIRS","confidence":"n","version":"2.0NRT","bright_ti5":"295.34","frp":"3.07","daynight":"D","commune":"Grande-Synthe","code_insee":"59271","departement":"Nord","region":"Hauts-de-France"}},{"type":"Feature","geometry":{"type":"Point","coordinates":[2.28734,51.03153]},"properties":{"latitude":"51.03153","longitude":"2.28734","bright_ti4":"326.1","scan":"0.46","track":"0.63","acq_date":"2026-06-28","acq_time":"1342","satellite":"N20","instrument":"VIIRS","confidence":"l","version":"2.0NRT","bright_ti5":"297.91","frp":"4.23","daynight":"D","commune":"Grande-Synthe","code_insee":"59271","departement":"Nord","region":"Hauts-de-France"}},{"type":"Feature","geometry":{"type":"Point","coordinates":[2.28734,51.03527]},"properties":{"latitude":"51.03527","longitude":"2.28734","bright_ti4":"326.28","scan":"0.46","track":"0.63","acq_date":"2026-06-28","acq_time":"1342","satellite":"N20","instrument":"VIIRS","confidence":"n","version":"2.0NRT","bright_ti5":"295.61","frp":"5.85","daynight":"D","commune":"Grande-Synthe","code_insee":"59271","departement":"Nord","region":"Hauts-de-France"}},{"type":"Feature","geometry":{"type":"Point","coordinates":[2.3006,51.04132]},"properties":{"latitude":"51.04132","longitude":"2.3006","bright_ti4":"325.47","scan":"0.46","track":"0.64","acq_date":"2026-06-28","acq_time":"1342","satellite":"N20","instrument":"VIIRS","confidence":"n","version":"2.0NRT","bright_ti5":"293.83","frp":"6.8","daynight":"D","commune":"Grande-Synthe","code_insee":"59271","departement":"Nord","region":"Hauts-de-France"}},{"type":"Feature","geometry":{"type":"Point","coordinates":[2.30051,51.04355]},"properties":{"latitude":"51.04355","longitude":"2.30051","bright_ti4":"325.99","scan":"0.46","track":"0.64","acq_date":"2026-06-28","acq_time":"1342","satellite":"N20","instrument":"VIIRS","confidence":"n","version":"2.0NRT","bright_ti5":"292.71","frp":"1.03","daynight":"D","commune":"Grande-Synthe","code_insee":"59271","departement":"Nord","region":"Hauts-de-France"}},{"type":"Feature","geometry":{"type":"Point","coordinates":[7.37236,43.79569]},"properties":{"latitude":"43.79569","longitude":"7.37236","bright_ti4":"304.7","scan":"0.4","track":"0.37","acq_date":"2026-06-28","acq_time":"120","satellite":"N21","instrument":"VIIRS","confidence":"n","version":"2.0NRT","bright_ti5":"294.35","frp":"0.8","daynight":"N","commune":"Blausasc","code_insee":"06019","departement":"Alpes-Maritimes","region":"Provence-Alpes-Côte d'Azur"}},{"type":"Feature","geometry":{"type":"Point","coordinates":[3.39024,45.2192]},"properties":{"latitude":"45.2192","longitude":"3.39024","bright_ti4":"306.56","scan":"0.57","track":"0.43","acq_date":"2026-06-28","acq_time":"120","satellite":"N21","instrument":"VIIRS","confidence":"n","version":"2.0NRT","bright_ti5":"290.12","frp":"1.55","daynight":"N","commune":"Villeneuve-d'Allier","code_insee":"43264","departement":"Haute-Loire","region":"Auvergne-Rhône-Alpes"}},{"type":"Feature","geometry":{"type":"Point","coordinates":[3.38379,45.21981]},"properties":{"latitude":"45.21981","longitude":"3.38379","bright_ti4":"303.75","scan":"0.57","track":"0.43","acq_date":"2026-06-28","acq_time":"120","satellite":"N21","instrument":"VIIRS","confidence":"n","version":"2.0NRT","bright_ti5":"293.29","frp":"1.55","daynight":"N","commune":"Villeneuve-d'Allier","code_insee":"43264","departement":"Haute-Loire","region":"Auvergne-Rhône-Alpes"}},{"type":"Feature","geometry":{"type":"Point","coordinates":[3.39096,45.22316]},"properties":{"latitude":"45.22316","longitude":"3.39096","bright_ti4":"310.02","scan":"0.57","track":"0.43","acq_date":"2026-06-28","acq_time":"120","satellite":"N21","instrument":"VIIRS","confidence":"n","version":"2.0NRT","bright_ti5":"291.04","frp":"3.03","daynight":"N","commune":"Villeneuve-d'Allier","code_insee":"43264","departement":"Haute-Loire","region":"Auvergne-Rhône-Alpes"}},{"type":"Feature","geometry":{"type":"Point","coordinates":[2.98138,48.38622]},"properties":{"latitude":"48.38622","longitude":"2.98138","bright_ti4":"308.47","scan":"0.43","track":"0.46","acq_date":"2026-06-28","acq_time":"120","satellite":"N21","instrument":"VIIRS","confidence":"n","version":"2.0NRT","bright_ti5":"294.33","frp":"1.79","daynight":"N","commune":"Montereau-Fault-Yonne","code_insee":"77305","departement":"Seine-et-Marne","region":"Île-de-France"}},{"type":"Feature","geometry":{"type":"Point","coordinates":[2.1895,48.55107]},"properties":{"latitude":"48.55107","longitude":"2.1895","bright_ti4":"302.5","scan":"0.47","track":"0.48","acq_date":"2026-06-28","acq_time":"120","satellite":"N21","instrument":"VIIRS","confidence":"n","version":"2.0NRT","bright_ti5":"291.09","frp":"0.95","daynight":"N","commune":"Saint-Yon","code_insee":"91581","departement":"Essonne","region":"Île-de-France"}},{"type":"Feature","geometry":{"type":"Point","coordinates":[6.80637,49.13533]},"properties":{"latitude":"49.13533","longitude":"6.80637","bright_ti4":"330.08","scan":"0.47","track":"0.4","acq_date":"2026-06-28","acq_time":"120","satellite":"N21","instrument":"VIIRS","confidence":"n","version":"2.0NRT","bright_ti5":"294.08","frp":"11","daynight":"N","commune":"Betting","code_insee":"57073","departement":"Moselle","region":"Grand Est"}},{"type":"Feature","geometry":{"type":"Point","coordinates":[0.53042,49.47719]},"properties":{"latitude":"49.47719","longitude":"0.53042","bright_ti4":"300.57","scan":"0.57","track":"0.52","acq_date":"2026-06-28","acq_time":"120","satellite":"N21","instrument":"VIIRS","confidence":"n","version":"2.0NRT","bright_ti5":"290.18","frp":"1.46","daynight":"N","commune":"Lillebonne","code_insee":"76384","departement":"Seine-Maritime","region":"Normandie"}},{"type":"Feature","geometry":{"type":"Point","coordinates":[0.80467,49.48518]},"properties":{"latitude":"49.48518","longitude":"0.80467","bright_ti4":"301.27","scan":"0.55","track":"0.51","acq_date":"2026-06-28","acq_time":"120","satellite":"N21","instrument":"VIIRS","confidence":"n","version":"2.0NRT","bright_ti5":"289.49","frp":"0.83","daynight":"N","commune":"Le Trait","code_insee":"76709","departement":"Seine-Maritime","region":"Normandie"}},{"type":"Feature","geometry":{"type":"Point","coordinates":[4.89269,43.43463]},"properties":{"latitude":"43.43463","longitude":"4.89269","bright_ti4":"307.54","scan":"0.47","track":"0.4","acq_date":"2026-06-28","acq_time":"122","satellite":"N21","instrument":"VIIRS","confidence":"n","version":"2.0NRT","bright_ti5":"296.48","frp":"3.58","daynight":"N","commune":"Fos-sur-Mer","code_insee":"13039","departement":"Bouches-du-Rhône","region":"Provence-Alpes-Côte d'Azur"}},{"type":"Feature","geometry":{"type":"Point","coordinates":[4.90005,43.44121]},"properties":{"latitude":"43.44121","longitude":"4.90005","bright_ti4":"316.62","scan":"0.47","track":"0.4","acq_date":"2026-06-28","acq_time":"122","satellite":"N21","instrument":"VIIRS","confidence":"n","version":"2.0NRT","bright_ti5":"293.86","frp":"2.55","daynight":"N","commune":"Fos-sur-Mer","code_insee":"13039","departement":"Bouches-du-Rhône","region":"Provence-Alpes-Côte d'Azur"}},{"type":"Feature","geometry":{"type":"Point","coordinates":[4.90084,43.44483]},"properties":{"latitude":"43.44483","longitude":"4.90084","bright_ti4":"329.52","scan":"0.47","track":"0.4","acq_date":"2026-06-28","acq_time":"122","satellite":"N21","instrument":"VIIRS","confidence":"n","version":"2.0NRT","bright_ti5":"296.81","frp":"2.55","daynight":"N","commune":"Fos-sur-Mer","code_insee":"13039","departement":"Bouches-du-Rhône","region":"Provence-Alpes-Côte d'Azur"}},{"type":"Feature","geometry":{"type":"Point","coordinates":[4.89503,43.4455]},"properties":{"latitude":"43.4455","longitude":"4.89503","bright_ti4":"316.3","scan":"0.47","track":"0.4","acq_date":"2026-06-28","acq_time":"122","satellite":"N21","instrument":"VIIRS","confidence":"n","version":"2.0NRT","bright_ti5":"297.04","frp":"5.42","daynight":"N","commune":"Fos-sur-Mer","code_insee":"13039","departement":"Bouches-du-Rhône","region":"Provence-Alpes-Côte d'Azur"}},{"type":"Feature","geometry":{"type":"Point","coordinates":[4.8958,43.44912]},"properties":{"latitude":"43.44912","longitude":"4.8958","bright_ti4":"310.3","scan":"0.47","track":"0.4","acq_date":"2026-06-28","acq_time":"122","satellite":"N21","instrument":"VIIRS","confidence":"n","version":"2.0NRT","bright_ti5":"293.27","frp":"1.79","daynight":"N","commune":"Fos-sur-Mer","code_insee":"13039","departement":"Bouches-du-Rhône","region":"Provence-Alpes-Côte d'Azur"}},{"type":"Feature","geometry":{"type":"Point","coordinates":[2.28003,51.02732]},"properties":{"latitude":"51.02732","longitude":"2.28003","bright_ti4":"320.81","scan":"0.36","track":"0.58","acq_date":"2026-06-28","acq_time":"300","satellite":"N21","instrument":"VIIRS","confidence":"n","version":"2.0NRT","bright_ti5":"289.91","frp":"3.03","daynight":"N","commune":"Grande-Synthe","code_insee":"59271","departement":"Nord","region":"Hauts-de-France"}},{"type":"Feature","geometry":{"type":"Point","coordinates":[2.27979,51.0278]},"properties":{"latitude":"51.0278","longitude":"2.27979","bright_ti4":"333.72","scan":"0.36","track":"0.58","acq_date":"2026-06-28","acq_time":"300","satellite":"N21","instrument":"VIIRS","confidence":"n","version":"2.0NRT","bright_ti5":"290.06","frp":"2.38","daynight":"N","commune":"Grande-Synthe","code_insee":"59271","departement":"Nord","region":"Hauts-de-France"}},{"type":"Feature","geometry":{"type":"Point","coordinates":[2.27533,51.02874]},"properties":{"latitude":"51.02874","longitude":"2.27533","bright_ti4":"331.42","scan":"0.36","track":"0.58","acq_date":"2026-06-28","acq_time":"300","satellite":"N21","instrument":"VIIRS","confidence":"n","version":"2.0NRT","bright_ti5":"290","frp":"3.03","daynight":"N","commune":"Grande-Synthe","code_insee":"59271","departement":"Nord","region":"Hauts-de-France"}},{"type":"Feature","geometry":{"type":"Point","coordinates":[2.27511,51.02923]},"properties":{"latitude":"51.02923","longitude":"2.27511","bright_ti4":"323.71","scan":"0.36","track":"0.58","acq_date":"2026-06-28","acq_time":"300","satellite":"N21","instrument":"VIIRS","confidence":"n","version":"2.0NRT","bright_ti5":"289.74","frp":"5.81","daynight":"N","commune":"Grande-Synthe","code_insee":"59271","departement":"Nord","region":"Hauts-de-France"}},{"type":"Feature","geometry":{"type":"Point","coordinates":[2.2882,51.03114]},"properties":{"latitude":"51.03114","longitude":"2.2882","bright_ti4":"300.37","scan":"0.36","track":"0.58","acq_date":"2026-06-28","acq_time":"300","satellite":"N21","instrument":"VIIRS","confidence":"n","version":"2.0NRT","bright_ti5":"289.98","frp":"2.38","daynight":"N","commune":"Grande-Synthe","code_insee":"59271","departement":"Nord","region":"Hauts-de-France"}},{"type":"Feature","geometry":{"type":"Point","coordinates":[2.28376,51.0321]},"properties":{"latitude":"51.0321","longitude":"2.28376","bright_ti4":"305.9","scan":"0.36","track":"0.58","acq_date":"2026-06-28","acq_time":"300","satellite":"N21","instrument":"VIIRS","confidence":"n","version":"2.0NRT","bright_ti5":"290.09","frp":"3.03","daynight":"N","commune":"Grande-Synthe","code_insee":"59271","departement":"Nord","region":"Hauts-de-France"}},{"type":"Feature","geometry":{"type":"Point","coordinates":[2.2835,51.03258]},"properties":{"latitude":"51.03258","longitude":"2.2835","bright_ti4":"310.38","scan":"0.36","track":"0.58","acq_date":"2026-06-28","acq_time":"300","satellite":"N21","instrument":"VIIRS","confidence":"n","version":"2.0NRT","bright_ti5":"290.1","frp":"2.38","daynight":"N","commune":"Grande-Synthe","code_insee":"59271","departement":"Nord","region":"Hauts-de-France"}},{"type":"Feature","geometry":{"type":"Point","coordinates":[2.29193,51.03592]},"properties":{"latitude":"51.03592","longitude":"2.29193","bright_ti4":"301.47","scan":"0.36","track":"0.58","acq_date":"2026-06-28","acq_time":"300","satellite":"N21","instrument":"VIIRS","confidence":"n","version":"2.0NRT","bright_ti5":"289.57","frp":"1.09","daynight":"N","commune":"Grande-Synthe","code_insee":"59271","departement":"Nord","region":"Hauts-de-France"}},{"type":"Feature","geometry":{"type":"Point","coordinates":[2.28751,51.03687]},"properties":{"latitude":"51.03687","longitude":"2.28751","bright_ti4":"326.41","scan":"0.36","track":"0.58","acq_date":"2026-06-28","acq_time":"300","satellite":"N21","instrument":"VIIRS","confidence":"n","version":"2.0NRT","bright_ti5":"291.32","frp":"1.95","daynight":"N","commune":"Grande-Synthe","code_insee":"59271","departement":"Nord","region":"Hauts-de-France"}},{"type":"Feature","geometry":{"type":"Point","coordinates":[2.28724,51.03735]},"properties":{"latitude":"51.03735","longitude":"2.28724","bright_ti4":"315.05","scan":"0.36","track":"0.58","acq_date":"2026-06-28","acq_time":"300","satellite":"N21","instrument":"VIIRS","confidence":"n","version":"2.0NRT","bright_ti5":"290.64","frp":"1.09","daynight":"N","commune":"Grande-Synthe","code_insee":"59271","departement":"Nord","region":"Hauts-de-France"}},{"type":"Feature","geometry":{"type":"Point","coordinates":[2.29564,51.0407]},"properties":{"latitude":"51.0407","longitude":"2.29564","bright_ti4":"301.63","scan":"0.36","track":"0.58","acq_date":"2026-06-28","acq_time":"300","satellite":"N21","instrument":"VIIRS","confidence":"n","version":"2.0NRT","bright_ti5":"291.31","frp":"1.09","daynight":"N","commune":"Grande-Synthe","code_insee":"59271","departement":"Nord","region":"Hauts-de-France"}},{"type":"Feature","geometry":{"type":"Point","coordinates":[2.29125,51.04164]},"properties":{"latitude":"51.04164","longitude":"2.29125","bright_ti4":"308.02","scan":"0.36","track":"0.58","acq_date":"2026-06-28","acq_time":"300","satellite":"N21","instrument":"VIIRS","confidence":"n","version":"2.0NRT","bright_ti5":"290.78","frp":"1.95","daynight":"N","commune":"Grande-Synthe","code_insee":"59271","departement":"Nord","region":"Hauts-de-France"}},{"type":"Feature","geometry":{"type":"Point","coordinates":[2.29095,51.04213]},"properties":{"latitude":"51.04213","longitude":"2.29095","bright_ti4":"305.39","scan":"0.36","track":"0.58","acq_date":"2026-06-28","acq_time":"300","satellite":"N21","instrument":"VIIRS","confidence":"n","version":"2.0NRT","bright_ti5":"290.25","frp":"1.09","daynight":"N","commune":"Grande-Synthe","code_insee":"59271","departement":"Nord","region":"Hauts-de-France"}},{"type":"Feature","geometry":{"type":"Point","coordinates":[2.32189,51.04451]},"properties":{"latitude":"51.04451","longitude":"2.32189","bright_ti4":"303.63","scan":"0.37","track":"0.58","acq_date":"2026-06-28","acq_time":"300","satellite":"N21","instrument":"VIIRS","confidence":"n","version":"2.0NRT","bright_ti5":"290.52","frp":"1.34","daynight":"N","commune":"Dunkerque","code_insee":"59183","departement":"Nord","region":"Hauts-de-France"}},{"type":"Feature","geometry":{"type":"Point","coordinates":[2.29936,51.04548]},"properties":{"latitude":"51.04548","longitude":"2.29936","bright_ti4":"317.77","scan":"0.36","track":"0.58","acq_date":"2026-06-28","acq_time":"300","satellite":"N21","instrument":"VIIRS","confidence":"n","version":"2.0NRT","bright_ti5":"290.05","frp":"1.89","daynight":"N","commune":"Grande-Synthe","code_insee":"59271","departement":"Nord","region":"Hauts-de-France"}},{"type":"Feature","geometry":{"type":"Point","coordinates":[2.29469,51.0469]},"properties":{"latitude":"51.0469","longitude":"2.29469","bright_ti4":"310.39","scan":"0.36","track":"0.58","acq_date":"2026-06-28","acq_time":"300","satellite":"N21","instrument":"VIIRS","confidence":"n","version":"2.0NRT","bright_ti5":"290.34","frp":"1.89","daynight":"N","commune":"Grande-Synthe","code_insee":"59271","departement":"Nord","region":"Hauts-de-France"}},{"type":"Feature","geometry":{"type":"Point","coordinates":[6.05848,43.15612]},"properties":{"latitude":"43.15612","longitude":"6.05848","bright_ti4":"340.68","scan":"0.46","track":"0.39","acq_date":"2026-06-28","acq_time":"1246","satellite":"N21","instrument":"VIIRS","confidence":"l","version":"2.0NRT","bright_ti5":"312.52","frp":"3.67","daynight":"D","commune":"La Farlède","code_insee":"83054","departement":"Var","region":"Provence-Alpes-Côte d'Azur"}},{"type":"Feature","geometry":{"type":"Point","coordinates":[4.89321,43.43869]},"properties":{"latitude":"43.43869","longitude":"4.89321","bright_ti4":"348.69","scan":"0.42","track":"0.38","acq_date":"2026-06-28","acq_time":"1246","satellite":"N21","instrument":"VIIRS","confidence":"n","version":"2.0NRT","bright_ti5":"315.43","frp":"12.44","daynight":"D","commune":"Fos-sur-Mer","code_insee":"13039","departement":"Bouches-du-Rhône","region":"Provence-Alpes-Côte d'Azur"}},{"type":"Feature","geometry":{"type":"Point","coordinates":[4.89678,43.44623]},"properties":{"latitude":"43.44623","longitude":"4.89678","bright_ti4":"344.6","scan":"0.42","track":"0.38","acq_date":"2026-06-28","acq_time":"1246","satellite":"N21","instrument":"VIIRS","confidence":"n","version":"2.0NRT","bright_ti5":"313.15","frp":"9.1","daynight":"D","commune":"Fos-sur-Mer","code_insee":"13039","departement":"Bouches-du-Rhône","region":"Provence-Alpes-Côte d'Azur"}},{"type":"Feature","geometry":{"type":"Point","coordinates":[2.46224,44.41154]},"properties":{"latitude":"44.41154","longitude":"2.46224","bright_ti4":"345.42","scan":"0.39","track":"0.36","acq_date":"2026-06-28","acq_time":"1246","satellite":"N21","instrument":"VIIRS","confidence":"n","version":"2.0NRT","bright_ti5":"308.33","frp":"4.78","daynight":"D","commune":"Druelle Balsac","code_insee":"12090","departement":"Aveyron","region":"Occitanie"}},{"type":"Feature","geometry":{"type":"Point","coordinates":[6.55814,48.68555]},"properties":{"latitude":"48.68555","longitude":"6.55814","bright_ti4":"345.81","scan":"0.55","track":"0.43","acq_date":"2026-06-28","acq_time":"1246","satellite":"N21","instrument":"VIIRS","confidence":"n","version":"2.0NRT","bright_ti5":"304.44","frp":"20.31","daynight":"D","commune":"Hénaménil","code_insee":"54258","departement":"Meurthe-et-Moselle","region":"Grand Est"}},{"type":"Feature","geometry":{"type":"Point","coordinates":[6.55948,48.68562]},"properties":{"latitude":"48.68562","longitude":"6.55948","bright_ti4":"336.49","scan":"0.55","track":"0.43","acq_date":"2026-06-28","acq_time":"1246","satellite":"N21","instrument":"VIIRS","confidence":"n","version":"2.0NRT","bright_ti5":"304.58","frp":"18.62","daynight":"D","commune":"Hénaménil","code_insee":"54258","departement":"Meurthe-et-Moselle","region":"Grand Est"}},{"type":"Feature","geometry":{"type":"Point","coordinates":[2.27377,51.02805]},"properties":{"latitude":"51.02805","longitude":"2.27377","bright_ti4":"336.49","scan":"0.42","track":"0.38","acq_date":"2026-06-28","acq_time":"1249","satellite":"N21","instrument":"VIIRS","confidence":"n","version":"2.0NRT","bright_ti5":"303.19","frp":"6.29","daynight":"D","commune":"Grande-Synthe","code_insee":"59271","departement":"Nord","region":"Hauts-de-France"}},{"type":"Feature","geometry":{"type":"Point","coordinates":[2.24765,51.03199]},"properties":{"latitude":"51.03199","longitude":"2.24765","bright_ti4":"333.67","scan":"0.42","track":"0.38","acq_date":"2026-06-28","acq_time":"1249","satellite":"N21","instrument":"VIIRS","confidence":"n","version":"2.0NRT","bright_ti5":"301.23","frp":"4.11","daynight":"D","commune":"Dunkerque","code_insee":"59183","departement":"Nord","region":"Hauts-de-France"}},{"type":"Feature","geometry":{"type":"Point","coordinates":[2.29072,51.03366]},"properties":{"latitude":"51.03366","longitude":"2.29072","bright_ti4":"334.63","scan":"0.42","track":"0.38","acq_date":"2026-06-28","acq_time":"1249","satellite":"N21","instrument":"VIIRS","confidence":"n","version":"2.0NRT","bright_ti5":"304.24","frp":"4.73","daynight":"D","commune":"Grande-Synthe","code_insee":"59271","departement":"Nord","region":"Hauts-de-France"}},{"type":"Feature","geometry":{"type":"Point","coordinates":[2.29955,51.04542]},"properties":{"latitude":"51.04542","longitude":"2.29955","bright_ti4":"335.5","scan":"0.42","track":"0.38","acq_date":"2026-06-28","acq_time":"1249","satellite":"N21","instrument":"VIIRS","confidence":"n","version":"2.0NRT","bright_ti5":"300.47","frp":"25.35","daynight":"D","commune":"Grande-Synthe","code_insee":"59271","departement":"Nord","region":"Hauts-de-France"}}]}