{"type":"FeatureCollection","features":[{"type":"Feature","geometry":{"type":"Point","coordinates":[4.89818,43.43066]},"properties":{"latitude":"43.43066","longitude":"4.89818","bright_ti4":"306.38","scan":"0.42","track":"0.37","acq_date":"2026-05-28","acq_time":"134","satellite":"N","instrument":"VIIRS","confidence":"n","version":"2.0NRT","bright_ti5":"293.48","frp":"0.83","daynight":"N","commune":"Fos-sur-Mer","code_insee":"13039","departement":"Bouches-du-Rhône","region":"Provence-Alpes-Côte d'Azur"}},{"type":"Feature","geometry":{"type":"Point","coordinates":[4.88965,43.43888]},"properties":{"latitude":"43.43888","longitude":"4.88965","bright_ti4":"302.84","scan":"0.42","track":"0.37","acq_date":"2026-05-28","acq_time":"134","satellite":"N","instrument":"VIIRS","confidence":"n","version":"2.0NRT","bright_ti5":"292.44","frp":"1.27","daynight":"N","commune":"Fos-sur-Mer","code_insee":"13039","departement":"Bouches-du-Rhône","region":"Provence-Alpes-Côte d'Azur"}},{"type":"Feature","geometry":{"type":"Point","coordinates":[4.87938,43.44025]},"properties":{"latitude":"43.44025","longitude":"4.87938","bright_ti4":"317.15","scan":"0.42","track":"0.37","acq_date":"2026-05-28","acq_time":"134","satellite":"N","instrument":"VIIRS","confidence":"n","version":"2.0NRT","bright_ti5":"290.83","frp":"10.32","daynight":"N","commune":"Fos-sur-Mer","code_insee":"13039","departement":"Bouches-du-Rhône","region":"Provence-Alpes-Côte d'Azur"}},{"type":"Feature","geometry":{"type":"Point","coordinates":[4.88024,43.44368]},"properties":{"latitude":"43.44368","longitude":"4.88024","bright_ti4":"335.83","scan":"0.42","track":"0.37","acq_date":"2026-05-28","acq_time":"134","satellite":"N","instrument":"VIIRS","confidence":"n","version":"2.0NRT","bright_ti5":"293.96","frp":"10.32","daynight":"N","commune":"Fos-sur-Mer","code_insee":"13039","departement":"Bouches-du-Rhône","region":"Provence-Alpes-Côte d'Azur"}},{"type":"Feature","geometry":{"type":"Point","coordinates":[4.89652,43.44505]},"properties":{"latitude":"43.44505","longitude":"4.89652","bright_ti4":"304.9","scan":"0.42","track":"0.37","acq_date":"2026-05-28","acq_time":"134","satellite":"N","instrument":"VIIRS","confidence":"n","version":"2.0NRT","bright_ti5":"293.7","frp":"0.96","daynight":"N","commune":"Fos-sur-Mer","code_insee":"13039","departement":"Bouches-du-Rhône","region":"Provence-Alpes-Côte d'Azur"}},{"type":"Feature","geometry":{"type":"Point","coordinates":[4.89738,43.44848]},"properties":{"latitude":"43.44848","longitude":"4.89738","bright_ti4":"303.23","scan":"0.42","track":"0.37","acq_date":"2026-05-28","acq_time":"134","satellite":"N","instrument":"VIIRS","confidence":"n","version":"2.0NRT","bright_ti5":"291.67","frp":"0.96","daynight":"N","commune":"Fos-sur-Mer","code_insee":"13039","departement":"Bouches-du-Rhône","region":"Provence-Alpes-Côte d'Azur"}},{"type":"Feature","geometry":{"type":"Point","coordinates":[6.96902,48.69194]},"properties":{"latitude":"48.69194","longitude":"6.96902","bright_ti4":"301.23","scan":"0.41","track":"0.37","acq_date":"2026-05-28","acq_time":"134","satellite":"N","instrument":"VIIRS","confidence":"n","version":"2.0NRT","bright_ti5":"287.19","frp":"0.66","daynight":"N","commune":"Héming","code_insee":"57314","departement":"Moselle","region":"Grand Est"}},{"type":"Feature","geometry":{"type":"Point","coordinates":[5.68061,48.71669]},"properties":{"latitude":"48.71669","longitude":"5.68061","bright_ti4":"303.5","scan":"0.44","track":"0.38","acq_date":"2026-05-28","acq_time":"134","satellite":"N","instrument":"VIIRS","confidence":"n","version":"2.0NRT","bright_ti5":"288.37","frp":"0.79","daynight":"N","commune":"Sorcy-Saint-Martin","code_insee":"55496","departement":"Meuse","region":"Grand Est"}},{"type":"Feature","geometry":{"type":"Point","coordinates":[1.76098,48.98123]},"properties":{"latitude":"48.98123","longitude":"1.76098","bright_ti4":"304.5","scan":"0.41","track":"0.45","acq_date":"2026-05-28","acq_time":"134","satellite":"N","instrument":"VIIRS","confidence":"n","version":"2.0NRT","bright_ti5":"287.69","frp":"0.91","daynight":"N","commune":"Porcheville","code_insee":"78501","departement":"Yvelines","region":"Île-de-France"}},{"type":"Feature","geometry":{"type":"Point","coordinates":[1.7614,48.98439]},"properties":{"latitude":"48.98439","longitude":"1.7614","bright_ti4":"316.08","scan":"0.41","track":"0.45","acq_date":"2026-05-28","acq_time":"134","satellite":"N","instrument":"VIIRS","confidence":"n","version":"2.0NRT","bright_ti5":"289.86","frp":"1.24","daynight":"N","commune":"Porcheville","code_insee":"78501","departement":"Yvelines","region":"Île-de-France"}},{"type":"Feature","geometry":{"type":"Point","coordinates":[1.76195,48.98537]},"properties":{"latitude":"48.98537","longitude":"1.76195","bright_ti4":"310.26","scan":"0.41","track":"0.45","acq_date":"2026-05-28","acq_time":"134","satellite":"N","instrument":"VIIRS","confidence":"n","version":"2.0NRT","bright_ti5":"289.03","frp":"1.34","daynight":"N","commune":"Porcheville","code_insee":"78501","departement":"Yvelines","region":"Île-de-France"}},{"type":"Feature","geometry":{"type":"Point","coordinates":[0.53182,49.47546]},"properties":{"latitude":"49.47546","longitude":"0.53182","bright_ti4":"304.83","scan":"0.47","track":"0.47","acq_date":"2026-05-28","acq_time":"134","satellite":"N","instrument":"VIIRS","confidence":"n","version":"2.0NRT","bright_ti5":"287.64","frp":"0.92","daynight":"N","commune":"Lillebonne","code_insee":"76384","departement":"Seine-Maritime","region":"Normandie"}},{"type":"Feature","geometry":{"type":"Point","coordinates":[0.2179,49.48959]},"properties":{"latitude":"49.48959","longitude":"0.2179","bright_ti4":"311.12","scan":"0.48","track":"0.48","acq_date":"2026-05-28","acq_time":"134","satellite":"N","instrument":"VIIRS","confidence":"n","version":"2.0NRT","bright_ti5":"291.74","frp":"1.47","daynight":"N","commune":"Gonfreville-l'Orcher","code_insee":"76305","departement":"Seine-Maritime","region":"Normandie"}},{"type":"Feature","geometry":{"type":"Point","coordinates":[3.5593,50.4029]},"properties":{"latitude":"50.4029","longitude":"3.5593","bright_ti4":"299.72","scan":"0.54","track":"0.42","acq_date":"2026-05-28","acq_time":"134","satellite":"N","instrument":"VIIRS","confidence":"n","version":"2.0NRT","bright_ti5":"288.93","frp":"0.94","daynight":"N","commune":"Saint-Saulve","code_insee":"59544","departement":"Nord","region":"Hauts-de-France"}},{"type":"Feature","geometry":{"type":"Point","coordinates":[2.27784,51.0293]},"properties":{"latitude":"51.0293","longitude":"2.27784","bright_ti4":"323.08","scan":"0.41","track":"0.45","acq_date":"2026-05-28","acq_time":"134","satellite":"N","instrument":"VIIRS","confidence":"n","version":"2.0NRT","bright_ti5":"289.84","frp":"2.49","daynight":"N","commune":"Grande-Synthe","code_insee":"59271","departement":"Nord","region":"Hauts-de-France"}},{"type":"Feature","geometry":{"type":"Point","coordinates":[2.25413,51.03131]},"properties":{"latitude":"51.03131","longitude":"2.25413","bright_ti4":"304.62","scan":"0.41","track":"0.45","acq_date":"2026-05-28","acq_time":"134","satellite":"N","instrument":"VIIRS","confidence":"n","version":"2.0NRT","bright_ti5":"288.03","frp":"1.46","daynight":"N","commune":"Dunkerque","code_insee":"59183","departement":"Nord","region":"Hauts-de-France"}},{"type":"Feature","geometry":{"type":"Point","coordinates":[2.28464,51.03294]},"properties":{"latitude":"51.03294","longitude":"2.28464","bright_ti4":"301.95","scan":"0.41","track":"0.45","acq_date":"2026-05-28","acq_time":"134","satellite":"N","instrument":"VIIRS","confidence":"n","version":"2.0NRT","bright_ti5":"289.05","frp":"1.73","daynight":"N","commune":"Grande-Synthe","code_insee":"59271","departement":"Nord","region":"Hauts-de-France"}},{"type":"Feature","geometry":{"type":"Point","coordinates":[2.29232,51.04073]},"properties":{"latitude":"51.04073","longitude":"2.29232","bright_ti4":"302.34","scan":"0.41","track":"0.45","acq_date":"2026-05-28","acq_time":"134","satellite":"N","instrument":"VIIRS","confidence":"n","version":"2.0NRT","bright_ti5":"289.83","frp":"1.34","daynight":"N","commune":"Grande-Synthe","code_insee":"59271","departement":"Nord","region":"Hauts-de-France"}},{"type":"Feature","geometry":{"type":"Point","coordinates":[2.29912,51.04436]},"properties":{"latitude":"51.04436","longitude":"2.29912","bright_ti4":"327.08","scan":"0.41","track":"0.45","acq_date":"2026-05-28","acq_time":"134","satellite":"N","instrument":"VIIRS","confidence":"n","version":"2.0NRT","bright_ti5":"289.47","frp":"4.08","daynight":"N","commune":"Grande-Synthe","code_insee":"59271","departement":"Nord","region":"Hauts-de-France"}},{"type":"Feature","geometry":{"type":"Point","coordinates":[2.29321,51.04487]},"properties":{"latitude":"51.04487","longitude":"2.29321","bright_ti4":"338.64","scan":"0.41","track":"0.45","acq_date":"2026-05-28","acq_time":"134","satellite":"N","instrument":"VIIRS","confidence":"n","version":"2.0NRT","bright_ti5":"289.16","frp":"5.42","daynight":"N","commune":"Grande-Synthe","code_insee":"59271","departement":"Nord","region":"Hauts-de-France"}},{"type":"Feature","geometry":{"type":"Point","coordinates":[2.31773,51.04698]},"properties":{"latitude":"51.04698","longitude":"2.31773","bright_ti4":"302.11","scan":"0.41","track":"0.45","acq_date":"2026-05-28","acq_time":"134","satellite":"N","instrument":"VIIRS","confidence":"n","version":"2.0NRT","bright_ti5":"289.55","frp":"1.09","daynight":"N","commune":"Dunkerque","code_insee":"59183","departement":"Nord","region":"Hauts-de-France"}},{"type":"Feature","geometry":{"type":"Point","coordinates":[4.45406,49.75114]},"properties":{"latitude":"49.75114","longitude":"4.45406","bright_ti4":"298.04","scan":"0.56","track":"0.69","acq_date":"2026-05-28","acq_time":"315","satellite":"N","instrument":"VIIRS","confidence":"n","version":"2.0NRT","bright_ti5":"284.24","frp":"0.44","daynight":"N","commune":"Lépron-les-Vallées","code_insee":"08251","departement":"Ardennes","region":"Grand Est"}},{"type":"Feature","geometry":{"type":"Point","coordinates":[3.56362,50.39742]},"properties":{"latitude":"50.39742","longitude":"3.56362","bright_ti4":"300.5","scan":"0.49","track":"0.65","acq_date":"2026-05-28","acq_time":"315","satellite":"N","instrument":"VIIRS","confidence":"n","version":"2.0NRT","bright_ti5":"286.06","frp":"1.74","daynight":"N","commune":"Saint-Saulve","code_insee":"59544","departement":"Nord","region":"Hauts-de-France"}},{"type":"Feature","geometry":{"type":"Point","coordinates":[3.5573,50.39961]},"properties":{"latitude":"50.39961","longitude":"3.5573","bright_ti4":"311.31","scan":"0.49","track":"0.65","acq_date":"2026-05-28","acq_time":"315","satellite":"N","instrument":"VIIRS","confidence":"n","version":"2.0NRT","bright_ti5":"286.25","frp":"1.74","daynight":"N","commune":"Saint-Saulve","code_insee":"59544","departement":"Nord","region":"Hauts-de-France"}},{"type":"Feature","geometry":{"type":"Point","coordinates":[3.56818,50.40281]},"properties":{"latitude":"50.40281","longitude":"3.56818","bright_ti4":"304.71","scan":"0.49","track":"0.65","acq_date":"2026-05-28","acq_time":"315","satellite":"N","instrument":"VIIRS","confidence":"n","version":"2.0NRT","bright_ti5":"285.09","frp":"1.74","daynight":"N","commune":"Onnaing","code_insee":"59447","departement":"Nord","region":"Hauts-de-France"}},{"type":"Feature","geometry":{"type":"Point","coordinates":[3.56291,50.40361]},"properties":{"latitude":"50.40361","longitude":"3.56291","bright_ti4":"349.4","scan":"0.49","track":"0.65","acq_date":"2026-05-28","acq_time":"315","satellite":"N","instrument":"VIIRS","confidence":"n","version":"2.0NRT","bright_ti5":"286.42","frp":"6.07","daynight":"N","commune":"Saint-Saulve","code_insee":"59544","departement":"Nord","region":"Hauts-de-France"}},{"type":"Feature","geometry":{"type":"Point","coordinates":[3.56184,50.40501]},"properties":{"latitude":"50.40501","longitude":"3.56184","bright_ti4":"330.25","scan":"0.49","track":"0.65","acq_date":"2026-05-28","acq_time":"315","satellite":"N","instrument":"VIIRS","confidence":"n","version":"2.0NRT","bright_ti5":"286.48","frp":"1.74","daynight":"N","commune":"Saint-Saulve","code_insee":"59544","departement":"Nord","region":"Hauts-de-France"}},{"type":"Feature","geometry":{"type":"Point","coordinates":[2.27833,51.02916]},"properties":{"latitude":"51.02916","longitude":"2.27833","bright_ti4":"307.46","scan":"0.42","track":"0.61","acq_date":"2026-05-28","acq_time":"315","satellite":"N","instrument":"VIIRS","confidence":"n","version":"2.0NRT","bright_ti5":"287.14","frp":"1.26","daynight":"N","commune":"Grande-Synthe","code_insee":"59271","departement":"Nord","region":"Hauts-de-France"}},{"type":"Feature","geometry":{"type":"Point","coordinates":[2.28801,51.03247]},"properties":{"latitude":"51.03247","longitude":"2.28801","bright_ti4":"301.76","scan":"0.42","track":"0.61","acq_date":"2026-05-28","acq_time":"315","satellite":"N","instrument":"VIIRS","confidence":"n","version":"2.0NRT","bright_ti5":"287.21","frp":"1.02","daynight":"N","commune":"Grande-Synthe","code_insee":"59271","departement":"Nord","region":"Hauts-de-France"}},{"type":"Feature","geometry":{"type":"Point","coordinates":[2.27708,51.03601]},"properties":{"latitude":"51.03601","longitude":"2.27708","bright_ti4":"300.13","scan":"0.42","track":"0.61","acq_date":"2026-05-28","acq_time":"315","satellite":"N","instrument":"VIIRS","confidence":"n","version":"2.0NRT","bright_ti5":"286.34","frp":"1.26","daynight":"N","commune":"Grande-Synthe","code_insee":"59271","departement":"Nord","region":"Hauts-de-France"}},{"type":"Feature","geometry":{"type":"Point","coordinates":[2.29054,51.0407]},"properties":{"latitude":"51.0407","longitude":"2.29054","bright_ti4":"300.58","scan":"0.42","track":"0.61","acq_date":"2026-05-28","acq_time":"315","satellite":"N","instrument":"VIIRS","confidence":"n","version":"2.0NRT","bright_ti5":"287.72","frp":"5.23","daynight":"N","commune":"Grande-Synthe","code_insee":"59271","departement":"Nord","region":"Hauts-de-France"}},{"type":"Feature","geometry":{"type":"Point","coordinates":[2.29645,51.04262]},"properties":{"latitude":"51.04262","longitude":"2.29645","bright_ti4":"356.59","scan":"0.42","track":"0.61","acq_date":"2026-05-28","acq_time":"315","satellite":"N","instrument":"VIIRS","confidence":"n","version":"2.0NRT","bright_ti5":"289.86","frp":"11.12","daynight":"N","commune":"Grande-Synthe","code_insee":"59271","departement":"Nord","region":"Hauts-de-France"}},{"type":"Feature","geometry":{"type":"Point","coordinates":[2.30017,51.044]},"properties":{"latitude":"51.044","longitude":"2.30017","bright_ti4":"327.33","scan":"0.42","track":"0.61","acq_date":"2026-05-28","acq_time":"315","satellite":"N","instrument":"VIIRS","confidence":"n","version":"2.0NRT","bright_ti5":"287.31","frp":"5.23","daynight":"N","commune":"Grande-Synthe","code_insee":"59271","departement":"Nord","region":"Hauts-de-France"}},{"type":"Feature","geometry":{"type":"Point","coordinates":[2.29099,51.04439]},"properties":{"latitude":"51.04439","longitude":"2.29099","bright_ti4":"321.91","scan":"0.42","track":"0.61","acq_date":"2026-05-28","acq_time":"315","satellite":"N","instrument":"VIIRS","confidence":"n","version":"2.0NRT","bright_ti5":"286.78","frp":"10.8","daynight":"N","commune":"Grande-Synthe","code_insee":"59271","departement":"Nord","region":"Hauts-de-France"}},{"type":"Feature","geometry":{"type":"Point","coordinates":[2.29474,51.04579]},"properties":{"latitude":"51.04579","longitude":"2.29474","bright_ti4":"367","scan":"0.42","track":"0.61","acq_date":"2026-05-28","acq_time":"315","satellite":"N","instrument":"VIIRS","confidence":"h","version":"2.0NRT","bright_ti5":"288.47","frp":"5.23","daynight":"N","commune":"Grande-Synthe","code_insee":"59271","departement":"Nord","region":"Hauts-de-France"}},{"type":"Feature","geometry":{"type":"Point","coordinates":[1.75973,48.98292]},"properties":{"latitude":"48.98292","longitude":"1.75973","bright_ti4":"314.18","scan":"0.47","track":"0.64","acq_date":"2026-05-28","acq_time":"317","satellite":"N","instrument":"VIIRS","confidence":"n","version":"2.0NRT","bright_ti5":"288.82","frp":"1.07","daynight":"N","commune":"Porcheville","code_insee":"78501","departement":"Yvelines","region":"Île-de-France"}},{"type":"Feature","geometry":{"type":"Point","coordinates":[1.7618,48.98466]},"properties":{"latitude":"48.98466","longitude":"1.7618","bright_ti4":"313.64","scan":"0.47","track":"0.64","acq_date":"2026-05-28","acq_time":"317","satellite":"N","instrument":"VIIRS","confidence":"n","version":"2.0NRT","bright_ti5":"289.12","frp":"1.53","daynight":"N","commune":"Porcheville","code_insee":"78501","departement":"Yvelines","region":"Île-de-France"}},{"type":"Feature","geometry":{"type":"Point","coordinates":[0.24758,49.48473]},"properties":{"latitude":"49.48473","longitude":"0.24758","bright_ti4":"302.05","scan":"0.39","track":"0.59","acq_date":"2026-05-28","acq_time":"317","satellite":"N","instrument":"VIIRS","confidence":"n","version":"2.0NRT","bright_ti5":"288.24","frp":"0.42","daynight":"N","commune":"Gonfreville-l'Orcher","code_insee":"76305","departement":"Seine-Maritime","region":"Normandie"}},{"type":"Feature","geometry":{"type":"Point","coordinates":[0.21873,49.48758]},"properties":{"latitude":"49.48758","longitude":"0.21873","bright_ti4":"304.72","scan":"0.39","track":"0.59","acq_date":"2026-05-28","acq_time":"317","satellite":"N","instrument":"VIIRS","confidence":"n","version":"2.0NRT","bright_ti5":"289.27","frp":"0.81","daynight":"N","commune":"Gonfreville-l'Orcher","code_insee":"76305","departement":"Seine-Maritime","region":"Normandie"}},{"type":"Feature","geometry":{"type":"Point","coordinates":[4.90102,43.44336]},"properties":{"latitude":"43.44336","longitude":"4.90102","bright_ti4":"338.89","scan":"0.49","track":"0.41","acq_date":"2026-05-28","acq_time":"1259","satellite":"N","instrument":"VIIRS","confidence":"l","version":"2.0NRT","bright_ti5":"309.88","frp":"5.13","daynight":"D","commune":"Fos-sur-Mer","code_insee":"13039","departement":"Bouches-du-Rhône","region":"Provence-Alpes-Côte d'Azur"}},{"type":"Feature","geometry":{"type":"Point","coordinates":[4.90026,43.44709]},"properties":{"latitude":"43.44709","longitude":"4.90026","bright_ti4":"339.28","scan":"0.49","track":"0.41","acq_date":"2026-05-28","acq_time":"1259","satellite":"N","instrument":"VIIRS","confidence":"n","version":"2.0NRT","bright_ti5":"311.14","frp":"5.13","daynight":"D","commune":"Fos-sur-Mer","code_insee":"13039","departement":"Bouches-du-Rhône","region":"Provence-Alpes-Côte d'Azur"}},{"type":"Feature","geometry":{"type":"Point","coordinates":[-0.06853,44.03413]},"properties":{"latitude":"44.03413","longitude":"-0.06853","bright_ti4":"339.22","scan":"0.38","track":"0.36","acq_date":"2026-05-28","acq_time":"1301","satellite":"N","instrument":"VIIRS","confidence":"n","version":"2.0NRT","bright_ti5":"309.19","frp":"4.4","daynight":"D","commune":"Herré","code_insee":"40124","departement":"Landes","region":"Nouvelle-Aquitaine"}},{"type":"Feature","geometry":{"type":"Point","coordinates":[-0.06949,44.03741]},"properties":{"latitude":"44.03741","longitude":"-0.06949","bright_ti4":"342.88","scan":"0.38","track":"0.36","acq_date":"2026-05-28","acq_time":"1301","satellite":"N","instrument":"VIIRS","confidence":"n","version":"2.0NRT","bright_ti5":"308.9","frp":"4.4","daynight":"D","commune":"Herré","code_insee":"40124","departement":"Landes","region":"Nouvelle-Aquitaine"}},{"type":"Feature","geometry":{"type":"Point","coordinates":[0.31749,44.76334]},"properties":{"latitude":"44.76334","longitude":"0.31749","bright_ti4":"344.06","scan":"0.39","track":"0.36","acq_date":"2026-05-28","acq_time":"1301","satellite":"N","instrument":"VIIRS","confidence":"n","version":"2.0NRT","bright_ti5":"305.49","frp":"3.35","daynight":"D","commune":"Thénac","code_insee":"24549","departement":"Dordogne","region":"Nouvelle-Aquitaine"}},{"type":"Feature","geometry":{"type":"Point","coordinates":[-0.72143,46.16384]},"properties":{"latitude":"46.16384","longitude":"-0.72143","bright_ti4":"356.84","scan":"0.39","track":"0.36","acq_date":"2026-05-28","acq_time":"1301","satellite":"N","instrument":"VIIRS","confidence":"n","version":"2.0NRT","bright_ti5":"308.68","frp":"9.05","daynight":"D","commune":"Saint-Georges-du-Bois","code_insee":"17338","departement":"Charente-Maritime","region":"Nouvelle-Aquitaine"}},{"type":"Feature","geometry":{"type":"Point","coordinates":[-0.97984,46.51677]},"properties":{"latitude":"46.51677","longitude":"-0.97984","bright_ti4":"343.65","scan":"0.38","track":"0.36","acq_date":"2026-05-28","acq_time":"1301","satellite":"N","instrument":"VIIRS","confidence":"n","version":"2.0NRT","bright_ti5":"311.52","frp":"4.09","daynight":"D","commune":"Saint-Étienne-de-Brillouet","code_insee":"85209","departement":"Vendée","region":"Pays de la Loire"}},{"type":"Feature","geometry":{"type":"Point","coordinates":[-1.0292,46.53272]},"properties":{"latitude":"46.53272","longitude":"-1.0292","bright_ti4":"337.4","scan":"0.38","track":"0.36","acq_date":"2026-05-28","acq_time":"1301","satellite":"N","instrument":"VIIRS","confidence":"l","version":"2.0NRT","bright_ti5":"311.78","frp":"1.08","daynight":"D","commune":"Saint-Étienne-de-Brillouet","code_insee":"85209","departement":"Vendée","region":"Pays de la Loire"}},{"type":"Feature","geometry":{"type":"Point","coordinates":[2.84993,46.91156]},"properties":{"latitude":"46.91156","longitude":"2.84993","bright_ti4":"354.46","scan":"0.45","track":"0.39","acq_date":"2026-05-28","acq_time":"1301","satellite":"N","instrument":"VIIRS","confidence":"n","version":"2.0NRT","bright_ti5":"307.29","frp":"18","daynight":"D","commune":"Croisy","code_insee":"18080","departement":"Cher","region":"Centre-Val de Loire"}},{"type":"Feature","geometry":{"type":"Point","coordinates":[2.84904,46.91514]},"properties":{"latitude":"46.91514","longitude":"2.84904","bright_ti4":"338.82","scan":"0.45","track":"0.39","acq_date":"2026-05-28","acq_time":"1301","satellite":"N","instrument":"VIIRS","confidence":"n","version":"2.0NRT","bright_ti5":"304.33","frp":"3.91","daynight":"D","commune":"Croisy","code_insee":"18080","departement":"Cher","region":"Centre-Val de Loire"}},{"type":"Feature","geometry":{"type":"Point","coordinates":[0.69344,47.3896]},"properties":{"latitude":"47.3896","longitude":"0.69344","bright_ti4":"335.87","scan":"0.41","track":"0.37","acq_date":"2026-05-28","acq_time":"1301","satellite":"N","instrument":"VIIRS","confidence":"l","version":"2.0NRT","bright_ti5":"308.37","frp":"4.88","daynight":"D","commune":"Tours","code_insee":"37261","departement":"Indre-et-Loire","region":"Centre-Val de Loire"}},{"type":"Feature","geometry":{"type":"Point","coordinates":[1.76047,48.97865]},"properties":{"latitude":"48.97865","longitude":"1.76047","bright_ti4":"332.79","scan":"0.44","track":"0.39","acq_date":"2026-05-28","acq_time":"1301","satellite":"N","instrument":"VIIRS","confidence":"l","version":"2.0NRT","bright_ti5":"305.53","frp":"3.85","daynight":"D","commune":"Porcheville","code_insee":"78501","departement":"Yvelines","region":"Île-de-France"}},{"type":"Feature","geometry":{"type":"Point","coordinates":[2.28659,51.0345]},"properties":{"latitude":"51.0345","longitude":"2.28659","bright_ti4":"333.7","scan":"0.48","track":"0.4","acq_date":"2026-05-28","acq_time":"1304","satellite":"N","instrument":"VIIRS","confidence":"l","version":"2.0NRT","bright_ti5":"308","frp":"5.88","daynight":"D","commune":"Grande-Synthe","code_insee":"59271","departement":"Nord","region":"Hauts-de-France"}},{"type":"Feature","geometry":{"type":"Point","coordinates":[2.29844,51.04335]},"properties":{"latitude":"51.04335","longitude":"2.29844","bright_ti4":"333.97","scan":"0.48","track":"0.4","acq_date":"2026-05-28","acq_time":"1304","satellite":"N","instrument":"VIIRS","confidence":"l","version":"2.0NRT","bright_ti5":"308.17","frp":"4.6","daynight":"D","commune":"Grande-Synthe","code_insee":"59271","departement":"Nord","region":"Hauts-de-France"}},{"type":"Feature","geometry":{"type":"Point","coordinates":[2.29747,51.04704]},"properties":{"latitude":"51.04704","longitude":"2.29747","bright_ti4":"337.86","scan":"0.48","track":"0.4","acq_date":"2026-05-28","acq_time":"1304","satellite":"N","instrument":"VIIRS","confidence":"n","version":"2.0NRT","bright_ti5":"300.83","frp":"6.75","daynight":"D","commune":"Grande-Synthe","code_insee":"59271","departement":"Nord","region":"Hauts-de-France"}},{"type":"Feature","geometry":{"type":"Point","coordinates":[2.31819,51.04926]},"properties":{"latitude":"51.04926","longitude":"2.31819","bright_ti4":"331.71","scan":"0.48","track":"0.4","acq_date":"2026-05-28","acq_time":"1304","satellite":"N","instrument":"VIIRS","confidence":"l","version":"2.0NRT","bright_ti5":"305.15","frp":"1.92","daynight":"D","commune":"Dunkerque","code_insee":"59183","departement":"Nord","region":"Hauts-de-France"}},{"type":"Feature","geometry":{"type":"Point","coordinates":[-0.2127,45.84206]},"properties":{"latitude":"45.84206","longitude":"-0.2127","bright_ti4":"302.37","scan":"0.41","track":"0.37","acq_date":"2026-05-28","acq_time":"154","satellite":"N20","instrument":"VIIRS","confidence":"n","version":"2.0NRT","bright_ti5":"290.09","frp":"0.47","daynight":"N","commune":"Haimps","code_insee":"17188","departement":"Charente-Maritime","region":"Nouvelle-Aquitaine"}},{"type":"Feature","geometry":{"type":"Point","coordinates":[2.98711,48.38776]},"properties":{"latitude":"48.38776","longitude":"2.98711","bright_ti4":"310.15","scan":"0.38","track":"0.36","acq_date":"2026-05-28","acq_time":"154","satellite":"N20","instrument":"VIIRS","confidence":"n","version":"2.0NRT","bright_ti5":"289.27","frp":"1","daynight":"N","commune":"Montereau-Fault-Yonne","code_insee":"77305","departement":"Seine-et-Marne","region":"Île-de-France"}},{"type":"Feature","geometry":{"type":"Point","coordinates":[2.98199,48.38854]},"properties":{"latitude":"48.38854","longitude":"2.98199","bright_ti4":"316.93","scan":"0.38","track":"0.36","acq_date":"2026-05-28","acq_time":"154","satellite":"N20","instrument":"VIIRS","confidence":"n","version":"2.0NRT","bright_ti5":"291.43","frp":"1.97","daynight":"N","commune":"Montereau-Fault-Yonne","code_insee":"77305","departement":"Seine-et-Marne","region":"Île-de-France"}},{"type":"Feature","geometry":{"type":"Point","coordinates":[6.96766,48.69069]},"properties":{"latitude":"48.69069","longitude":"6.96766","bright_ti4":"304.23","scan":"0.42","track":"0.38","acq_date":"2026-05-28","acq_time":"154","satellite":"N20","instrument":"VIIRS","confidence":"n","version":"2.0NRT","bright_ti5":"289.09","frp":"1.3","daynight":"N","commune":"Héming","code_insee":"57314","departement":"Moselle","region":"Grand Est"}},{"type":"Feature","geometry":{"type":"Point","coordinates":[5.68306,48.71568]},"properties":{"latitude":"48.71568","longitude":"5.68306","bright_ti4":"304.39","scan":"0.4","track":"0.37","acq_date":"2026-05-28","acq_time":"154","satellite":"N20","instrument":"VIIRS","confidence":"n","version":"2.0NRT","bright_ti5":"288.67","frp":"1.04","daynight":"N","commune":"Sorcy-Saint-Martin","code_insee":"55496","departement":"Meuse","region":"Grand Est"}},{"type":"Feature","geometry":{"type":"Point","coordinates":[6.25568,48.72669]},"properties":{"latitude":"48.72669","longitude":"6.25568","bright_ti4":"309.02","scan":"0.41","track":"0.37","acq_date":"2026-05-28","acq_time":"154","satellite":"N20","instrument":"VIIRS","confidence":"n","version":"2.0NRT","bright_ti5":"287.17","frp":"0.87","daynight":"N","commune":"Dommartin-sous-Amance","code_insee":"54168","departement":"Meurthe-et-Moselle","region":"Grand Est"}},{"type":"Feature","geometry":{"type":"Point","coordinates":[4.56336,48.77037]},"properties":{"latitude":"48.77037","longitude":"4.56336","bright_ti4":"305.38","scan":"0.39","track":"0.36","acq_date":"2026-05-28","acq_time":"154","satellite":"N20","instrument":"VIIRS","confidence":"n","version":"2.0NRT","bright_ti5":"290.64","frp":"0.39","daynight":"N","commune":"Couvrot","code_insee":"51195","departement":"Marne","region":"Grand Est"}},{"type":"Feature","geometry":{"type":"Point","coordinates":[2.73791,48.94921]},"properties":{"latitude":"48.94921","longitude":"2.73791","bright_ti4":"297.8","scan":"0.39","track":"0.36","acq_date":"2026-05-28","acq_time":"154","satellite":"N20","instrument":"VIIRS","confidence":"n","version":"2.0NRT","bright_ti5":"284.77","frp":"0.46","daynight":"N","commune":"Fresnes-sur-Marne","code_insee":"77196","departement":"Seine-et-Marne","region":"Île-de-France"}},{"type":"Feature","geometry":{"type":"Point","coordinates":[1.76059,48.98442]},"properties":{"latitude":"48.98442","longitude":"1.76059","bright_ti4":"322.76","scan":"0.4","track":"0.37","acq_date":"2026-05-28","acq_time":"154","satellite":"N20","instrument":"VIIRS","confidence":"n","version":"2.0NRT","bright_ti5":"287.15","frp":"2.08","daynight":"N","commune":"Porcheville","code_insee":"78501","departement":"Yvelines","region":"Île-de-France"}},{"type":"Feature","geometry":{"type":"Point","coordinates":[0.53723,49.47713]},"properties":{"latitude":"49.47713","longitude":"0.53723","bright_ti4":"310.55","scan":"0.42","track":"0.38","acq_date":"2026-05-28","acq_time":"154","satellite":"N20","instrument":"VIIRS","confidence":"n","version":"2.0NRT","bright_ti5":"292.94","frp":"1.34","daynight":"N","commune":"Port-Jérôme-sur-Seine","code_insee":"76476","departement":"Seine-Maritime","region":"Normandie"}},{"type":"Feature","geometry":{"type":"Point","coordinates":[0.21922,49.49097]},"properties":{"latitude":"49.49097","longitude":"0.21922","bright_ti4":"314.39","scan":"0.43","track":"0.38","acq_date":"2026-05-28","acq_time":"154","satellite":"N20","instrument":"VIIRS","confidence":"n","version":"2.0NRT","bright_ti5":"292.48","frp":"1.31","daynight":"N","commune":"Gonfreville-l'Orcher","code_insee":"76305","departement":"Seine-Maritime","region":"Normandie"}},{"type":"Feature","geometry":{"type":"Point","coordinates":[3.56033,50.40108]},"properties":{"latitude":"50.40108","longitude":"3.56033","bright_ti4":"301.14","scan":"0.39","track":"0.36","acq_date":"2026-05-28","acq_time":"154","satellite":"N20","instrument":"VIIRS","confidence":"n","version":"2.0NRT","bright_ti5":"289.57","frp":"0.59","daynight":"N","commune":"Saint-Saulve","code_insee":"59544","departement":"Nord","region":"Hauts-de-France"}},{"type":"Feature","geometry":{"type":"Point","coordinates":[1.89867,50.97297]},"properties":{"latitude":"50.97297","longitude":"1.89867","bright_ti4":"298.44","scan":"0.41","track":"0.37","acq_date":"2026-05-28","acq_time":"154","satellite":"N20","instrument":"VIIRS","confidence":"n","version":"2.0NRT","bright_ti5":"286.92","frp":"0.28","daynight":"N","commune":"Calais","code_insee":"62193","departement":"Pas-de-Calais","region":"Hauts-de-France"}},{"type":"Feature","geometry":{"type":"Point","coordinates":[2.27788,51.03061]},"properties":{"latitude":"51.03061","longitude":"2.27788","bright_ti4":"327.03","scan":"0.4","track":"0.37","acq_date":"2026-05-28","acq_time":"154","satellite":"N20","instrument":"VIIRS","confidence":"n","version":"2.0NRT","bright_ti5":"289.59","frp":"2.28","daynight":"N","commune":"Grande-Synthe","code_insee":"59271","departement":"Nord","region":"Hauts-de-France"}},{"type":"Feature","geometry":{"type":"Point","coordinates":[2.25519,51.03373]},"properties":{"latitude":"51.03373","longitude":"2.25519","bright_ti4":"313.49","scan":"0.4","track":"0.37","acq_date":"2026-05-28","acq_time":"154","satellite":"N20","instrument":"VIIRS","confidence":"n","version":"2.0NRT","bright_ti5":"289.59","frp":"1.24","daynight":"N","commune":"Dunkerque","code_insee":"59183","departement":"Nord","region":"Hauts-de-France"}},{"type":"Feature","geometry":{"type":"Point","coordinates":[2.29153,51.03573]},"properties":{"latitude":"51.03573","longitude":"2.29153","bright_ti4":"299.25","scan":"0.4","track":"0.37","acq_date":"2026-05-28","acq_time":"154","satellite":"N20","instrument":"VIIRS","confidence":"n","version":"2.0NRT","bright_ti5":"289.13","frp":"0.96","daynight":"N","commune":"Grande-Synthe","code_insee":"59271","departement":"Nord","region":"Hauts-de-France"}},{"type":"Feature","geometry":{"type":"Point","coordinates":[2.29384,51.0424]},"properties":{"latitude":"51.0424","longitude":"2.29384","bright_ti4":"308.56","scan":"0.4","track":"0.37","acq_date":"2026-05-28","acq_time":"154","satellite":"N20","instrument":"VIIRS","confidence":"n","version":"2.0NRT","bright_ti5":"291.73","frp":"2.31","daynight":"N","commune":"Grande-Synthe","code_insee":"59271","departement":"Nord","region":"Hauts-de-France"}},{"type":"Feature","geometry":{"type":"Point","coordinates":[2.30632,51.04417]},"properties":{"latitude":"51.04417","longitude":"2.30632","bright_ti4":"303.89","scan":"0.4","track":"0.37","acq_date":"2026-05-28","acq_time":"154","satellite":"N20","instrument":"VIIRS","confidence":"n","version":"2.0NRT","bright_ti5":"288.21","frp":"2.86","daynight":"N","commune":"Dunkerque","code_insee":"59183","departement":"Nord","region":"Hauts-de-France"}},{"type":"Feature","geometry":{"type":"Point","coordinates":[2.29499,51.04573]},"properties":{"latitude":"51.04573","longitude":"2.29499","bright_ti4":"328.15","scan":"0.4","track":"0.37","acq_date":"2026-05-28","acq_time":"154","satellite":"N20","instrument":"VIIRS","confidence":"n","version":"2.0NRT","bright_ti5":"290.33","frp":"2.31","daynight":"N","commune":"Grande-Synthe","code_insee":"59271","departement":"Nord","region":"Hauts-de-France"}},{"type":"Feature","geometry":{"type":"Point","coordinates":[4.8962,43.42905]},"properties":{"latitude":"43.42905","longitude":"4.8962","bright_ti4":"308.17","scan":"0.43","track":"0.38","acq_date":"2026-05-28","acq_time":"156","satellite":"N20","instrument":"VIIRS","confidence":"n","version":"2.0NRT","bright_ti5":"293.36","frp":"0.99","daynight":"N","commune":"Fos-sur-Mer","code_insee":"13039","departement":"Bouches-du-Rhône","region":"Provence-Alpes-Côte d'Azur"}},{"type":"Feature","geometry":{"type":"Point","coordinates":[4.8974,43.43246]},"properties":{"latitude":"43.43246","longitude":"4.8974","bright_ti4":"309.71","scan":"0.43","track":"0.38","acq_date":"2026-05-28","acq_time":"156","satellite":"N20","instrument":"VIIRS","confidence":"n","version":"2.0NRT","bright_ti5":"293.66","frp":"0.99","daynight":"N","commune":"Fos-sur-Mer","code_insee":"13039","departement":"Bouches-du-Rhône","region":"Provence-Alpes-Côte d'Azur"}},{"type":"Feature","geometry":{"type":"Point","coordinates":[4.88825,43.43784]},"properties":{"latitude":"43.43784","longitude":"4.88825","bright_ti4":"302.17","scan":"0.43","track":"0.38","acq_date":"2026-05-28","acq_time":"156","satellite":"N20","instrument":"VIIRS","confidence":"n","version":"2.0NRT","bright_ti5":"292.04","frp":"1.77","daynight":"N","commune":"Fos-sur-Mer","code_insee":"13039","departement":"Bouches-du-Rhône","region":"Provence-Alpes-Côte d'Azur"}},{"type":"Feature","geometry":{"type":"Point","coordinates":[4.8791,43.44321]},"properties":{"latitude":"43.44321","longitude":"4.8791","bright_ti4":"339.74","scan":"0.43","track":"0.38","acq_date":"2026-05-28","acq_time":"156","satellite":"N20","instrument":"VIIRS","confidence":"n","version":"2.0NRT","bright_ti5":"293.11","frp":"17.8","daynight":"N","commune":"Fos-sur-Mer","code_insee":"13039","departement":"Bouches-du-Rhône","region":"Provence-Alpes-Côte d'Azur"}},{"type":"Feature","geometry":{"type":"Point","coordinates":[4.89705,43.44708]},"properties":{"latitude":"43.44708","longitude":"4.89705","bright_ti4":"315.71","scan":"0.43","track":"0.38","acq_date":"2026-05-28","acq_time":"156","satellite":"N20","instrument":"VIIRS","confidence":"n","version":"2.0NRT","bright_ti5":"293.84","frp":"2.31","daynight":"N","commune":"Fos-sur-Mer","code_insee":"13039","departement":"Bouches-du-Rhône","region":"Provence-Alpes-Côte d'Azur"}},{"type":"Feature","geometry":{"type":"Point","coordinates":[0.22308,49.48976]},"properties":{"latitude":"49.48976","longitude":"0.22308","bright_ti4":"306.29","scan":"0.7","track":"0.75","acq_date":"2026-05-28","acq_time":"334","satellite":"N20","instrument":"VIIRS","confidence":"n","version":"2.0NRT","bright_ti5":"287.96","frp":"1.61","daynight":"N","commune":"Gonfreville-l'Orcher","code_insee":"76305","departement":"Seine-Maritime","region":"Normandie"}},{"type":"Feature","geometry":{"type":"Point","coordinates":[0.22164,49.49218]},"properties":{"latitude":"49.49218","longitude":"0.22164","bright_ti4":"300.78","scan":"0.69","track":"0.75","acq_date":"2026-05-28","acq_time":"334","satellite":"N20","instrument":"VIIRS","confidence":"n","version":"2.0NRT","bright_ti5":"288.11","frp":"1.44","daynight":"N","commune":"Gonfreville-l'Orcher","code_insee":"76305","departement":"Seine-Maritime","region":"Normandie"}},{"type":"Feature","geometry":{"type":"Point","coordinates":[2.28345,51.03304]},"properties":{"latitude":"51.03304","longitude":"2.28345","bright_ti4":"298.38","scan":"0.72","track":"0.76","acq_date":"2026-05-28","acq_time":"334","satellite":"N20","instrument":"VIIRS","confidence":"n","version":"2.0NRT","bright_ti5":"285.55","frp":"1.1","daynight":"N","commune":"Grande-Synthe","code_insee":"59271","departement":"Nord","region":"Hauts-de-France"}},{"type":"Feature","geometry":{"type":"Point","coordinates":[2.28951,51.03893]},"properties":{"latitude":"51.03893","longitude":"2.28951","bright_ti4":"295.45","scan":"0.72","track":"0.76","acq_date":"2026-05-28","acq_time":"334","satellite":"N20","instrument":"VIIRS","confidence":"n","version":"2.0NRT","bright_ti5":"285.28","frp":"1.1","daynight":"N","commune":"Grande-Synthe","code_insee":"59271","departement":"Nord","region":"Hauts-de-France"}},{"type":"Feature","geometry":{"type":"Point","coordinates":[2.29897,51.0439]},"properties":{"latitude":"51.0439","longitude":"2.29897","bright_ti4":"325.98","scan":"0.72","track":"0.76","acq_date":"2026-05-28","acq_time":"334","satellite":"N20","instrument":"VIIRS","confidence":"n","version":"2.0NRT","bright_ti5":"287.19","frp":"4.97","daynight":"N","commune":"Grande-Synthe","code_insee":"59271","departement":"Nord","region":"Hauts-de-France"}},{"type":"Feature","geometry":{"type":"Point","coordinates":[2.31959,51.04543]},"properties":{"latitude":"51.04543","longitude":"2.31959","bright_ti4":"344.82","scan":"0.32","track":"0.54","acq_date":"2026-05-28","acq_time":"1142","satellite":"N20","instrument":"VIIRS","confidence":"n","version":"2.0NRT","bright_ti5":"301.23","frp":"5.28","daynight":"D","commune":"Dunkerque","code_insee":"59183","departement":"Nord","region":"Hauts-de-France"}},{"type":"Feature","geometry":{"type":"Point","coordinates":[4.89931,43.44264]},"properties":{"latitude":"43.44264","longitude":"4.89931","bright_ti4":"349.22","scan":"0.32","track":"0.54","acq_date":"2026-05-28","acq_time":"1321","satellite":"N20","instrument":"VIIRS","confidence":"n","version":"2.0NRT","bright_ti5":"308.68","frp":"5.18","daynight":"D","commune":"Fos-sur-Mer","code_insee":"13039","departement":"Bouches-du-Rhône","region":"Provence-Alpes-Côte d'Azur"}},{"type":"Feature","geometry":{"type":"Point","coordinates":[1.76003,48.98352]},"properties":{"latitude":"48.98352","longitude":"1.76003","bright_ti4":"330.26","scan":"0.51","track":"0.49","acq_date":"2026-05-28","acq_time":"1323","satellite":"N20","instrument":"VIIRS","confidence":"l","version":"2.0NRT","bright_ti5":"304.88","frp":"4.75","daynight":"D","commune":"Porcheville","code_insee":"78501","departement":"Yvelines","region":"Île-de-France"}},{"type":"Feature","geometry":{"type":"Point","coordinates":[3.56335,50.40013]},"properties":{"latitude":"50.40013","longitude":"3.56335","bright_ti4":"324.39","scan":"0.34","track":"0.56","acq_date":"2026-05-28","acq_time":"100","satellite":"N21","instrument":"VIIRS","confidence":"n","version":"2.0NRT","bright_ti5":"289.32","frp":"2.98","daynight":"N","commune":"Saint-Saulve","code_insee":"59544","departement":"Nord","region":"Hauts-de-France"}},{"type":"Feature","geometry":{"type":"Point","coordinates":[2.2822,51.02824]},"properties":{"latitude":"51.02824","longitude":"2.2822","bright_ti4":"300.54","scan":"0.4","track":"0.6","acq_date":"2026-05-28","acq_time":"100","satellite":"N21","instrument":"VIIRS","confidence":"n","version":"2.0NRT","bright_ti5":"288.02","frp":"1.2","daynight":"N","commune":"Grande-Synthe","code_insee":"59271","departement":"Nord","region":"Hauts-de-France"}},{"type":"Feature","geometry":{"type":"Point","coordinates":[2.27648,51.02839]},"properties":{"latitude":"51.02839","longitude":"2.27648","bright_ti4":"305.9","scan":"0.4","track":"0.6","acq_date":"2026-05-28","acq_time":"100","satellite":"N21","instrument":"VIIRS","confidence":"n","version":"2.0NRT","bright_ti5":"288.52","frp":"1.2","daynight":"N","commune":"Grande-Synthe","code_insee":"59271","departement":"Nord","region":"Hauts-de-France"}},{"type":"Feature","geometry":{"type":"Point","coordinates":[2.27075,51.02852]},"properties":{"latitude":"51.02852","longitude":"2.27075","bright_ti4":"299.57","scan":"0.4","track":"0.6","acq_date":"2026-05-28","acq_time":"100","satellite":"N21","instrument":"VIIRS","confidence":"n","version":"2.0NRT","bright_ti5":"288.07","frp":"0.96","daynight":"N","commune":"Grande-Synthe","code_insee":"59271","departement":"Nord","region":"Hauts-de-France"}},{"type":"Feature","geometry":{"type":"Point","coordinates":[2.28824,51.03362]},"properties":{"latitude":"51.03362","longitude":"2.28824","bright_ti4":"309.64","scan":"0.4","track":"0.6","acq_date":"2026-05-28","acq_time":"100","satellite":"N21","instrument":"VIIRS","confidence":"n","version":"2.0NRT","bright_ti5":"289.25","frp":"1.94","daynight":"N","commune":"Grande-Synthe","code_insee":"59271","departement":"Nord","region":"Hauts-de-France"}},{"type":"Feature","geometry":{"type":"Point","coordinates":[2.25394,51.03448]},"properties":{"latitude":"51.03448","longitude":"2.25394","bright_ti4":"309.8","scan":"0.4","track":"0.6","acq_date":"2026-05-28","acq_time":"100","satellite":"N21","instrument":"VIIRS","confidence":"n","version":"2.0NRT","bright_ti5":"288.2","frp":"1.23","daynight":"N","commune":"Dunkerque","code_insee":"59183","departement":"Nord","region":"Hauts-de-France"}},{"type":"Feature","geometry":{"type":"Point","coordinates":[2.30029,51.04437]},"properties":{"latitude":"51.04437","longitude":"2.30029","bright_ti4":"298.26","scan":"0.4","track":"0.6","acq_date":"2026-05-28","acq_time":"100","satellite":"N21","instrument":"VIIRS","confidence":"n","version":"2.0NRT","bright_ti5":"287.95","frp":"3.1","daynight":"N","commune":"Grande-Synthe","code_insee":"59271","departement":"Nord","region":"Hauts-de-France"}},{"type":"Feature","geometry":{"type":"Point","coordinates":[2.2946,51.04451]},"properties":{"latitude":"51.04451","longitude":"2.2946","bright_ti4":"337.66","scan":"0.4","track":"0.6","acq_date":"2026-05-28","acq_time":"100","satellite":"N21","instrument":"VIIRS","confidence":"n","version":"2.0NRT","bright_ti5":"289.95","frp":"4.99","daynight":"N","commune":"Grande-Synthe","code_insee":"59271","departement":"Nord","region":"Hauts-de-France"}},{"type":"Feature","geometry":{"type":"Point","coordinates":[4.89386,43.43141]},"properties":{"latitude":"43.43141","longitude":"4.89386","bright_ti4":"311.34","scan":"0.51","track":"0.5","acq_date":"2026-05-28","acq_time":"102","satellite":"N21","instrument":"VIIRS","confidence":"n","version":"2.0NRT","bright_ti5":"294.19","frp":"3.26","daynight":"N","commune":"Fos-sur-Mer","code_insee":"13039","departement":"Bouches-du-Rhône","region":"Provence-Alpes-Côte d'Azur"}},{"type":"Feature","geometry":{"type":"Point","coordinates":[4.89449,43.43598]},"properties":{"latitude":"43.43598","longitude":"4.89449","bright_ti4":"309.65","scan":"0.51","track":"0.5","acq_date":"2026-05-28","acq_time":"102","satellite":"N21","instrument":"VIIRS","confidence":"n","version":"2.0NRT","bright_ti5":"293.47","frp":"3.21","daynight":"N","commune":"Fos-sur-Mer","code_insee":"13039","departement":"Bouches-du-Rhône","region":"Provence-Alpes-Côte d'Azur"}},{"type":"Feature","geometry":{"type":"Point","coordinates":[2.98578,48.38794]},"properties":{"latitude":"48.38794","longitude":"2.98578","bright_ti4":"301","scan":"0.35","track":"0.57","acq_date":"2026-05-28","acq_time":"102","satellite":"N21","instrument":"VIIRS","confidence":"n","version":"2.0NRT","bright_ti5":"276.53","frp":"0.87","daynight":"N","commune":"Montereau-Fault-Yonne","code_insee":"77305","departement":"Seine-et-Marne","region":"Île-de-France"}},{"type":"Feature","geometry":{"type":"Point","coordinates":[6.96794,48.68862]},"properties":{"latitude":"48.68862","longitude":"6.96794","bright_ti4":"301.78","scan":"0.47","track":"0.47","acq_date":"2026-05-28","acq_time":"102","satellite":"N21","instrument":"VIIRS","confidence":"n","version":"2.0NRT","bright_ti5":"287.57","frp":"1.46","daynight":"N","commune":"Héming","code_insee":"57314","departement":"Moselle","region":"Grand Est"}},{"type":"Feature","geometry":{"type":"Point","coordinates":[6.05821,48.88511]},"properties":{"latitude":"48.88511","longitude":"6.05821","bright_ti4":"301.85","scan":"0.51","track":"0.5","acq_date":"2026-05-28","acq_time":"102","satellite":"N21","instrument":"VIIRS","confidence":"n","version":"2.0NRT","bright_ti5":"289.59","frp":"1.3","daynight":"N","commune":"Blénod-lès-Pont-à-Mousson","code_insee":"54079","departement":"Meurthe-et-Moselle","region":"Grand Est"}},{"type":"Feature","geometry":{"type":"Point","coordinates":[6.0512,48.88557]},"properties":{"latitude":"48.88557","longitude":"6.0512","bright_ti4":"302.82","scan":"0.51","track":"0.5","acq_date":"2026-05-28","acq_time":"102","satellite":"N21","instrument":"VIIRS","confidence":"n","version":"2.0NRT","bright_ti5":"288.41","frp":"1.3","daynight":"N","commune":"Blénod-lès-Pont-à-Mousson","code_insee":"54079","departement":"Meurthe-et-Moselle","region":"Grand Est"}},{"type":"Feature","geometry":{"type":"Point","coordinates":[0.2178,49.48774]},"properties":{"latitude":"49.48774","longitude":"0.2178","bright_ti4":"306.25","scan":"0.48","track":"0.65","acq_date":"2026-05-28","acq_time":"102","satellite":"N21","instrument":"VIIRS","confidence":"n","version":"2.0NRT","bright_ti5":"282.35","frp":"0.71","daynight":"N","commune":"Gonfreville-l'Orcher","code_insee":"76305","departement":"Seine-Maritime","region":"Normandie"}},{"type":"Feature","geometry":{"type":"Point","coordinates":[0.21466,49.49128]},"properties":{"latitude":"49.49128","longitude":"0.21466","bright_ti4":"298.42","scan":"0.48","track":"0.65","acq_date":"2026-05-28","acq_time":"102","satellite":"N21","instrument":"VIIRS","confidence":"n","version":"2.0NRT","bright_ti5":"281.91","frp":"0.78","daynight":"N","commune":"Gonfreville-l'Orcher","code_insee":"76305","departement":"Seine-Maritime","region":"Normandie"}},{"type":"Feature","geometry":{"type":"Point","coordinates":[4.89762,43.42869]},"properties":{"latitude":"43.42869","longitude":"4.89762","bright_ti4":"304.39","scan":"0.52","track":"0.67","acq_date":"2026-05-28","acq_time":"241","satellite":"N21","instrument":"VIIRS","confidence":"n","version":"2.0NRT","bright_ti5":"292.14","frp":"2.97","daynight":"N","commune":"Fos-sur-Mer","code_insee":"13039","departement":"Bouches-du-Rhône","region":"Provence-Alpes-Côte d'Azur"}},{"type":"Feature","geometry":{"type":"Point","coordinates":[4.8833,43.43983]},"properties":{"latitude":"43.43983","longitude":"4.8833","bright_ti4":"305.33","scan":"0.52","track":"0.67","acq_date":"2026-05-28","acq_time":"241","satellite":"N21","instrument":"VIIRS","confidence":"n","version":"2.0NRT","bright_ti5":"291.03","frp":"14.85","daynight":"N","commune":"Fos-sur-Mer","code_insee":"13039","departement":"Bouches-du-Rhône","region":"Provence-Alpes-Côte d'Azur"}},{"type":"Feature","geometry":{"type":"Point","coordinates":[4.8774,43.44166]},"properties":{"latitude":"43.44166","longitude":"4.8774","bright_ti4":"367","scan":"0.52","track":"0.67","acq_date":"2026-05-28","acq_time":"241","satellite":"N21","instrument":"VIIRS","confidence":"h","version":"2.0NRT","bright_ti5":"292.81","frp":"26.95","daynight":"N","commune":"Fos-sur-Mer","code_insee":"13039","departement":"Bouches-du-Rhône","region":"Provence-Alpes-Côte d'Azur"}},{"type":"Feature","geometry":{"type":"Point","coordinates":[4.69365,44.08697]},"properties":{"latitude":"44.08697","longitude":"4.69365","bright_ti4":"313.13","scan":"0.48","track":"0.65","acq_date":"2026-05-28","acq_time":"241","satellite":"N21","instrument":"VIIRS","confidence":"n","version":"2.0NRT","bright_ti5":"292.13","frp":"2.82","daynight":"N","commune":"Laudun-l'Ardoise","code_insee":"30141","departement":"Gard","region":"Occitanie"}},{"type":"Feature","geometry":{"type":"Point","coordinates":[4.69241,44.08892]},"properties":{"latitude":"44.08892","longitude":"4.69241","bright_ti4":"322.19","scan":"0.48","track":"0.65","acq_date":"2026-05-28","acq_time":"241","satellite":"N21","instrument":"VIIRS","confidence":"n","version":"2.0NRT","bright_ti5":"292.45","frp":"2.57","daynight":"N","commune":"Laudun-l'Ardoise","code_insee":"30141","departement":"Gard","region":"Occitanie"}},{"type":"Feature","geometry":{"type":"Point","coordinates":[-1.03716,48.10688]},"properties":{"latitude":"48.10688","longitude":"-1.03716","bright_ti4":"302.04","scan":"0.41","track":"0.45","acq_date":"2026-05-28","acq_time":"241","satellite":"N21","instrument":"VIIRS","confidence":"n","version":"2.0NRT","bright_ti5":"291.65","frp":"1.17","daynight":"N","commune":"Saint-Pierre-la-Cour","code_insee":"53247","departement":"Mayenne","region":"Pays de la Loire"}},{"type":"Feature","geometry":{"type":"Point","coordinates":[2.28005,51.02816]},"properties":{"latitude":"51.02816","longitude":"2.28005","bright_ti4":"313.77","scan":"0.47","track":"0.48","acq_date":"2026-05-28","acq_time":"241","satellite":"N21","instrument":"VIIRS","confidence":"n","version":"2.0NRT","bright_ti5":"289.77","frp":"2.65","daynight":"N","commune":"Grande-Synthe","code_insee":"59271","departement":"Nord","region":"Hauts-de-France"}},{"type":"Feature","geometry":{"type":"Point","coordinates":[2.28341,51.03062]},"properties":{"latitude":"51.03062","longitude":"2.28341","bright_ti4":"301.6","scan":"0.47","track":"0.48","acq_date":"2026-05-28","acq_time":"241","satellite":"N21","instrument":"VIIRS","confidence":"n","version":"2.0NRT","bright_ti5":"288.82","frp":"1.69","daynight":"N","commune":"Grande-Synthe","code_insee":"59271","departement":"Nord","region":"Hauts-de-France"}},{"type":"Feature","geometry":{"type":"Point","coordinates":[2.27714,51.03219]},"properties":{"latitude":"51.03219","longitude":"2.27714","bright_ti4":"302.34","scan":"0.47","track":"0.48","acq_date":"2026-05-28","acq_time":"241","satellite":"N21","instrument":"VIIRS","confidence":"n","version":"2.0NRT","bright_ti5":"288.28","frp":"1.96","daynight":"N","commune":"Grande-Synthe","code_insee":"59271","departement":"Nord","region":"Hauts-de-France"}},{"type":"Feature","geometry":{"type":"Point","coordinates":[2.2969,51.04289]},"properties":{"latitude":"51.04289","longitude":"2.2969","bright_ti4":"337.4","scan":"0.47","track":"0.48","acq_date":"2026-05-28","acq_time":"241","satellite":"N21","instrument":"VIIRS","confidence":"n","version":"2.0NRT","bright_ti5":"291.93","frp":"6.48","daynight":"N","commune":"Grande-Synthe","code_insee":"59271","departement":"Nord","region":"Hauts-de-France"}},{"type":"Feature","geometry":{"type":"Point","coordinates":[2.32103,51.04625]},"properties":{"latitude":"51.04625","longitude":"2.32103","bright_ti4":"319.19","scan":"0.47","track":"0.48","acq_date":"2026-05-28","acq_time":"241","satellite":"N21","instrument":"VIIRS","confidence":"n","version":"2.0NRT","bright_ti5":"289.3","frp":"3.26","daynight":"N","commune":"Dunkerque","code_insee":"59183","departement":"Nord","region":"Hauts-de-France"}},{"type":"Feature","geometry":{"type":"Point","coordinates":[1.34495,44.11822]},"properties":{"latitude":"44.11822","longitude":"1.34495","bright_ti4":"306.25","scan":"0.34","track":"0.56","acq_date":"2026-05-28","acq_time":"243","satellite":"N21","instrument":"VIIRS","confidence":"n","version":"2.0NRT","bright_ti5":"273.99","frp":"0.66","daynight":"N","commune":"L'Honor-de-Cos","code_insee":"82076","departement":"Tarn-et-Garonne","region":"Occitanie"}},{"type":"Feature","geometry":{"type":"Point","coordinates":[5.68092,48.71489]},"properties":{"latitude":"48.71489","longitude":"5.68092","bright_ti4":"298.37","scan":"0.38","track":"0.59","acq_date":"2026-05-28","acq_time":"243","satellite":"N21","instrument":"VIIRS","confidence":"n","version":"2.0NRT","bright_ti5":"286.01","frp":"0.87","daynight":"N","commune":"Sorcy-Saint-Martin","code_insee":"55496","departement":"Meuse","region":"Grand Est"}},{"type":"Feature","geometry":{"type":"Point","coordinates":[6.05282,48.88518]},"properties":{"latitude":"48.88518","longitude":"6.05282","bright_ti4":"305.55","scan":"0.39","track":"0.59","acq_date":"2026-05-28","acq_time":"243","satellite":"N21","instrument":"VIIRS","confidence":"n","version":"2.0NRT","bright_ti5":"287.57","frp":"1.94","daynight":"N","commune":"Blénod-lès-Pont-à-Mousson","code_insee":"54079","departement":"Meurthe-et-Moselle","region":"Grand Est"}},{"type":"Feature","geometry":{"type":"Point","coordinates":[1.75649,48.9826]},"properties":{"latitude":"48.9826","longitude":"1.75649","bright_ti4":"305.99","scan":"0.51","track":"0.49","acq_date":"2026-05-28","acq_time":"243","satellite":"N21","instrument":"VIIRS","confidence":"n","version":"2.0NRT","bright_ti5":"283.29","frp":"2.98","daynight":"N","commune":"Limay","code_insee":"78335","departement":"Yvelines","region":"Île-de-France"}},{"type":"Feature","geometry":{"type":"Point","coordinates":[0.53292,49.47612]},"properties":{"latitude":"49.47612","longitude":"0.53292","bright_ti4":"307.66","scan":"0.44","track":"0.46","acq_date":"2026-05-28","acq_time":"243","satellite":"N21","instrument":"VIIRS","confidence":"n","version":"2.0NRT","bright_ti5":"291.33","frp":"1.74","daynight":"N","commune":"Lillebonne","code_insee":"76384","departement":"Seine-Maritime","region":"Normandie"}},{"type":"Feature","geometry":{"type":"Point","coordinates":[0.22221,49.48781]},"properties":{"latitude":"49.48781","longitude":"0.22221","bright_ti4":"314.17","scan":"0.43","track":"0.46","acq_date":"2026-05-28","acq_time":"243","satellite":"N21","instrument":"VIIRS","confidence":"n","version":"2.0NRT","bright_ti5":"291.72","frp":"1.19","daynight":"N","commune":"Gonfreville-l'Orcher","code_insee":"76305","departement":"Seine-Maritime","region":"Normandie"}},{"type":"Feature","geometry":{"type":"Point","coordinates":[4.90128,43.44361]},"properties":{"latitude":"43.44361","longitude":"4.90128","bright_ti4":"338.68","scan":"0.39","track":"0.37","acq_date":"2026-05-28","acq_time":"1225","satellite":"N21","instrument":"VIIRS","confidence":"l","version":"2.0NRT","bright_ti5":"312.21","frp":"4.28","daynight":"D","commune":"Fos-sur-Mer","code_insee":"13039","departement":"Bouches-du-Rhône","region":"Provence-Alpes-Côte d'Azur"}},{"type":"Feature","geometry":{"type":"Point","coordinates":[2.83382,50.5498]},"properties":{"latitude":"50.5498","longitude":"2.83382","bright_ti4":"333.5","scan":"0.39","track":"0.36","acq_date":"2026-05-28","acq_time":"1227","satellite":"N21","instrument":"VIIRS","confidence":"n","version":"2.0NRT","bright_ti5":"307.15","frp":"2.07","daynight":"D","commune":"Salomé","code_insee":"59550","departement":"Nord","region":"Hauts-de-France"}},{"type":"Feature","geometry":{"type":"Point","coordinates":[2.28787,51.03729]},"properties":{"latitude":"51.03729","longitude":"2.28787","bright_ti4":"337.32","scan":"0.39","track":"0.36","acq_date":"2026-05-28","acq_time":"1227","satellite":"N21","instrument":"VIIRS","confidence":"l","version":"2.0NRT","bright_ti5":"308.62","frp":"6.67","daynight":"D","commune":"Grande-Synthe","code_insee":"59271","departement":"Nord","region":"Hauts-de-France"}},{"type":"Feature","geometry":{"type":"Point","coordinates":[2.296,51.04556]},"properties":{"latitude":"51.04556","longitude":"2.296","bright_ti4":"345.94","scan":"0.39","track":"0.36","acq_date":"2026-05-28","acq_time":"1227","satellite":"N21","instrument":"VIIRS","confidence":"n","version":"2.0NRT","bright_ti5":"305.96","frp":"8.18","daynight":"D","commune":"Grande-Synthe","code_insee":"59271","departement":"Nord","region":"Hauts-de-France"}},{"type":"Feature","geometry":{"type":"Point","coordinates":[2.31898,51.04588]},"properties":{"latitude":"51.04588","longitude":"2.31898","bright_ti4":"333.56","scan":"0.39","track":"0.36","acq_date":"2026-05-28","acq_time":"1227","satellite":"N21","instrument":"VIIRS","confidence":"l","version":"2.0NRT","bright_ti5":"306.58","frp":"4.95","daynight":"D","commune":"Dunkerque","code_insee":"59183","departement":"Nord","region":"Hauts-de-France"}}]}