{"type":"FeatureCollection","features":[{"type":"Feature","geometry":{"type":"Point","coordinates":[5.00628,43.37691]},"properties":{"latitude":"43.37691","longitude":"5.00628","bright_ti4":"335.74","scan":"0.61","track":"0.71","acq_date":"2026-06-16","acq_time":"39","satellite":"N","instrument":"VIIRS","confidence":"n","version":"2.0NRT","bright_ti5":"289.45","frp":"2.93","daynight":"N","commune":"Martigues","code_insee":"13056","departement":"Bouches-du-Rhône","region":"Provence-Alpes-Côte d'Azur"}},{"type":"Feature","geometry":{"type":"Point","coordinates":[5.00835,43.38061]},"properties":{"latitude":"43.38061","longitude":"5.00835","bright_ti4":"328.21","scan":"0.61","track":"0.71","acq_date":"2026-06-16","acq_time":"39","satellite":"N","instrument":"VIIRS","confidence":"n","version":"2.0NRT","bright_ti5":"290.64","frp":"4.29","daynight":"N","commune":"Martigues","code_insee":"13056","departement":"Bouches-du-Rhône","region":"Provence-Alpes-Côte d'Azur"}},{"type":"Feature","geometry":{"type":"Point","coordinates":[5.0002,43.38071]},"properties":{"latitude":"43.38071","longitude":"5.0002","bright_ti4":"326.29","scan":"0.61","track":"0.71","acq_date":"2026-06-16","acq_time":"39","satellite":"N","instrument":"VIIRS","confidence":"n","version":"2.0NRT","bright_ti5":"289.66","frp":"4.29","daynight":"N","commune":"Martigues","code_insee":"13056","departement":"Bouches-du-Rhône","region":"Provence-Alpes-Côte d'Azur"}},{"type":"Feature","geometry":{"type":"Point","coordinates":[5.00678,43.38359]},"properties":{"latitude":"43.38359","longitude":"5.00678","bright_ti4":"305.31","scan":"0.61","track":"0.71","acq_date":"2026-06-16","acq_time":"39","satellite":"N","instrument":"VIIRS","confidence":"n","version":"2.0NRT","bright_ti5":"290.38","frp":"2.93","daynight":"N","commune":"Martigues","code_insee":"13056","departement":"Bouches-du-Rhône","region":"Provence-Alpes-Côte d'Azur"}},{"type":"Feature","geometry":{"type":"Point","coordinates":[4.89701,43.44477]},"properties":{"latitude":"43.44477","longitude":"4.89701","bright_ti4":"311.92","scan":"0.62","track":"0.71","acq_date":"2026-06-16","acq_time":"39","satellite":"N","instrument":"VIIRS","confidence":"n","version":"2.0NRT","bright_ti5":"289.11","frp":"1.28","daynight":"N","commune":"Fos-sur-Mer","code_insee":"13039","departement":"Bouches-du-Rhône","region":"Provence-Alpes-Côte d'Azur"}},{"type":"Feature","geometry":{"type":"Point","coordinates":[4.88093,43.4449]},"properties":{"latitude":"43.4449","longitude":"4.88093","bright_ti4":"300.16","scan":"0.62","track":"0.71","acq_date":"2026-06-16","acq_time":"39","satellite":"N","instrument":"VIIRS","confidence":"n","version":"2.0NRT","bright_ti5":"289.37","frp":"2.73","daynight":"N","commune":"Fos-sur-Mer","code_insee":"13039","departement":"Bouches-du-Rhône","region":"Provence-Alpes-Côte d'Azur"}},{"type":"Feature","geometry":{"type":"Point","coordinates":[4.87288,43.44498]},"properties":{"latitude":"43.44498","longitude":"4.87288","bright_ti4":"303.64","scan":"0.62","track":"0.71","acq_date":"2026-06-16","acq_time":"39","satellite":"N","instrument":"VIIRS","confidence":"n","version":"2.0NRT","bright_ti5":"288.91","frp":"1.43","daynight":"N","commune":"Fos-sur-Mer","code_insee":"13039","departement":"Bouches-du-Rhône","region":"Provence-Alpes-Côte d'Azur"}},{"type":"Feature","geometry":{"type":"Point","coordinates":[7.37275,43.79403]},"properties":{"latitude":"43.79403","longitude":"7.37275","bright_ti4":"298.65","scan":"0.47","track":"0.64","acq_date":"2026-06-16","acq_time":"39","satellite":"N","instrument":"VIIRS","confidence":"n","version":"2.0NRT","bright_ti5":"287.3","frp":"0.72","daynight":"N","commune":"Blausasc","code_insee":"06019","departement":"Alpes-Maritimes","region":"Provence-Alpes-Côte d'Azur"}},{"type":"Feature","geometry":{"type":"Point","coordinates":[6.77107,43.5178]},"properties":{"latitude":"43.5178","longitude":"6.77107","bright_ti4":"304.08","scan":"0.54","track":"0.51","acq_date":"2026-06-16","acq_time":"219","satellite":"N","instrument":"VIIRS","confidence":"n","version":"2.0NRT","bright_ti5":"287.61","frp":"0.79","daynight":"N","commune":"Fréjus","code_insee":"83061","departement":"Var","region":"Provence-Alpes-Côte d'Azur"}},{"type":"Feature","geometry":{"type":"Point","coordinates":[5.66929,45.23094]},"properties":{"latitude":"45.23094","longitude":"5.66929","bright_ti4":"298.64","scan":"0.44","track":"0.46","acq_date":"2026-06-16","acq_time":"219","satellite":"N","instrument":"VIIRS","confidence":"n","version":"2.0NRT","bright_ti5":"287.55","frp":"0.92","daynight":"N","commune":"Saint-Égrève","code_insee":"38382","departement":"Isère","region":"Auvergne-Rhône-Alpes"}},{"type":"Feature","geometry":{"type":"Point","coordinates":[7.23735,47.63058]},"properties":{"latitude":"47.63058","longitude":"7.23735","bright_ti4":"296.25","scan":"0.44","track":"0.46","acq_date":"2026-06-16","acq_time":"219","satellite":"N","instrument":"VIIRS","confidence":"n","version":"2.0NRT","bright_ti5":"285.62","frp":"1.21","daynight":"N","commune":"Altkirch","code_insee":"68004","departement":"Haut-Rhin","region":"Grand Est"}},{"type":"Feature","geometry":{"type":"Point","coordinates":[5.01333,43.37737]},"properties":{"latitude":"43.37737","longitude":"5.01333","bright_ti4":"338.42","scan":"0.45","track":"0.47","acq_date":"2026-06-16","acq_time":"221","satellite":"N","instrument":"VIIRS","confidence":"n","version":"2.0NRT","bright_ti5":"291.39","frp":"5.32","daynight":"N","commune":"Martigues","code_insee":"13056","departement":"Bouches-du-Rhône","region":"Provence-Alpes-Côte d'Azur"}},{"type":"Feature","geometry":{"type":"Point","coordinates":[5.00797,43.37864]},"properties":{"latitude":"43.37864","longitude":"5.00797","bright_ti4":"301.34","scan":"0.45","track":"0.47","acq_date":"2026-06-16","acq_time":"221","satellite":"N","instrument":"VIIRS","confidence":"n","version":"2.0NRT","bright_ti5":"291.04","frp":"4.22","daynight":"N","commune":"Martigues","code_insee":"13056","departement":"Bouches-du-Rhône","region":"Provence-Alpes-Côte d'Azur"}},{"type":"Feature","geometry":{"type":"Point","coordinates":[4.89195,43.43801]},"properties":{"latitude":"43.43801","longitude":"4.89195","bright_ti4":"303.54","scan":"0.44","track":"0.46","acq_date":"2026-06-16","acq_time":"221","satellite":"N","instrument":"VIIRS","confidence":"n","version":"2.0NRT","bright_ti5":"291.28","frp":"1.11","daynight":"N","commune":"Fos-sur-Mer","code_insee":"13039","departement":"Bouches-du-Rhône","region":"Provence-Alpes-Côte d'Azur"}},{"type":"Feature","geometry":{"type":"Point","coordinates":[4.88664,43.43926]},"properties":{"latitude":"43.43926","longitude":"4.88664","bright_ti4":"303.58","scan":"0.44","track":"0.46","acq_date":"2026-06-16","acq_time":"221","satellite":"N","instrument":"VIIRS","confidence":"n","version":"2.0NRT","bright_ti5":"290.74","frp":"1.11","daynight":"N","commune":"Fos-sur-Mer","code_insee":"13039","departement":"Bouches-du-Rhône","region":"Provence-Alpes-Côte d'Azur"}},{"type":"Feature","geometry":{"type":"Point","coordinates":[4.89915,43.4409]},"properties":{"latitude":"43.4409","longitude":"4.89915","bright_ti4":"303.14","scan":"0.44","track":"0.46","acq_date":"2026-06-16","acq_time":"221","satellite":"N","instrument":"VIIRS","confidence":"n","version":"2.0NRT","bright_ti5":"287.77","frp":"0.52","daynight":"N","commune":"Fos-sur-Mer","code_insee":"13039","departement":"Bouches-du-Rhône","region":"Provence-Alpes-Côte d'Azur"}},{"type":"Feature","geometry":{"type":"Point","coordinates":[4.87598,43.44175]},"properties":{"latitude":"43.44175","longitude":"4.87598","bright_ti4":"309.27","scan":"0.44","track":"0.46","acq_date":"2026-06-16","acq_time":"221","satellite":"N","instrument":"VIIRS","confidence":"n","version":"2.0NRT","bright_ti5":"289.98","frp":"1.97","daynight":"N","commune":"Fos-sur-Mer","code_insee":"13039","departement":"Bouches-du-Rhône","region":"Provence-Alpes-Côte d'Azur"}},{"type":"Feature","geometry":{"type":"Point","coordinates":[4.90123,43.44304]},"properties":{"latitude":"43.44304","longitude":"4.90123","bright_ti4":"300.61","scan":"0.44","track":"0.46","acq_date":"2026-06-16","acq_time":"221","satellite":"N","instrument":"VIIRS","confidence":"n","version":"2.0NRT","bright_ti5":"288.4","frp":"2.34","daynight":"N","commune":"Fos-sur-Mer","code_insee":"13039","departement":"Bouches-du-Rhône","region":"Provence-Alpes-Côte d'Azur"}},{"type":"Feature","geometry":{"type":"Point","coordinates":[4.89589,43.44432]},"properties":{"latitude":"43.44432","longitude":"4.89589","bright_ti4":"313.73","scan":"0.44","track":"0.46","acq_date":"2026-06-16","acq_time":"221","satellite":"N","instrument":"VIIRS","confidence":"n","version":"2.0NRT","bright_ti5":"290.81","frp":"2.34","daynight":"N","commune":"Fos-sur-Mer","code_insee":"13039","departement":"Bouches-du-Rhône","region":"Provence-Alpes-Côte d'Azur"}},{"type":"Feature","geometry":{"type":"Point","coordinates":[4.901,43.44503]},"properties":{"latitude":"43.44503","longitude":"4.901","bright_ti4":"304.75","scan":"0.44","track":"0.46","acq_date":"2026-06-16","acq_time":"221","satellite":"N","instrument":"VIIRS","confidence":"n","version":"2.0NRT","bright_ti5":"289.92","frp":"0.52","daynight":"N","commune":"Fos-sur-Mer","code_insee":"13039","departement":"Bouches-du-Rhône","region":"Provence-Alpes-Côte d'Azur"}},{"type":"Feature","geometry":{"type":"Point","coordinates":[4.89565,43.44627]},"properties":{"latitude":"43.44627","longitude":"4.89565","bright_ti4":"344.94","scan":"0.44","track":"0.46","acq_date":"2026-06-16","acq_time":"221","satellite":"N","instrument":"VIIRS","confidence":"n","version":"2.0NRT","bright_ti5":"291.9","frp":"8.14","daynight":"N","commune":"Fos-sur-Mer","code_insee":"13039","departement":"Bouches-du-Rhône","region":"Provence-Alpes-Côte d'Azur"}},{"type":"Feature","geometry":{"type":"Point","coordinates":[4.89774,43.44844]},"properties":{"latitude":"43.44844","longitude":"4.89774","bright_ti4":"340.9","scan":"0.44","track":"0.46","acq_date":"2026-06-16","acq_time":"221","satellite":"N","instrument":"VIIRS","confidence":"n","version":"2.0NRT","bright_ti5":"292.22","frp":"2.34","daynight":"N","commune":"Fos-sur-Mer","code_insee":"13039","departement":"Bouches-du-Rhône","region":"Provence-Alpes-Côte d'Azur"}},{"type":"Feature","geometry":{"type":"Point","coordinates":[4.89751,43.4504]},"properties":{"latitude":"43.4504","longitude":"4.89751","bright_ti4":"302.22","scan":"0.44","track":"0.46","acq_date":"2026-06-16","acq_time":"221","satellite":"N","instrument":"VIIRS","confidence":"n","version":"2.0NRT","bright_ti5":"289.16","frp":"0.79","daynight":"N","commune":"Fos-sur-Mer","code_insee":"13039","departement":"Bouches-du-Rhône","region":"Provence-Alpes-Côte d'Azur"}},{"type":"Feature","geometry":{"type":"Point","coordinates":[3.34714,43.71173]},"properties":{"latitude":"43.71173","longitude":"3.34714","bright_ti4":"306.98","scan":"0.56","track":"0.43","acq_date":"2026-06-16","acq_time":"221","satellite":"N","instrument":"VIIRS","confidence":"n","version":"2.0NRT","bright_ti5":"289.83","frp":"1.03","daynight":"N","commune":"Soumont","code_insee":"34306","departement":"Hérault","region":"Occitanie"}},{"type":"Feature","geometry":{"type":"Point","coordinates":[2.91845,47.52773]},"properties":{"latitude":"47.52773","longitude":"2.91845","bright_ti4":"329.55","scan":"0.47","track":"0.48","acq_date":"2026-06-16","acq_time":"1206","satellite":"N","instrument":"VIIRS","confidence":"n","version":"2.0NRT","bright_ti5":"281.67","frp":"5.8","daynight":"D","commune":"Annay","code_insee":"58007","departement":"Nièvre","region":"Bourgogne-Franche-Comté"}},{"type":"Feature","geometry":{"type":"Point","coordinates":[2.27429,51.02927]},"properties":{"latitude":"51.02927","longitude":"2.27429","bright_ti4":"335.73","scan":"0.4","track":"0.44","acq_date":"2026-06-16","acq_time":"1208","satellite":"N","instrument":"VIIRS","confidence":"n","version":"2.0NRT","bright_ti5":"299.5","frp":"4.71","daynight":"D","commune":"Grande-Synthe","code_insee":"59271","departement":"Nord","region":"Hauts-de-France"}},{"type":"Feature","geometry":{"type":"Point","coordinates":[2.29078,51.03314]},"properties":{"latitude":"51.03314","longitude":"2.29078","bright_ti4":"336.69","scan":"0.4","track":"0.44","acq_date":"2026-06-16","acq_time":"1208","satellite":"N","instrument":"VIIRS","confidence":"n","version":"2.0NRT","bright_ti5":"300.89","frp":"7.04","daynight":"D","commune":"Grande-Synthe","code_insee":"59271","departement":"Nord","region":"Hauts-de-France"}},{"type":"Feature","geometry":{"type":"Point","coordinates":[2.29712,51.04348]},"properties":{"latitude":"51.04348","longitude":"2.29712","bright_ti4":"342.75","scan":"0.4","track":"0.44","acq_date":"2026-06-16","acq_time":"1208","satellite":"N","instrument":"VIIRS","confidence":"n","version":"2.0NRT","bright_ti5":"299.92","frp":"5.7","daynight":"D","commune":"Grande-Synthe","code_insee":"59271","departement":"Nord","region":"Hauts-de-France"}},{"type":"Feature","geometry":{"type":"Point","coordinates":[5.00839,43.3773]},"properties":{"latitude":"43.3773","longitude":"5.00839","bright_ti4":"304.33","scan":"0.6","track":"0.53","acq_date":"2026-06-16","acq_time":"100","satellite":"N20","instrument":"VIIRS","confidence":"n","version":"2.0NRT","bright_ti5":"289.41","frp":"1.25","daynight":"N","commune":"Martigues","code_insee":"13056","departement":"Bouches-du-Rhône","region":"Provence-Alpes-Côte d'Azur"}},{"type":"Feature","geometry":{"type":"Point","coordinates":[5.0091,43.38221]},"properties":{"latitude":"43.38221","longitude":"5.0091","bright_ti4":"323.54","scan":"0.6","track":"0.53","acq_date":"2026-06-16","acq_time":"100","satellite":"N20","instrument":"VIIRS","confidence":"n","version":"2.0NRT","bright_ti5":"292.23","frp":"3.97","daynight":"N","commune":"Martigues","code_insee":"13056","departement":"Bouches-du-Rhône","region":"Provence-Alpes-Côte d'Azur"}},{"type":"Feature","geometry":{"type":"Point","coordinates":[4.88484,43.44074]},"properties":{"latitude":"43.44074","longitude":"4.88484","bright_ti4":"303.09","scan":"0.61","track":"0.54","acq_date":"2026-06-16","acq_time":"100","satellite":"N20","instrument":"VIIRS","confidence":"n","version":"2.0NRT","bright_ti5":"290.7","frp":"3.48","daynight":"N","commune":"Fos-sur-Mer","code_insee":"13039","departement":"Bouches-du-Rhône","region":"Provence-Alpes-Côte d'Azur"}},{"type":"Feature","geometry":{"type":"Point","coordinates":[4.87719,43.4412]},"properties":{"latitude":"43.4412","longitude":"4.87719","bright_ti4":"299.81","scan":"0.61","track":"0.54","acq_date":"2026-06-16","acq_time":"100","satellite":"N20","instrument":"VIIRS","confidence":"n","version":"2.0NRT","bright_ti5":"289.8","frp":"1.34","daynight":"N","commune":"Fos-sur-Mer","code_insee":"13039","departement":"Bouches-du-Rhône","region":"Provence-Alpes-Côte d'Azur"}},{"type":"Feature","geometry":{"type":"Point","coordinates":[4.90207,43.44373]},"properties":{"latitude":"43.44373","longitude":"4.90207","bright_ti4":"318.11","scan":"0.61","track":"0.53","acq_date":"2026-06-16","acq_time":"100","satellite":"N20","instrument":"VIIRS","confidence":"n","version":"2.0NRT","bright_ti5":"289.45","frp":"3.44","daynight":"N","commune":"Fos-sur-Mer","code_insee":"13039","departement":"Bouches-du-Rhône","region":"Provence-Alpes-Côte d'Azur"}},{"type":"Feature","geometry":{"type":"Point","coordinates":[4.90076,43.44478]},"properties":{"latitude":"43.44478","longitude":"4.90076","bright_ti4":"318.44","scan":"0.61","track":"0.53","acq_date":"2026-06-16","acq_time":"100","satellite":"N20","instrument":"VIIRS","confidence":"n","version":"2.0NRT","bright_ti5":"290.23","frp":"2.27","daynight":"N","commune":"Fos-sur-Mer","code_insee":"13039","departement":"Bouches-du-Rhône","region":"Provence-Alpes-Côte d'Azur"}},{"type":"Feature","geometry":{"type":"Point","coordinates":[4.87913,43.44522]},"properties":{"latitude":"43.44522","longitude":"4.87913","bright_ti4":"312.45","scan":"0.61","track":"0.54","acq_date":"2026-06-16","acq_time":"100","satellite":"N20","instrument":"VIIRS","confidence":"n","version":"2.0NRT","bright_ti5":"290.17","frp":"3.8","daynight":"N","commune":"Fos-sur-Mer","code_insee":"13039","departement":"Bouches-du-Rhône","region":"Provence-Alpes-Côte d'Azur"}},{"type":"Feature","geometry":{"type":"Point","coordinates":[4.87778,43.44615]},"properties":{"latitude":"43.44615","longitude":"4.87778","bright_ti4":"305.04","scan":"0.61","track":"0.54","acq_date":"2026-06-16","acq_time":"100","satellite":"N20","instrument":"VIIRS","confidence":"n","version":"2.0NRT","bright_ti5":"289.24","frp":"0.7","daynight":"N","commune":"Fos-sur-Mer","code_insee":"13039","departement":"Bouches-du-Rhône","region":"Provence-Alpes-Côte d'Azur"}},{"type":"Feature","geometry":{"type":"Point","coordinates":[4.90136,43.44972]},"properties":{"latitude":"43.44972","longitude":"4.90136","bright_ti4":"307.67","scan":"0.61","track":"0.53","acq_date":"2026-06-16","acq_time":"100","satellite":"N20","instrument":"VIIRS","confidence":"n","version":"2.0NRT","bright_ti5":"289.68","frp":"2.27","daynight":"N","commune":"Fos-sur-Mer","code_insee":"13039","departement":"Bouches-du-Rhône","region":"Provence-Alpes-Côte d'Azur"}},{"type":"Feature","geometry":{"type":"Point","coordinates":[4.89371,43.45018]},"properties":{"latitude":"43.45018","longitude":"4.89371","bright_ti4":"316.58","scan":"0.61","track":"0.53","acq_date":"2026-06-16","acq_time":"100","satellite":"N20","instrument":"VIIRS","confidence":"n","version":"2.0NRT","bright_ti5":"289.34","frp":"4.27","daynight":"N","commune":"Fos-sur-Mer","code_insee":"13039","departement":"Bouches-du-Rhône","region":"Provence-Alpes-Côte d'Azur"}},{"type":"Feature","geometry":{"type":"Point","coordinates":[7.37691,43.79304]},"properties":{"latitude":"43.79304","longitude":"7.37691","bright_ti4":"298.6","scan":"0.46","track":"0.47","acq_date":"2026-06-16","acq_time":"100","satellite":"N20","instrument":"VIIRS","confidence":"n","version":"2.0NRT","bright_ti5":"288.32","frp":"1.15","daynight":"N","commune":"Peille","code_insee":"06091","departement":"Alpes-Maritimes","region":"Provence-Alpes-Côte d'Azur"}},{"type":"Feature","geometry":{"type":"Point","coordinates":[5.01572,43.37653]},"properties":{"latitude":"43.37653","longitude":"5.01572","bright_ti4":"350.64","scan":"0.45","track":"0.63","acq_date":"2026-06-16","acq_time":"241","satellite":"N20","instrument":"VIIRS","confidence":"n","version":"2.0NRT","bright_ti5":"289.83","frp":"5.27","daynight":"N","commune":"Martigues","code_insee":"13056","departement":"Bouches-du-Rhône","region":"Provence-Alpes-Côte d'Azur"}},{"type":"Feature","geometry":{"type":"Point","coordinates":[5.01074,43.37803]},"properties":{"latitude":"43.37803","longitude":"5.01074","bright_ti4":"329.38","scan":"0.45","track":"0.63","acq_date":"2026-06-16","acq_time":"241","satellite":"N20","instrument":"VIIRS","confidence":"n","version":"2.0NRT","bright_ti5":"289.92","frp":"5.27","daynight":"N","commune":"Martigues","code_insee":"13056","departement":"Bouches-du-Rhône","region":"Provence-Alpes-Côte d'Azur"}},{"type":"Feature","geometry":{"type":"Point","coordinates":[4.89538,43.43758]},"properties":{"latitude":"43.43758","longitude":"4.89538","bright_ti4":"300.74","scan":"0.44","track":"0.62","acq_date":"2026-06-16","acq_time":"241","satellite":"N20","instrument":"VIIRS","confidence":"n","version":"2.0NRT","bright_ti5":"289.83","frp":"2.17","daynight":"N","commune":"Fos-sur-Mer","code_insee":"13039","departement":"Bouches-du-Rhône","region":"Provence-Alpes-Côte d'Azur"}},{"type":"Feature","geometry":{"type":"Point","coordinates":[4.88027,43.44208]},"properties":{"latitude":"43.44208","longitude":"4.88027","bright_ti4":"300.11","scan":"0.44","track":"0.62","acq_date":"2026-06-16","acq_time":"241","satellite":"N20","instrument":"VIIRS","confidence":"n","version":"2.0NRT","bright_ti5":"289.86","frp":"1.85","daynight":"N","commune":"Fos-sur-Mer","code_insee":"13039","departement":"Bouches-du-Rhône","region":"Provence-Alpes-Côte d'Azur"}},{"type":"Feature","geometry":{"type":"Point","coordinates":[4.89843,43.44291]},"properties":{"latitude":"43.44291","longitude":"4.89843","bright_ti4":"302.87","scan":"0.44","track":"0.62","acq_date":"2026-06-16","acq_time":"241","satellite":"N20","instrument":"VIIRS","confidence":"n","version":"2.0NRT","bright_ti5":"289.04","frp":"1.15","daynight":"N","commune":"Fos-sur-Mer","code_insee":"13039","departement":"Bouches-du-Rhône","region":"Provence-Alpes-Côte d'Azur"}},{"type":"Feature","geometry":{"type":"Point","coordinates":[4.90147,43.44824]},"properties":{"latitude":"43.44824","longitude":"4.90147","bright_ti4":"300.06","scan":"0.44","track":"0.62","acq_date":"2026-06-16","acq_time":"241","satellite":"N20","instrument":"VIIRS","confidence":"n","version":"2.0NRT","bright_ti5":"289.54","frp":"1.15","daynight":"N","commune":"Fos-sur-Mer","code_insee":"13039","departement":"Bouches-du-Rhône","region":"Provence-Alpes-Côte d'Azur"}},{"type":"Feature","geometry":{"type":"Point","coordinates":[4.89639,43.44975]},"properties":{"latitude":"43.44975","longitude":"4.89639","bright_ti4":"317.09","scan":"0.44","track":"0.62","acq_date":"2026-06-16","acq_time":"241","satellite":"N20","instrument":"VIIRS","confidence":"n","version":"2.0NRT","bright_ti5":"288.76","frp":"1.15","daynight":"N","commune":"Fos-sur-Mer","code_insee":"13039","departement":"Bouches-du-Rhône","region":"Provence-Alpes-Côte d'Azur"}},{"type":"Feature","geometry":{"type":"Point","coordinates":[3.34611,43.71355]},"properties":{"latitude":"43.71355","longitude":"3.34611","bright_ti4":"320.12","scan":"0.36","track":"0.58","acq_date":"2026-06-16","acq_time":"241","satellite":"N20","instrument":"VIIRS","confidence":"n","version":"2.0NRT","bright_ti5":"289.24","frp":"1.56","daynight":"N","commune":"Soumont","code_insee":"34306","departement":"Hérault","region":"Occitanie"}},{"type":"Feature","geometry":{"type":"Point","coordinates":[5.66663,45.23074]},"properties":{"latitude":"45.23074","longitude":"5.66663","bright_ti4":"303.56","scan":"0.42","track":"0.61","acq_date":"2026-06-16","acq_time":"241","satellite":"N20","instrument":"VIIRS","confidence":"n","version":"2.0NRT","bright_ti5":"286.82","frp":"0.65","daynight":"N","commune":"Saint-Égrève","code_insee":"38382","departement":"Isère","region":"Auvergne-Rhône-Alpes"}},{"type":"Feature","geometry":{"type":"Point","coordinates":[3.4152,43.41009]},"properties":{"latitude":"43.41009","longitude":"3.4152","bright_ti4":"330.3","scan":"0.47","track":"0.39","acq_date":"2026-06-16","acq_time":"1223","satellite":"N20","instrument":"VIIRS","confidence":"l","version":"2.0NRT","bright_ti5":"302.85","frp":"0.55","daynight":"D","commune":"Saint-Thibéry","code_insee":"34289","departement":"Hérault","region":"Occitanie"}},{"type":"Feature","geometry":{"type":"Point","coordinates":[2.27326,51.02676]},"properties":{"latitude":"51.02676","longitude":"2.27326","bright_ti4":"335.91","scan":"0.4","track":"0.37","acq_date":"2026-06-16","acq_time":"1225","satellite":"N20","instrument":"VIIRS","confidence":"n","version":"2.0NRT","bright_ti5":"302.23","frp":"2.44","daynight":"D","commune":"Grande-Synthe","code_insee":"59271","departement":"Nord","region":"Hauts-de-France"}},{"type":"Feature","geometry":{"type":"Point","coordinates":[2.29679,51.0416]},"properties":{"latitude":"51.0416","longitude":"2.29679","bright_ti4":"331.19","scan":"0.4","track":"0.37","acq_date":"2026-06-16","acq_time":"1225","satellite":"N20","instrument":"VIIRS","confidence":"l","version":"2.0NRT","bright_ti5":"303.37","frp":"4.02","daynight":"D","commune":"Grande-Synthe","code_insee":"59271","departement":"Nord","region":"Hauts-de-France"}},{"type":"Feature","geometry":{"type":"Point","coordinates":[2.29532,51.04489]},"properties":{"latitude":"51.04489","longitude":"2.29532","bright_ti4":"334.59","scan":"0.4","track":"0.37","acq_date":"2026-06-16","acq_time":"1225","satellite":"N20","instrument":"VIIRS","confidence":"n","version":"2.0NRT","bright_ti5":"299.6","frp":"2.63","daynight":"D","commune":"Grande-Synthe","code_insee":"59271","departement":"Nord","region":"Hauts-de-France"}},{"type":"Feature","geometry":{"type":"Point","coordinates":[5.01148,43.37851]},"properties":{"latitude":"43.37851","longitude":"5.01148","bright_ti4":"335.09","scan":"0.4","track":"0.37","acq_date":"2026-06-16","acq_time":"145","satellite":"N21","instrument":"VIIRS","confidence":"n","version":"2.0NRT","bright_ti5":"295.78","frp":"8.4","daynight":"N","commune":"Martigues","code_insee":"13056","departement":"Bouches-du-Rhône","region":"Provence-Alpes-Côte d'Azur"}},{"type":"Feature","geometry":{"type":"Point","coordinates":[4.8972,43.43308]},"properties":{"latitude":"43.43308","longitude":"4.8972","bright_ti4":"302.46","scan":"0.4","track":"0.37","acq_date":"2026-06-16","acq_time":"145","satellite":"N21","instrument":"VIIRS","confidence":"n","version":"2.0NRT","bright_ti5":"291.21","frp":"1.07","daynight":"N","commune":"Fos-sur-Mer","code_insee":"13039","departement":"Bouches-du-Rhône","region":"Provence-Alpes-Côte d'Azur"}},{"type":"Feature","geometry":{"type":"Point","coordinates":[4.8924,43.43391]},"properties":{"latitude":"43.43391","longitude":"4.8924","bright_ti4":"311.13","scan":"0.4","track":"0.37","acq_date":"2026-06-16","acq_time":"145","satellite":"N21","instrument":"VIIRS","confidence":"n","version":"2.0NRT","bright_ti5":"291.46","frp":"1.07","daynight":"N","commune":"Fos-sur-Mer","code_insee":"13039","departement":"Bouches-du-Rhône","region":"Provence-Alpes-Côte d'Azur"}},{"type":"Feature","geometry":{"type":"Point","coordinates":[4.9004,43.44295]},"properties":{"latitude":"43.44295","longitude":"4.9004","bright_ti4":"325.02","scan":"0.4","track":"0.37","acq_date":"2026-06-16","acq_time":"145","satellite":"N21","instrument":"VIIRS","confidence":"n","version":"2.0NRT","bright_ti5":"290.84","frp":"3.32","daynight":"N","commune":"Fos-sur-Mer","code_insee":"13039","departement":"Bouches-du-Rhône","region":"Provence-Alpes-Côte d'Azur"}},{"type":"Feature","geometry":{"type":"Point","coordinates":[4.88014,43.44296]},"properties":{"latitude":"43.44296","longitude":"4.88014","bright_ti4":"323.66","scan":"0.4","track":"0.37","acq_date":"2026-06-16","acq_time":"145","satellite":"N21","instrument":"VIIRS","confidence":"n","version":"2.0NRT","bright_ti5":"293.52","frp":"2.22","daynight":"N","commune":"Fos-sur-Mer","code_insee":"13039","departement":"Bouches-du-Rhône","region":"Provence-Alpes-Côte d'Azur"}},{"type":"Feature","geometry":{"type":"Point","coordinates":[4.89081,43.4446]},"properties":{"latitude":"43.4446","longitude":"4.89081","bright_ti4":"306.16","scan":"0.4","track":"0.37","acq_date":"2026-06-16","acq_time":"145","satellite":"N21","instrument":"VIIRS","confidence":"n","version":"2.0NRT","bright_ti5":"290.97","frp":"1.24","daynight":"N","commune":"Fos-sur-Mer","code_insee":"13039","departement":"Bouches-du-Rhône","region":"Provence-Alpes-Côte d'Azur"}},{"type":"Feature","geometry":{"type":"Point","coordinates":[4.90147,43.44624]},"properties":{"latitude":"43.44624","longitude":"4.90147","bright_ti4":"303.51","scan":"0.4","track":"0.37","acq_date":"2026-06-16","acq_time":"145","satellite":"N21","instrument":"VIIRS","confidence":"n","version":"2.0NRT","bright_ti5":"290.34","frp":"1.83","daynight":"N","commune":"Fos-sur-Mer","code_insee":"13039","departement":"Bouches-du-Rhône","region":"Provence-Alpes-Côte d'Azur"}},{"type":"Feature","geometry":{"type":"Point","coordinates":[4.89667,43.44706]},"properties":{"latitude":"43.44706","longitude":"4.89667","bright_ti4":"328.61","scan":"0.4","track":"0.37","acq_date":"2026-06-16","acq_time":"145","satellite":"N21","instrument":"VIIRS","confidence":"n","version":"2.0NRT","bright_ti5":"293.32","frp":"1.83","daynight":"N","commune":"Fos-sur-Mer","code_insee":"13039","departement":"Bouches-du-Rhône","region":"Provence-Alpes-Côte d'Azur"}},{"type":"Feature","geometry":{"type":"Point","coordinates":[7.37268,43.79524]},"properties":{"latitude":"43.79524","longitude":"7.37268","bright_ti4":"300.86","scan":"0.45","track":"0.39","acq_date":"2026-06-16","acq_time":"145","satellite":"N21","instrument":"VIIRS","confidence":"n","version":"2.0NRT","bright_ti5":"288.85","frp":"0.86","daynight":"N","commune":"Blausasc","code_insee":"06019","departement":"Alpes-Maritimes","region":"Provence-Alpes-Côte d'Azur"}},{"type":"Feature","geometry":{"type":"Point","coordinates":[2.59777,44.29552]},"properties":{"latitude":"44.29552","longitude":"2.59777","bright_ti4":"299.79","scan":"0.39","track":"0.36","acq_date":"2026-06-16","acq_time":"145","satellite":"N21","instrument":"VIIRS","confidence":"n","version":"2.0NRT","bright_ti5":"283.29","frp":"0.59","daynight":"N","commune":"Flavin","code_insee":"12102","departement":"Aveyron","region":"Occitanie"}},{"type":"Feature","geometry":{"type":"Point","coordinates":[5.66905,45.2304]},"properties":{"latitude":"45.2304","longitude":"5.66905","bright_ti4":"304.81","scan":"0.4","track":"0.37","acq_date":"2026-06-16","acq_time":"145","satellite":"N21","instrument":"VIIRS","confidence":"n","version":"2.0NRT","bright_ti5":"289.4","frp":"0.64","daynight":"N","commune":"Saint-Égrève","code_insee":"38382","departement":"Isère","region":"Auvergne-Rhône-Alpes"}},{"type":"Feature","geometry":{"type":"Point","coordinates":[5.42289,45.80313]},"properties":{"latitude":"45.80313","longitude":"5.42289","bright_ti4":"298.13","scan":"0.39","track":"0.36","acq_date":"2026-06-16","acq_time":"145","satellite":"N21","instrument":"VIIRS","confidence":"n","version":"2.0NRT","bright_ti5":"287.88","frp":"0.84","daynight":"N","commune":"Bouvesse-Quirieu","code_insee":"38054","departement":"Isère","region":"Auvergne-Rhône-Alpes"}},{"type":"Feature","geometry":{"type":"Point","coordinates":[5.82179,45.91068]},"properties":{"latitude":"45.91068","longitude":"5.82179","bright_ti4":"301.68","scan":"0.4","track":"0.37","acq_date":"2026-06-16","acq_time":"145","satellite":"N21","instrument":"VIIRS","confidence":"n","version":"2.0NRT","bright_ti5":"288.39","frp":"0.73","daynight":"N","commune":"Anglefort","code_insee":"01010","departement":"Ain","region":"Auvergne-Rhône-Alpes"}},{"type":"Feature","geometry":{"type":"Point","coordinates":[5.55277,47.13539]},"properties":{"latitude":"47.13539","longitude":"5.55277","bright_ti4":"300.3","scan":"0.39","track":"0.36","acq_date":"2026-06-16","acq_time":"145","satellite":"N21","instrument":"VIIRS","confidence":"n","version":"2.0NRT","bright_ti5":"286.52","frp":"0.8","daynight":"N","commune":"Rochefort-sur-Nenon","code_insee":"39462","departement":"Jura","region":"Bourgogne-Franche-Comté"}},{"type":"Feature","geometry":{"type":"Point","coordinates":[5.00949,43.37949]},"properties":{"latitude":"43.37949","longitude":"5.00949","bright_ti4":"337.04","scan":"0.51","track":"0.66","acq_date":"2026-06-16","acq_time":"1130","satellite":"N21","instrument":"VIIRS","confidence":"n","version":"2.0NRT","bright_ti5":"297.57","frp":"6.03","daynight":"D","commune":"Martigues","code_insee":"13056","departement":"Bouches-du-Rhône","region":"Provence-Alpes-Côte d'Azur"}},{"type":"Feature","geometry":{"type":"Point","coordinates":[2.90428,48.31199]},"properties":{"latitude":"48.31199","longitude":"2.90428","bright_ti4":"327.48","scan":"0.44","track":"0.62","acq_date":"2026-06-16","acq_time":"1132","satellite":"N21","instrument":"VIIRS","confidence":"n","version":"2.0NRT","bright_ti5":"284.16","frp":"4.72","daynight":"D","commune":"Dormelles","code_insee":"77161","departement":"Seine-et-Marne","region":"Île-de-France"}},{"type":"Feature","geometry":{"type":"Point","coordinates":[2.26948,51.0297]},"properties":{"latitude":"51.0297","longitude":"2.26948","bright_ti4":"329.68","scan":"0.38","track":"0.58","acq_date":"2026-06-16","acq_time":"1132","satellite":"N21","instrument":"VIIRS","confidence":"n","version":"2.0NRT","bright_ti5":"288.94","frp":"5.49","daynight":"D","commune":"Grande-Synthe","code_insee":"59271","departement":"Nord","region":"Hauts-de-France"}},{"type":"Feature","geometry":{"type":"Point","coordinates":[4.89696,43.44572]},"properties":{"latitude":"43.44572","longitude":"4.89696","bright_ti4":"335.8","scan":"0.52","track":"0.5","acq_date":"2026-06-16","acq_time":"1310","satellite":"N21","instrument":"VIIRS","confidence":"n","version":"2.0NRT","bright_ti5":"289.13","frp":"6.34","daynight":"D","commune":"Fos-sur-Mer","code_insee":"13039","departement":"Bouches-du-Rhône","region":"Provence-Alpes-Côte d'Azur"}},{"type":"Feature","geometry":{"type":"Point","coordinates":[4.89623,43.44622]},"properties":{"latitude":"43.44622","longitude":"4.89623","bright_ti4":"333.82","scan":"0.52","track":"0.5","acq_date":"2026-06-16","acq_time":"1310","satellite":"N21","instrument":"VIIRS","confidence":"n","version":"2.0NRT","bright_ti5":"288.94","frp":"7.39","daynight":"D","commune":"Fos-sur-Mer","code_insee":"13039","departement":"Bouches-du-Rhône","region":"Provence-Alpes-Côte d'Azur"}},{"type":"Feature","geometry":{"type":"Point","coordinates":[0.07584,46.49383]},"properties":{"latitude":"46.49383","longitude":"0.07584","bright_ti4":"335.21","scan":"0.51","track":"0.41","acq_date":"2026-06-16","acq_time":"1312","satellite":"N21","instrument":"VIIRS","confidence":"n","version":"2.0NRT","bright_ti5":"297.69","frp":"292.33","daynight":"D","commune":"Boivre-la-Vallée","code_insee":"86123","departement":"Vienne","region":"Nouvelle-Aquitaine"}},{"type":"Feature","geometry":{"type":"Point","coordinates":[-2.71312,47.65722]},"properties":{"latitude":"47.65722","longitude":"-2.71312","bright_ti4":"336.69","scan":"0.43","track":"0.38","acq_date":"2026-06-16","acq_time":"1312","satellite":"N21","instrument":"VIIRS","confidence":"n","version":"2.0NRT","bright_ti5":"302.59","frp":"4.18","daynight":"D","commune":"Vannes","code_insee":"56260","departement":"Morbihan","region":"Bretagne"}}]}