{"type":"FeatureCollection","features":[{"type":"Feature","geometry":{"type":"Point","coordinates":[4.89624,43.44407]},"properties":{"latitude":"43.44407","longitude":"4.89624","bright_ti4":"300.95","scan":"0.64","track":"0.72","acq_date":"2026-07-14","acq_time":"35","satellite":"N20","instrument":"VIIRS","confidence":"n","version":"2.0NRT","bright_ti5":"285.41","frp":"3.17","daynight":"N","commune":"Fos-sur-Mer","code_insee":"13039","departement":"Bouches-du-Rhône","region":"Provence-Alpes-Côte d'Azur"}},{"type":"Feature","geometry":{"type":"Point","coordinates":[4.88536,49.35651]},"properties":{"latitude":"49.35651","longitude":"4.88536","bright_ti4":"319.7","scan":"0.66","track":"0.73","acq_date":"2026-07-14","acq_time":"35","satellite":"N20","instrument":"VIIRS","confidence":"n","version":"2.0NRT","bright_ti5":"286.22","frp":"3.31","daynight":"N","commune":"Grandpré","code_insee":"08198","departement":"Ardennes","region":"Grand Est"}},{"type":"Feature","geometry":{"type":"Point","coordinates":[8.90701,42.32716]},"properties":{"latitude":"42.32716","longitude":"8.90701","bright_ti4":"355.61","scan":"0.39","track":"0.59","acq_date":"2026-07-14","acq_time":"37","satellite":"N20","instrument":"VIIRS","confidence":"n","version":"2.0NRT","bright_ti5":"291.89","frp":"4.01","daynight":"N","commune":"Albertacce","code_insee":"2B007","departement":"Haute-Corse","region":"Corse"}},{"type":"Feature","geometry":{"type":"Point","coordinates":[8.90331,42.32733]},"properties":{"latitude":"42.32733","longitude":"8.90331","bright_ti4":"310.33","scan":"0.39","track":"0.59","acq_date":"2026-07-14","acq_time":"37","satellite":"N20","instrument":"VIIRS","confidence":"n","version":"2.0NRT","bright_ti5":"287.03","frp":"4.01","daynight":"N","commune":"Albertacce","code_insee":"2B007","departement":"Haute-Corse","region":"Corse"}},{"type":"Feature","geometry":{"type":"Point","coordinates":[8.90565,42.33274]},"properties":{"latitude":"42.33274","longitude":"8.90565","bright_ti4":"330.49","scan":"0.39","track":"0.59","acq_date":"2026-07-14","acq_time":"37","satellite":"N20","instrument":"VIIRS","confidence":"n","version":"2.0NRT","bright_ti5":"292.27","frp":"4.01","daynight":"N","commune":"Albertacce","code_insee":"2B007","departement":"Haute-Corse","region":"Corse"}},{"type":"Feature","geometry":{"type":"Point","coordinates":[-1.03652,48.10858]},"properties":{"latitude":"48.10858","longitude":"-1.03652","bright_ti4":"306.89","scan":"0.38","track":"0.36","acq_date":"2026-07-14","acq_time":"213","satellite":"N20","instrument":"VIIRS","confidence":"n","version":"2.0NRT","bright_ti5":"292.96","frp":"1.1","daynight":"N","commune":"Saint-Pierre-la-Cour","code_insee":"53247","departement":"Mayenne","region":"Pays de la Loire"}},{"type":"Feature","geometry":{"type":"Point","coordinates":[2.54015,48.35477]},"properties":{"latitude":"48.35477","longitude":"2.54015","bright_ti4":"307.94","scan":"0.44","track":"0.38","acq_date":"2026-07-14","acq_time":"213","satellite":"N20","instrument":"VIIRS","confidence":"n","version":"2.0NRT","bright_ti5":"292.85","frp":"1.65","daynight":"N","commune":"Le Vaudoué","code_insee":"77485","departement":"Seine-et-Marne","region":"Île-de-France"}},{"type":"Feature","geometry":{"type":"Point","coordinates":[2.54165,48.35818]},"properties":{"latitude":"48.35818","longitude":"2.54165","bright_ti4":"311.45","scan":"0.44","track":"0.38","acq_date":"2026-07-14","acq_time":"213","satellite":"N20","instrument":"VIIRS","confidence":"n","version":"2.0NRT","bright_ti5":"294.28","frp":"1.4","daynight":"N","commune":"Le Vaudoué","code_insee":"77485","departement":"Seine-et-Marne","region":"Île-de-France"}},{"type":"Feature","geometry":{"type":"Point","coordinates":[2.54885,48.36047]},"properties":{"latitude":"48.36047","longitude":"2.54885","bright_ti4":"307.81","scan":"0.44","track":"0.38","acq_date":"2026-07-14","acq_time":"213","satellite":"N20","instrument":"VIIRS","confidence":"n","version":"2.0NRT","bright_ti5":"289.42","frp":"1.4","daynight":"N","commune":"Achères-la-Forêt","code_insee":"77001","departement":"Seine-et-Marne","region":"Île-de-France"}},{"type":"Feature","geometry":{"type":"Point","coordinates":[2.54315,48.36158]},"properties":{"latitude":"48.36158","longitude":"2.54315","bright_ti4":"304.77","scan":"0.44","track":"0.38","acq_date":"2026-07-14","acq_time":"213","satellite":"N20","instrument":"VIIRS","confidence":"n","version":"2.0NRT","bright_ti5":"291","frp":"1.4","daynight":"N","commune":"Le Vaudoué","code_insee":"77485","departement":"Seine-et-Marne","region":"Île-de-France"}},{"type":"Feature","geometry":{"type":"Point","coordinates":[2.55606,48.36277]},"properties":{"latitude":"48.36277","longitude":"2.55606","bright_ti4":"344.36","scan":"0.44","track":"0.38","acq_date":"2026-07-14","acq_time":"213","satellite":"N20","instrument":"VIIRS","confidence":"n","version":"2.0NRT","bright_ti5":"299.93","frp":"11.48","daynight":"N","commune":"Achères-la-Forêt","code_insee":"77001","departement":"Seine-et-Marne","region":"Île-de-France"}},{"type":"Feature","geometry":{"type":"Point","coordinates":[2.55035,48.36388]},"properties":{"latitude":"48.36388","longitude":"2.55035","bright_ti4":"318.1","scan":"0.44","track":"0.38","acq_date":"2026-07-14","acq_time":"213","satellite":"N20","instrument":"VIIRS","confidence":"n","version":"2.0NRT","bright_ti5":"289.81","frp":"3.65","daynight":"N","commune":"Achères-la-Forêt","code_insee":"77001","departement":"Seine-et-Marne","region":"Île-de-France"}},{"type":"Feature","geometry":{"type":"Point","coordinates":[2.57768,48.36965]},"properties":{"latitude":"48.36965","longitude":"2.57768","bright_ti4":"331.28","scan":"0.44","track":"0.38","acq_date":"2026-07-14","acq_time":"213","satellite":"N20","instrument":"VIIRS","confidence":"n","version":"2.0NRT","bright_ti5":"298.11","frp":"5.16","daynight":"N","commune":"Fontainebleau","code_insee":"77186","departement":"Seine-et-Marne","region":"Île-de-France"}},{"type":"Feature","geometry":{"type":"Point","coordinates":[2.57918,48.37306]},"properties":{"latitude":"48.37306","longitude":"2.57918","bright_ti4":"333.03","scan":"0.44","track":"0.38","acq_date":"2026-07-14","acq_time":"213","satellite":"N20","instrument":"VIIRS","confidence":"n","version":"2.0NRT","bright_ti5":"298.95","frp":"6.53","daynight":"N","commune":"Fontainebleau","code_insee":"77186","departement":"Seine-et-Marne","region":"Île-de-France"}},{"type":"Feature","geometry":{"type":"Point","coordinates":[2.51349,48.37843]},"properties":{"latitude":"48.37843","longitude":"2.51349","bright_ti4":"309.75","scan":"0.44","track":"0.38","acq_date":"2026-07-14","acq_time":"213","satellite":"N20","instrument":"VIIRS","confidence":"n","version":"2.0NRT","bright_ti5":"290.52","frp":"1.76","daynight":"N","commune":"Noisy-sur-École","code_insee":"77339","departement":"Seine-et-Marne","region":"Île-de-France"}},{"type":"Feature","geometry":{"type":"Point","coordinates":[2.50778,48.37953]},"properties":{"latitude":"48.37953","longitude":"2.50778","bright_ti4":"316.81","scan":"0.44","track":"0.38","acq_date":"2026-07-14","acq_time":"213","satellite":"N20","instrument":"VIIRS","confidence":"n","version":"2.0NRT","bright_ti5":"283.41","frp":"1.53","daynight":"N","commune":"Noisy-sur-École","code_insee":"77339","departement":"Seine-et-Marne","region":"Île-de-France"}},{"type":"Feature","geometry":{"type":"Point","coordinates":[2.64655,48.38241]},"properties":{"latitude":"48.38241","longitude":"2.64655","bright_ti4":"339.38","scan":"0.44","track":"0.38","acq_date":"2026-07-14","acq_time":"213","satellite":"N20","instrument":"VIIRS","confidence":"n","version":"2.0NRT","bright_ti5":"299.09","frp":"11.43","daynight":"N","commune":"Fontainebleau","code_insee":"77186","departement":"Seine-et-Marne","region":"Île-de-France"}},{"type":"Feature","geometry":{"type":"Point","coordinates":[2.64077,48.38356]},"properties":{"latitude":"48.38356","longitude":"2.64077","bright_ti4":"329.21","scan":"0.44","track":"0.38","acq_date":"2026-07-14","acq_time":"213","satellite":"N20","instrument":"VIIRS","confidence":"n","version":"2.0NRT","bright_ti5":"284.94","frp":"4.98","daynight":"N","commune":"Fontainebleau","code_insee":"77186","departement":"Seine-et-Marne","region":"Île-de-France"}},{"type":"Feature","geometry":{"type":"Point","coordinates":[2.63499,48.3847]},"properties":{"latitude":"48.3847","longitude":"2.63499","bright_ti4":"310.03","scan":"0.44","track":"0.38","acq_date":"2026-07-14","acq_time":"213","satellite":"N20","instrument":"VIIRS","confidence":"n","version":"2.0NRT","bright_ti5":"281.11","frp":"4.98","daynight":"N","commune":"Fontainebleau","code_insee":"77186","departement":"Seine-et-Marne","region":"Île-de-France"}},{"type":"Feature","geometry":{"type":"Point","coordinates":[2.53503,48.38532]},"properties":{"latitude":"48.38532","longitude":"2.53503","bright_ti4":"311.54","scan":"0.44","track":"0.38","acq_date":"2026-07-14","acq_time":"213","satellite":"N20","instrument":"VIIRS","confidence":"n","version":"2.0NRT","bright_ti5":"288.95","frp":"2.77","daynight":"N","commune":"Noisy-sur-École","code_insee":"77339","departement":"Seine-et-Marne","region":"Île-de-France"}},{"type":"Feature","geometry":{"type":"Point","coordinates":[2.64808,48.38583]},"properties":{"latitude":"48.38583","longitude":"2.64808","bright_ti4":"341.32","scan":"0.44","track":"0.38","acq_date":"2026-07-14","acq_time":"213","satellite":"N20","instrument":"VIIRS","confidence":"n","version":"2.0NRT","bright_ti5":"296.72","frp":"11.43","daynight":"N","commune":"Fontainebleau","code_insee":"77186","departement":"Seine-et-Marne","region":"Île-de-France"}},{"type":"Feature","geometry":{"type":"Point","coordinates":[2.6423,48.38697]},"properties":{"latitude":"48.38697","longitude":"2.6423","bright_ti4":"335.12","scan":"0.44","track":"0.38","acq_date":"2026-07-14","acq_time":"213","satellite":"N20","instrument":"VIIRS","confidence":"n","version":"2.0NRT","bright_ti5":"292.81","frp":"4.98","daynight":"N","commune":"Fontainebleau","code_insee":"77186","departement":"Seine-et-Marne","region":"Île-de-France"}},{"type":"Feature","geometry":{"type":"Point","coordinates":[2.63803,48.39151]},"properties":{"latitude":"48.39151","longitude":"2.63803","bright_ti4":"317.76","scan":"0.44","track":"0.38","acq_date":"2026-07-14","acq_time":"213","satellite":"N20","instrument":"VIIRS","confidence":"n","version":"2.0NRT","bright_ti5":"280.52","frp":"2.09","daynight":"N","commune":"Fontainebleau","code_insee":"77186","departement":"Seine-et-Marne","region":"Île-de-France"}},{"type":"Feature","geometry":{"type":"Point","coordinates":[2.66995,48.39263]},"properties":{"latitude":"48.39263","longitude":"2.66995","bright_ti4":"300.51","scan":"0.44","track":"0.38","acq_date":"2026-07-14","acq_time":"213","satellite":"N20","instrument":"VIIRS","confidence":"n","version":"2.0NRT","bright_ti5":"284.54","frp":"1.53","daynight":"N","commune":"Fontainebleau","code_insee":"77186","departement":"Seine-et-Marne","region":"Île-de-France"}},{"type":"Feature","geometry":{"type":"Point","coordinates":[2.63225,48.39266]},"properties":{"latitude":"48.39266","longitude":"2.63225","bright_ti4":"338.47","scan":"0.44","track":"0.38","acq_date":"2026-07-14","acq_time":"213","satellite":"N20","instrument":"VIIRS","confidence":"n","version":"2.0NRT","bright_ti5":"289.74","frp":"3.79","daynight":"N","commune":"Fontainebleau","code_insee":"77186","departement":"Seine-et-Marne","region":"Île-de-France"}},{"type":"Feature","geometry":{"type":"Point","coordinates":[2.63957,48.39492]},"properties":{"latitude":"48.39492","longitude":"2.63957","bright_ti4":"320.15","scan":"0.44","track":"0.38","acq_date":"2026-07-14","acq_time":"213","satellite":"N20","instrument":"VIIRS","confidence":"n","version":"2.0NRT","bright_ti5":"288.32","frp":"2.09","daynight":"N","commune":"Fontainebleau","code_insee":"77186","departement":"Seine-et-Marne","region":"Île-de-France"}},{"type":"Feature","geometry":{"type":"Point","coordinates":[2.63377,48.39607]},"properties":{"latitude":"48.39607","longitude":"2.63377","bright_ti4":"315.87","scan":"0.44","track":"0.38","acq_date":"2026-07-14","acq_time":"213","satellite":"N20","instrument":"VIIRS","confidence":"n","version":"2.0NRT","bright_ti5":"284.85","frp":"3.79","daynight":"N","commune":"Fontainebleau","code_insee":"77186","departement":"Seine-et-Marne","region":"Île-de-France"}},{"type":"Feature","geometry":{"type":"Point","coordinates":[2.6469,48.39718]},"properties":{"latitude":"48.39718","longitude":"2.6469","bright_ti4":"308.72","scan":"0.44","track":"0.38","acq_date":"2026-07-14","acq_time":"213","satellite":"N20","instrument":"VIIRS","confidence":"n","version":"2.0NRT","bright_ti5":"288.87","frp":"1.29","daynight":"N","commune":"Fontainebleau","code_insee":"77186","departement":"Seine-et-Marne","region":"Île-de-France"}},{"type":"Feature","geometry":{"type":"Point","coordinates":[2.64107,48.39833]},"properties":{"latitude":"48.39833","longitude":"2.64107","bright_ti4":"315.46","scan":"0.44","track":"0.38","acq_date":"2026-07-14","acq_time":"213","satellite":"N20","instrument":"VIIRS","confidence":"n","version":"2.0NRT","bright_ti5":"289.55","frp":"1.29","daynight":"N","commune":"Fontainebleau","code_insee":"77186","departement":"Seine-et-Marne","region":"Île-de-France"}},{"type":"Feature","geometry":{"type":"Point","coordinates":[2.63527,48.39948]},"properties":{"latitude":"48.39948","longitude":"2.63527","bright_ti4":"318.04","scan":"0.44","track":"0.38","acq_date":"2026-07-14","acq_time":"213","satellite":"N20","instrument":"VIIRS","confidence":"n","version":"2.0NRT","bright_ti5":"287.95","frp":"1.92","daynight":"N","commune":"Fontainebleau","code_insee":"77186","departement":"Seine-et-Marne","region":"Île-de-France"}},{"type":"Feature","geometry":{"type":"Point","coordinates":[2.64836,48.4006]},"properties":{"latitude":"48.4006","longitude":"2.64836","bright_ti4":"303.09","scan":"0.44","track":"0.38","acq_date":"2026-07-14","acq_time":"213","satellite":"N20","instrument":"VIIRS","confidence":"n","version":"2.0NRT","bright_ti5":"282.69","frp":"1.29","daynight":"N","commune":"Fontainebleau","code_insee":"77186","departement":"Seine-et-Marne","region":"Île-de-France"}},{"type":"Feature","geometry":{"type":"Point","coordinates":[2.65562,48.40288]},"properties":{"latitude":"48.40288","longitude":"2.65562","bright_ti4":"327.26","scan":"0.44","track":"0.38","acq_date":"2026-07-14","acq_time":"213","satellite":"N20","instrument":"VIIRS","confidence":"n","version":"2.0NRT","bright_ti5":"291.25","frp":"2.73","daynight":"N","commune":"Fontainebleau","code_insee":"77186","departement":"Seine-et-Marne","region":"Île-de-France"}},{"type":"Feature","geometry":{"type":"Point","coordinates":[2.64983,48.40402]},"properties":{"latitude":"48.40402","longitude":"2.64983","bright_ti4":"343.27","scan":"0.44","track":"0.38","acq_date":"2026-07-14","acq_time":"213","satellite":"N20","instrument":"VIIRS","confidence":"n","version":"2.0NRT","bright_ti5":"292.04","frp":"10.97","daynight":"N","commune":"Fontainebleau","code_insee":"77186","departement":"Seine-et-Marne","region":"Île-de-France"}},{"type":"Feature","geometry":{"type":"Point","coordinates":[2.66287,48.40516]},"properties":{"latitude":"48.40516","longitude":"2.66287","bright_ti4":"305.1","scan":"0.44","track":"0.38","acq_date":"2026-07-14","acq_time":"213","satellite":"N20","instrument":"VIIRS","confidence":"n","version":"2.0NRT","bright_ti5":"284.78","frp":"2.73","daynight":"N","commune":"Fontainebleau","code_insee":"77186","departement":"Seine-et-Marne","region":"Île-de-France"}},{"type":"Feature","geometry":{"type":"Point","coordinates":[3.30148,48.75498]},"properties":{"latitude":"48.75498","longitude":"3.30148","bright_ti4":"305.04","scan":"0.45","track":"0.39","acq_date":"2026-07-14","acq_time":"213","satellite":"N20","instrument":"VIIRS","confidence":"n","version":"2.0NRT","bright_ti5":"289.39","frp":"1.45","daynight":"N","commune":"Saint-Mars-Vieux-Maisons","code_insee":"77421","departement":"Seine-et-Marne","region":"Île-de-France"}},{"type":"Feature","geometry":{"type":"Point","coordinates":[3.30308,48.75843]},"properties":{"latitude":"48.75843","longitude":"3.30308","bright_ti4":"329.48","scan":"0.45","track":"0.39","acq_date":"2026-07-14","acq_time":"213","satellite":"N20","instrument":"VIIRS","confidence":"n","version":"2.0NRT","bright_ti5":"290.73","frp":"3.12","daynight":"N","commune":"La Ferté-Gaucher","code_insee":"77182","departement":"Seine-et-Marne","region":"Île-de-France"}},{"type":"Feature","geometry":{"type":"Point","coordinates":[4.88748,49.35205]},"properties":{"latitude":"49.35205","longitude":"4.88748","bright_ti4":"329.02","scan":"0.5","track":"0.41","acq_date":"2026-07-14","acq_time":"213","satellite":"N20","instrument":"VIIRS","confidence":"n","version":"2.0NRT","bright_ti5":"283.89","frp":"4.19","daynight":"N","commune":"Grandpré","code_insee":"08198","departement":"Ardennes","region":"Grand Est"}},{"type":"Feature","geometry":{"type":"Point","coordinates":[1.62652,49.64652]},"properties":{"latitude":"49.64652","longitude":"1.62652","bright_ti4":"299.62","scan":"0.4","track":"0.37","acq_date":"2026-07-14","acq_time":"213","satellite":"N20","instrument":"VIIRS","confidence":"n","version":"2.0NRT","bright_ti5":"270.41","frp":"1.66","daynight":"N","commune":"Gaillefontaine","code_insee":"76295","departement":"Seine-Maritime","region":"Normandie"}},{"type":"Feature","geometry":{"type":"Point","coordinates":[8.90669,42.33109]},"properties":{"latitude":"42.33109","longitude":"8.90669","bright_ti4":"308.82","scan":"0.37","track":"0.58","acq_date":"2026-07-14","acq_time":"215","satellite":"N20","instrument":"VIIRS","confidence":"n","version":"2.0NRT","bright_ti5":"277.6","frp":"1.61","daynight":"N","commune":"Albertacce","code_insee":"2B007","departement":"Haute-Corse","region":"Corse"}},{"type":"Feature","geometry":{"type":"Point","coordinates":[1.0418,42.84357]},"properties":{"latitude":"42.84357","longitude":"1.0418","bright_ti4":"301.56","scan":"0.47","track":"0.4","acq_date":"2026-07-14","acq_time":"215","satellite":"N20","instrument":"VIIRS","confidence":"n","version":"2.0NRT","bright_ti5":"286.6","frp":"0.52","daynight":"N","commune":"Bordes-Uchentein","code_insee":"09062","departement":"Ariège","region":"Occitanie"}},{"type":"Feature","geometry":{"type":"Point","coordinates":[3.75095,44.81746]},"properties":{"latitude":"44.81746","longitude":"3.75095","bright_ti4":"304.76","scan":"0.56","track":"0.43","acq_date":"2026-07-14","acq_time":"215","satellite":"N20","instrument":"VIIRS","confidence":"n","version":"2.0NRT","bright_ti5":"286.39","frp":"1.92","daynight":"N","commune":"Saint Bonnet-Laval","code_insee":"48139","departement":"Lozère","region":"Occitanie"}},{"type":"Feature","geometry":{"type":"Point","coordinates":[3.73926,44.82418]},"properties":{"latitude":"44.82418","longitude":"3.73926","bright_ti4":"297.7","scan":"0.55","track":"0.43","acq_date":"2026-07-14","acq_time":"215","satellite":"N20","instrument":"VIIRS","confidence":"n","version":"2.0NRT","bright_ti5":"286.16","frp":"1.12","daynight":"N","commune":"Saint Bonnet-Laval","code_insee":"48139","departement":"Lozère","region":"Occitanie"}},{"type":"Feature","geometry":{"type":"Point","coordinates":[3.74092,44.82795]},"properties":{"latitude":"44.82795","longitude":"3.74092","bright_ti4":"303.43","scan":"0.55","track":"0.43","acq_date":"2026-07-14","acq_time":"215","satellite":"N20","instrument":"VIIRS","confidence":"n","version":"2.0NRT","bright_ti5":"288.26","frp":"2.39","daynight":"N","commune":"Saint Bonnet-Laval","code_insee":"48139","departement":"Lozère","region":"Occitanie"}},{"type":"Feature","geometry":{"type":"Point","coordinates":[8.91133,42.32019]},"properties":{"latitude":"42.32019","longitude":"8.91133","bright_ti4":"333.41","scan":"0.52","track":"0.42","acq_date":"2026-07-14","acq_time":"1157","satellite":"N20","instrument":"VIIRS","confidence":"n","version":"2.0NRT","bright_ti5":"308.2","frp":"7.28","daynight":"D","commune":"Albertacce","code_insee":"2B007","departement":"Haute-Corse","region":"Corse"}},{"type":"Feature","geometry":{"type":"Point","coordinates":[8.91674,42.32132]},"properties":{"latitude":"42.32132","longitude":"8.91674","bright_ti4":"354.7","scan":"0.52","track":"0.42","acq_date":"2026-07-14","acq_time":"1157","satellite":"N20","instrument":"VIIRS","confidence":"n","version":"2.0NRT","bright_ti5":"311.11","frp":"31.61","daynight":"D","commune":"Albertacce","code_insee":"2B007","departement":"Haute-Corse","region":"Corse"}},{"type":"Feature","geometry":{"type":"Point","coordinates":[8.92212,42.32243]},"properties":{"latitude":"42.32243","longitude":"8.92212","bright_ti4":"353.91","scan":"0.52","track":"0.42","acq_date":"2026-07-14","acq_time":"1157","satellite":"N20","instrument":"VIIRS","confidence":"n","version":"2.0NRT","bright_ti5":"310.16","frp":"31.61","daynight":"D","commune":"Albertacce","code_insee":"2B007","departement":"Haute-Corse","region":"Corse"}},{"type":"Feature","geometry":{"type":"Point","coordinates":[8.92759,42.32357]},"properties":{"latitude":"42.32357","longitude":"8.92759","bright_ti4":"331.98","scan":"0.52","track":"0.41","acq_date":"2026-07-14","acq_time":"1157","satellite":"N20","instrument":"VIIRS","confidence":"n","version":"2.0NRT","bright_ti5":"301.33","frp":"3.13","daynight":"D","commune":"Albertacce","code_insee":"2B007","departement":"Haute-Corse","region":"Corse"}},{"type":"Feature","geometry":{"type":"Point","coordinates":[8.91484,42.32491]},"properties":{"latitude":"42.32491","longitude":"8.91484","bright_ti4":"367","scan":"0.52","track":"0.42","acq_date":"2026-07-14","acq_time":"1157","satellite":"N20","instrument":"VIIRS","confidence":"h","version":"2.0NRT","bright_ti5":"342.3","frp":"107.01","daynight":"D","commune":"Albertacce","code_insee":"2B007","departement":"Haute-Corse","region":"Corse"}},{"type":"Feature","geometry":{"type":"Point","coordinates":[8.92012,42.326]},"properties":{"latitude":"42.326","longitude":"8.92012","bright_ti4":"367","scan":"0.52","track":"0.42","acq_date":"2026-07-14","acq_time":"1157","satellite":"N20","instrument":"VIIRS","confidence":"l","version":"2.0NRT","bright_ti5":"356.02","frp":"107.01","daynight":"D","commune":"Albertacce","code_insee":"2B007","departement":"Haute-Corse","region":"Corse"}},{"type":"Feature","geometry":{"type":"Point","coordinates":[8.92555,42.32712]},"properties":{"latitude":"42.32712","longitude":"8.92555","bright_ti4":"335.25","scan":"0.52","track":"0.41","acq_date":"2026-07-14","acq_time":"1157","satellite":"N20","instrument":"VIIRS","confidence":"n","version":"2.0NRT","bright_ti5":"303.12","frp":"36.8","daynight":"D","commune":"Albertacce","code_insee":"2B007","departement":"Haute-Corse","region":"Corse"}},{"type":"Feature","geometry":{"type":"Point","coordinates":[8.90747,42.32735]},"properties":{"latitude":"42.32735","longitude":"8.90747","bright_ti4":"342.57","scan":"0.52","track":"0.42","acq_date":"2026-07-14","acq_time":"1157","satellite":"N20","instrument":"VIIRS","confidence":"n","version":"2.0NRT","bright_ti5":"312.45","frp":"36.46","daynight":"D","commune":"Albertacce","code_insee":"2B007","departement":"Haute-Corse","region":"Corse"}},{"type":"Feature","geometry":{"type":"Point","coordinates":[8.91287,42.32847]},"properties":{"latitude":"42.32847","longitude":"8.91287","bright_ti4":"352.02","scan":"0.52","track":"0.42","acq_date":"2026-07-14","acq_time":"1157","satellite":"N20","instrument":"VIIRS","confidence":"n","version":"2.0NRT","bright_ti5":"320.85","frp":"107.01","daynight":"D","commune":"Albertacce","code_insee":"2B007","departement":"Haute-Corse","region":"Corse"}},{"type":"Feature","geometry":{"type":"Point","coordinates":[8.91832,42.3296]},"properties":{"latitude":"42.3296","longitude":"8.91832","bright_ti4":"367","scan":"0.52","track":"0.42","acq_date":"2026-07-14","acq_time":"1157","satellite":"N20","instrument":"VIIRS","confidence":"l","version":"2.0NRT","bright_ti5":"327.28","frp":"107.01","daynight":"D","commune":"Albertacce","code_insee":"2B007","departement":"Haute-Corse","region":"Corse"}},{"type":"Feature","geometry":{"type":"Point","coordinates":[8.90566,42.33096]},"properties":{"latitude":"42.33096","longitude":"8.90566","bright_ti4":"338.84","scan":"0.52","track":"0.42","acq_date":"2026-07-14","acq_time":"1157","satellite":"N20","instrument":"VIIRS","confidence":"n","version":"2.0NRT","bright_ti5":"307.52","frp":"10.58","daynight":"D","commune":"Albertacce","code_insee":"2B007","departement":"Haute-Corse","region":"Corse"}},{"type":"Feature","geometry":{"type":"Point","coordinates":[8.91112,42.3321]},"properties":{"latitude":"42.3321","longitude":"8.91112","bright_ti4":"356.18","scan":"0.52","track":"0.42","acq_date":"2026-07-14","acq_time":"1157","satellite":"N20","instrument":"VIIRS","confidence":"n","version":"2.0NRT","bright_ti5":"311.95","frp":"15.15","daynight":"D","commune":"Albertacce","code_insee":"2B007","departement":"Haute-Corse","region":"Corse"}},{"type":"Feature","geometry":{"type":"Point","coordinates":[8.91688,42.33329]},"properties":{"latitude":"42.33329","longitude":"8.91688","bright_ti4":"339.84","scan":"0.52","track":"0.42","acq_date":"2026-07-14","acq_time":"1157","satellite":"N20","instrument":"VIIRS","confidence":"n","version":"2.0NRT","bright_ti5":"306.87","frp":"15.15","daynight":"D","commune":"Albertacce","code_insee":"2B007","departement":"Haute-Corse","region":"Corse"}},{"type":"Feature","geometry":{"type":"Point","coordinates":[4.89827,43.43177]},"properties":{"latitude":"43.43177","longitude":"4.89827","bright_ti4":"330.52","scan":"0.49","track":"0.49","acq_date":"2026-07-14","acq_time":"1200","satellite":"N20","instrument":"VIIRS","confidence":"l","version":"2.0NRT","bright_ti5":"305.46","frp":"6.2","daynight":"D","commune":"Fos-sur-Mer","code_insee":"13039","departement":"Bouches-du-Rhône","region":"Provence-Alpes-Côte d'Azur"}},{"type":"Feature","geometry":{"type":"Point","coordinates":[4.8905,43.43464]},"properties":{"latitude":"43.43464","longitude":"4.8905","bright_ti4":"334.97","scan":"0.5","track":"0.49","acq_date":"2026-07-14","acq_time":"1200","satellite":"N20","instrument":"VIIRS","confidence":"n","version":"2.0NRT","bright_ti5":"304.22","frp":"8.73","daynight":"D","commune":"Fos-sur-Mer","code_insee":"13039","departement":"Bouches-du-Rhône","region":"Provence-Alpes-Côte d'Azur"}},{"type":"Feature","geometry":{"type":"Point","coordinates":[4.89829,43.44606]},"properties":{"latitude":"43.44606","longitude":"4.89829","bright_ti4":"337.05","scan":"0.49","track":"0.49","acq_date":"2026-07-14","acq_time":"1200","satellite":"N20","instrument":"VIIRS","confidence":"n","version":"2.0NRT","bright_ti5":"303.67","frp":"7.53","daynight":"D","commune":"Fos-sur-Mer","code_insee":"13039","departement":"Bouches-du-Rhône","region":"Provence-Alpes-Côte d'Azur"}},{"type":"Feature","geometry":{"type":"Point","coordinates":[-0.63555,44.24347]},"properties":{"latitude":"44.24347","longitude":"-0.63555","bright_ti4":"347.3","scan":"0.43","track":"0.62","acq_date":"2026-07-14","acq_time":"1200","satellite":"N20","instrument":"VIIRS","confidence":"n","version":"2.0NRT","bright_ti5":"295.77","frp":"5.47","daynight":"D","commune":"Sore","code_insee":"40307","departement":"Landes","region":"Nouvelle-Aquitaine"}},{"type":"Feature","geometry":{"type":"Point","coordinates":[1.82291,44.35371]},"properties":{"latitude":"44.35371","longitude":"1.82291","bright_ti4":"336.64","scan":"0.33","track":"0.55","acq_date":"2026-07-14","acq_time":"1200","satellite":"N20","instrument":"VIIRS","confidence":"n","version":"2.0NRT","bright_ti5":"304.19","frp":"2.64","daynight":"D","commune":"Vidaillac","code_insee":"46333","departement":"Lot","region":"Occitanie"}},{"type":"Feature","geometry":{"type":"Point","coordinates":[2.64546,48.37804]},"properties":{"latitude":"48.37804","longitude":"2.64546","bright_ti4":"354.5","scan":"0.46","track":"0.47","acq_date":"2026-07-14","acq_time":"1202","satellite":"N20","instrument":"VIIRS","confidence":"n","version":"2.0NRT","bright_ti5":"277.81","frp":"15.47","daynight":"D","commune":"Fontainebleau","code_insee":"77186","departement":"Seine-et-Marne","region":"Île-de-France"}},{"type":"Feature","geometry":{"type":"Point","coordinates":[2.65129,48.37947]},"properties":{"latitude":"48.37947","longitude":"2.65129","bright_ti4":"347.89","scan":"0.46","track":"0.47","acq_date":"2026-07-14","acq_time":"1202","satellite":"N20","instrument":"VIIRS","confidence":"n","version":"2.0NRT","bright_ti5":"275.42","frp":"8.6","daynight":"D","commune":"Fontainebleau","code_insee":"77186","departement":"Seine-et-Marne","region":"Île-de-France"}},{"type":"Feature","geometry":{"type":"Point","coordinates":[2.64899,48.38358]},"properties":{"latitude":"48.38358","longitude":"2.64899","bright_ti4":"336.6","scan":"0.46","track":"0.47","acq_date":"2026-07-14","acq_time":"1202","satellite":"N20","instrument":"VIIRS","confidence":"n","version":"2.0NRT","bright_ti5":"273.84","frp":"10.61","daynight":"D","commune":"Fontainebleau","code_insee":"77186","departement":"Seine-et-Marne","region":"Île-de-France"}},{"type":"Feature","geometry":{"type":"Point","coordinates":[3.46025,48.51593]},"properties":{"latitude":"48.51593","longitude":"3.46025","bright_ti4":"337.57","scan":"0.43","track":"0.46","acq_date":"2026-07-14","acq_time":"1202","satellite":"N20","instrument":"VIIRS","confidence":"n","version":"2.0NRT","bright_ti5":"279.51","frp":"4.91","daynight":"D","commune":"Saint-Nicolas-la-Chapelle","code_insee":"10355","departement":"Aube","region":"Grand Est"}},{"type":"Feature","geometry":{"type":"Point","coordinates":[3.46575,48.51724]},"properties":{"latitude":"48.51724","longitude":"3.46575","bright_ti4":"335.37","scan":"0.43","track":"0.46","acq_date":"2026-07-14","acq_time":"1202","satellite":"N20","instrument":"VIIRS","confidence":"n","version":"2.0NRT","bright_ti5":"278.53","frp":"3.78","daynight":"D","commune":"Saint-Nicolas-la-Chapelle","code_insee":"10355","departement":"Aube","region":"Grand Est"}},{"type":"Feature","geometry":{"type":"Point","coordinates":[4.46224,49.29104]},"properties":{"latitude":"49.29104","longitude":"4.46224","bright_ti4":"330.6","scan":"0.56","track":"0.43","acq_date":"2026-07-14","acq_time":"1202","satellite":"N20","instrument":"VIIRS","confidence":"l","version":"2.0NRT","bright_ti5":"305.42","frp":"10.9","daynight":"D","commune":"Saint-Pierre-à-Arnes","code_insee":"08393","departement":"Ardennes","region":"Grand Est"}},{"type":"Feature","geometry":{"type":"Point","coordinates":[4.47045,49.29258]},"properties":{"latitude":"49.29258","longitude":"4.47045","bright_ti4":"339.73","scan":"0.56","track":"0.43","acq_date":"2026-07-14","acq_time":"1202","satellite":"N20","instrument":"VIIRS","confidence":"n","version":"2.0NRT","bright_ti5":"308.06","frp":"24.39","daynight":"D","commune":"Saint-Pierre-à-Arnes","code_insee":"08393","departement":"Ardennes","region":"Grand Est"}},{"type":"Feature","geometry":{"type":"Point","coordinates":[4.46961,49.29268]},"properties":{"latitude":"49.29268","longitude":"4.46961","bright_ti4":"345.49","scan":"0.56","track":"0.43","acq_date":"2026-07-14","acq_time":"1202","satellite":"N20","instrument":"VIIRS","confidence":"n","version":"2.0NRT","bright_ti5":"311.51","frp":"29.72","daynight":"D","commune":"Saint-Pierre-à-Arnes","code_insee":"08393","departement":"Ardennes","region":"Grand Est"}},{"type":"Feature","geometry":{"type":"Point","coordinates":[4.46845,49.29634]},"properties":{"latitude":"49.29634","longitude":"4.46845","bright_ti4":"340.78","scan":"0.56","track":"0.43","acq_date":"2026-07-14","acq_time":"1202","satellite":"N20","instrument":"VIIRS","confidence":"n","version":"2.0NRT","bright_ti5":"306.5","frp":"24.39","daynight":"D","commune":"Saint-Pierre-à-Arnes","code_insee":"08393","departement":"Ardennes","region":"Grand Est"}},{"type":"Feature","geometry":{"type":"Point","coordinates":[4.46761,49.29643]},"properties":{"latitude":"49.29643","longitude":"4.46761","bright_ti4":"346.67","scan":"0.56","track":"0.43","acq_date":"2026-07-14","acq_time":"1202","satellite":"N20","instrument":"VIIRS","confidence":"n","version":"2.0NRT","bright_ti5":"306.59","frp":"6.31","daynight":"D","commune":"Saint-Pierre-à-Arnes","code_insee":"08393","departement":"Ardennes","region":"Grand Est"}},{"type":"Feature","geometry":{"type":"Point","coordinates":[4.88968,49.35198]},"properties":{"latitude":"49.35198","longitude":"4.88968","bright_ti4":"337.88","scan":"0.54","track":"0.42","acq_date":"2026-07-14","acq_time":"1202","satellite":"N20","instrument":"VIIRS","confidence":"n","version":"2.0NRT","bright_ti5":"305.28","frp":"5.5","daynight":"D","commune":"Grandpré","code_insee":"08198","departement":"Ardennes","region":"Grand Est"}},{"type":"Feature","geometry":{"type":"Point","coordinates":[3.54224,50.37466]},"properties":{"latitude":"50.37466","longitude":"3.54224","bright_ti4":"339.73","scan":"0.57","track":"0.43","acq_date":"2026-07-14","acq_time":"1202","satellite":"N20","instrument":"VIIRS","confidence":"n","version":"2.0NRT","bright_ti5":"302.27","frp":"3.75","daynight":"D","commune":"Valenciennes","code_insee":"59606","departement":"Nord","region":"Hauts-de-France"}},{"type":"Feature","geometry":{"type":"Point","coordinates":[2.2949,51.0431]},"properties":{"latitude":"51.0431","longitude":"2.2949","bright_ti4":"338.65","scan":"0.41","track":"0.45","acq_date":"2026-07-14","acq_time":"1202","satellite":"N20","instrument":"VIIRS","confidence":"n","version":"2.0NRT","bright_ti5":"303.26","frp":"4.73","daynight":"D","commune":"Grande-Synthe","code_insee":"59271","departement":"Nord","region":"Hauts-de-France"}},{"type":"Feature","geometry":{"type":"Point","coordinates":[2.30041,51.0444]},"properties":{"latitude":"51.0444","longitude":"2.30041","bright_ti4":"342.36","scan":"0.41","track":"0.45","acq_date":"2026-07-14","acq_time":"1202","satellite":"N20","instrument":"VIIRS","confidence":"n","version":"2.0NRT","bright_ti5":"301.97","frp":"5.38","daynight":"D","commune":"Grande-Synthe","code_insee":"59271","departement":"Nord","region":"Hauts-de-France"}},{"type":"Feature","geometry":{"type":"Point","coordinates":[1.04337,42.84288]},"properties":{"latitude":"42.84288","longitude":"1.04337","bright_ti4":"332.74","scan":"0.36","track":"0.57","acq_date":"2026-07-14","acq_time":"1340","satellite":"N20","instrument":"VIIRS","confidence":"n","version":"2.0NRT","bright_ti5":"302.46","frp":"7.34","daynight":"D","commune":"Bordes-Uchentein","code_insee":"09062","departement":"Ariège","region":"Occitanie"}},{"type":"Feature","geometry":{"type":"Point","coordinates":[4.89705,43.44456]},"properties":{"latitude":"43.44456","longitude":"4.89705","bright_ti4":"337.67","scan":"0.57","track":"0.69","acq_date":"2026-07-14","acq_time":"1340","satellite":"N20","instrument":"VIIRS","confidence":"n","version":"2.0NRT","bright_ti5":"298.47","frp":"6.92","daynight":"D","commune":"Fos-sur-Mer","code_insee":"13039","departement":"Bouches-du-Rhône","region":"Provence-Alpes-Côte d'Azur"}},{"type":"Feature","geometry":{"type":"Point","coordinates":[4.89556,43.44553]},"properties":{"latitude":"43.44553","longitude":"4.89556","bright_ti4":"335.61","scan":"0.57","track":"0.69","acq_date":"2026-07-14","acq_time":"1340","satellite":"N20","instrument":"VIIRS","confidence":"n","version":"2.0NRT","bright_ti5":"297.93","frp":"5.48","daynight":"D","commune":"Fos-sur-Mer","code_insee":"13039","departement":"Bouches-du-Rhône","region":"Provence-Alpes-Côte d'Azur"}},{"type":"Feature","geometry":{"type":"Point","coordinates":[-0.63374,44.23877]},"properties":{"latitude":"44.23877","longitude":"-0.63374","bright_ti4":"332.39","scan":"0.6","track":"0.53","acq_date":"2026-07-14","acq_time":"1340","satellite":"N20","instrument":"VIIRS","confidence":"n","version":"2.0NRT","bright_ti5":"301.09","frp":"8.44","daynight":"D","commune":"Sore","code_insee":"40307","departement":"Landes","region":"Nouvelle-Aquitaine"}},{"type":"Feature","geometry":{"type":"Point","coordinates":[-0.63429,44.24369]},"properties":{"latitude":"44.24369","longitude":"-0.63429","bright_ti4":"346.28","scan":"0.6","track":"0.53","acq_date":"2026-07-14","acq_time":"1340","satellite":"N20","instrument":"VIIRS","confidence":"n","version":"2.0NRT","bright_ti5":"300.46","frp":"8.44","daynight":"D","commune":"Sore","code_insee":"40307","departement":"Landes","region":"Nouvelle-Aquitaine"}},{"type":"Feature","geometry":{"type":"Point","coordinates":[2.29551,51.04385]},"properties":{"latitude":"51.04385","longitude":"2.29551","bright_ti4":"331.1","scan":"0.46","track":"0.64","acq_date":"2026-07-14","acq_time":"1342","satellite":"N20","instrument":"VIIRS","confidence":"n","version":"2.0NRT","bright_ti5":"299.83","frp":"3.42","daynight":"D","commune":"Grande-Synthe","code_insee":"59271","departement":"Nord","region":"Hauts-de-France"}},{"type":"Feature","geometry":{"type":"Point","coordinates":[3.75218,44.81742]},"properties":{"latitude":"44.81742","longitude":"3.75218","bright_ti4":"314.31","scan":"0.54","track":"0.42","acq_date":"2026-07-14","acq_time":"120","satellite":"N21","instrument":"VIIRS","confidence":"n","version":"2.0NRT","bright_ti5":"287.19","frp":"3.45","daynight":"N","commune":"Saint Bonnet-Laval","code_insee":"48139","departement":"Lozère","region":"Occitanie"}},{"type":"Feature","geometry":{"type":"Point","coordinates":[3.73999,44.82651]},"properties":{"latitude":"44.82651","longitude":"3.73999","bright_ti4":"301.44","scan":"0.54","track":"0.42","acq_date":"2026-07-14","acq_time":"120","satellite":"N21","instrument":"VIIRS","confidence":"n","version":"2.0NRT","bright_ti5":"286.53","frp":"1.59","daynight":"N","commune":"Saint Bonnet-Laval","code_insee":"48139","departement":"Lozère","region":"Occitanie"}},{"type":"Feature","geometry":{"type":"Point","coordinates":[-0.50115,47.20898]},"properties":{"latitude":"47.20898","longitude":"-0.50115","bright_ti4":"301.52","scan":"0.6","track":"0.53","acq_date":"2026-07-14","acq_time":"120","satellite":"N21","instrument":"VIIRS","confidence":"n","version":"2.0NRT","bright_ti5":"289.59","frp":"0.98","daynight":"N","commune":"Montilliers","code_insee":"49211","departement":"Maine-et-Loire","region":"Pays de la Loire"}},{"type":"Feature","geometry":{"type":"Point","coordinates":[0.69602,48.29282]},"properties":{"latitude":"48.29282","longitude":"0.69602","bright_ti4":"305.23","scan":"0.54","track":"0.51","acq_date":"2026-07-14","acq_time":"120","satellite":"N21","instrument":"VIIRS","confidence":"n","version":"2.0NRT","bright_ti5":"283.4","frp":"1.33","daynight":"N","commune":"Val-au-Perche","code_insee":"61484","departement":"Orne","region":"Normandie"}},{"type":"Feature","geometry":{"type":"Point","coordinates":[2.54146,48.35735]},"properties":{"latitude":"48.35735","longitude":"2.54146","bright_ti4":"308.36","scan":"0.44","track":"0.46","acq_date":"2026-07-14","acq_time":"120","satellite":"N21","instrument":"VIIRS","confidence":"n","version":"2.0NRT","bright_ti5":"293.84","frp":"4.99","daynight":"N","commune":"Le Vaudoué","code_insee":"77485","departement":"Seine-et-Marne","region":"Île-de-France"}},{"type":"Feature","geometry":{"type":"Point","coordinates":[2.55425,48.36066]},"properties":{"latitude":"48.36066","longitude":"2.55425","bright_ti4":"339.01","scan":"0.44","track":"0.46","acq_date":"2026-07-14","acq_time":"120","satellite":"N21","instrument":"VIIRS","confidence":"n","version":"2.0NRT","bright_ti5":"295.49","frp":"6.02","daynight":"N","commune":"Achères-la-Forêt","code_insee":"77001","departement":"Seine-et-Marne","region":"Île-de-France"}},{"type":"Feature","geometry":{"type":"Point","coordinates":[2.54823,48.36114]},"properties":{"latitude":"48.36114","longitude":"2.54823","bright_ti4":"321.02","scan":"0.44","track":"0.46","acq_date":"2026-07-14","acq_time":"120","satellite":"N21","instrument":"VIIRS","confidence":"n","version":"2.0NRT","bright_ti5":"296.26","frp":"6.02","daynight":"N","commune":"Achères-la-Forêt","code_insee":"77001","departement":"Seine-et-Marne","region":"Île-de-France"}},{"type":"Feature","geometry":{"type":"Point","coordinates":[2.57986,48.36728]},"properties":{"latitude":"48.36728","longitude":"2.57986","bright_ti4":"329.9","scan":"0.44","track":"0.46","acq_date":"2026-07-14","acq_time":"120","satellite":"N21","instrument":"VIIRS","confidence":"n","version":"2.0NRT","bright_ti5":"292.74","frp":"5.44","daynight":"N","commune":"Fontainebleau","code_insee":"77186","departement":"Seine-et-Marne","region":"Île-de-France"}},{"type":"Feature","geometry":{"type":"Point","coordinates":[2.5806,48.37153]},"properties":{"latitude":"48.37153","longitude":"2.5806","bright_ti4":"321.29","scan":"0.44","track":"0.46","acq_date":"2026-07-14","acq_time":"120","satellite":"N21","instrument":"VIIRS","confidence":"n","version":"2.0NRT","bright_ti5":"295.33","frp":"3.24","daynight":"N","commune":"Fontainebleau","code_insee":"77186","departement":"Seine-et-Marne","region":"Île-de-France"}},{"type":"Feature","geometry":{"type":"Point","coordinates":[2.5746,48.37201]},"properties":{"latitude":"48.37201","longitude":"2.5746","bright_ti4":"313.84","scan":"0.44","track":"0.46","acq_date":"2026-07-14","acq_time":"120","satellite":"N21","instrument":"VIIRS","confidence":"n","version":"2.0NRT","bright_ti5":"295.93","frp":"3.24","daynight":"N","commune":"Fontainebleau","code_insee":"77186","departement":"Seine-et-Marne","region":"Île-de-France"}},{"type":"Feature","geometry":{"type":"Point","coordinates":[2.51397,48.3768]},"properties":{"latitude":"48.3768","longitude":"2.51397","bright_ti4":"313.25","scan":"0.45","track":"0.47","acq_date":"2026-07-14","acq_time":"120","satellite":"N21","instrument":"VIIRS","confidence":"n","version":"2.0NRT","bright_ti5":"292.82","frp":"2.87","daynight":"N","commune":"Noisy-sur-École","code_insee":"77339","departement":"Seine-et-Marne","region":"Île-de-France"}},{"type":"Feature","geometry":{"type":"Point","coordinates":[2.50795,48.37727]},"properties":{"latitude":"48.37727","longitude":"2.50795","bright_ti4":"331.55","scan":"0.45","track":"0.47","acq_date":"2026-07-14","acq_time":"120","satellite":"N21","instrument":"VIIRS","confidence":"n","version":"2.0NRT","bright_ti5":"293.26","frp":"4.62","daynight":"N","commune":"Noisy-sur-École","code_insee":"77339","departement":"Seine-et-Marne","region":"Île-de-France"}},{"type":"Feature","geometry":{"type":"Point","coordinates":[2.64244,48.37952]},"properties":{"latitude":"48.37952","longitude":"2.64244","bright_ti4":"335.3","scan":"0.44","track":"0.46","acq_date":"2026-07-14","acq_time":"120","satellite":"N21","instrument":"VIIRS","confidence":"n","version":"2.0NRT","bright_ti5":"291.86","frp":"7.57","daynight":"N","commune":"Fontainebleau","code_insee":"77186","departement":"Seine-et-Marne","region":"Île-de-France"}},{"type":"Feature","geometry":{"type":"Point","coordinates":[2.63657,48.37999]},"properties":{"latitude":"48.37999","longitude":"2.63657","bright_ti4":"347.18","scan":"0.44","track":"0.46","acq_date":"2026-07-14","acq_time":"120","satellite":"N21","instrument":"VIIRS","confidence":"n","version":"2.0NRT","bright_ti5":"295.25","frp":"7.57","daynight":"N","commune":"Fontainebleau","code_insee":"77186","departement":"Seine-et-Marne","region":"Île-de-France"}},{"type":"Feature","geometry":{"type":"Point","coordinates":[2.52074,48.38058]},"properties":{"latitude":"48.38058","longitude":"2.52074","bright_ti4":"313.81","scan":"0.45","track":"0.47","acq_date":"2026-07-14","acq_time":"120","satellite":"N21","instrument":"VIIRS","confidence":"n","version":"2.0NRT","bright_ti5":"292.62","frp":"2.87","daynight":"N","commune":"Noisy-sur-École","code_insee":"77339","departement":"Seine-et-Marne","region":"Île-de-France"}},{"type":"Feature","geometry":{"type":"Point","coordinates":[2.51472,48.38107]},"properties":{"latitude":"48.38107","longitude":"2.51472","bright_ti4":"318.73","scan":"0.45","track":"0.47","acq_date":"2026-07-14","acq_time":"120","satellite":"N21","instrument":"VIIRS","confidence":"n","version":"2.0NRT","bright_ti5":"294.24","frp":"2.87","daynight":"N","commune":"Noisy-sur-École","code_insee":"77339","departement":"Seine-et-Marne","region":"Île-de-France"}},{"type":"Feature","geometry":{"type":"Point","coordinates":[2.50869,48.38154]},"properties":{"latitude":"48.38154","longitude":"2.50869","bright_ti4":"313.58","scan":"0.45","track":"0.47","acq_date":"2026-07-14","acq_time":"120","satellite":"N21","instrument":"VIIRS","confidence":"n","version":"2.0NRT","bright_ti5":"291.91","frp":"4.62","daynight":"N","commune":"Noisy-sur-École","code_insee":"77339","departement":"Seine-et-Marne","region":"Île-de-France"}},{"type":"Feature","geometry":{"type":"Point","coordinates":[2.64313,48.38377]},"properties":{"latitude":"48.38377","longitude":"2.64313","bright_ti4":"354.17","scan":"0.44","track":"0.46","acq_date":"2026-07-14","acq_time":"120","satellite":"N21","instrument":"VIIRS","confidence":"n","version":"2.0NRT","bright_ti5":"304.88","frp":"15.04","daynight":"N","commune":"Fontainebleau","code_insee":"77186","departement":"Seine-et-Marne","region":"Île-de-France"}},{"type":"Feature","geometry":{"type":"Point","coordinates":[2.53365,48.38389]},"properties":{"latitude":"48.38389","longitude":"2.53365","bright_ti4":"306.47","scan":"0.45","track":"0.47","acq_date":"2026-07-14","acq_time":"120","satellite":"N21","instrument":"VIIRS","confidence":"n","version":"2.0NRT","bright_ti5":"291.82","frp":"5.68","daynight":"N","commune":"Noisy-sur-École","code_insee":"77339","departement":"Seine-et-Marne","region":"Île-de-France"}},{"type":"Feature","geometry":{"type":"Point","coordinates":[2.6373,48.38424]},"properties":{"latitude":"48.38424","longitude":"2.6373","bright_ti4":"367","scan":"0.44","track":"0.46","acq_date":"2026-07-14","acq_time":"120","satellite":"N21","instrument":"VIIRS","confidence":"h","version":"2.0NRT","bright_ti5":"302.56","frp":"15.04","daynight":"N","commune":"Fontainebleau","code_insee":"77186","departement":"Seine-et-Marne","region":"Île-de-France"}},{"type":"Feature","geometry":{"type":"Point","coordinates":[2.52759,48.38437]},"properties":{"latitude":"48.38437","longitude":"2.52759","bright_ti4":"342.84","scan":"0.45","track":"0.47","acq_date":"2026-07-14","acq_time":"120","satellite":"N21","instrument":"VIIRS","confidence":"n","version":"2.0NRT","bright_ti5":"296.14","frp":"5.68","daynight":"N","commune":"Noisy-sur-École","code_insee":"77339","departement":"Seine-et-Marne","region":"Île-de-France"}},{"type":"Feature","geometry":{"type":"Point","coordinates":[2.63141,48.38471]},"properties":{"latitude":"48.38471","longitude":"2.63141","bright_ti4":"306.72","scan":"0.44","track":"0.46","acq_date":"2026-07-14","acq_time":"120","satellite":"N21","instrument":"VIIRS","confidence":"n","version":"2.0NRT","bright_ti5":"289.97","frp":"3.76","daynight":"N","commune":"Fontainebleau","code_insee":"77186","departement":"Seine-et-Marne","region":"Île-de-France"}},{"type":"Feature","geometry":{"type":"Point","coordinates":[2.52154,48.38485]},"properties":{"latitude":"48.38485","longitude":"2.52154","bright_ti4":"335.86","scan":"0.45","track":"0.47","acq_date":"2026-07-14","acq_time":"120","satellite":"N21","instrument":"VIIRS","confidence":"n","version":"2.0NRT","bright_ti5":"296.19","frp":"8.71","daynight":"N","commune":"Noisy-sur-École","code_insee":"77339","departement":"Seine-et-Marne","region":"Île-de-France"}},{"type":"Feature","geometry":{"type":"Point","coordinates":[2.51548,48.38533]},"properties":{"latitude":"48.38533","longitude":"2.51548","bright_ti4":"347.68","scan":"0.45","track":"0.47","acq_date":"2026-07-14","acq_time":"120","satellite":"N21","instrument":"VIIRS","confidence":"n","version":"2.0NRT","bright_ti5":"295.13","frp":"8.71","daynight":"N","commune":"Noisy-sur-École","code_insee":"77339","departement":"Seine-et-Marne","region":"Île-de-France"}},{"type":"Feature","geometry":{"type":"Point","coordinates":[2.55851,48.38624]},"properties":{"latitude":"48.38624","longitude":"2.55851","bright_ti4":"321.3","scan":"0.44","track":"0.46","acq_date":"2026-07-14","acq_time":"120","satellite":"N21","instrument":"VIIRS","confidence":"n","version":"2.0NRT","bright_ti5":"293.35","frp":"3.46","daynight":"N","commune":"Noisy-sur-École","code_insee":"77339","departement":"Seine-et-Marne","region":"Île-de-France"}},{"type":"Feature","geometry":{"type":"Point","coordinates":[2.55253,48.38671]},"properties":{"latitude":"48.38671","longitude":"2.55253","bright_ti4":"309.62","scan":"0.44","track":"0.46","acq_date":"2026-07-14","acq_time":"120","satellite":"N21","instrument":"VIIRS","confidence":"n","version":"2.0NRT","bright_ti5":"293.13","frp":"3.46","daynight":"N","commune":"Noisy-sur-École","code_insee":"77339","departement":"Seine-et-Marne","region":"Île-de-France"}},{"type":"Feature","geometry":{"type":"Point","coordinates":[2.54657,48.38719]},"properties":{"latitude":"48.38719","longitude":"2.54657","bright_ti4":"314.55","scan":"0.44","track":"0.46","acq_date":"2026-07-14","acq_time":"120","satellite":"N21","instrument":"VIIRS","confidence":"n","version":"2.0NRT","bright_ti5":"293.89","frp":"2.76","daynight":"N","commune":"Noisy-sur-École","code_insee":"77339","departement":"Seine-et-Marne","region":"Île-de-France"}},{"type":"Feature","geometry":{"type":"Point","coordinates":[2.64967,48.38754]},"properties":{"latitude":"48.38754","longitude":"2.64967","bright_ti4":"338.4","scan":"0.44","track":"0.46","acq_date":"2026-07-14","acq_time":"120","satellite":"N21","instrument":"VIIRS","confidence":"n","version":"2.0NRT","bright_ti5":"291.94","frp":"11.38","daynight":"N","commune":"Fontainebleau","code_insee":"77186","departement":"Seine-et-Marne","region":"Île-de-France"}},{"type":"Feature","geometry":{"type":"Point","coordinates":[2.54058,48.38766]},"properties":{"latitude":"48.38766","longitude":"2.54058","bright_ti4":"308.78","scan":"0.45","track":"0.47","acq_date":"2026-07-14","acq_time":"120","satellite":"N21","instrument":"VIIRS","confidence":"n","version":"2.0NRT","bright_ti5":"291.65","frp":"2.76","daynight":"N","commune":"Noisy-sur-École","code_insee":"77339","departement":"Seine-et-Marne","region":"Île-de-France"}},{"type":"Feature","geometry":{"type":"Point","coordinates":[2.64381,48.38802]},"properties":{"latitude":"48.38802","longitude":"2.64381","bright_ti4":"347.44","scan":"0.44","track":"0.46","acq_date":"2026-07-14","acq_time":"120","satellite":"N21","instrument":"VIIRS","confidence":"n","version":"2.0NRT","bright_ti5":"297.92","frp":"15.04","daynight":"N","commune":"Fontainebleau","code_insee":"77186","departement":"Seine-et-Marne","region":"Île-de-France"}},{"type":"Feature","geometry":{"type":"Point","coordinates":[2.638,48.38848]},"properties":{"latitude":"48.38848","longitude":"2.638","bright_ti4":"325.84","scan":"0.44","track":"0.46","acq_date":"2026-07-14","acq_time":"120","satellite":"N21","instrument":"VIIRS","confidence":"n","version":"2.0NRT","bright_ti5":"292.78","frp":"15.04","daynight":"N","commune":"Fontainebleau","code_insee":"77186","departement":"Seine-et-Marne","region":"Île-de-France"}},{"type":"Feature","geometry":{"type":"Point","coordinates":[2.63215,48.38896]},"properties":{"latitude":"48.38896","longitude":"2.63215","bright_ti4":"324.9","scan":"0.44","track":"0.46","acq_date":"2026-07-14","acq_time":"120","satellite":"N21","instrument":"VIIRS","confidence":"n","version":"2.0NRT","bright_ti5":"290.6","frp":"3.76","daynight":"N","commune":"Fontainebleau","code_insee":"77186","departement":"Seine-et-Marne","region":"Île-de-France"}},{"type":"Feature","geometry":{"type":"Point","coordinates":[2.65034,48.39179]},"properties":{"latitude":"48.39179","longitude":"2.65034","bright_ti4":"314.61","scan":"0.44","track":"0.46","acq_date":"2026-07-14","acq_time":"120","satellite":"N21","instrument":"VIIRS","confidence":"n","version":"2.0NRT","bright_ti5":"290.62","frp":"2.01","daynight":"N","commune":"Fontainebleau","code_insee":"77186","departement":"Seine-et-Marne","region":"Île-de-France"}},{"type":"Feature","geometry":{"type":"Point","coordinates":[2.64448,48.39226]},"properties":{"latitude":"48.39226","longitude":"2.64448","bright_ti4":"320.34","scan":"0.44","track":"0.46","acq_date":"2026-07-14","acq_time":"120","satellite":"N21","instrument":"VIIRS","confidence":"n","version":"2.0NRT","bright_ti5":"291.88","frp":"3.92","daynight":"N","commune":"Fontainebleau","code_insee":"77186","departement":"Seine-et-Marne","region":"Île-de-France"}},{"type":"Feature","geometry":{"type":"Point","coordinates":[2.63869,48.39273]},"properties":{"latitude":"48.39273","longitude":"2.63869","bright_ti4":"330.71","scan":"0.44","track":"0.46","acq_date":"2026-07-14","acq_time":"120","satellite":"N21","instrument":"VIIRS","confidence":"n","version":"2.0NRT","bright_ti5":"291.93","frp":"3.92","daynight":"N","commune":"Fontainebleau","code_insee":"77186","departement":"Seine-et-Marne","region":"Île-de-France"}},{"type":"Feature","geometry":{"type":"Point","coordinates":[2.63287,48.3932]},"properties":{"latitude":"48.3932","longitude":"2.63287","bright_ti4":"342.28","scan":"0.44","track":"0.46","acq_date":"2026-07-14","acq_time":"120","satellite":"N21","instrument":"VIIRS","confidence":"n","version":"2.0NRT","bright_ti5":"292.15","frp":"5.48","daynight":"N","commune":"Fontainebleau","code_insee":"77186","departement":"Seine-et-Marne","region":"Île-de-France"}},{"type":"Feature","geometry":{"type":"Point","coordinates":[2.67467,48.39411]},"properties":{"latitude":"48.39411","longitude":"2.67467","bright_ti4":"302.62","scan":"0.44","track":"0.46","acq_date":"2026-07-14","acq_time":"120","satellite":"N21","instrument":"VIIRS","confidence":"n","version":"2.0NRT","bright_ti5":"285.45","frp":"0.87","daynight":"N","commune":"Fontainebleau","code_insee":"77186","departement":"Seine-et-Marne","region":"Île-de-France"}},{"type":"Feature","geometry":{"type":"Point","coordinates":[2.66879,48.39459]},"properties":{"latitude":"48.39459","longitude":"2.66879","bright_ti4":"322.36","scan":"0.44","track":"0.46","acq_date":"2026-07-14","acq_time":"120","satellite":"N21","instrument":"VIIRS","confidence":"n","version":"2.0NRT","bright_ti5":"290.29","frp":"3.09","daynight":"N","commune":"Fontainebleau","code_insee":"77186","departement":"Seine-et-Marne","region":"Île-de-France"}},{"type":"Feature","geometry":{"type":"Point","coordinates":[2.6629,48.39507]},"properties":{"latitude":"48.39507","longitude":"2.6629","bright_ti4":"320.49","scan":"0.44","track":"0.46","acq_date":"2026-07-14","acq_time":"120","satellite":"N21","instrument":"VIIRS","confidence":"n","version":"2.0NRT","bright_ti5":"291.98","frp":"3.09","daynight":"N","commune":"Fontainebleau","code_insee":"77186","departement":"Seine-et-Marne","region":"Île-de-France"}},{"type":"Feature","geometry":{"type":"Point","coordinates":[2.65697,48.39555]},"properties":{"latitude":"48.39555","longitude":"2.65697","bright_ti4":"311.11","scan":"0.44","track":"0.46","acq_date":"2026-07-14","acq_time":"120","satellite":"N21","instrument":"VIIRS","confidence":"n","version":"2.0NRT","bright_ti5":"291.48","frp":"2.01","daynight":"N","commune":"Fontainebleau","code_insee":"77186","departement":"Seine-et-Marne","region":"Île-de-France"}},{"type":"Feature","geometry":{"type":"Point","coordinates":[2.65105,48.39603]},"properties":{"latitude":"48.39603","longitude":"2.65105","bright_ti4":"309.42","scan":"0.44","track":"0.46","acq_date":"2026-07-14","acq_time":"120","satellite":"N21","instrument":"VIIRS","confidence":"n","version":"2.0NRT","bright_ti5":"291.16","frp":"2.01","daynight":"N","commune":"Fontainebleau","code_insee":"77186","departement":"Seine-et-Marne","region":"Île-de-France"}},{"type":"Feature","geometry":{"type":"Point","coordinates":[2.64519,48.39651]},"properties":{"latitude":"48.39651","longitude":"2.64519","bright_ti4":"314.76","scan":"0.44","track":"0.46","acq_date":"2026-07-14","acq_time":"120","satellite":"N21","instrument":"VIIRS","confidence":"n","version":"2.0NRT","bright_ti5":"290.75","frp":"3.92","daynight":"N","commune":"Fontainebleau","code_insee":"77186","departement":"Seine-et-Marne","region":"Île-de-France"}},{"type":"Feature","geometry":{"type":"Point","coordinates":[2.63941,48.39698]},"properties":{"latitude":"48.39698","longitude":"2.63941","bright_ti4":"331.78","scan":"0.44","track":"0.46","acq_date":"2026-07-14","acq_time":"120","satellite":"N21","instrument":"VIIRS","confidence":"n","version":"2.0NRT","bright_ti5":"293.3","frp":"3.92","daynight":"N","commune":"Fontainebleau","code_insee":"77186","departement":"Seine-et-Marne","region":"Île-de-France"}},{"type":"Feature","geometry":{"type":"Point","coordinates":[2.63359,48.39745]},"properties":{"latitude":"48.39745","longitude":"2.63359","bright_ti4":"307.38","scan":"0.44","track":"0.46","acq_date":"2026-07-14","acq_time":"120","satellite":"N21","instrument":"VIIRS","confidence":"n","version":"2.0NRT","bright_ti5":"288.62","frp":"5.48","daynight":"N","commune":"Fontainebleau","code_insee":"77186","departement":"Seine-et-Marne","region":"Île-de-France"}},{"type":"Feature","geometry":{"type":"Point","coordinates":[2.6754,48.39835]},"properties":{"latitude":"48.39835","longitude":"2.6754","bright_ti4":"301.17","scan":"0.44","track":"0.46","acq_date":"2026-07-14","acq_time":"120","satellite":"N21","instrument":"VIIRS","confidence":"n","version":"2.0NRT","bright_ti5":"285.23","frp":"0.97","daynight":"N","commune":"Fontainebleau","code_insee":"77186","departement":"Seine-et-Marne","region":"Île-de-France"}},{"type":"Feature","geometry":{"type":"Point","coordinates":[2.66955,48.39883]},"properties":{"latitude":"48.39883","longitude":"2.66955","bright_ti4":"323.42","scan":"0.44","track":"0.46","acq_date":"2026-07-14","acq_time":"120","satellite":"N21","instrument":"VIIRS","confidence":"n","version":"2.0NRT","bright_ti5":"292.7","frp":"4.04","daynight":"N","commune":"Fontainebleau","code_insee":"77186","departement":"Seine-et-Marne","region":"Île-de-France"}},{"type":"Feature","geometry":{"type":"Point","coordinates":[2.66368,48.3993]},"properties":{"latitude":"48.3993","longitude":"2.66368","bright_ti4":"319.61","scan":"0.44","track":"0.46","acq_date":"2026-07-14","acq_time":"120","satellite":"N21","instrument":"VIIRS","confidence":"n","version":"2.0NRT","bright_ti5":"293.47","frp":"4.04","daynight":"N","commune":"Fontainebleau","code_insee":"77186","departement":"Seine-et-Marne","region":"Île-de-France"}},{"type":"Feature","geometry":{"type":"Point","coordinates":[2.65778,48.39978]},"properties":{"latitude":"48.39978","longitude":"2.65778","bright_ti4":"324.44","scan":"0.44","track":"0.46","acq_date":"2026-07-14","acq_time":"120","satellite":"N21","instrument":"VIIRS","confidence":"n","version":"2.0NRT","bright_ti5":"294.94","frp":"6.15","daynight":"N","commune":"Fontainebleau","code_insee":"77186","departement":"Seine-et-Marne","region":"Île-de-France"}},{"type":"Feature","geometry":{"type":"Point","coordinates":[2.65188,48.40027]},"properties":{"latitude":"48.40027","longitude":"2.65188","bright_ti4":"339.43","scan":"0.44","track":"0.46","acq_date":"2026-07-14","acq_time":"120","satellite":"N21","instrument":"VIIRS","confidence":"n","version":"2.0NRT","bright_ti5":"296.75","frp":"6.15","daynight":"N","commune":"Fontainebleau","code_insee":"77186","departement":"Seine-et-Marne","region":"Île-de-France"}},{"type":"Feature","geometry":{"type":"Point","coordinates":[2.64605,48.40074]},"properties":{"latitude":"48.40074","longitude":"2.64605","bright_ti4":"325.53","scan":"0.44","track":"0.46","acq_date":"2026-07-14","acq_time":"120","satellite":"N21","instrument":"VIIRS","confidence":"n","version":"2.0NRT","bright_ti5":"291.24","frp":"4.41","daynight":"N","commune":"Fontainebleau","code_insee":"77186","departement":"Seine-et-Marne","region":"Île-de-France"}},{"type":"Feature","geometry":{"type":"Point","coordinates":[2.64023,48.40121]},"properties":{"latitude":"48.40121","longitude":"2.64023","bright_ti4":"312.91","scan":"0.44","track":"0.46","acq_date":"2026-07-14","acq_time":"120","satellite":"N21","instrument":"VIIRS","confidence":"n","version":"2.0NRT","bright_ti5":"289.26","frp":"4.41","daynight":"N","commune":"Fontainebleau","code_insee":"77186","departement":"Seine-et-Marne","region":"Île-de-France"}},{"type":"Feature","geometry":{"type":"Point","coordinates":[2.66474,48.40282]},"properties":{"latitude":"48.40282","longitude":"2.66474","bright_ti4":"332.29","scan":"0.44","track":"0.46","acq_date":"2026-07-14","acq_time":"120","satellite":"N21","instrument":"VIIRS","confidence":"n","version":"2.0NRT","bright_ti5":"294.05","frp":"5.75","daynight":"N","commune":"Fontainebleau","code_insee":"77186","departement":"Seine-et-Marne","region":"Île-de-France"}},{"type":"Feature","geometry":{"type":"Point","coordinates":[2.65886,48.40327]},"properties":{"latitude":"48.40327","longitude":"2.65886","bright_ti4":"333.04","scan":"0.44","track":"0.46","acq_date":"2026-07-14","acq_time":"120","satellite":"N21","instrument":"VIIRS","confidence":"n","version":"2.0NRT","bright_ti5":"293.78","frp":"5.75","daynight":"N","commune":"Fontainebleau","code_insee":"77186","departement":"Seine-et-Marne","region":"Île-de-France"}},{"type":"Feature","geometry":{"type":"Point","coordinates":[2.66449,48.40354]},"properties":{"latitude":"48.40354","longitude":"2.66449","bright_ti4":"331.36","scan":"0.44","track":"0.46","acq_date":"2026-07-14","acq_time":"120","satellite":"N21","instrument":"VIIRS","confidence":"n","version":"2.0NRT","bright_ti5":"293.76","frp":"4.04","daynight":"N","commune":"Fontainebleau","code_insee":"77186","departement":"Seine-et-Marne","region":"Île-de-France"}},{"type":"Feature","geometry":{"type":"Point","coordinates":[2.65297,48.40372]},"properties":{"latitude":"48.40372","longitude":"2.65297","bright_ti4":"348.74","scan":"0.44","track":"0.46","acq_date":"2026-07-14","acq_time":"120","satellite":"N21","instrument":"VIIRS","confidence":"n","version":"2.0NRT","bright_ti5":"295.49","frp":"8.05","daynight":"N","commune":"Fontainebleau","code_insee":"77186","departement":"Seine-et-Marne","region":"Île-de-France"}},{"type":"Feature","geometry":{"type":"Point","coordinates":[2.65862,48.40402]},"properties":{"latitude":"48.40402","longitude":"2.65862","bright_ti4":"330.55","scan":"0.44","track":"0.46","acq_date":"2026-07-14","acq_time":"120","satellite":"N21","instrument":"VIIRS","confidence":"n","version":"2.0NRT","bright_ti5":"293.18","frp":"6.15","daynight":"N","commune":"Fontainebleau","code_insee":"77186","departement":"Seine-et-Marne","region":"Île-de-France"}},{"type":"Feature","geometry":{"type":"Point","coordinates":[2.64714,48.40417]},"properties":{"latitude":"48.40417","longitude":"2.64714","bright_ti4":"310.29","scan":"0.44","track":"0.46","acq_date":"2026-07-14","acq_time":"120","satellite":"N21","instrument":"VIIRS","confidence":"n","version":"2.0NRT","bright_ti5":"288.55","frp":"8.05","daynight":"N","commune":"Fontainebleau","code_insee":"77186","departement":"Seine-et-Marne","region":"Île-de-France"}},{"type":"Feature","geometry":{"type":"Point","coordinates":[2.65274,48.4045]},"properties":{"latitude":"48.4045","longitude":"2.65274","bright_ti4":"346.27","scan":"0.44","track":"0.46","acq_date":"2026-07-14","acq_time":"120","satellite":"N21","instrument":"VIIRS","confidence":"n","version":"2.0NRT","bright_ti5":"293.05","frp":"6.15","daynight":"N","commune":"Fontainebleau","code_insee":"77186","departement":"Seine-et-Marne","region":"Île-de-France"}},{"type":"Feature","geometry":{"type":"Point","coordinates":[6.96805,48.6912]},"properties":{"latitude":"48.6912","longitude":"6.96805","bright_ti4":"304.33","scan":"0.45","track":"0.39","acq_date":"2026-07-14","acq_time":"120","satellite":"N21","instrument":"VIIRS","confidence":"n","version":"2.0NRT","bright_ti5":"288.32","frp":"1.04","daynight":"N","commune":"Héming","code_insee":"57314","departement":"Moselle","region":"Grand Est"}},{"type":"Feature","geometry":{"type":"Point","coordinates":[4.89094,49.35117]},"properties":{"latitude":"49.35117","longitude":"4.89094","bright_ti4":"312.03","scan":"0.55","track":"0.42","acq_date":"2026-07-14","acq_time":"120","satellite":"N21","instrument":"VIIRS","confidence":"n","version":"2.0NRT","bright_ti5":"289.67","frp":"3.77","daynight":"N","commune":"Grandpré","code_insee":"08198","departement":"Ardennes","region":"Grand Est"}},{"type":"Feature","geometry":{"type":"Point","coordinates":[4.88339,49.35189]},"properties":{"latitude":"49.35189","longitude":"4.88339","bright_ti4":"327.57","scan":"0.55","track":"0.42","acq_date":"2026-07-14","acq_time":"120","satellite":"N21","instrument":"VIIRS","confidence":"n","version":"2.0NRT","bright_ti5":"289.88","frp":"4.59","daynight":"N","commune":"Grandpré","code_insee":"08198","departement":"Ardennes","region":"Grand Est"}},{"type":"Feature","geometry":{"type":"Point","coordinates":[2.29031,51.03421]},"properties":{"latitude":"51.03421","longitude":"2.29031","bright_ti4":"296.53","scan":"0.49","track":"0.48","acq_date":"2026-07-14","acq_time":"120","satellite":"N21","instrument":"VIIRS","confidence":"n","version":"2.0NRT","bright_ti5":"281.24","frp":"1.55","daynight":"N","commune":"Grande-Synthe","code_insee":"59271","departement":"Nord","region":"Hauts-de-France"}},{"type":"Feature","geometry":{"type":"Point","coordinates":[2.28337,51.03468]},"properties":{"latitude":"51.03468","longitude":"2.28337","bright_ti4":"301.66","scan":"0.49","track":"0.48","acq_date":"2026-07-14","acq_time":"120","satellite":"N21","instrument":"VIIRS","confidence":"n","version":"2.0NRT","bright_ti5":"281.39","frp":"1.55","daynight":"N","commune":"Grande-Synthe","code_insee":"59271","departement":"Nord","region":"Hauts-de-France"}},{"type":"Feature","geometry":{"type":"Point","coordinates":[2.29177,51.04309]},"properties":{"latitude":"51.04309","longitude":"2.29177","bright_ti4":"299.92","scan":"0.49","track":"0.48","acq_date":"2026-07-14","acq_time":"120","satellite":"N21","instrument":"VIIRS","confidence":"n","version":"2.0NRT","bright_ti5":"280.99","frp":"1.43","daynight":"N","commune":"Grande-Synthe","code_insee":"59271","departement":"Nord","region":"Hauts-de-France"}},{"type":"Feature","geometry":{"type":"Point","coordinates":[2.29946,51.04707]},"properties":{"latitude":"51.04707","longitude":"2.29946","bright_ti4":"302.28","scan":"0.49","track":"0.48","acq_date":"2026-07-14","acq_time":"120","satellite":"N21","instrument":"VIIRS","confidence":"n","version":"2.0NRT","bright_ti5":"281.42","frp":"1.24","daynight":"N","commune":"Grande-Synthe","code_insee":"59271","departement":"Nord","region":"Hauts-de-France"}},{"type":"Feature","geometry":{"type":"Point","coordinates":[2.29249,51.04754]},"properties":{"latitude":"51.04754","longitude":"2.29249","bright_ti4":"299.16","scan":"0.49","track":"0.48","acq_date":"2026-07-14","acq_time":"120","satellite":"N21","instrument":"VIIRS","confidence":"n","version":"2.0NRT","bright_ti5":"282.1","frp":"1.48","daynight":"N","commune":"Grande-Synthe","code_insee":"59271","departement":"Nord","region":"Hauts-de-France"}},{"type":"Feature","geometry":{"type":"Point","coordinates":[9.08914,42.282]},"properties":{"latitude":"42.282","longitude":"9.08914","bright_ti4":"303.61","scan":"0.38","track":"0.36","acq_date":"2026-07-14","acq_time":"122","satellite":"N21","instrument":"VIIRS","confidence":"n","version":"2.0NRT","bright_ti5":"287.02","frp":"0.27","daynight":"N","commune":"Corte","code_insee":"2B096","departement":"Haute-Corse","region":"Corse"}},{"type":"Feature","geometry":{"type":"Point","coordinates":[9.09007,42.28525]},"properties":{"latitude":"42.28525","longitude":"9.09007","bright_ti4":"299.46","scan":"0.38","track":"0.36","acq_date":"2026-07-14","acq_time":"122","satellite":"N21","instrument":"VIIRS","confidence":"n","version":"2.0NRT","bright_ti5":"286.71","frp":"0.27","daynight":"N","commune":"Corte","code_insee":"2B096","departement":"Haute-Corse","region":"Corse"}},{"type":"Feature","geometry":{"type":"Point","coordinates":[8.90613,42.32753]},"properties":{"latitude":"42.32753","longitude":"8.90613","bright_ti4":"331.77","scan":"0.38","track":"0.36","acq_date":"2026-07-14","acq_time":"122","satellite":"N21","instrument":"VIIRS","confidence":"n","version":"2.0NRT","bright_ti5":"302.68","frp":"13.4","daynight":"N","commune":"Albertacce","code_insee":"2B007","departement":"Haute-Corse","region":"Corse"}},{"type":"Feature","geometry":{"type":"Point","coordinates":[8.90156,42.32824]},"properties":{"latitude":"42.32824","longitude":"8.90156","bright_ti4":"327.32","scan":"0.38","track":"0.36","acq_date":"2026-07-14","acq_time":"122","satellite":"N21","instrument":"VIIRS","confidence":"n","version":"2.0NRT","bright_ti5":"293.15","frp":"13.4","daynight":"N","commune":"Albertacce","code_insee":"2B007","departement":"Haute-Corse","region":"Corse"}},{"type":"Feature","geometry":{"type":"Point","coordinates":[-1.03661,48.10645]},"properties":{"latitude":"48.10645","longitude":"-1.03661","bright_ti4":"304.3","scan":"0.33","track":"0.55","acq_date":"2026-07-14","acq_time":"300","satellite":"N21","instrument":"VIIRS","confidence":"n","version":"2.0NRT","bright_ti5":"290.81","frp":"0.69","daynight":"N","commune":"Saint-Pierre-la-Cour","code_insee":"53247","departement":"Mayenne","region":"Pays de la Loire"}},{"type":"Feature","geometry":{"type":"Point","coordinates":[2.55564,48.36292]},"properties":{"latitude":"48.36292","longitude":"2.55564","bright_ti4":"315.51","scan":"0.46","track":"0.64","acq_date":"2026-07-14","acq_time":"300","satellite":"N21","instrument":"VIIRS","confidence":"n","version":"2.0NRT","bright_ti5":"288","frp":"7.92","daynight":"N","commune":"Achères-la-Forêt","code_insee":"77001","departement":"Seine-et-Marne","region":"Île-de-France"}},{"type":"Feature","geometry":{"type":"Point","coordinates":[2.63195,48.39074]},"properties":{"latitude":"48.39074","longitude":"2.63195","bright_ti4":"314.65","scan":"0.47","track":"0.64","acq_date":"2026-07-14","acq_time":"300","satellite":"N21","instrument":"VIIRS","confidence":"n","version":"2.0NRT","bright_ti5":"277.73","frp":"2.79","daynight":"N","commune":"Fontainebleau","code_insee":"77186","departement":"Seine-et-Marne","region":"Île-de-France"}},{"type":"Feature","geometry":{"type":"Point","coordinates":[2.6307,48.39142]},"properties":{"latitude":"48.39142","longitude":"2.6307","bright_ti4":"304.53","scan":"0.47","track":"0.64","acq_date":"2026-07-14","acq_time":"300","satellite":"N21","instrument":"VIIRS","confidence":"n","version":"2.0NRT","bright_ti5":"277.26","frp":"2.87","daynight":"N","commune":"Fontainebleau","code_insee":"77186","departement":"Seine-et-Marne","region":"Île-de-France"}},{"type":"Feature","geometry":{"type":"Point","coordinates":[3.29624,48.75491]},"properties":{"latitude":"48.75491","longitude":"3.29624","bright_ti4":"295.23","scan":"0.48","track":"0.65","acq_date":"2026-07-14","acq_time":"300","satellite":"N21","instrument":"VIIRS","confidence":"n","version":"2.0NRT","bright_ti5":"257.74","frp":"1.51","daynight":"N","commune":"Saint-Mars-Vieux-Maisons","code_insee":"77421","departement":"Seine-et-Marne","region":"Île-de-France"}},{"type":"Feature","geometry":{"type":"Point","coordinates":[4.89017,49.35396]},"properties":{"latitude":"49.35396","longitude":"4.89017","bright_ti4":"297.65","scan":"0.53","track":"0.67","acq_date":"2026-07-14","acq_time":"300","satellite":"N21","instrument":"VIIRS","confidence":"n","version":"2.0NRT","bright_ti5":"280.58","frp":"0.79","daynight":"N","commune":"Grandpré","code_insee":"08198","departement":"Ardennes","region":"Grand Est"}},{"type":"Feature","geometry":{"type":"Point","coordinates":[3.40543,50.38597]},"properties":{"latitude":"50.38597","longitude":"3.40543","bright_ti4":"298.87","scan":"0.43","track":"0.62","acq_date":"2026-07-14","acq_time":"300","satellite":"N21","instrument":"VIIRS","confidence":"n","version":"2.0NRT","bright_ti5":"286.07","frp":"0.35","daynight":"N","commune":"Wallers","code_insee":"59632","departement":"Nord","region":"Hauts-de-France"}},{"type":"Feature","geometry":{"type":"Point","coordinates":[3.40813,50.38671]},"properties":{"latitude":"50.38671","longitude":"3.40813","bright_ti4":"297.55","scan":"0.43","track":"0.62","acq_date":"2026-07-14","acq_time":"300","satellite":"N21","instrument":"VIIRS","confidence":"n","version":"2.0NRT","bright_ti5":"285.79","frp":"0.54","daynight":"N","commune":"Wallers","code_insee":"59632","departement":"Nord","region":"Hauts-de-France"}},{"type":"Feature","geometry":{"type":"Point","coordinates":[1.04392,42.84172]},"properties":{"latitude":"42.84172","longitude":"1.04392","bright_ti4":"301.23","scan":"0.61","track":"0.71","acq_date":"2026-07-14","acq_time":"302","satellite":"N21","instrument":"VIIRS","confidence":"n","version":"2.0NRT","bright_ti5":"286.85","frp":"1.36","daynight":"N","commune":"Bordes-Uchentein","code_insee":"09062","departement":"Ariège","region":"Occitanie"}},{"type":"Feature","geometry":{"type":"Point","coordinates":[9.08453,42.28417]},"properties":{"latitude":"42.28417","longitude":"9.08453","bright_ti4":"330.75","scan":"0.7","track":"0.75","acq_date":"2026-07-14","acq_time":"1104","satellite":"N21","instrument":"VIIRS","confidence":"n","version":"2.0NRT","bright_ti5":"300.48","frp":"5.75","daynight":"D","commune":"Corte","code_insee":"2B096","departement":"Haute-Corse","region":"Corse"}},{"type":"Feature","geometry":{"type":"Point","coordinates":[8.91532,42.32796]},"properties":{"latitude":"42.32796","longitude":"8.91532","bright_ti4":"342.88","scan":"0.71","track":"0.75","acq_date":"2026-07-14","acq_time":"1104","satellite":"N21","instrument":"VIIRS","confidence":"n","version":"2.0NRT","bright_ti5":"304.7","frp":"87.13","daynight":"D","commune":"Albertacce","code_insee":"2B007","departement":"Haute-Corse","region":"Corse"}},{"type":"Feature","geometry":{"type":"Point","coordinates":[8.92051,42.32973]},"properties":{"latitude":"42.32973","longitude":"8.92051","bright_ti4":"367","scan":"0.71","track":"0.75","acq_date":"2026-07-14","acq_time":"1104","satellite":"N21","instrument":"VIIRS","confidence":"h","version":"2.0NRT","bright_ti5":"307.78","frp":"87.13","daynight":"D","commune":"Albertacce","code_insee":"2B007","departement":"Haute-Corse","region":"Corse"}},{"type":"Feature","geometry":{"type":"Point","coordinates":[8.90521,42.33213]},"properties":{"latitude":"42.33213","longitude":"8.90521","bright_ti4":"353.78","scan":"0.71","track":"0.75","acq_date":"2026-07-14","acq_time":"1104","satellite":"N21","instrument":"VIIRS","confidence":"n","version":"2.0NRT","bright_ti5":"302.29","frp":"27.91","daynight":"D","commune":"Albertacce","code_insee":"2B007","departement":"Haute-Corse","region":"Corse"}},{"type":"Feature","geometry":{"type":"Point","coordinates":[8.91053,42.33394]},"properties":{"latitude":"42.33394","longitude":"8.91053","bright_ti4":"367","scan":"0.71","track":"0.75","acq_date":"2026-07-14","acq_time":"1104","satellite":"N21","instrument":"VIIRS","confidence":"h","version":"2.0NRT","bright_ti5":"304.49","frp":"27.01","daynight":"D","commune":"Albertacce","code_insee":"2B007","departement":"Haute-Corse","region":"Corse"}},{"type":"Feature","geometry":{"type":"Point","coordinates":[8.91774,42.3364]},"properties":{"latitude":"42.3364","longitude":"8.91774","bright_ti4":"344.09","scan":"0.71","track":"0.75","acq_date":"2026-07-14","acq_time":"1104","satellite":"N21","instrument":"VIIRS","confidence":"n","version":"2.0NRT","bright_ti5":"300.64","frp":"27.01","daynight":"D","commune":"Albertacce","code_insee":"2B007","departement":"Haute-Corse","region":"Corse"}},{"type":"Feature","geometry":{"type":"Point","coordinates":[9.0904,42.28144]},"properties":{"latitude":"42.28144","longitude":"9.0904","bright_ti4":"341.36","scan":"0.4","track":"0.44","acq_date":"2026-07-14","acq_time":"1246","satellite":"N21","instrument":"VIIRS","confidence":"n","version":"2.0NRT","bright_ti5":"308.31","frp":"7.7","daynight":"D","commune":"Corte","code_insee":"2B096","departement":"Haute-Corse","region":"Corse"}},{"type":"Feature","geometry":{"type":"Point","coordinates":[8.91126,42.32243]},"properties":{"latitude":"42.32243","longitude":"8.91126","bright_ti4":"340.14","scan":"0.4","track":"0.44","acq_date":"2026-07-14","acq_time":"1246","satellite":"N21","instrument":"VIIRS","confidence":"n","version":"2.0NRT","bright_ti5":"306.15","frp":"23.77","daynight":"D","commune":"Albertacce","code_insee":"2B007","departement":"Haute-Corse","region":"Corse"}},{"type":"Feature","geometry":{"type":"Point","coordinates":[8.91692,42.32295]},"properties":{"latitude":"42.32295","longitude":"8.91692","bright_ti4":"351.03","scan":"0.4","track":"0.44","acq_date":"2026-07-14","acq_time":"1246","satellite":"N21","instrument":"VIIRS","confidence":"n","version":"2.0NRT","bright_ti5":"315.64","frp":"23.77","daynight":"D","commune":"Albertacce","code_insee":"2B007","departement":"Haute-Corse","region":"Corse"}},{"type":"Feature","geometry":{"type":"Point","coordinates":[8.92256,42.32347]},"properties":{"latitude":"42.32347","longitude":"8.92256","bright_ti4":"351.96","scan":"0.4","track":"0.44","acq_date":"2026-07-14","acq_time":"1246","satellite":"N21","instrument":"VIIRS","confidence":"n","version":"2.0NRT","bright_ti5":"313.29","frp":"32.86","daynight":"D","commune":"Albertacce","code_insee":"2B007","departement":"Haute-Corse","region":"Corse"}},{"type":"Feature","geometry":{"type":"Point","coordinates":[8.92802,42.32398]},"properties":{"latitude":"42.32398","longitude":"8.92802","bright_ti4":"345.07","scan":"0.4","track":"0.44","acq_date":"2026-07-14","acq_time":"1246","satellite":"N21","instrument":"VIIRS","confidence":"n","version":"2.0NRT","bright_ti5":"303.48","frp":"32.86","daynight":"D","commune":"Albertacce","code_insee":"2B007","departement":"Haute-Corse","region":"Corse"}},{"type":"Feature","geometry":{"type":"Point","coordinates":[8.91185,42.32657]},"properties":{"latitude":"42.32657","longitude":"8.91185","bright_ti4":"352.16","scan":"0.4","track":"0.44","acq_date":"2026-07-14","acq_time":"1246","satellite":"N21","instrument":"VIIRS","confidence":"n","version":"2.0NRT","bright_ti5":"310.26","frp":"23.77","daynight":"D","commune":"Albertacce","code_insee":"2B007","departement":"Haute-Corse","region":"Corse"}},{"type":"Feature","geometry":{"type":"Point","coordinates":[8.91764,42.32711]},"properties":{"latitude":"42.32711","longitude":"8.91764","bright_ti4":"351.1","scan":"0.4","track":"0.44","acq_date":"2026-07-14","acq_time":"1246","satellite":"N21","instrument":"VIIRS","confidence":"n","version":"2.0NRT","bright_ti5":"321.77","frp":"23.77","daynight":"D","commune":"Albertacce","code_insee":"2B007","departement":"Haute-Corse","region":"Corse"}},{"type":"Feature","geometry":{"type":"Point","coordinates":[8.92319,42.32763]},"properties":{"latitude":"42.32763","longitude":"8.92319","bright_ti4":"350.37","scan":"0.4","track":"0.44","acq_date":"2026-07-14","acq_time":"1246","satellite":"N21","instrument":"VIIRS","confidence":"n","version":"2.0NRT","bright_ti5":"318.02","frp":"32.86","daynight":"D","commune":"Albertacce","code_insee":"2B007","departement":"Haute-Corse","region":"Corse"}},{"type":"Feature","geometry":{"type":"Point","coordinates":[8.9066,42.33018]},"properties":{"latitude":"42.33018","longitude":"8.9066","bright_ti4":"354.12","scan":"0.4","track":"0.44","acq_date":"2026-07-14","acq_time":"1246","satellite":"N21","instrument":"VIIRS","confidence":"n","version":"2.0NRT","bright_ti5":"311.1","frp":"10.41","daynight":"D","commune":"Albertacce","code_insee":"2B007","departement":"Haute-Corse","region":"Corse"}},{"type":"Feature","geometry":{"type":"Point","coordinates":[8.91218,42.3307]},"properties":{"latitude":"42.3307","longitude":"8.91218","bright_ti4":"367","scan":"0.4","track":"0.44","acq_date":"2026-07-14","acq_time":"1246","satellite":"N21","instrument":"VIIRS","confidence":"h","version":"2.0NRT","bright_ti5":"312.13","frp":"14.03","daynight":"D","commune":"Albertacce","code_insee":"2B007","departement":"Haute-Corse","region":"Corse"}},{"type":"Feature","geometry":{"type":"Point","coordinates":[8.91757,42.3312]},"properties":{"latitude":"42.3312","longitude":"8.91757","bright_ti4":"346.14","scan":"0.4","track":"0.44","acq_date":"2026-07-14","acq_time":"1246","satellite":"N21","instrument":"VIIRS","confidence":"n","version":"2.0NRT","bright_ti5":"308.79","frp":"14.03","daynight":"D","commune":"Albertacce","code_insee":"2B007","departement":"Haute-Corse","region":"Corse"}},{"type":"Feature","geometry":{"type":"Point","coordinates":[4.88846,43.43557]},"properties":{"latitude":"43.43557","longitude":"4.88846","bright_ti4":"344.51","scan":"0.43","track":"0.38","acq_date":"2026-07-14","acq_time":"1246","satellite":"N21","instrument":"VIIRS","confidence":"n","version":"2.0NRT","bright_ti5":"308.92","frp":"11.83","daynight":"D","commune":"Fos-sur-Mer","code_insee":"13039","departement":"Bouches-du-Rhône","region":"Provence-Alpes-Côte d'Azur"}},{"type":"Feature","geometry":{"type":"Point","coordinates":[4.89729,43.44378]},"properties":{"latitude":"43.44378","longitude":"4.89729","bright_ti4":"334.14","scan":"0.43","track":"0.38","acq_date":"2026-07-14","acq_time":"1246","satellite":"N21","instrument":"VIIRS","confidence":"l","version":"2.0NRT","bright_ti5":"307.17","frp":"4.71","daynight":"D","commune":"Fos-sur-Mer","code_insee":"13039","departement":"Bouches-du-Rhône","region":"Provence-Alpes-Côte d'Azur"}},{"type":"Feature","geometry":{"type":"Point","coordinates":[4.89647,43.44723]},"properties":{"latitude":"43.44723","longitude":"4.89647","bright_ti4":"343.48","scan":"0.43","track":"0.38","acq_date":"2026-07-14","acq_time":"1246","satellite":"N21","instrument":"VIIRS","confidence":"n","version":"2.0NRT","bright_ti5":"307.99","frp":"4.71","daynight":"D","commune":"Fos-sur-Mer","code_insee":"13039","departement":"Bouches-du-Rhône","region":"Provence-Alpes-Côte d'Azur"}},{"type":"Feature","geometry":{"type":"Point","coordinates":[5.14092,43.50755]},"properties":{"latitude":"43.50755","longitude":"5.14092","bright_ti4":"340.45","scan":"0.43","track":"0.38","acq_date":"2026-07-14","acq_time":"1246","satellite":"N21","instrument":"VIIRS","confidence":"n","version":"2.0NRT","bright_ti5":"304.15","frp":"5.29","daynight":"D","commune":"Berre-l'Étang","code_insee":"13014","departement":"Bouches-du-Rhône","region":"Provence-Alpes-Côte d'Azur"}},{"type":"Feature","geometry":{"type":"Point","coordinates":[1.91048,43.84804]},"properties":{"latitude":"43.84804","longitude":"1.91048","bright_ti4":"341","scan":"0.38","track":"0.36","acq_date":"2026-07-14","acq_time":"1246","satellite":"N21","instrument":"VIIRS","confidence":"n","version":"2.0NRT","bright_ti5":"312.7","frp":"3.57","daynight":"D","commune":"Montans","code_insee":"81171","departement":"Tarn","region":"Occitanie"}},{"type":"Feature","geometry":{"type":"Point","coordinates":[3.73779,44.82894]},"properties":{"latitude":"44.82894","longitude":"3.73779","bright_ti4":"348.05","scan":"0.41","track":"0.37","acq_date":"2026-07-14","acq_time":"1246","satellite":"N21","instrument":"VIIRS","confidence":"n","version":"2.0NRT","bright_ti5":"313.44","frp":"7.9","daynight":"D","commune":"Saint Bonnet-Laval","code_insee":"48139","departement":"Lozère","region":"Occitanie"}},{"type":"Feature","geometry":{"type":"Point","coordinates":[4.96866,45.3232]},"properties":{"latitude":"45.3232","longitude":"4.96866","bright_ti4":"340.22","scan":"0.45","track":"0.39","acq_date":"2026-07-14","acq_time":"1246","satellite":"N21","instrument":"VIIRS","confidence":"n","version":"2.0NRT","bright_ti5":"309.57","frp":"3.1","daynight":"D","commune":"Lapeyrouse-Mornay","code_insee":"26155","departement":"Drôme","region":"Auvergne-Rhône-Alpes"}},{"type":"Feature","geometry":{"type":"Point","coordinates":[1.71849,45.94508]},"properties":{"latitude":"45.94508","longitude":"1.71849","bright_ti4":"340.28","scan":"0.39","track":"0.36","acq_date":"2026-07-14","acq_time":"1246","satellite":"N21","instrument":"VIIRS","confidence":"n","version":"2.0NRT","bright_ti5":"301.38","frp":"1.88","daynight":"D","commune":"Montboucher","code_insee":"23133","departement":"Creuse","region":"Nouvelle-Aquitaine"}},{"type":"Feature","geometry":{"type":"Point","coordinates":[2.64436,48.3765]},"properties":{"latitude":"48.3765","longitude":"2.64436","bright_ti4":"356.26","scan":"0.41","track":"0.37","acq_date":"2026-07-14","acq_time":"1246","satellite":"N21","instrument":"VIIRS","confidence":"l","version":"2.0NRT","bright_ti5":"283.57","frp":"13.81","daynight":"D","commune":"Fontainebleau","code_insee":"77186","departement":"Seine-et-Marne","region":"Île-de-France"}},{"type":"Feature","geometry":{"type":"Point","coordinates":[2.64212,48.37978]},"properties":{"latitude":"48.37978","longitude":"2.64212","bright_ti4":"351.41","scan":"0.41","track":"0.37","acq_date":"2026-07-14","acq_time":"1246","satellite":"N21","instrument":"VIIRS","confidence":"n","version":"2.0NRT","bright_ti5":"288.07","frp":"16.4","daynight":"D","commune":"Fontainebleau","code_insee":"77186","departement":"Seine-et-Marne","region":"Île-de-France"}},{"type":"Feature","geometry":{"type":"Point","coordinates":[2.64339,48.37988]},"properties":{"latitude":"48.37988","longitude":"2.64339","bright_ti4":"354.87","scan":"0.41","track":"0.37","acq_date":"2026-07-14","acq_time":"1246","satellite":"N21","instrument":"VIIRS","confidence":"n","version":"2.0NRT","bright_ti5":"288.76","frp":"13.81","daynight":"D","commune":"Fontainebleau","code_insee":"77186","departement":"Seine-et-Marne","region":"Île-de-France"}},{"type":"Feature","geometry":{"type":"Point","coordinates":[2.64767,48.38049]},"properties":{"latitude":"48.38049","longitude":"2.64767","bright_ti4":"367","scan":"0.41","track":"0.37","acq_date":"2026-07-14","acq_time":"1246","satellite":"N21","instrument":"VIIRS","confidence":"h","version":"2.0NRT","bright_ti5":"293.8","frp":"10.83","daynight":"D","commune":"Fontainebleau","code_insee":"77186","departement":"Seine-et-Marne","region":"Île-de-France"}},{"type":"Feature","geometry":{"type":"Point","coordinates":[2.64893,48.3806]},"properties":{"latitude":"48.3806","longitude":"2.64893","bright_ti4":"356.58","scan":"0.41","track":"0.37","acq_date":"2026-07-14","acq_time":"1246","satellite":"N21","instrument":"VIIRS","confidence":"l","version":"2.0NRT","bright_ti5":"289.28","frp":"13.81","daynight":"D","commune":"Fontainebleau","code_insee":"77186","departement":"Seine-et-Marne","region":"Île-de-France"}},{"type":"Feature","geometry":{"type":"Point","coordinates":[2.65322,48.38119]},"properties":{"latitude":"48.38119","longitude":"2.65322","bright_ti4":"338.94","scan":"0.41","track":"0.37","acq_date":"2026-07-14","acq_time":"1246","satellite":"N21","instrument":"VIIRS","confidence":"n","version":"2.0NRT","bright_ti5":"287.02","frp":"10.83","daynight":"D","commune":"Fontainebleau","code_insee":"77186","departement":"Seine-et-Marne","region":"Île-de-France"}},{"type":"Feature","geometry":{"type":"Point","coordinates":[2.64669,48.38387]},"properties":{"latitude":"48.38387","longitude":"2.64669","bright_ti4":"351.26","scan":"0.41","track":"0.37","acq_date":"2026-07-14","acq_time":"1246","satellite":"N21","instrument":"VIIRS","confidence":"n","version":"2.0NRT","bright_ti5":"293.96","frp":"10.83","daynight":"D","commune":"Fontainebleau","code_insee":"77186","departement":"Seine-et-Marne","region":"Île-de-France"}},{"type":"Feature","geometry":{"type":"Point","coordinates":[2.65224,48.38457]},"properties":{"latitude":"48.38457","longitude":"2.65224","bright_ti4":"346.42","scan":"0.41","track":"0.37","acq_date":"2026-07-14","acq_time":"1246","satellite":"N21","instrument":"VIIRS","confidence":"n","version":"2.0NRT","bright_ti5":"292.23","frp":"10.83","daynight":"D","commune":"Fontainebleau","code_insee":"77186","departement":"Seine-et-Marne","region":"Île-de-France"}},{"type":"Feature","geometry":{"type":"Point","coordinates":[2.63461,48.38584]},"properties":{"latitude":"48.38584","longitude":"2.63461","bright_ti4":"332.18","scan":"0.41","track":"0.37","acq_date":"2026-07-14","acq_time":"1246","satellite":"N21","instrument":"VIIRS","confidence":"n","version":"2.0NRT","bright_ti5":"285.37","frp":"5.51","daynight":"D","commune":"Fontainebleau","code_insee":"77186","departement":"Seine-et-Marne","region":"Île-de-France"}},{"type":"Feature","geometry":{"type":"Point","coordinates":[2.64572,48.38725]},"properties":{"latitude":"48.38725","longitude":"2.64572","bright_ti4":"334.1","scan":"0.41","track":"0.37","acq_date":"2026-07-14","acq_time":"1246","satellite":"N21","instrument":"VIIRS","confidence":"n","version":"2.0NRT","bright_ti5":"292.84","frp":"5.7","daynight":"D","commune":"Fontainebleau","code_insee":"77186","departement":"Seine-et-Marne","region":"Île-de-France"}},{"type":"Feature","geometry":{"type":"Point","coordinates":[2.65127,48.38795]},"properties":{"latitude":"48.38795","longitude":"2.65127","bright_ti4":"342.27","scan":"0.41","track":"0.37","acq_date":"2026-07-14","acq_time":"1246","satellite":"N21","instrument":"VIIRS","confidence":"n","version":"2.0NRT","bright_ti5":"295.39","frp":"5.7","daynight":"D","commune":"Fontainebleau","code_insee":"77186","departement":"Seine-et-Marne","region":"Île-de-France"}},{"type":"Feature","geometry":{"type":"Point","coordinates":[2.63263,48.3926]},"properties":{"latitude":"48.3926","longitude":"2.63263","bright_ti4":"332.97","scan":"0.41","track":"0.37","acq_date":"2026-07-14","acq_time":"1246","satellite":"N21","instrument":"VIIRS","confidence":"n","version":"2.0NRT","bright_ti5":"291.32","frp":"4.77","daynight":"D","commune":"Fontainebleau","code_insee":"77186","departement":"Seine-et-Marne","region":"Île-de-France"}},{"type":"Feature","geometry":{"type":"Point","coordinates":[2.67146,48.39754]},"properties":{"latitude":"48.39754","longitude":"2.67146","bright_ti4":"341.79","scan":"0.41","track":"0.37","acq_date":"2026-07-14","acq_time":"1246","satellite":"N21","instrument":"VIIRS","confidence":"n","version":"2.0NRT","bright_ti5":"301.34","frp":"8.83","daynight":"D","commune":"Fontainebleau","code_insee":"77186","departement":"Seine-et-Marne","region":"Île-de-France"}},{"type":"Feature","geometry":{"type":"Point","coordinates":[2.64174,48.40078]},"properties":{"latitude":"48.40078","longitude":"2.64174","bright_ti4":"338.58","scan":"0.41","track":"0.37","acq_date":"2026-07-14","acq_time":"1246","satellite":"N21","instrument":"VIIRS","confidence":"n","version":"2.0NRT","bright_ti5":"292.41","frp":"4.91","daynight":"D","commune":"Fontainebleau","code_insee":"77186","departement":"Seine-et-Marne","region":"Île-de-France"}},{"type":"Feature","geometry":{"type":"Point","coordinates":[2.64729,48.40149]},"properties":{"latitude":"48.40149","longitude":"2.64729","bright_ti4":"331.03","scan":"0.41","track":"0.37","acq_date":"2026-07-14","acq_time":"1246","satellite":"N21","instrument":"VIIRS","confidence":"n","version":"2.0NRT","bright_ti5":"294.88","frp":"4.91","daynight":"D","commune":"Fontainebleau","code_insee":"77186","departement":"Seine-et-Marne","region":"Île-de-France"}},{"type":"Feature","geometry":{"type":"Point","coordinates":[2.65284,48.40219]},"properties":{"latitude":"48.40219","longitude":"2.65284","bright_ti4":"333.34","scan":"0.41","track":"0.37","acq_date":"2026-07-14","acq_time":"1246","satellite":"N21","instrument":"VIIRS","confidence":"n","version":"2.0NRT","bright_ti5":"298.14","frp":"7.88","daynight":"D","commune":"Fontainebleau","code_insee":"77186","departement":"Seine-et-Marne","region":"Île-de-France"}},{"type":"Feature","geometry":{"type":"Point","coordinates":[2.66391,48.4036]},"properties":{"latitude":"48.4036","longitude":"2.66391","bright_ti4":"330.15","scan":"0.41","track":"0.37","acq_date":"2026-07-14","acq_time":"1246","satellite":"N21","instrument":"VIIRS","confidence":"n","version":"2.0NRT","bright_ti5":"297.28","frp":"3.87","daynight":"D","commune":"Fontainebleau","code_insee":"77186","departement":"Seine-et-Marne","region":"Île-de-France"}},{"type":"Feature","geometry":{"type":"Point","coordinates":[2.64626,48.40487]},"properties":{"latitude":"48.40487","longitude":"2.64626","bright_ti4":"348.15","scan":"0.41","track":"0.37","acq_date":"2026-07-14","acq_time":"1246","satellite":"N21","instrument":"VIIRS","confidence":"n","version":"2.0NRT","bright_ti5":"293.4","frp":"4.91","daynight":"D","commune":"Fontainebleau","code_insee":"77186","departement":"Seine-et-Marne","region":"Île-de-France"}},{"type":"Feature","geometry":{"type":"Point","coordinates":[6.76141,49.03359]},"properties":{"latitude":"49.03359","longitude":"6.76141","bright_ti4":"335.99","scan":"0.57","track":"0.43","acq_date":"2026-07-14","acq_time":"1246","satellite":"N21","instrument":"VIIRS","confidence":"l","version":"2.0NRT","bright_ti5":"309.46","frp":"26.67","daynight":"D","commune":"Laning","code_insee":"57384","departement":"Moselle","region":"Grand Est"}},{"type":"Feature","geometry":{"type":"Point","coordinates":[2.38376,48.82396]},"properties":{"latitude":"48.82396","longitude":"2.38376","bright_ti4":"337.93","scan":"0.41","track":"0.37","acq_date":"2026-07-14","acq_time":"1249","satellite":"N21","instrument":"VIIRS","confidence":"n","version":"2.0NRT","bright_ti5":"307.31","frp":"2.02","daynight":"D","commune":"Paris","code_insee":"75056","departement":"Paris","region":"Île-de-France"}},{"type":"Feature","geometry":{"type":"Point","coordinates":[4.01497,49.22677]},"properties":{"latitude":"49.22677","longitude":"4.01497","bright_ti4":"335.17","scan":"0.46","track":"0.39","acq_date":"2026-07-14","acq_time":"1249","satellite":"N21","instrument":"VIIRS","confidence":"l","version":"2.0NRT","bright_ti5":"308.41","frp":"2.56","daynight":"D","commune":"Reims","code_insee":"51454","departement":"Marne","region":"Grand Est"}},{"type":"Feature","geometry":{"type":"Point","coordinates":[4.46702,49.29151]},"properties":{"latitude":"49.29151","longitude":"4.46702","bright_ti4":"340.98","scan":"0.47","track":"0.4","acq_date":"2026-07-14","acq_time":"1249","satellite":"N21","instrument":"VIIRS","confidence":"n","version":"2.0NRT","bright_ti5":"309.87","frp":"3.16","daynight":"D","commune":"Saint-Pierre-à-Arnes","code_insee":"08393","departement":"Ardennes","region":"Grand Est"}},{"type":"Feature","geometry":{"type":"Point","coordinates":[4.89002,49.35178]},"properties":{"latitude":"49.35178","longitude":"4.89002","bright_ti4":"335.58","scan":"0.49","track":"0.4","acq_date":"2026-07-14","acq_time":"1249","satellite":"N21","instrument":"VIIRS","confidence":"n","version":"2.0NRT","bright_ti5":"306.13","frp":"4.28","daynight":"D","commune":"Grandpré","code_insee":"08198","departement":"Ardennes","region":"Grand Est"}},{"type":"Feature","geometry":{"type":"Point","coordinates":[3.56116,50.40223]},"properties":{"latitude":"50.40223","longitude":"3.56116","bright_ti4":"334.43","scan":"0.45","track":"0.39","acq_date":"2026-07-14","acq_time":"1249","satellite":"N21","instrument":"VIIRS","confidence":"l","version":"2.0NRT","bright_ti5":"305.08","frp":"3.84","daynight":"D","commune":"Saint-Saulve","code_insee":"59544","departement":"Nord","region":"Hauts-de-France"}},{"type":"Feature","geometry":{"type":"Point","coordinates":[2.29844,51.04482]},"properties":{"latitude":"51.04482","longitude":"2.29844","bright_ti4":"344.31","scan":"0.43","track":"0.38","acq_date":"2026-07-14","acq_time":"1249","satellite":"N21","instrument":"VIIRS","confidence":"n","version":"2.0NRT","bright_ti5":"308.15","frp":"6.9","daynight":"D","commune":"Grande-Synthe","code_insee":"59271","departement":"Nord","region":"Hauts-de-France"}}]}