{"type":"FeatureCollection","features":[{"type":"Feature","geometry":{"type":"Point","coordinates":[7.23484,47.62989]},"properties":{"latitude":"47.62989","longitude":"7.23484","bright_ti4":"304.91","scan":"0.39","track":"0.36","acq_date":"2026-06-23","acq_time":"147","satellite":"N","instrument":"VIIRS","confidence":"n","version":"2.0NRT","bright_ti5":"293.18","frp":"0.89","daynight":"N","commune":"Altkirch","code_insee":"68004","departement":"Haut-Rhin","region":"Grand Est"}},{"type":"Feature","geometry":{"type":"Point","coordinates":[6.11866,48.60882]},"properties":{"latitude":"48.60882","longitude":"6.11866","bright_ti4":"312.7","scan":"0.38","track":"0.36","acq_date":"2026-06-23","acq_time":"147","satellite":"N","instrument":"VIIRS","confidence":"n","version":"2.0NRT","bright_ti5":"293.94","frp":"1.14","daynight":"N","commune":"Neuves-Maisons","code_insee":"54397","departement":"Meurthe-et-Moselle","region":"Grand Est"}},{"type":"Feature","geometry":{"type":"Point","coordinates":[6.1135,48.60962]},"properties":{"latitude":"48.60962","longitude":"6.1135","bright_ti4":"306.11","scan":"0.38","track":"0.36","acq_date":"2026-06-23","acq_time":"147","satellite":"N","instrument":"VIIRS","confidence":"n","version":"2.0NRT","bright_ti5":"294.38","frp":"1.14","daynight":"N","commune":"Neuves-Maisons","code_insee":"54397","departement":"Meurthe-et-Moselle","region":"Grand Est"}},{"type":"Feature","geometry":{"type":"Point","coordinates":[6.10834,48.61042]},"properties":{"latitude":"48.61042","longitude":"6.10834","bright_ti4":"314.38","scan":"0.38","track":"0.36","acq_date":"2026-06-23","acq_time":"147","satellite":"N","instrument":"VIIRS","confidence":"n","version":"2.0NRT","bright_ti5":"294.28","frp":"1.07","daynight":"N","commune":"Neuves-Maisons","code_insee":"54397","departement":"Meurthe-et-Moselle","region":"Grand Est"}},{"type":"Feature","geometry":{"type":"Point","coordinates":[5.68154,48.71718]},"properties":{"latitude":"48.71718","longitude":"5.68154","bright_ti4":"306.52","scan":"0.39","track":"0.36","acq_date":"2026-06-23","acq_time":"147","satellite":"N","instrument":"VIIRS","confidence":"n","version":"2.0NRT","bright_ti5":"292.62","frp":"0.85","daynight":"N","commune":"Sorcy-Saint-Martin","code_insee":"55496","departement":"Meuse","region":"Grand Est"}},{"type":"Feature","geometry":{"type":"Point","coordinates":[4.56065,48.76834]},"properties":{"latitude":"48.76834","longitude":"4.56065","bright_ti4":"305.02","scan":"0.4","track":"0.37","acq_date":"2026-06-23","acq_time":"147","satellite":"N","instrument":"VIIRS","confidence":"n","version":"2.0NRT","bright_ti5":"294.36","frp":"1","daynight":"N","commune":"Couvrot","code_insee":"51195","departement":"Marne","region":"Grand Est"}},{"type":"Feature","geometry":{"type":"Point","coordinates":[6.05584,48.88525]},"properties":{"latitude":"48.88525","longitude":"6.05584","bright_ti4":"306.26","scan":"0.39","track":"0.36","acq_date":"2026-06-23","acq_time":"147","satellite":"N","instrument":"VIIRS","confidence":"n","version":"2.0NRT","bright_ti5":"294.24","frp":"1.12","daynight":"N","commune":"Blénod-lès-Pont-à-Mousson","code_insee":"54079","departement":"Meurthe-et-Moselle","region":"Grand Est"}},{"type":"Feature","geometry":{"type":"Point","coordinates":[4.99653,43.3829]},"properties":{"latitude":"43.3829","longitude":"4.99653","bright_ti4":"306.93","scan":"0.39","track":"0.36","acq_date":"2026-06-23","acq_time":"149","satellite":"N","instrument":"VIIRS","confidence":"n","version":"2.0NRT","bright_ti5":"294.17","frp":"1.58","daynight":"N","commune":"Martigues","code_insee":"13056","departement":"Bouches-du-Rhône","region":"Provence-Alpes-Côte d'Azur"}},{"type":"Feature","geometry":{"type":"Point","coordinates":[4.89114,43.43663]},"properties":{"latitude":"43.43663","longitude":"4.89114","bright_ti4":"306.07","scan":"0.38","track":"0.36","acq_date":"2026-06-23","acq_time":"149","satellite":"N","instrument":"VIIRS","confidence":"n","version":"2.0NRT","bright_ti5":"294.51","frp":"1.55","daynight":"N","commune":"Fos-sur-Mer","code_insee":"13039","departement":"Bouches-du-Rhône","region":"Provence-Alpes-Côte d'Azur"}},{"type":"Feature","geometry":{"type":"Point","coordinates":[4.88643,43.43739]},"properties":{"latitude":"43.43739","longitude":"4.88643","bright_ti4":"306.67","scan":"0.38","track":"0.36","acq_date":"2026-06-23","acq_time":"149","satellite":"N","instrument":"VIIRS","confidence":"n","version":"2.0NRT","bright_ti5":"294.25","frp":"0.86","daynight":"N","commune":"Fos-sur-Mer","code_insee":"13039","departement":"Bouches-du-Rhône","region":"Provence-Alpes-Côte d'Azur"}},{"type":"Feature","geometry":{"type":"Point","coordinates":[4.88172,43.43816]},"properties":{"latitude":"43.43816","longitude":"4.88172","bright_ti4":"305.69","scan":"0.38","track":"0.36","acq_date":"2026-06-23","acq_time":"149","satellite":"N","instrument":"VIIRS","confidence":"n","version":"2.0NRT","bright_ti5":"294.85","frp":"0.86","daynight":"N","commune":"Fos-sur-Mer","code_insee":"13039","departement":"Bouches-du-Rhône","region":"Provence-Alpes-Côte d'Azur"}},{"type":"Feature","geometry":{"type":"Point","coordinates":[4.89215,43.43991]},"properties":{"latitude":"43.43991","longitude":"4.89215","bright_ti4":"311.62","scan":"0.38","track":"0.36","acq_date":"2026-06-23","acq_time":"149","satellite":"N","instrument":"VIIRS","confidence":"n","version":"2.0NRT","bright_ti5":"295.17","frp":"2.18","daynight":"N","commune":"Fos-sur-Mer","code_insee":"13039","departement":"Bouches-du-Rhône","region":"Provence-Alpes-Côte d'Azur"}},{"type":"Feature","geometry":{"type":"Point","coordinates":[4.88273,43.44144]},"properties":{"latitude":"43.44144","longitude":"4.88273","bright_ti4":"322.2","scan":"0.38","track":"0.36","acq_date":"2026-06-23","acq_time":"149","satellite":"N","instrument":"VIIRS","confidence":"n","version":"2.0NRT","bright_ti5":"293.53","frp":"1.65","daynight":"N","commune":"Fos-sur-Mer","code_insee":"13039","departement":"Bouches-du-Rhône","region":"Provence-Alpes-Côte d'Azur"}},{"type":"Feature","geometry":{"type":"Point","coordinates":[4.89786,43.44243]},"properties":{"latitude":"43.44243","longitude":"4.89786","bright_ti4":"333.7","scan":"0.38","track":"0.36","acq_date":"2026-06-23","acq_time":"149","satellite":"N","instrument":"VIIRS","confidence":"n","version":"2.0NRT","bright_ti5":"294.1","frp":"2.18","daynight":"N","commune":"Fos-sur-Mer","code_insee":"13039","departement":"Bouches-du-Rhône","region":"Provence-Alpes-Côte d'Azur"}},{"type":"Feature","geometry":{"type":"Point","coordinates":[4.89886,43.44571]},"properties":{"latitude":"43.44571","longitude":"4.89886","bright_ti4":"315.46","scan":"0.38","track":"0.36","acq_date":"2026-06-23","acq_time":"149","satellite":"N","instrument":"VIIRS","confidence":"n","version":"2.0NRT","bright_ti5":"295.27","frp":"1.53","daynight":"N","commune":"Fos-sur-Mer","code_insee":"13039","departement":"Bouches-du-Rhône","region":"Provence-Alpes-Côte d'Azur"}},{"type":"Feature","geometry":{"type":"Point","coordinates":[4.89415,43.44648]},"properties":{"latitude":"43.44648","longitude":"4.89415","bright_ti4":"318.2","scan":"0.38","track":"0.36","acq_date":"2026-06-23","acq_time":"149","satellite":"N","instrument":"VIIRS","confidence":"n","version":"2.0NRT","bright_ti5":"294.69","frp":"1.53","daynight":"N","commune":"Fos-sur-Mer","code_insee":"13039","departement":"Bouches-du-Rhône","region":"Provence-Alpes-Côte d'Azur"}},{"type":"Feature","geometry":{"type":"Point","coordinates":[4.89515,43.44976]},"properties":{"latitude":"43.44976","longitude":"4.89515","bright_ti4":"323.88","scan":"0.38","track":"0.36","acq_date":"2026-06-23","acq_time":"149","satellite":"N","instrument":"VIIRS","confidence":"n","version":"2.0NRT","bright_ti5":"293.57","frp":"1.53","daynight":"N","commune":"Fos-sur-Mer","code_insee":"13039","departement":"Bouches-du-Rhône","region":"Provence-Alpes-Côte d'Azur"}},{"type":"Feature","geometry":{"type":"Point","coordinates":[4.61859,43.80426]},"properties":{"latitude":"43.80426","longitude":"4.61859","bright_ti4":"305.39","scan":"0.38","track":"0.36","acq_date":"2026-06-23","acq_time":"149","satellite":"N","instrument":"VIIRS","confidence":"n","version":"2.0NRT","bright_ti5":"294.38","frp":"0.77","daynight":"N","commune":"Beaucaire","code_insee":"30032","departement":"Gard","region":"Occitanie"}},{"type":"Feature","geometry":{"type":"Point","coordinates":[5.41917,45.80466]},"properties":{"latitude":"45.80466","longitude":"5.41917","bright_ti4":"305.62","scan":"0.38","track":"0.36","acq_date":"2026-06-23","acq_time":"149","satellite":"N","instrument":"VIIRS","confidence":"n","version":"2.0NRT","bright_ti5":"294.22","frp":"1.1","daynight":"N","commune":"Bouvesse-Quirieu","code_insee":"38054","departement":"Isère","region":"Auvergne-Rhône-Alpes"}},{"type":"Feature","geometry":{"type":"Point","coordinates":[3.42159,46.25046]},"properties":{"latitude":"46.25046","longitude":"3.42159","bright_ti4":"303.41","scan":"0.4","track":"0.37","acq_date":"2026-06-23","acq_time":"149","satellite":"N","instrument":"VIIRS","confidence":"n","version":"2.0NRT","bright_ti5":"292.93","frp":"0.84","daynight":"N","commune":"Créchy","code_insee":"03091","departement":"Allier","region":"Auvergne-Rhône-Alpes"}},{"type":"Feature","geometry":{"type":"Point","coordinates":[5.46111,45.81562]},"properties":{"latitude":"45.81562","longitude":"5.46111","bright_ti4":"367","scan":"0.45","track":"0.63","acq_date":"2026-06-23","acq_time":"1134","satellite":"N","instrument":"VIIRS","confidence":"h","version":"2.0NRT","bright_ti5":"295.75","frp":"12.63","daynight":"D","commune":"Serrières-de-Briord","code_insee":"01403","departement":"Ain","region":"Auvergne-Rhône-Alpes"}},{"type":"Feature","geometry":{"type":"Point","coordinates":[5.46345,45.81621]},"properties":{"latitude":"45.81621","longitude":"5.46345","bright_ti4":"367","scan":"0.45","track":"0.63","acq_date":"2026-06-23","acq_time":"1134","satellite":"N","instrument":"VIIRS","confidence":"h","version":"2.0NRT","bright_ti5":"296.35","frp":"11.17","daynight":"D","commune":"Bénonces","code_insee":"01037","departement":"Ain","region":"Auvergne-Rhône-Alpes"}},{"type":"Feature","geometry":{"type":"Point","coordinates":[2.08943,46.44027]},"properties":{"latitude":"46.44027","longitude":"2.08943","bright_ti4":"353.65","scan":"0.59","track":"0.7","acq_date":"2026-06-23","acq_time":"1134","satellite":"N","instrument":"VIIRS","confidence":"n","version":"2.0NRT","bright_ti5":"306.23","frp":"10.39","daynight":"D","commune":"Vijon","code_insee":"36240","departement":"Indre","region":"Centre-Val de Loire"}},{"type":"Feature","geometry":{"type":"Point","coordinates":[2.08821,46.44096]},"properties":{"latitude":"46.44096","longitude":"2.08821","bright_ti4":"351.16","scan":"0.59","track":"0.7","acq_date":"2026-06-23","acq_time":"1134","satellite":"N","instrument":"VIIRS","confidence":"n","version":"2.0NRT","bright_ti5":"306.06","frp":"7.09","daynight":"D","commune":"Vijon","code_insee":"36240","departement":"Indre","region":"Centre-Val de Loire"}},{"type":"Feature","geometry":{"type":"Point","coordinates":[5.04832,47.35828]},"properties":{"latitude":"47.35828","longitude":"5.04832","bright_ti4":"332.08","scan":"0.42","track":"0.61","acq_date":"2026-06-23","acq_time":"1134","satellite":"N","instrument":"VIIRS","confidence":"l","version":"2.0NRT","bright_ti5":"305.57","frp":"3.3","daynight":"D","commune":"Dijon","code_insee":"21231","departement":"Côte-d'Or","region":"Bourgogne-Franche-Comté"}},{"type":"Feature","geometry":{"type":"Point","coordinates":[0.92135,46.38518]},"properties":{"latitude":"46.38518","longitude":"0.92135","bright_ti4":"338.69","scan":"0.66","track":"0.73","acq_date":"2026-06-23","acq_time":"1136","satellite":"N","instrument":"VIIRS","confidence":"n","version":"2.0NRT","bright_ti5":"302.55","frp":"8.54","daynight":"D","commune":"Saulgé","code_insee":"86254","departement":"Vienne","region":"Nouvelle-Aquitaine"}},{"type":"Feature","geometry":{"type":"Point","coordinates":[1.9678,46.75218]},"properties":{"latitude":"46.75218","longitude":"1.9678","bright_ti4":"330.94","scan":"0.59","track":"0.7","acq_date":"2026-06-23","acq_time":"1136","satellite":"N","instrument":"VIIRS","confidence":"n","version":"2.0NRT","bright_ti5":"305.84","frp":"3.5","daynight":"D","commune":"Saint-Août","code_insee":"36180","departement":"Indre","region":"Centre-Val de Loire"}},{"type":"Feature","geometry":{"type":"Point","coordinates":[1.96655,46.75234]},"properties":{"latitude":"46.75234","longitude":"1.96655","bright_ti4":"336.38","scan":"0.58","track":"0.7","acq_date":"2026-06-23","acq_time":"1136","satellite":"N","instrument":"VIIRS","confidence":"n","version":"2.0NRT","bright_ti5":"306.32","frp":"7.38","daynight":"D","commune":"Saint-Août","code_insee":"36180","departement":"Indre","region":"Centre-Val de Loire"}},{"type":"Feature","geometry":{"type":"Point","coordinates":[1.97493,46.75463]},"properties":{"latitude":"46.75463","longitude":"1.97493","bright_ti4":"334.94","scan":"0.58","track":"0.7","acq_date":"2026-06-23","acq_time":"1136","satellite":"N","instrument":"VIIRS","confidence":"n","version":"2.0NRT","bright_ti5":"306.58","frp":"3.5","daynight":"D","commune":"Saint-Août","code_insee":"36180","departement":"Indre","region":"Centre-Val de Loire"}},{"type":"Feature","geometry":{"type":"Point","coordinates":[1.97366,46.75483]},"properties":{"latitude":"46.75483","longitude":"1.97366","bright_ti4":"336.63","scan":"0.58","track":"0.7","acq_date":"2026-06-23","acq_time":"1136","satellite":"N","instrument":"VIIRS","confidence":"n","version":"2.0NRT","bright_ti5":"306.42","frp":"8.61","daynight":"D","commune":"Saint-Août","code_insee":"36180","departement":"Indre","region":"Centre-Val de Loire"}},{"type":"Feature","geometry":{"type":"Point","coordinates":[1.96354,46.75807]},"properties":{"latitude":"46.75807","longitude":"1.96354","bright_ti4":"367","scan":"0.59","track":"0.7","acq_date":"2026-06-23","acq_time":"1136","satellite":"N","instrument":"VIIRS","confidence":"h","version":"2.0NRT","bright_ti5":"307.18","frp":"19.14","daynight":"D","commune":"Saint-Août","code_insee":"36180","departement":"Indre","region":"Centre-Val de Loire"}},{"type":"Feature","geometry":{"type":"Point","coordinates":[1.96233,46.75823]},"properties":{"latitude":"46.75823","longitude":"1.96233","bright_ti4":"367","scan":"0.58","track":"0.7","acq_date":"2026-06-23","acq_time":"1136","satellite":"N","instrument":"VIIRS","confidence":"h","version":"2.0NRT","bright_ti5":"306.94","frp":"26.91","daynight":"D","commune":"Saint-Août","code_insee":"36180","departement":"Indre","region":"Centre-Val de Loire"}},{"type":"Feature","geometry":{"type":"Point","coordinates":[1.97073,46.76054]},"properties":{"latitude":"46.76054","longitude":"1.97073","bright_ti4":"367","scan":"0.58","track":"0.7","acq_date":"2026-06-23","acq_time":"1136","satellite":"N","instrument":"VIIRS","confidence":"h","version":"2.0NRT","bright_ti5":"305.15","frp":"19.14","daynight":"D","commune":"Saint-Août","code_insee":"36180","departement":"Indre","region":"Centre-Val de Loire"}},{"type":"Feature","geometry":{"type":"Point","coordinates":[1.96948,46.76073]},"properties":{"latitude":"46.76073","longitude":"1.96948","bright_ti4":"367","scan":"0.58","track":"0.7","acq_date":"2026-06-23","acq_time":"1136","satellite":"N","instrument":"VIIRS","confidence":"h","version":"2.0NRT","bright_ti5":"303.37","frp":"23.47","daynight":"D","commune":"Saint-Août","code_insee":"36180","departement":"Indre","region":"Centre-Val de Loire"}},{"type":"Feature","geometry":{"type":"Point","coordinates":[2.284,51.03652]},"properties":{"latitude":"51.03652","longitude":"2.284","bright_ti4":"330.14","scan":"0.41","track":"0.6","acq_date":"2026-06-23","acq_time":"1136","satellite":"N","instrument":"VIIRS","confidence":"n","version":"2.0NRT","bright_ti5":"282.48","frp":"3.66","daynight":"D","commune":"Grande-Synthe","code_insee":"59271","departement":"Nord","region":"Hauts-de-France"}},{"type":"Feature","geometry":{"type":"Point","coordinates":[4.89815,43.44426]},"properties":{"latitude":"43.44426","longitude":"4.89815","bright_ti4":"341.04","scan":"0.45","track":"0.47","acq_date":"2026-06-23","acq_time":"1314","satellite":"N","instrument":"VIIRS","confidence":"n","version":"2.0NRT","bright_ti5":"308.31","frp":"9.91","daynight":"D","commune":"Fos-sur-Mer","code_insee":"13039","departement":"Bouches-du-Rhône","region":"Provence-Alpes-Côte d'Azur"}},{"type":"Feature","geometry":{"type":"Point","coordinates":[4.89751,43.44862]},"properties":{"latitude":"43.44862","longitude":"4.89751","bright_ti4":"347.17","scan":"0.45","track":"0.47","acq_date":"2026-06-23","acq_time":"1314","satellite":"N","instrument":"VIIRS","confidence":"n","version":"2.0NRT","bright_ti5":"306.55","frp":"9.92","daynight":"D","commune":"Fos-sur-Mer","code_insee":"13039","departement":"Bouches-du-Rhône","region":"Provence-Alpes-Côte d'Azur"}},{"type":"Feature","geometry":{"type":"Point","coordinates":[0.1178,44.14511]},"properties":{"latitude":"44.14511","longitude":"0.1178","bright_ti4":"367","scan":"0.44","track":"0.38","acq_date":"2026-06-23","acq_time":"1314","satellite":"N","instrument":"VIIRS","confidence":"h","version":"2.0NRT","bright_ti5":"336.48","frp":"97.35","daynight":"D","commune":"Boussès","code_insee":"47039","departement":"Lot-et-Garonne","region":"Nouvelle-Aquitaine"}},{"type":"Feature","geometry":{"type":"Point","coordinates":[0.08932,44.14526]},"properties":{"latitude":"44.14526","longitude":"0.08932","bright_ti4":"346.56","scan":"0.44","track":"0.38","acq_date":"2026-06-23","acq_time":"1314","satellite":"N","instrument":"VIIRS","confidence":"n","version":"2.0NRT","bright_ti5":"312.77","frp":"8.33","daynight":"D","commune":"Boussès","code_insee":"47039","departement":"Lot-et-Garonne","region":"Nouvelle-Aquitaine"}},{"type":"Feature","geometry":{"type":"Point","coordinates":[0.12332,44.14578]},"properties":{"latitude":"44.14578","longitude":"0.12332","bright_ti4":"339.81","scan":"0.44","track":"0.38","acq_date":"2026-06-23","acq_time":"1314","satellite":"N","instrument":"VIIRS","confidence":"n","version":"2.0NRT","bright_ti5":"313.42","frp":"43.11","daynight":"D","commune":"Boussès","code_insee":"47039","departement":"Lot-et-Garonne","region":"Nouvelle-Aquitaine"}},{"type":"Feature","geometry":{"type":"Point","coordinates":[0.11698,44.14864]},"properties":{"latitude":"44.14864","longitude":"0.11698","bright_ti4":"343.45","scan":"0.44","track":"0.38","acq_date":"2026-06-23","acq_time":"1314","satellite":"N","instrument":"VIIRS","confidence":"n","version":"2.0NRT","bright_ti5":"306.09","frp":"5.99","daynight":"D","commune":"Boussès","code_insee":"47039","departement":"Lot-et-Garonne","region":"Nouvelle-Aquitaine"}},{"type":"Feature","geometry":{"type":"Point","coordinates":[1.35471,45.51783]},"properties":{"latitude":"45.51783","longitude":"1.35471","bright_ti4":"336.19","scan":"0.5","track":"0.41","acq_date":"2026-06-23","acq_time":"1314","satellite":"N","instrument":"VIIRS","confidence":"n","version":"2.0NRT","bright_ti5":"309.86","frp":"2.96","daynight":"D","commune":"Coussac-Bonneval","code_insee":"87049","departement":"Haute-Vienne","region":"Nouvelle-Aquitaine"}},{"type":"Feature","geometry":{"type":"Point","coordinates":[3.5182,45.8593]},"properties":{"latitude":"45.8593","longitude":"3.5182","bright_ti4":"338.24","scan":"0.42","track":"0.45","acq_date":"2026-06-23","acq_time":"1314","satellite":"N","instrument":"VIIRS","confidence":"l","version":"2.0NRT","bright_ti5":"312.21","frp":"4.64","daynight":"D","commune":"Thiers","code_insee":"63430","departement":"Puy-de-Dôme","region":"Auvergne-Rhône-Alpes"}},{"type":"Feature","geometry":{"type":"Point","coordinates":[0.92778,46.38691]},"properties":{"latitude":"46.38691","longitude":"0.92778","bright_ti4":"348.69","scan":"0.5","track":"0.41","acq_date":"2026-06-23","acq_time":"1316","satellite":"N","instrument":"VIIRS","confidence":"n","version":"2.0NRT","bright_ti5":"317.64","frp":"11.69","daynight":"D","commune":"Montmorillon","code_insee":"86165","departement":"Vienne","region":"Nouvelle-Aquitaine"}},{"type":"Feature","geometry":{"type":"Point","coordinates":[3.56646,46.56841]},"properties":{"latitude":"46.56841","longitude":"3.56646","bright_ti4":"356.93","scan":"0.43","track":"0.46","acq_date":"2026-06-23","acq_time":"1316","satellite":"N","instrument":"VIIRS","confidence":"n","version":"2.0NRT","bright_ti5":"313.49","frp":"20.56","daynight":"D","commune":"Thiel-sur-Acolin","code_insee":"03283","departement":"Allier","region":"Auvergne-Rhône-Alpes"}},{"type":"Feature","geometry":{"type":"Point","coordinates":[3.57207,46.56886]},"properties":{"latitude":"46.56886","longitude":"3.57207","bright_ti4":"345.47","scan":"0.43","track":"0.46","acq_date":"2026-06-23","acq_time":"1316","satellite":"N","instrument":"VIIRS","confidence":"n","version":"2.0NRT","bright_ti5":"317.57","frp":"20.56","daynight":"D","commune":"Thiel-sur-Acolin","code_insee":"03283","departement":"Allier","region":"Auvergne-Rhône-Alpes"}},{"type":"Feature","geometry":{"type":"Point","coordinates":[3.56572,46.57263]},"properties":{"latitude":"46.57263","longitude":"3.56572","bright_ti4":"347.75","scan":"0.43","track":"0.46","acq_date":"2026-06-23","acq_time":"1316","satellite":"N","instrument":"VIIRS","confidence":"n","version":"2.0NRT","bright_ti5":"315.47","frp":"20.56","daynight":"D","commune":"Thiel-sur-Acolin","code_insee":"03283","departement":"Allier","region":"Auvergne-Rhône-Alpes"}},{"type":"Feature","geometry":{"type":"Point","coordinates":[3.57132,46.57309]},"properties":{"latitude":"46.57309","longitude":"3.57132","bright_ti4":"343.49","scan":"0.43","track":"0.46","acq_date":"2026-06-23","acq_time":"1316","satellite":"N","instrument":"VIIRS","confidence":"n","version":"2.0NRT","bright_ti5":"309.59","frp":"20.56","daynight":"D","commune":"Thiel-sur-Acolin","code_insee":"03283","departement":"Allier","region":"Auvergne-Rhône-Alpes"}},{"type":"Feature","geometry":{"type":"Point","coordinates":[3.56498,46.57685]},"properties":{"latitude":"46.57685","longitude":"3.56498","bright_ti4":"347.55","scan":"0.43","track":"0.46","acq_date":"2026-06-23","acq_time":"1316","satellite":"N","instrument":"VIIRS","confidence":"n","version":"2.0NRT","bright_ti5":"311.47","frp":"5.46","daynight":"D","commune":"Thiel-sur-Acolin","code_insee":"03283","departement":"Allier","region":"Auvergne-Rhône-Alpes"}},{"type":"Feature","geometry":{"type":"Point","coordinates":[1.98028,46.76022]},"properties":{"latitude":"46.76022","longitude":"1.98028","bright_ti4":"350.22","scan":"0.55","track":"0.43","acq_date":"2026-06-23","acq_time":"1316","satellite":"N","instrument":"VIIRS","confidence":"n","version":"2.0NRT","bright_ti5":"315.89","frp":"15.73","daynight":"D","commune":"Saint-Août","code_insee":"36180","departement":"Indre","region":"Centre-Val de Loire"}},{"type":"Feature","geometry":{"type":"Point","coordinates":[2.56497,46.87198]},"properties":{"latitude":"46.87198","longitude":"2.56497","bright_ti4":"341.92","scan":"0.39","track":"0.44","acq_date":"2026-06-23","acq_time":"1316","satellite":"N","instrument":"VIIRS","confidence":"n","version":"2.0NRT","bright_ti5":"310.43","frp":"5.07","daynight":"D","commune":"Dun-sur-Auron","code_insee":"18087","departement":"Cher","region":"Centre-Val de Loire"}},{"type":"Feature","geometry":{"type":"Point","coordinates":[-0.31653,47.11383]},"properties":{"latitude":"47.11383","longitude":"-0.31653","bright_ti4":"315.61","scan":"0.46","track":"0.39","acq_date":"2026-06-23","acq_time":"1316","satellite":"N","instrument":"VIIRS","confidence":"l","version":"2.0NRT","bright_ti5":"316.31","frp":"26.1","daynight":"D","commune":"Saint-Macaire-du-Bois","code_insee":"49302","departement":"Maine-et-Loire","region":"Pays de la Loire"}},{"type":"Feature","geometry":{"type":"Point","coordinates":[-0.31045,47.11454]},"properties":{"latitude":"47.11454","longitude":"-0.31045","bright_ti4":"337.97","scan":"0.46","track":"0.39","acq_date":"2026-06-23","acq_time":"1316","satellite":"N","instrument":"VIIRS","confidence":"l","version":"2.0NRT","bright_ti5":"312.36","frp":"26.1","daynight":"D","commune":"Saint-Macaire-du-Bois","code_insee":"49302","departement":"Maine-et-Loire","region":"Pays de la Loire"}},{"type":"Feature","geometry":{"type":"Point","coordinates":[-1.36463,47.22104]},"properties":{"latitude":"47.22104","longitude":"-1.36463","bright_ti4":"339.39","scan":"0.43","track":"0.38","acq_date":"2026-06-23","acq_time":"1316","satellite":"N","instrument":"VIIRS","confidence":"l","version":"2.0NRT","bright_ti5":"312.6","frp":"5.37","daynight":"D","commune":"Le Loroux-Bottereau","code_insee":"44084","departement":"Loire-Atlantique","region":"Pays de la Loire"}},{"type":"Feature","geometry":{"type":"Point","coordinates":[-1.35899,47.22173]},"properties":{"latitude":"47.22173","longitude":"-1.35899","bright_ti4":"345.48","scan":"0.43","track":"0.38","acq_date":"2026-06-23","acq_time":"1316","satellite":"N","instrument":"VIIRS","confidence":"n","version":"2.0NRT","bright_ti5":"310.63","frp":"5.37","daynight":"D","commune":"Le Loroux-Bottereau","code_insee":"44084","departement":"Loire-Atlantique","region":"Pays de la Loire"}},{"type":"Feature","geometry":{"type":"Point","coordinates":[-1.46595,47.23008]},"properties":{"latitude":"47.23008","longitude":"-1.46595","bright_ti4":"341.73","scan":"0.43","track":"0.38","acq_date":"2026-06-23","acq_time":"1316","satellite":"N","instrument":"VIIRS","confidence":"n","version":"2.0NRT","bright_ti5":"309.61","frp":"4.33","daynight":"D","commune":"Basse-Goulaine","code_insee":"44009","departement":"Loire-Atlantique","region":"Pays de la Loire"}},{"type":"Feature","geometry":{"type":"Point","coordinates":[1.38455,47.49715]},"properties":{"latitude":"47.49715","longitude":"1.38455","bright_ti4":"334.59","scan":"0.53","track":"0.42","acq_date":"2026-06-23","acq_time":"1316","satellite":"N","instrument":"VIIRS","confidence":"l","version":"2.0NRT","bright_ti5":"305.64","frp":"2.43","daynight":"D","commune":"Chitenay","code_insee":"41052","departement":"Loir-et-Cher","region":"Centre-Val de Loire"}},{"type":"Feature","geometry":{"type":"Point","coordinates":[-2.714,47.6585]},"properties":{"latitude":"47.6585","longitude":"-2.714","bright_ti4":"336.02","scan":"0.4","track":"0.37","acq_date":"2026-06-23","acq_time":"1316","satellite":"N","instrument":"VIIRS","confidence":"l","version":"2.0NRT","bright_ti5":"308.24","frp":"1.78","daynight":"D","commune":"Vannes","code_insee":"56260","departement":"Morbihan","region":"Bretagne"}},{"type":"Feature","geometry":{"type":"Point","coordinates":[3.44326,47.74343]},"properties":{"latitude":"47.74343","longitude":"3.44326","bright_ti4":"330.66","scan":"0.43","track":"0.46","acq_date":"2026-06-23","acq_time":"1316","satellite":"N","instrument":"VIIRS","confidence":"l","version":"2.0NRT","bright_ti5":"304.13","frp":"3.75","daynight":"D","commune":"Escamps","code_insee":"89154","departement":"Yonne","region":"Bourgogne-Franche-Comté"}},{"type":"Feature","geometry":{"type":"Point","coordinates":[0.73793,47.87436]},"properties":{"latitude":"47.87436","longitude":"0.73793","bright_ti4":"333.1","scan":"0.51","track":"0.41","acq_date":"2026-06-23","acq_time":"1316","satellite":"N","instrument":"VIIRS","confidence":"l","version":"2.0NRT","bright_ti5":"307.14","frp":"2.68","daynight":"D","commune":"Saint-Gervais-de-Vic","code_insee":"72286","departement":"Sarthe","region":"Pays de la Loire"}},{"type":"Feature","geometry":{"type":"Point","coordinates":[-1.79935,47.99371]},"properties":{"latitude":"47.99371","longitude":"-1.79935","bright_ti4":"342.1","scan":"0.42","track":"0.38","acq_date":"2026-06-23","acq_time":"1316","satellite":"N","instrument":"VIIRS","confidence":"n","version":"2.0NRT","bright_ti5":"309.75","frp":"8.78","daynight":"D","commune":"Guichen","code_insee":"35126","departement":"Ille-et-Vilaine","region":"Bretagne"}},{"type":"Feature","geometry":{"type":"Point","coordinates":[-1.57152,48.02567]},"properties":{"latitude":"48.02567","longitude":"-1.57152","bright_ti4":"338.26","scan":"0.43","track":"0.38","acq_date":"2026-06-23","acq_time":"1316","satellite":"N","instrument":"VIIRS","confidence":"l","version":"2.0NRT","bright_ti5":"309.5","frp":"1.04","daynight":"D","commune":"Nouvoitou","code_insee":"35204","departement":"Ille-et-Vilaine","region":"Bretagne"}},{"type":"Feature","geometry":{"type":"Point","coordinates":[2.28126,51.03034]},"properties":{"latitude":"51.03034","longitude":"2.28126","bright_ti4":"343.65","scan":"0.42","track":"0.45","acq_date":"2026-06-23","acq_time":"1316","satellite":"N","instrument":"VIIRS","confidence":"n","version":"2.0NRT","bright_ti5":"292.96","frp":"8.47","daynight":"D","commune":"Grande-Synthe","code_insee":"59271","departement":"Nord","region":"Hauts-de-France"}},{"type":"Feature","geometry":{"type":"Point","coordinates":[4.87925,43.44035]},"properties":{"latitude":"43.44035","longitude":"4.87925","bright_ti4":"309.57","scan":"0.77","track":"0.77","acq_date":"2026-06-23","acq_time":"28","satellite":"N20","instrument":"VIIRS","confidence":"n","version":"2.0NRT","bright_ti5":"288.74","frp":"3.64","daynight":"N","commune":"Fos-sur-Mer","code_insee":"13039","departement":"Bouches-du-Rhône","region":"Provence-Alpes-Côte d'Azur"}},{"type":"Feature","geometry":{"type":"Point","coordinates":[4.89882,43.44772]},"properties":{"latitude":"43.44772","longitude":"4.89882","bright_ti4":"301.49","scan":"0.77","track":"0.77","acq_date":"2026-06-23","acq_time":"28","satellite":"N20","instrument":"VIIRS","confidence":"n","version":"2.0NRT","bright_ti5":"288.08","frp":"1.47","daynight":"N","commune":"Fos-sur-Mer","code_insee":"13039","departement":"Bouches-du-Rhône","region":"Provence-Alpes-Côte d'Azur"}},{"type":"Feature","geometry":{"type":"Point","coordinates":[3.02729,43.02372]},"properties":{"latitude":"43.02372","longitude":"3.02729","bright_ti4":"302.88","scan":"0.48","track":"0.4","acq_date":"2026-06-23","acq_time":"209","satellite":"N20","instrument":"VIIRS","confidence":"n","version":"2.0NRT","bright_ti5":"292.74","frp":"0.79","daynight":"N","commune":"Port-la-Nouvelle","code_insee":"11266","departement":"Aude","region":"Occitanie"}},{"type":"Feature","geometry":{"type":"Point","coordinates":[4.99641,43.38405]},"properties":{"latitude":"43.38405","longitude":"4.99641","bright_ti4":"304.73","scan":"0.57","track":"0.43","acq_date":"2026-06-23","acq_time":"209","satellite":"N20","instrument":"VIIRS","confidence":"n","version":"2.0NRT","bright_ti5":"293.25","frp":"0.95","daynight":"N","commune":"Martigues","code_insee":"13056","departement":"Bouches-du-Rhône","region":"Provence-Alpes-Côte d'Azur"}},{"type":"Feature","geometry":{"type":"Point","coordinates":[4.90187,43.44143]},"properties":{"latitude":"43.44143","longitude":"4.90187","bright_ti4":"313.06","scan":"0.56","track":"0.43","acq_date":"2026-06-23","acq_time":"209","satellite":"N20","instrument":"VIIRS","confidence":"n","version":"2.0NRT","bright_ti5":"292.3","frp":"1.86","daynight":"N","commune":"Fos-sur-Mer","code_insee":"13039","departement":"Bouches-du-Rhône","region":"Provence-Alpes-Côte d'Azur"}},{"type":"Feature","geometry":{"type":"Point","coordinates":[4.88015,43.44209]},"properties":{"latitude":"43.44209","longitude":"4.88015","bright_ti4":"309.18","scan":"0.56","track":"0.43","acq_date":"2026-06-23","acq_time":"209","satellite":"N20","instrument":"VIIRS","confidence":"n","version":"2.0NRT","bright_ti5":"292.47","frp":"0.67","daynight":"N","commune":"Fos-sur-Mer","code_insee":"13039","departement":"Bouches-du-Rhône","region":"Provence-Alpes-Côte d'Azur"}},{"type":"Feature","geometry":{"type":"Point","coordinates":[4.90226,43.44222]},"properties":{"latitude":"43.44222","longitude":"4.90226","bright_ti4":"318.34","scan":"0.57","track":"0.43","acq_date":"2026-06-23","acq_time":"209","satellite":"N20","instrument":"VIIRS","confidence":"n","version":"2.0NRT","bright_ti5":"292.51","frp":"2.12","daynight":"N","commune":"Fos-sur-Mer","code_insee":"13039","departement":"Bouches-du-Rhône","region":"Provence-Alpes-Côte d'Azur"}},{"type":"Feature","geometry":{"type":"Point","coordinates":[4.88047,43.44279]},"properties":{"latitude":"43.44279","longitude":"4.88047","bright_ti4":"309.16","scan":"0.56","track":"0.43","acq_date":"2026-06-23","acq_time":"209","satellite":"N20","instrument":"VIIRS","confidence":"n","version":"2.0NRT","bright_ti5":"292.5","frp":"2.47","daynight":"N","commune":"Fos-sur-Mer","code_insee":"13039","departement":"Bouches-du-Rhône","region":"Provence-Alpes-Côte d'Azur"}},{"type":"Feature","geometry":{"type":"Point","coordinates":[4.89513,43.44292]},"properties":{"latitude":"43.44292","longitude":"4.89513","bright_ti4":"306.18","scan":"0.56","track":"0.43","acq_date":"2026-06-23","acq_time":"209","satellite":"N20","instrument":"VIIRS","confidence":"n","version":"2.0NRT","bright_ti5":"292.84","frp":"3.55","daynight":"N","commune":"Fos-sur-Mer","code_insee":"13039","departement":"Bouches-du-Rhône","region":"Provence-Alpes-Côte d'Azur"}},{"type":"Feature","geometry":{"type":"Point","coordinates":[4.8955,43.44368]},"properties":{"latitude":"43.44368","longitude":"4.8955","bright_ti4":"305.56","scan":"0.56","track":"0.43","acq_date":"2026-06-23","acq_time":"209","satellite":"N20","instrument":"VIIRS","confidence":"n","version":"2.0NRT","bright_ti5":"292.89","frp":"2.12","daynight":"N","commune":"Fos-sur-Mer","code_insee":"13039","departement":"Bouches-du-Rhône","region":"Provence-Alpes-Côte d'Azur"}},{"type":"Feature","geometry":{"type":"Point","coordinates":[4.89671,43.44674]},"properties":{"latitude":"43.44674","longitude":"4.89671","bright_ti4":"319.58","scan":"0.56","track":"0.43","acq_date":"2026-06-23","acq_time":"209","satellite":"N20","instrument":"VIIRS","confidence":"n","version":"2.0NRT","bright_ti5":"294.85","frp":"3.22","daynight":"N","commune":"Fos-sur-Mer","code_insee":"13039","departement":"Bouches-du-Rhône","region":"Provence-Alpes-Côte d'Azur"}},{"type":"Feature","geometry":{"type":"Point","coordinates":[4.89709,43.44751]},"properties":{"latitude":"43.44751","longitude":"4.89709","bright_ti4":"317.23","scan":"0.56","track":"0.43","acq_date":"2026-06-23","acq_time":"209","satellite":"N20","instrument":"VIIRS","confidence":"n","version":"2.0NRT","bright_ti5":"294.39","frp":"2.12","daynight":"N","commune":"Fos-sur-Mer","code_insee":"13039","departement":"Bouches-du-Rhône","region":"Provence-Alpes-Côte d'Azur"}},{"type":"Feature","geometry":{"type":"Point","coordinates":[-0.16951,44.83775]},"properties":{"latitude":"44.83775","longitude":"-0.16951","bright_ti4":"305.27","scan":"0.39","track":"0.36","acq_date":"2026-06-23","acq_time":"209","satellite":"N20","instrument":"VIIRS","confidence":"n","version":"2.0NRT","bright_ti5":"294.14","frp":"0.98","daynight":"N","commune":"Cabara","code_insee":"33078","departement":"Gironde","region":"Nouvelle-Aquitaine"}},{"type":"Feature","geometry":{"type":"Point","coordinates":[5.67002,45.22987]},"properties":{"latitude":"45.22987","longitude":"5.67002","bright_ti4":"303.93","scan":"0.56","track":"0.43","acq_date":"2026-06-23","acq_time":"209","satellite":"N20","instrument":"VIIRS","confidence":"n","version":"2.0NRT","bright_ti5":"293.61","frp":"0.79","daynight":"N","commune":"Saint-Égrève","code_insee":"38382","departement":"Isère","region":"Auvergne-Rhône-Alpes"}},{"type":"Feature","geometry":{"type":"Point","coordinates":[-1.03792,48.10662]},"properties":{"latitude":"48.10662","longitude":"-1.03792","bright_ti4":"306.68","scan":"0.39","track":"0.36","acq_date":"2026-06-23","acq_time":"209","satellite":"N20","instrument":"VIIRS","confidence":"n","version":"2.0NRT","bright_ti5":"296.62","frp":"1.49","daynight":"N","commune":"Saint-Pierre-la-Cour","code_insee":"53247","departement":"Mayenne","region":"Pays de la Loire"}},{"type":"Feature","geometry":{"type":"Point","coordinates":[6.11987,48.6081]},"properties":{"latitude":"48.6081","longitude":"6.11987","bright_ti4":"309.75","scan":"0.5","track":"0.41","acq_date":"2026-06-23","acq_time":"209","satellite":"N20","instrument":"VIIRS","confidence":"n","version":"2.0NRT","bright_ti5":"293.67","frp":"1.78","daynight":"N","commune":"Neuves-Maisons","code_insee":"54397","departement":"Meurthe-et-Moselle","region":"Grand Est"}},{"type":"Feature","geometry":{"type":"Point","coordinates":[5.68094,48.71603]},"properties":{"latitude":"48.71603","longitude":"5.68094","bright_ti4":"302.27","scan":"0.48","track":"0.4","acq_date":"2026-06-23","acq_time":"209","satellite":"N20","instrument":"VIIRS","confidence":"n","version":"2.0NRT","bright_ti5":"291.53","frp":"0.53","daynight":"N","commune":"Sorcy-Saint-Martin","code_insee":"55496","departement":"Meuse","region":"Grand Est"}},{"type":"Feature","geometry":{"type":"Point","coordinates":[4.56625,48.77004]},"properties":{"latitude":"48.77004","longitude":"4.56625","bright_ti4":"305.12","scan":"0.44","track":"0.38","acq_date":"2026-06-23","acq_time":"209","satellite":"N20","instrument":"VIIRS","confidence":"n","version":"2.0NRT","bright_ti5":"294","frp":"1.14","daynight":"N","commune":"Couvrot","code_insee":"51195","departement":"Marne","region":"Grand Est"}},{"type":"Feature","geometry":{"type":"Point","coordinates":[4.56492,48.7702]},"properties":{"latitude":"48.7702","longitude":"4.56492","bright_ti4":"306.43","scan":"0.44","track":"0.39","acq_date":"2026-06-23","acq_time":"209","satellite":"N20","instrument":"VIIRS","confidence":"n","version":"2.0NRT","bright_ti5":"293.93","frp":"1.35","daynight":"N","commune":"Couvrot","code_insee":"51195","departement":"Marne","region":"Grand Est"}},{"type":"Feature","geometry":{"type":"Point","coordinates":[3.56584,50.40155]},"properties":{"latitude":"50.40155","longitude":"3.56584","bright_ti4":"308.82","scan":"0.4","track":"0.37","acq_date":"2026-06-23","acq_time":"209","satellite":"N20","instrument":"VIIRS","confidence":"n","version":"2.0NRT","bright_ti5":"290.64","frp":"0.61","daynight":"N","commune":"Saint-Saulve","code_insee":"59544","departement":"Nord","region":"Hauts-de-France"}},{"type":"Feature","geometry":{"type":"Point","coordinates":[0.75495,43.26091]},"properties":{"latitude":"43.26091","longitude":"0.75495","bright_ti4":"367","scan":"0.47","track":"0.64","acq_date":"2026-06-23","acq_time":"1151","satellite":"N20","instrument":"VIIRS","confidence":"h","version":"2.0NRT","bright_ti5":"307.12","frp":"14.18","daynight":"D","commune":"Ciadoux","code_insee":"31141","departement":"Haute-Garonne","region":"Occitanie"}},{"type":"Feature","geometry":{"type":"Point","coordinates":[0.7519,43.26641]},"properties":{"latitude":"43.26641","longitude":"0.7519","bright_ti4":"337.43","scan":"0.47","track":"0.64","acq_date":"2026-06-23","acq_time":"1151","satellite":"N20","instrument":"VIIRS","confidence":"n","version":"2.0NRT","bright_ti5":"304.69","frp":"1.88","daynight":"D","commune":"Escanecrabe","code_insee":"31170","departement":"Haute-Garonne","region":"Occitanie"}},{"type":"Feature","geometry":{"type":"Point","coordinates":[4.88985,43.43303]},"properties":{"latitude":"43.43303","longitude":"4.88985","bright_ti4":"339.08","scan":"0.59","track":"0.53","acq_date":"2026-06-23","acq_time":"1151","satellite":"N20","instrument":"VIIRS","confidence":"n","version":"2.0NRT","bright_ti5":"305.46","frp":"11.07","daynight":"D","commune":"Fos-sur-Mer","code_insee":"13039","departement":"Bouches-du-Rhône","region":"Provence-Alpes-Côte d'Azur"}},{"type":"Feature","geometry":{"type":"Point","coordinates":[4.89927,43.44582]},"properties":{"latitude":"43.44582","longitude":"4.89927","bright_ti4":"337.48","scan":"0.59","track":"0.53","acq_date":"2026-06-23","acq_time":"1151","satellite":"N20","instrument":"VIIRS","confidence":"n","version":"2.0NRT","bright_ti5":"305.7","frp":"9.43","daynight":"D","commune":"Fos-sur-Mer","code_insee":"13039","departement":"Bouches-du-Rhône","region":"Provence-Alpes-Côte d'Azur"}},{"type":"Feature","geometry":{"type":"Point","coordinates":[2.3827,44.77468]},"properties":{"latitude":"44.77468","longitude":"2.3827","bright_ti4":"338.45","scan":"0.36","track":"0.57","acq_date":"2026-06-23","acq_time":"1153","satellite":"N20","instrument":"VIIRS","confidence":"n","version":"2.0NRT","bright_ti5":"298.31","frp":"1.54","daynight":"D","commune":"Marcolès","code_insee":"15117","departement":"Cantal","region":"Auvergne-Rhône-Alpes"}},{"type":"Feature","geometry":{"type":"Point","coordinates":[0.55551,44.8565]},"properties":{"latitude":"44.8565","longitude":"0.55551","bright_ti4":"332.53","scan":"0.43","track":"0.62","acq_date":"2026-06-23","acq_time":"1153","satellite":"N20","instrument":"VIIRS","confidence":"l","version":"2.0NRT","bright_ti5":"306.34","frp":"1.86","daynight":"D","commune":"Creysse","code_insee":"24145","departement":"Dordogne","region":"Nouvelle-Aquitaine"}},{"type":"Feature","geometry":{"type":"Point","coordinates":[5.4573,45.81453]},"properties":{"latitude":"45.81453","longitude":"5.4573","bright_ti4":"341.12","scan":"0.48","track":"0.48","acq_date":"2026-06-23","acq_time":"1153","satellite":"N20","instrument":"VIIRS","confidence":"n","version":"2.0NRT","bright_ti5":"299.21","frp":"9.89","daynight":"D","commune":"Serrières-de-Briord","code_insee":"01403","departement":"Ain","region":"Auvergne-Rhône-Alpes"}},{"type":"Feature","geometry":{"type":"Point","coordinates":[5.46372,45.8161]},"properties":{"latitude":"45.8161","longitude":"5.46372","bright_ti4":"340.68","scan":"0.48","track":"0.48","acq_date":"2026-06-23","acq_time":"1153","satellite":"N20","instrument":"VIIRS","confidence":"n","version":"2.0NRT","bright_ti5":"298.35","frp":"5.1","daynight":"D","commune":"Bénonces","code_insee":"01037","departement":"Ain","region":"Auvergne-Rhône-Alpes"}},{"type":"Feature","geometry":{"type":"Point","coordinates":[5.462,45.82041]},"properties":{"latitude":"45.82041","longitude":"5.462","bright_ti4":"341.84","scan":"0.48","track":"0.48","acq_date":"2026-06-23","acq_time":"1153","satellite":"N20","instrument":"VIIRS","confidence":"n","version":"2.0NRT","bright_ti5":"298.61","frp":"32.22","daynight":"D","commune":"Bénonces","code_insee":"01037","departement":"Ain","region":"Auvergne-Rhône-Alpes"}},{"type":"Feature","geometry":{"type":"Point","coordinates":[0.21215,46.16387]},"properties":{"latitude":"46.16387","longitude":"0.21215","bright_ti4":"343.62","scan":"0.41","track":"0.6","acq_date":"2026-06-23","acq_time":"1153","satellite":"N20","instrument":"VIIRS","confidence":"n","version":"2.0NRT","bright_ti5":"308.49","frp":"2.7","daynight":"D","commune":"Linazay","code_insee":"86134","departement":"Vienne","region":"Nouvelle-Aquitaine"}},{"type":"Feature","geometry":{"type":"Point","coordinates":[0.21444,46.16444]},"properties":{"latitude":"46.16444","longitude":"0.21444","bright_ti4":"333.31","scan":"0.41","track":"0.6","acq_date":"2026-06-23","acq_time":"1153","satellite":"N20","instrument":"VIIRS","confidence":"l","version":"2.0NRT","bright_ti5":"307.42","frp":"2.32","daynight":"D","commune":"Linazay","code_insee":"86134","departement":"Vienne","region":"Nouvelle-Aquitaine"}},{"type":"Feature","geometry":{"type":"Point","coordinates":[1.74033,46.21156]},"properties":{"latitude":"46.21156","longitude":"1.74033","bright_ti4":"348.31","scan":"0.35","track":"0.56","acq_date":"2026-06-23","acq_time":"1153","satellite":"N20","instrument":"VIIRS","confidence":"n","version":"2.0NRT","bright_ti5":"310.32","frp":"12.61","daynight":"D","commune":"Saint-Vaury","code_insee":"23247","departement":"Creuse","region":"Nouvelle-Aquitaine"}},{"type":"Feature","geometry":{"type":"Point","coordinates":[1.74456,46.21275]},"properties":{"latitude":"46.21275","longitude":"1.74456","bright_ti4":"367","scan":"0.35","track":"0.56","acq_date":"2026-06-23","acq_time":"1153","satellite":"N20","instrument":"VIIRS","confidence":"h","version":"2.0NRT","bright_ti5":"311.32","frp":"12.61","daynight":"D","commune":"Saint-Vaury","code_insee":"23247","departement":"Creuse","region":"Nouvelle-Aquitaine"}},{"type":"Feature","geometry":{"type":"Point","coordinates":[0.92979,46.38426]},"properties":{"latitude":"46.38426","longitude":"0.92979","bright_ti4":"367","scan":"0.37","track":"0.58","acq_date":"2026-06-23","acq_time":"1153","satellite":"N20","instrument":"VIIRS","confidence":"h","version":"2.0NRT","bright_ti5":"314.92","frp":"12.14","daynight":"D","commune":"Montmorillon","code_insee":"86165","departement":"Vienne","region":"Nouvelle-Aquitaine"}},{"type":"Feature","geometry":{"type":"Point","coordinates":[0.92477,46.38722]},"properties":{"latitude":"46.38722","longitude":"0.92477","bright_ti4":"339.69","scan":"0.37","track":"0.58","acq_date":"2026-06-23","acq_time":"1153","satellite":"N20","instrument":"VIIRS","confidence":"n","version":"2.0NRT","bright_ti5":"306.7","frp":"10.06","daynight":"D","commune":"Montmorillon","code_insee":"86165","departement":"Vienne","region":"Nouvelle-Aquitaine"}},{"type":"Feature","geometry":{"type":"Point","coordinates":[0.92929,46.38854]},"properties":{"latitude":"46.38854","longitude":"0.92929","bright_ti4":"367","scan":"0.37","track":"0.58","acq_date":"2026-06-23","acq_time":"1153","satellite":"N20","instrument":"VIIRS","confidence":"h","version":"2.0NRT","bright_ti5":"305.32","frp":"10.14","daynight":"D","commune":"Montmorillon","code_insee":"86165","departement":"Vienne","region":"Nouvelle-Aquitaine"}},{"type":"Feature","geometry":{"type":"Point","coordinates":[-0.32461,46.71646]},"properties":{"latitude":"46.71646","longitude":"-0.32461","bright_ti4":"332.55","scan":"0.41","track":"0.61","acq_date":"2026-06-23","acq_time":"1153","satellite":"N20","instrument":"VIIRS","confidence":"l","version":"2.0NRT","bright_ti5":"305.9","frp":"2.44","daynight":"D","commune":"Saint-Germain-de-Longue-Chaume","code_insee":"79255","departement":"Deux-Sèvres","region":"Nouvelle-Aquitaine"}},{"type":"Feature","geometry":{"type":"Point","coordinates":[-0.32531,46.71689]},"properties":{"latitude":"46.71689","longitude":"-0.32531","bright_ti4":"337.51","scan":"0.41","track":"0.61","acq_date":"2026-06-23","acq_time":"1153","satellite":"N20","instrument":"VIIRS","confidence":"n","version":"2.0NRT","bright_ti5":"305.88","frp":"2.25","daynight":"D","commune":"Saint-Germain-de-Longue-Chaume","code_insee":"79255","departement":"Deux-Sèvres","region":"Nouvelle-Aquitaine"}},{"type":"Feature","geometry":{"type":"Point","coordinates":[1.98007,46.75462]},"properties":{"latitude":"46.75462","longitude":"1.98007","bright_ti4":"345.2","scan":"0.32","track":"0.55","acq_date":"2026-06-23","acq_time":"1153","satellite":"N20","instrument":"VIIRS","confidence":"n","version":"2.0NRT","bright_ti5":"310.86","frp":"3.16","daynight":"D","commune":"Saint-Août","code_insee":"36180","departement":"Indre","region":"Centre-Val de Loire"}},{"type":"Feature","geometry":{"type":"Point","coordinates":[1.97733,46.75935]},"properties":{"latitude":"46.75935","longitude":"1.97733","bright_ti4":"338.5","scan":"0.32","track":"0.55","acq_date":"2026-06-23","acq_time":"1153","satellite":"N20","instrument":"VIIRS","confidence":"n","version":"2.0NRT","bright_ti5":"311.34","frp":"4.62","daynight":"D","commune":"Saint-Août","code_insee":"36180","departement":"Indre","region":"Centre-Val de Loire"}},{"type":"Feature","geometry":{"type":"Point","coordinates":[1.98129,46.76044]},"properties":{"latitude":"46.76044","longitude":"1.98129","bright_ti4":"367","scan":"0.32","track":"0.55","acq_date":"2026-06-23","acq_time":"1153","satellite":"N20","instrument":"VIIRS","confidence":"h","version":"2.0NRT","bright_ti5":"312.12","frp":"10.66","daynight":"D","commune":"Saint-Août","code_insee":"36180","departement":"Indre","region":"Centre-Val de Loire"}},{"type":"Feature","geometry":{"type":"Point","coordinates":[2.56244,46.87077]},"properties":{"latitude":"46.87077","longitude":"2.56244","bright_ti4":"341.41","scan":"0.61","track":"0.53","acq_date":"2026-06-23","acq_time":"1153","satellite":"N20","instrument":"VIIRS","confidence":"n","version":"2.0NRT","bright_ti5":"307.07","frp":"5.12","daynight":"D","commune":"Dun-sur-Auron","code_insee":"18087","departement":"Cher","region":"Centre-Val de Loire"}},{"type":"Feature","geometry":{"type":"Point","coordinates":[8.00256,48.8965]},"properties":{"latitude":"48.8965","longitude":"8.00256","bright_ti4":"333.09","scan":"0.49","track":"0.4","acq_date":"2026-06-23","acq_time":"1153","satellite":"N20","instrument":"VIIRS","confidence":"l","version":"2.0NRT","bright_ti5":"305.72","frp":"6.23","daynight":"D","commune":"Hatten","code_insee":"67184","departement":"Bas-Rhin","region":"Grand Est"}},{"type":"Feature","geometry":{"type":"Point","coordinates":[2.29817,51.04625]},"properties":{"latitude":"51.04625","longitude":"2.29817","bright_ti4":"341.69","scan":"0.47","track":"0.48","acq_date":"2026-06-23","acq_time":"1155","satellite":"N20","instrument":"VIIRS","confidence":"n","version":"2.0NRT","bright_ti5":"290.59","frp":"7.19","daynight":"D","commune":"Grande-Synthe","code_insee":"59271","departement":"Nord","region":"Hauts-de-France"}},{"type":"Feature","geometry":{"type":"Point","coordinates":[4.90047,43.43924]},"properties":{"latitude":"43.43924","longitude":"4.90047","bright_ti4":"331.9","scan":"0.47","track":"0.64","acq_date":"2026-06-23","acq_time":"1333","satellite":"N20","instrument":"VIIRS","confidence":"n","version":"2.0NRT","bright_ti5":"300.7","frp":"7.05","daynight":"D","commune":"Fos-sur-Mer","code_insee":"13039","departement":"Bouches-du-Rhône","region":"Provence-Alpes-Côte d'Azur"}},{"type":"Feature","geometry":{"type":"Point","coordinates":[4.90108,43.44181]},"properties":{"latitude":"43.44181","longitude":"4.90108","bright_ti4":"339.67","scan":"0.47","track":"0.64","acq_date":"2026-06-23","acq_time":"1333","satellite":"N20","instrument":"VIIRS","confidence":"n","version":"2.0NRT","bright_ti5":"302.71","frp":"7.21","daynight":"D","commune":"Fos-sur-Mer","code_insee":"13039","departement":"Bouches-du-Rhône","region":"Provence-Alpes-Côte d'Azur"}},{"type":"Feature","geometry":{"type":"Point","coordinates":[4.90018,43.44518]},"properties":{"latitude":"43.44518","longitude":"4.90018","bright_ti4":"337.43","scan":"0.47","track":"0.64","acq_date":"2026-06-23","acq_time":"1333","satellite":"N20","instrument":"VIIRS","confidence":"n","version":"2.0NRT","bright_ti5":"303.97","frp":"6.41","daynight":"D","commune":"Fos-sur-Mer","code_insee":"13039","departement":"Bouches-du-Rhône","region":"Provence-Alpes-Côte d'Azur"}},{"type":"Feature","geometry":{"type":"Point","coordinates":[0.08693,44.14425]},"properties":{"latitude":"44.14425","longitude":"0.08693","bright_ti4":"347.47","scan":"0.54","track":"0.51","acq_date":"2026-06-23","acq_time":"1333","satellite":"N20","instrument":"VIIRS","confidence":"n","version":"2.0NRT","bright_ti5":"312.54","frp":"54.33","daynight":"D","commune":"Boussès","code_insee":"47039","departement":"Lot-et-Garonne","region":"Nouvelle-Aquitaine"}},{"type":"Feature","geometry":{"type":"Point","coordinates":[0.11597,44.14442]},"properties":{"latitude":"44.14442","longitude":"0.11597","bright_ti4":"344.18","scan":"0.54","track":"0.51","acq_date":"2026-06-23","acq_time":"1333","satellite":"N20","instrument":"VIIRS","confidence":"n","version":"2.0NRT","bright_ti5":"318.27","frp":"52.42","daynight":"D","commune":"Boussès","code_insee":"47039","departement":"Lot-et-Garonne","region":"Nouvelle-Aquitaine"}},{"type":"Feature","geometry":{"type":"Point","coordinates":[0.12283,44.1449]},"properties":{"latitude":"44.1449","longitude":"0.12283","bright_ti4":"343.36","scan":"0.54","track":"0.51","acq_date":"2026-06-23","acq_time":"1333","satellite":"N20","instrument":"VIIRS","confidence":"n","version":"2.0NRT","bright_ti5":"310.43","frp":"27.56","daynight":"D","commune":"Boussès","code_insee":"47039","departement":"Lot-et-Garonne","region":"Nouvelle-Aquitaine"}},{"type":"Feature","geometry":{"type":"Point","coordinates":[0.12142,44.14648]},"properties":{"latitude":"44.14648","longitude":"0.12142","bright_ti4":"342.71","scan":"0.54","track":"0.51","acq_date":"2026-06-23","acq_time":"1333","satellite":"N20","instrument":"VIIRS","confidence":"n","version":"2.0NRT","bright_ti5":"308.65","frp":"84.33","daynight":"D","commune":"Boussès","code_insee":"47039","departement":"Lot-et-Garonne","region":"Nouvelle-Aquitaine"}},{"type":"Feature","geometry":{"type":"Point","coordinates":[0.08783,44.14717]},"properties":{"latitude":"44.14717","longitude":"0.08783","bright_ti4":"347.24","scan":"0.54","track":"0.51","acq_date":"2026-06-23","acq_time":"1333","satellite":"N20","instrument":"VIIRS","confidence":"n","version":"2.0NRT","bright_ti5":"311.7","frp":"46.15","daynight":"D","commune":"Boussès","code_insee":"47039","departement":"Lot-et-Garonne","region":"Nouvelle-Aquitaine"}},{"type":"Feature","geometry":{"type":"Point","coordinates":[2.26266,44.80059]},"properties":{"latitude":"44.80059","longitude":"2.26266","bright_ti4":"333.74","scan":"0.35","track":"0.57","acq_date":"2026-06-23","acq_time":"1333","satellite":"N20","instrument":"VIIRS","confidence":"l","version":"2.0NRT","bright_ti5":"305.48","frp":"5.41","daynight":"D","commune":"Boisset","code_insee":"15021","departement":"Cantal","region":"Auvergne-Rhône-Alpes"}},{"type":"Feature","geometry":{"type":"Point","coordinates":[2.26477,44.80122]},"properties":{"latitude":"44.80122","longitude":"2.26477","bright_ti4":"342.14","scan":"0.35","track":"0.57","acq_date":"2026-06-23","acq_time":"1333","satellite":"N20","instrument":"VIIRS","confidence":"n","version":"2.0NRT","bright_ti5":"305.59","frp":"5.99","daynight":"D","commune":"Boisset","code_insee":"15021","departement":"Cantal","region":"Auvergne-Rhône-Alpes"}},{"type":"Feature","geometry":{"type":"Point","coordinates":[3.56509,46.56963]},"properties":{"latitude":"46.56963","longitude":"3.56509","bright_ti4":"353.9","scan":"0.42","track":"0.61","acq_date":"2026-06-23","acq_time":"1333","satellite":"N20","instrument":"VIIRS","confidence":"n","version":"2.0NRT","bright_ti5":"310.99","frp":"4.29","daynight":"D","commune":"Thiel-sur-Acolin","code_insee":"03283","departement":"Allier","region":"Auvergne-Rhône-Alpes"}},{"type":"Feature","geometry":{"type":"Point","coordinates":[3.57061,46.56979]},"properties":{"latitude":"46.56979","longitude":"3.57061","bright_ti4":"336.51","scan":"0.42","track":"0.61","acq_date":"2026-06-23","acq_time":"1333","satellite":"N20","instrument":"VIIRS","confidence":"n","version":"2.0NRT","bright_ti5":"305.75","frp":"4.29","daynight":"D","commune":"Thiel-sur-Acolin","code_insee":"03283","departement":"Allier","region":"Auvergne-Rhône-Alpes"}},{"type":"Feature","geometry":{"type":"Point","coordinates":[3.55926,46.57515]},"properties":{"latitude":"46.57515","longitude":"3.55926","bright_ti4":"349.28","scan":"0.42","track":"0.61","acq_date":"2026-06-23","acq_time":"1333","satellite":"N20","instrument":"VIIRS","confidence":"n","version":"2.0NRT","bright_ti5":"307.67","frp":"12.62","daynight":"D","commune":"Thiel-sur-Acolin","code_insee":"03283","departement":"Allier","region":"Auvergne-Rhône-Alpes"}},{"type":"Feature","geometry":{"type":"Point","coordinates":[3.56473,46.57531]},"properties":{"latitude":"46.57531","longitude":"3.56473","bright_ti4":"367","scan":"0.42","track":"0.61","acq_date":"2026-06-23","acq_time":"1333","satellite":"N20","instrument":"VIIRS","confidence":"h","version":"2.0NRT","bright_ti5":"310.13","frp":"17.74","daynight":"D","commune":"Thiel-sur-Acolin","code_insee":"03283","departement":"Allier","region":"Auvergne-Rhône-Alpes"}},{"type":"Feature","geometry":{"type":"Point","coordinates":[-1.63931,46.6386]},"properties":{"latitude":"46.6386","longitude":"-1.63931","bright_ti4":"335.41","scan":"0.47","track":"0.48","acq_date":"2026-06-23","acq_time":"1333","satellite":"N20","instrument":"VIIRS","confidence":"l","version":"2.0NRT","bright_ti5":"309.73","frp":"2.29","daynight":"D","commune":"Saint-Georges-de-Pointindoux","code_insee":"85218","departement":"Vendée","region":"Pays de la Loire"}},{"type":"Feature","geometry":{"type":"Point","coordinates":[1.97799,46.75895]},"properties":{"latitude":"46.75895","longitude":"1.97799","bright_ti4":"349.28","scan":"0.35","track":"0.57","acq_date":"2026-06-23","acq_time":"1333","satellite":"N20","instrument":"VIIRS","confidence":"n","version":"2.0NRT","bright_ti5":"312.99","frp":"4.53","daynight":"D","commune":"Saint-Août","code_insee":"36180","departement":"Indre","region":"Centre-Val de Loire"}},{"type":"Feature","geometry":{"type":"Point","coordinates":[1.98272,46.75916]},"properties":{"latitude":"46.75916","longitude":"1.98272","bright_ti4":"344.07","scan":"0.35","track":"0.57","acq_date":"2026-06-23","acq_time":"1333","satellite":"N20","instrument":"VIIRS","confidence":"n","version":"2.0NRT","bright_ti5":"309.38","frp":"4.53","daynight":"D","commune":"Saint-Août","code_insee":"36180","departement":"Indre","region":"Centre-Val de Loire"}},{"type":"Feature","geometry":{"type":"Point","coordinates":[-0.31446,47.11082]},"properties":{"latitude":"47.11082","longitude":"-0.31446","bright_ti4":"350.85","scan":"0.55","track":"0.51","acq_date":"2026-06-23","acq_time":"1333","satellite":"N20","instrument":"VIIRS","confidence":"n","version":"2.0NRT","bright_ti5":"310.82","frp":"27.96","daynight":"D","commune":"Saint-Macaire-du-Bois","code_insee":"49302","departement":"Maine-et-Loire","region":"Pays de la Loire"}},{"type":"Feature","geometry":{"type":"Point","coordinates":[2.72305,47.19785]},"properties":{"latitude":"47.19785","longitude":"2.72305","bright_ti4":"342.27","scan":"0.39","track":"0.59","acq_date":"2026-06-23","acq_time":"1333","satellite":"N20","instrument":"VIIRS","confidence":"n","version":"2.0NRT","bright_ti5":"303.59","frp":"4.36","daynight":"D","commune":"Azy","code_insee":"18019","departement":"Cher","region":"Centre-Val de Loire"}},{"type":"Feature","geometry":{"type":"Point","coordinates":[0.73969,47.87167]},"properties":{"latitude":"47.87167","longitude":"0.73969","bright_ti4":"343.48","scan":"0.63","track":"0.54","acq_date":"2026-06-23","acq_time":"1333","satellite":"N20","instrument":"VIIRS","confidence":"n","version":"2.0NRT","bright_ti5":"305.14","frp":"16.41","daynight":"D","commune":"Saint-Gervais-de-Vic","code_insee":"72286","departement":"Sarthe","region":"Pays de la Loire"}},{"type":"Feature","geometry":{"type":"Point","coordinates":[0.73804,47.8721]},"properties":{"latitude":"47.8721","longitude":"0.73804","bright_ti4":"354.66","scan":"0.63","track":"0.54","acq_date":"2026-06-23","acq_time":"1333","satellite":"N20","instrument":"VIIRS","confidence":"n","version":"2.0NRT","bright_ti5":"304.29","frp":"14.37","daynight":"D","commune":"Saint-Gervais-de-Vic","code_insee":"72286","departement":"Sarthe","region":"Pays de la Loire"}},{"type":"Feature","geometry":{"type":"Point","coordinates":[4.90019,43.43987]},"properties":{"latitude":"43.43987","longitude":"4.90019","bright_ti4":"321.11","scan":"0.55","track":"0.43","acq_date":"2026-06-23","acq_time":"113","satellite":"N21","instrument":"VIIRS","confidence":"n","version":"2.0NRT","bright_ti5":"291.73","frp":"2.07","daynight":"N","commune":"Fos-sur-Mer","code_insee":"13039","departement":"Bouches-du-Rhône","region":"Provence-Alpes-Côte d'Azur"}},{"type":"Feature","geometry":{"type":"Point","coordinates":[4.90119,43.44025]},"properties":{"latitude":"43.44025","longitude":"4.90119","bright_ti4":"320.55","scan":"0.55","track":"0.43","acq_date":"2026-06-23","acq_time":"113","satellite":"N21","instrument":"VIIRS","confidence":"n","version":"2.0NRT","bright_ti5":"292.24","frp":"2.63","daynight":"N","commune":"Fos-sur-Mer","code_insee":"13039","departement":"Bouches-du-Rhône","region":"Provence-Alpes-Côte d'Azur"}},{"type":"Feature","geometry":{"type":"Point","coordinates":[4.89444,43.44091]},"properties":{"latitude":"43.44091","longitude":"4.89444","bright_ti4":"305.81","scan":"0.55","track":"0.43","acq_date":"2026-06-23","acq_time":"113","satellite":"N21","instrument":"VIIRS","confidence":"n","version":"2.0NRT","bright_ti5":"293.22","frp":"2.63","daynight":"N","commune":"Fos-sur-Mer","code_insee":"13039","departement":"Bouches-du-Rhône","region":"Provence-Alpes-Côte d'Azur"}},{"type":"Feature","geometry":{"type":"Point","coordinates":[4.87991,43.44196]},"properties":{"latitude":"43.44196","longitude":"4.87991","bright_ti4":"312.37","scan":"0.55","track":"0.43","acq_date":"2026-06-23","acq_time":"113","satellite":"N21","instrument":"VIIRS","confidence":"n","version":"2.0NRT","bright_ti5":"292.86","frp":"1.88","daynight":"N","commune":"Fos-sur-Mer","code_insee":"13039","departement":"Bouches-du-Rhône","region":"Provence-Alpes-Côte d'Azur"}},{"type":"Feature","geometry":{"type":"Point","coordinates":[4.88088,43.44224]},"properties":{"latitude":"43.44224","longitude":"4.88088","bright_ti4":"313.18","scan":"0.55","track":"0.43","acq_date":"2026-06-23","acq_time":"113","satellite":"N21","instrument":"VIIRS","confidence":"n","version":"2.0NRT","bright_ti5":"293.31","frp":"1.58","daynight":"N","commune":"Fos-sur-Mer","code_insee":"13039","departement":"Bouches-du-Rhône","region":"Provence-Alpes-Côte d'Azur"}},{"type":"Feature","geometry":{"type":"Point","coordinates":[4.90092,43.44376]},"properties":{"latitude":"43.44376","longitude":"4.90092","bright_ti4":"314.52","scan":"0.55","track":"0.43","acq_date":"2026-06-23","acq_time":"113","satellite":"N21","instrument":"VIIRS","confidence":"n","version":"2.0NRT","bright_ti5":"294.37","frp":"2.75","daynight":"N","commune":"Fos-sur-Mer","code_insee":"13039","departement":"Bouches-du-Rhône","region":"Provence-Alpes-Côte d'Azur"}},{"type":"Feature","geometry":{"type":"Point","coordinates":[4.89417,43.44446]},"properties":{"latitude":"43.44446","longitude":"4.89417","bright_ti4":"311.47","scan":"0.55","track":"0.43","acq_date":"2026-06-23","acq_time":"113","satellite":"N21","instrument":"VIIRS","confidence":"n","version":"2.0NRT","bright_ti5":"294.09","frp":"2.66","daynight":"N","commune":"Fos-sur-Mer","code_insee":"13039","departement":"Bouches-du-Rhône","region":"Provence-Alpes-Côte d'Azur"}},{"type":"Feature","geometry":{"type":"Point","coordinates":[4.89518,43.44481]},"properties":{"latitude":"43.44481","longitude":"4.89518","bright_ti4":"316.06","scan":"0.55","track":"0.43","acq_date":"2026-06-23","acq_time":"113","satellite":"N21","instrument":"VIIRS","confidence":"n","version":"2.0NRT","bright_ti5":"294.99","frp":"2.63","daynight":"N","commune":"Fos-sur-Mer","code_insee":"13039","departement":"Bouches-du-Rhône","region":"Provence-Alpes-Côte d'Azur"}},{"type":"Feature","geometry":{"type":"Point","coordinates":[4.88838,43.44547]},"properties":{"latitude":"43.44547","longitude":"4.88838","bright_ti4":"304.96","scan":"0.55","track":"0.43","acq_date":"2026-06-23","acq_time":"113","satellite":"N21","instrument":"VIIRS","confidence":"n","version":"2.0NRT","bright_ti5":"292.69","frp":"1.58","daynight":"N","commune":"Fos-sur-Mer","code_insee":"13039","departement":"Bouches-du-Rhône","region":"Provence-Alpes-Côte d'Azur"}},{"type":"Feature","geometry":{"type":"Point","coordinates":[4.8949,43.44835]},"properties":{"latitude":"43.44835","longitude":"4.8949","bright_ti4":"317.12","scan":"0.55","track":"0.43","acq_date":"2026-06-23","acq_time":"113","satellite":"N21","instrument":"VIIRS","confidence":"n","version":"2.0NRT","bright_ti5":"292.65","frp":"2.66","daynight":"N","commune":"Fos-sur-Mer","code_insee":"13039","departement":"Bouches-du-Rhône","region":"Provence-Alpes-Côte d'Azur"}},{"type":"Feature","geometry":{"type":"Point","coordinates":[4.8959,43.4487]},"properties":{"latitude":"43.4487","longitude":"4.8959","bright_ti4":"314.09","scan":"0.55","track":"0.43","acq_date":"2026-06-23","acq_time":"113","satellite":"N21","instrument":"VIIRS","confidence":"n","version":"2.0NRT","bright_ti5":"292.28","frp":"2.74","daynight":"N","commune":"Fos-sur-Mer","code_insee":"13039","departement":"Bouches-du-Rhône","region":"Provence-Alpes-Côte d'Azur"}},{"type":"Feature","geometry":{"type":"Point","coordinates":[7.37125,43.79346]},"properties":{"latitude":"43.79346","longitude":"7.37125","bright_ti4":"301.26","scan":"0.45","track":"0.39","acq_date":"2026-06-23","acq_time":"113","satellite":"N21","instrument":"VIIRS","confidence":"n","version":"2.0NRT","bright_ti5":"288.44","frp":"0.73","daynight":"N","commune":"Blausasc","code_insee":"06019","departement":"Alpes-Maritimes","region":"Provence-Alpes-Côte d'Azur"}},{"type":"Feature","geometry":{"type":"Point","coordinates":[5.67382,45.10259]},"properties":{"latitude":"45.10259","longitude":"5.67382","bright_ti4":"304.97","scan":"0.53","track":"0.42","acq_date":"2026-06-23","acq_time":"113","satellite":"N21","instrument":"VIIRS","confidence":"n","version":"2.0NRT","bright_ti5":"292.09","frp":"1.13","daynight":"N","commune":"Varces-Allières-et-Risset","code_insee":"38524","departement":"Isère","region":"Auvergne-Rhône-Alpes"}},{"type":"Feature","geometry":{"type":"Point","coordinates":[6.1164,48.60841]},"properties":{"latitude":"48.60841","longitude":"6.1164","bright_ti4":"315.23","scan":"0.56","track":"0.43","acq_date":"2026-06-23","acq_time":"113","satellite":"N21","instrument":"VIIRS","confidence":"n","version":"2.0NRT","bright_ti5":"294.26","frp":"1.79","daynight":"N","commune":"Neuves-Maisons","code_insee":"54397","departement":"Meurthe-et-Moselle","region":"Grand Est"}},{"type":"Feature","geometry":{"type":"Point","coordinates":[6.10883,48.60911]},"properties":{"latitude":"48.60911","longitude":"6.10883","bright_ti4":"304.79","scan":"0.56","track":"0.43","acq_date":"2026-06-23","acq_time":"113","satellite":"N21","instrument":"VIIRS","confidence":"n","version":"2.0NRT","bright_ti5":"294.03","frp":"1.79","daynight":"N","commune":"Neuves-Maisons","code_insee":"54397","departement":"Meurthe-et-Moselle","region":"Grand Est"}},{"type":"Feature","geometry":{"type":"Point","coordinates":[5.68415,48.71677]},"properties":{"latitude":"48.71677","longitude":"5.68415","bright_ti4":"303.82","scan":"0.39","track":"0.44","acq_date":"2026-06-23","acq_time":"113","satellite":"N21","instrument":"VIIRS","confidence":"n","version":"2.0NRT","bright_ti5":"292.79","frp":"0.91","daynight":"N","commune":"Sorcy-Saint-Martin","code_insee":"55496","departement":"Meuse","region":"Grand Est"}},{"type":"Feature","geometry":{"type":"Point","coordinates":[0.53425,49.47631]},"properties":{"latitude":"49.47631","longitude":"0.53425","bright_ti4":"308.59","scan":"0.34","track":"0.56","acq_date":"2026-06-23","acq_time":"113","satellite":"N21","instrument":"VIIRS","confidence":"n","version":"2.0NRT","bright_ti5":"290.13","frp":"1.25","daynight":"N","commune":"Lillebonne","code_insee":"76384","departement":"Seine-Maritime","region":"Normandie"}},{"type":"Feature","geometry":{"type":"Point","coordinates":[3.56296,50.40014]},"properties":{"latitude":"50.40014","longitude":"3.56296","bright_ti4":"302.78","scan":"0.5","track":"0.49","acq_date":"2026-06-23","acq_time":"113","satellite":"N21","instrument":"VIIRS","confidence":"n","version":"2.0NRT","bright_ti5":"291.18","frp":"1.18","daynight":"N","commune":"Saint-Saulve","code_insee":"59544","departement":"Nord","region":"Hauts-de-France"}},{"type":"Feature","geometry":{"type":"Point","coordinates":[3.5623,50.4029]},"properties":{"latitude":"50.4029","longitude":"3.5623","bright_ti4":"301.86","scan":"0.5","track":"0.49","acq_date":"2026-06-23","acq_time":"113","satellite":"N21","instrument":"VIIRS","confidence":"n","version":"2.0NRT","bright_ti5":"290.6","frp":"0.82","daynight":"N","commune":"Saint-Saulve","code_insee":"59544","departement":"Nord","region":"Hauts-de-France"}},{"type":"Feature","geometry":{"type":"Point","coordinates":[2.3017,51.04543]},"properties":{"latitude":"51.04543","longitude":"2.3017","bright_ti4":"305.65","scan":"0.63","track":"0.54","acq_date":"2026-06-23","acq_time":"253","satellite":"N21","instrument":"VIIRS","confidence":"n","version":"2.0NRT","bright_ti5":"286.87","frp":"3.78","daynight":"N","commune":"Grande-Synthe","code_insee":"59271","departement":"Nord","region":"Hauts-de-France"}},{"type":"Feature","geometry":{"type":"Point","coordinates":[2.29353,51.04778]},"properties":{"latitude":"51.04778","longitude":"2.29353","bright_ti4":"302.74","scan":"0.63","track":"0.54","acq_date":"2026-06-23","acq_time":"253","satellite":"N21","instrument":"VIIRS","confidence":"n","version":"2.0NRT","bright_ti5":"284.9","frp":"3.78","daynight":"N","commune":"Grande-Synthe","code_insee":"59271","departement":"Nord","region":"Hauts-de-France"}},{"type":"Feature","geometry":{"type":"Point","coordinates":[4.88633,43.43945]},"properties":{"latitude":"43.43945","longitude":"4.88633","bright_ti4":"301.32","scan":"0.72","track":"0.76","acq_date":"2026-06-23","acq_time":"256","satellite":"N21","instrument":"VIIRS","confidence":"n","version":"2.0NRT","bright_ti5":"289.1","frp":"2.73","daynight":"N","commune":"Fos-sur-Mer","code_insee":"13039","departement":"Bouches-du-Rhône","region":"Provence-Alpes-Côte d'Azur"}},{"type":"Feature","geometry":{"type":"Point","coordinates":[4.8986,43.44291]},"properties":{"latitude":"43.44291","longitude":"4.8986","bright_ti4":"313.2","scan":"0.73","track":"0.76","acq_date":"2026-06-23","acq_time":"256","satellite":"N21","instrument":"VIIRS","confidence":"n","version":"2.0NRT","bright_ti5":"289.74","frp":"2.66","daynight":"N","commune":"Fos-sur-Mer","code_insee":"13039","departement":"Bouches-du-Rhône","region":"Provence-Alpes-Côte d'Azur"}},{"type":"Feature","geometry":{"type":"Point","coordinates":[4.88971,43.43429]},"properties":{"latitude":"43.43429","longitude":"4.88971","bright_ti4":"340.02","scan":"0.39","track":"0.36","acq_date":"2026-06-23","acq_time":"1240","satellite":"N21","instrument":"VIIRS","confidence":"l","version":"2.0NRT","bright_ti5":"314.1","frp":"16.21","daynight":"D","commune":"Fos-sur-Mer","code_insee":"13039","departement":"Bouches-du-Rhône","region":"Provence-Alpes-Côte d'Azur"}},{"type":"Feature","geometry":{"type":"Point","coordinates":[4.89759,43.44226]},"properties":{"latitude":"43.44226","longitude":"4.89759","bright_ti4":"337.54","scan":"0.39","track":"0.36","acq_date":"2026-06-23","acq_time":"1240","satellite":"N21","instrument":"VIIRS","confidence":"l","version":"2.0NRT","bright_ti5":"309.65","frp":"7.45","daynight":"D","commune":"Fos-sur-Mer","code_insee":"13039","departement":"Bouches-du-Rhône","region":"Provence-Alpes-Côte d'Azur"}},{"type":"Feature","geometry":{"type":"Point","coordinates":[4.89671,43.44557]},"properties":{"latitude":"43.44557","longitude":"4.89671","bright_ti4":"344.16","scan":"0.39","track":"0.36","acq_date":"2026-06-23","acq_time":"1240","satellite":"N21","instrument":"VIIRS","confidence":"n","version":"2.0NRT","bright_ti5":"313.2","frp":"5.61","daynight":"D","commune":"Fos-sur-Mer","code_insee":"13039","departement":"Bouches-du-Rhône","region":"Provence-Alpes-Côte d'Azur"}},{"type":"Feature","geometry":{"type":"Point","coordinates":[4.89584,43.44889]},"properties":{"latitude":"43.44889","longitude":"4.89584","bright_ti4":"342.27","scan":"0.39","track":"0.36","acq_date":"2026-06-23","acq_time":"1240","satellite":"N21","instrument":"VIIRS","confidence":"n","version":"2.0NRT","bright_ti5":"309.8","frp":"5.61","daynight":"D","commune":"Fos-sur-Mer","code_insee":"13039","departement":"Bouches-du-Rhône","region":"Provence-Alpes-Côte d'Azur"}},{"type":"Feature","geometry":{"type":"Point","coordinates":[3.56436,46.57431]},"properties":{"latitude":"46.57431","longitude":"3.56436","bright_ti4":"367","scan":"0.39","track":"0.36","acq_date":"2026-06-23","acq_time":"1240","satellite":"N21","instrument":"VIIRS","confidence":"h","version":"2.0NRT","bright_ti5":"340.54","frp":"159.32","daynight":"D","commune":"Thiel-sur-Acolin","code_insee":"03283","departement":"Allier","region":"Auvergne-Rhône-Alpes"}},{"type":"Feature","geometry":{"type":"Point","coordinates":[1.9803,46.76005]},"properties":{"latitude":"46.76005","longitude":"1.9803","bright_ti4":"350.84","scan":"0.38","track":"0.36","acq_date":"2026-06-23","acq_time":"1240","satellite":"N21","instrument":"VIIRS","confidence":"l","version":"2.0NRT","bright_ti5":"323.04","frp":"26.18","daynight":"D","commune":"Saint-Août","code_insee":"36180","departement":"Indre","region":"Centre-Val de Loire"}},{"type":"Feature","geometry":{"type":"Point","coordinates":[4.31816,46.77385]},"properties":{"latitude":"46.77385","longitude":"4.31816","bright_ti4":"343.94","scan":"0.4","track":"0.37","acq_date":"2026-06-23","acq_time":"1240","satellite":"N21","instrument":"VIIRS","confidence":"n","version":"2.0NRT","bright_ti5":"315.69","frp":"7.69","daynight":"D","commune":"Charmoy","code_insee":"71103","departement":"Saône-et-Loire","region":"Bourgogne-Franche-Comté"}},{"type":"Feature","geometry":{"type":"Point","coordinates":[2.55926,46.8687]},"properties":{"latitude":"46.8687","longitude":"2.55926","bright_ti4":"344.68","scan":"0.38","track":"0.36","acq_date":"2026-06-23","acq_time":"1240","satellite":"N21","instrument":"VIIRS","confidence":"n","version":"2.0NRT","bright_ti5":"314.84","frp":"5.63","daynight":"D","commune":"Dun-sur-Auron","code_insee":"18087","departement":"Cher","region":"Centre-Val de Loire"}},{"type":"Feature","geometry":{"type":"Point","coordinates":[2.56319,46.87271]},"properties":{"latitude":"46.87271","longitude":"2.56319","bright_ti4":"340.43","scan":"0.38","track":"0.36","acq_date":"2026-06-23","acq_time":"1240","satellite":"N21","instrument":"VIIRS","confidence":"l","version":"2.0NRT","bright_ti5":"314.72","frp":"5.63","daynight":"D","commune":"Dun-sur-Auron","code_insee":"18087","departement":"Cher","region":"Centre-Val de Loire"}},{"type":"Feature","geometry":{"type":"Point","coordinates":[2.30332,47.05651]},"properties":{"latitude":"47.05651","longitude":"2.30332","bright_ti4":"341.39","scan":"0.38","track":"0.36","acq_date":"2026-06-23","acq_time":"1240","satellite":"N21","instrument":"VIIRS","confidence":"n","version":"2.0NRT","bright_ti5":"310.75","frp":"4.04","daynight":"D","commune":"La Chapelle-Saint-Ursin","code_insee":"18050","departement":"Cher","region":"Centre-Val de Loire"}},{"type":"Feature","geometry":{"type":"Point","coordinates":[3.07531,47.9449]},"properties":{"latitude":"47.9449","longitude":"3.07531","bright_ti4":"333.77","scan":"0.39","track":"0.36","acq_date":"2026-06-23","acq_time":"1240","satellite":"N21","instrument":"VIIRS","confidence":"n","version":"2.0NRT","bright_ti5":"299.98","frp":"1.52","daynight":"D","commune":"Douchy-Montcorbon","code_insee":"45129","departement":"Loiret","region":"Centre-Val de Loire"}},{"type":"Feature","geometry":{"type":"Point","coordinates":[4.14451,48.29256]},"properties":{"latitude":"48.29256","longitude":"4.14451","bright_ti4":"340.89","scan":"0.41","track":"0.37","acq_date":"2026-06-23","acq_time":"1240","satellite":"N21","instrument":"VIIRS","confidence":"n","version":"2.0NRT","bright_ti5":"294.39","frp":"11.14","daynight":"D","commune":"Saint-Parres-aux-Tertres","code_insee":"10357","departement":"Aube","region":"Grand Est"}},{"type":"Feature","geometry":{"type":"Point","coordinates":[2.04632,48.93907]},"properties":{"latitude":"48.93907","longitude":"2.04632","bright_ti4":"336.12","scan":"0.39","track":"0.36","acq_date":"2026-06-23","acq_time":"1240","satellite":"N21","instrument":"VIIRS","confidence":"l","version":"2.0NRT","bright_ti5":"310.33","frp":"5.96","daynight":"D","commune":"Poissy","code_insee":"78498","departement":"Yvelines","region":"Île-de-France"}},{"type":"Feature","geometry":{"type":"Point","coordinates":[2.28479,51.0312]},"properties":{"latitude":"51.0312","longitude":"2.28479","bright_ti4":"334.74","scan":"0.4","track":"0.37","acq_date":"2026-06-23","acq_time":"1242","satellite":"N21","instrument":"VIIRS","confidence":"l","version":"2.0NRT","bright_ti5":"306.52","frp":"27.65","daynight":"D","commune":"Grande-Synthe","code_insee":"59271","departement":"Nord","region":"Hauts-de-France"}},{"type":"Feature","geometry":{"type":"Point","coordinates":[2.27806,51.03374]},"properties":{"latitude":"51.03374","longitude":"2.27806","bright_ti4":"332.77","scan":"0.4","track":"0.37","acq_date":"2026-06-23","acq_time":"1242","satellite":"N21","instrument":"VIIRS","confidence":"n","version":"2.0NRT","bright_ti5":"302.73","frp":"7.92","daynight":"D","commune":"Grande-Synthe","code_insee":"59271","departement":"Nord","region":"Hauts-de-France"}},{"type":"Feature","geometry":{"type":"Point","coordinates":[2.28923,51.03527]},"properties":{"latitude":"51.03527","longitude":"2.28923","bright_ti4":"337.53","scan":"0.4","track":"0.37","acq_date":"2026-06-23","acq_time":"1242","satellite":"N21","instrument":"VIIRS","confidence":"n","version":"2.0NRT","bright_ti5":"303.65","frp":"4.36","daynight":"D","commune":"Grande-Synthe","code_insee":"59271","departement":"Nord","region":"Hauts-de-France"}},{"type":"Feature","geometry":{"type":"Point","coordinates":[2.28251,51.03782]},"properties":{"latitude":"51.03782","longitude":"2.28251","bright_ti4":"334.84","scan":"0.4","track":"0.37","acq_date":"2026-06-23","acq_time":"1242","satellite":"N21","instrument":"VIIRS","confidence":"n","version":"2.0NRT","bright_ti5":"303.25","frp":"7.92","daynight":"D","commune":"Grande-Synthe","code_insee":"59271","departement":"Nord","region":"Hauts-de-France"}},{"type":"Feature","geometry":{"type":"Point","coordinates":[2.29812,51.04341]},"properties":{"latitude":"51.04341","longitude":"2.29812","bright_ti4":"336.42","scan":"0.4","track":"0.37","acq_date":"2026-06-23","acq_time":"1242","satellite":"N21","instrument":"VIIRS","confidence":"n","version":"2.0NRT","bright_ti5":"303.86","frp":"3.82","daynight":"D","commune":"Grande-Synthe","code_insee":"59271","departement":"Nord","region":"Hauts-de-France"}},{"type":"Feature","geometry":{"type":"Point","coordinates":[2.29698,51.04672]},"properties":{"latitude":"51.04672","longitude":"2.29698","bright_ti4":"331.65","scan":"0.4","track":"0.37","acq_date":"2026-06-23","acq_time":"1242","satellite":"N21","instrument":"VIIRS","confidence":"n","version":"2.0NRT","bright_ti5":"298.14","frp":"3.82","daynight":"D","commune":"Grande-Synthe","code_insee":"59271","departement":"Nord","region":"Hauts-de-France"}}]}