{"type":"FeatureCollection","features":[{"type":"Feature","geometry":{"type":"Point","coordinates":[4.89425,43.43213]},"properties":{"latitude":"43.43213","longitude":"4.89425","bright_ti4":"303.81","scan":"0.46","track":"0.39","acq_date":"2026-06-08","acq_time":"130","satellite":"N","instrument":"VIIRS","confidence":"n","version":"2.0NRT","bright_ti5":"287.51","frp":"1.54","daynight":"N","commune":"Fos-sur-Mer","code_insee":"13039","departement":"Bouches-du-Rhône","region":"Provence-Alpes-Côte d'Azur"}},{"type":"Feature","geometry":{"type":"Point","coordinates":[4.89507,43.43575]},"properties":{"latitude":"43.43575","longitude":"4.89507","bright_ti4":"301.95","scan":"0.46","track":"0.39","acq_date":"2026-06-08","acq_time":"130","satellite":"N","instrument":"VIIRS","confidence":"n","version":"2.0NRT","bright_ti5":"287.21","frp":"1.13","daynight":"N","commune":"Fos-sur-Mer","code_insee":"13039","departement":"Bouches-du-Rhône","region":"Provence-Alpes-Côte d'Azur"}},{"type":"Feature","geometry":{"type":"Point","coordinates":[4.88933,43.43643]},"properties":{"latitude":"43.43643","longitude":"4.88933","bright_ti4":"300.34","scan":"0.46","track":"0.39","acq_date":"2026-06-08","acq_time":"130","satellite":"N","instrument":"VIIRS","confidence":"n","version":"2.0NRT","bright_ti5":"287.39","frp":"1.13","daynight":"N","commune":"Fos-sur-Mer","code_insee":"13039","departement":"Bouches-du-Rhône","region":"Provence-Alpes-Côte d'Azur"}},{"type":"Feature","geometry":{"type":"Point","coordinates":[4.89015,43.44004]},"properties":{"latitude":"43.44004","longitude":"4.89015","bright_ti4":"317.03","scan":"0.46","track":"0.39","acq_date":"2026-06-08","acq_time":"130","satellite":"N","instrument":"VIIRS","confidence":"n","version":"2.0NRT","bright_ti5":"288.42","frp":"1.13","daynight":"N","commune":"Fos-sur-Mer","code_insee":"13039","departement":"Bouches-du-Rhône","region":"Provence-Alpes-Côte d'Azur"}},{"type":"Feature","geometry":{"type":"Point","coordinates":[4.8844,43.44073]},"properties":{"latitude":"43.44073","longitude":"4.8844","bright_ti4":"297.9","scan":"0.46","track":"0.39","acq_date":"2026-06-08","acq_time":"130","satellite":"N","instrument":"VIIRS","confidence":"n","version":"2.0NRT","bright_ti5":"286.17","frp":"1.58","daynight":"N","commune":"Fos-sur-Mer","code_insee":"13039","departement":"Bouches-du-Rhône","region":"Provence-Alpes-Côte d'Azur"}},{"type":"Feature","geometry":{"type":"Point","coordinates":[4.89671,43.44298]},"properties":{"latitude":"43.44298","longitude":"4.89671","bright_ti4":"308.32","scan":"0.46","track":"0.39","acq_date":"2026-06-08","acq_time":"130","satellite":"N","instrument":"VIIRS","confidence":"n","version":"2.0NRT","bright_ti5":"286.25","frp":"4.6","daynight":"N","commune":"Fos-sur-Mer","code_insee":"13039","departement":"Bouches-du-Rhône","region":"Provence-Alpes-Côte d'Azur"}},{"type":"Feature","geometry":{"type":"Point","coordinates":[4.89752,43.4466]},"properties":{"latitude":"43.4466","longitude":"4.89752","bright_ti4":"336.98","scan":"0.46","track":"0.39","acq_date":"2026-06-08","acq_time":"130","satellite":"N","instrument":"VIIRS","confidence":"n","version":"2.0NRT","bright_ti5":"289.44","frp":"4.6","daynight":"N","commune":"Fos-sur-Mer","code_insee":"13039","departement":"Bouches-du-Rhône","region":"Provence-Alpes-Côte d'Azur"}},{"type":"Feature","geometry":{"type":"Point","coordinates":[5.4615,43.45285]},"properties":{"latitude":"43.45285","longitude":"5.4615","bright_ti4":"299.57","scan":"0.44","track":"0.39","acq_date":"2026-06-08","acq_time":"130","satellite":"N","instrument":"VIIRS","confidence":"n","version":"2.0NRT","bright_ti5":"288.78","frp":"0.81","daynight":"N","commune":"Gardanne","code_insee":"13041","departement":"Bouches-du-Rhône","region":"Provence-Alpes-Côte d'Azur"}},{"type":"Feature","geometry":{"type":"Point","coordinates":[7.3732,43.79364]},"properties":{"latitude":"43.79364","longitude":"7.3732","bright_ti4":"318.44","scan":"0.4","track":"0.37","acq_date":"2026-06-08","acq_time":"130","satellite":"N","instrument":"VIIRS","confidence":"n","version":"2.0NRT","bright_ti5":"290.13","frp":"1.73","daynight":"N","commune":"Blausasc","code_insee":"06019","departement":"Alpes-Maritimes","region":"Provence-Alpes-Côte d'Azur"}},{"type":"Feature","geometry":{"type":"Point","coordinates":[5.84129,43.84383]},"properties":{"latitude":"43.84383","longitude":"5.84129","bright_ti4":"299.46","scan":"0.44","track":"0.38","acq_date":"2026-06-08","acq_time":"130","satellite":"N","instrument":"VIIRS","confidence":"n","version":"2.0NRT","bright_ti5":"284.65","frp":"0.5","daynight":"N","commune":"Manosque","code_insee":"04112","departement":"Alpes-de-Haute-Provence","region":"Provence-Alpes-Côte d'Azur"}},{"type":"Feature","geometry":{"type":"Point","coordinates":[7.23542,47.6292]},"properties":{"latitude":"47.6292","longitude":"7.23542","bright_ti4":"296.25","scan":"0.43","track":"0.38","acq_date":"2026-06-08","acq_time":"130","satellite":"N","instrument":"VIIRS","confidence":"n","version":"2.0NRT","bright_ti5":"279.47","frp":"0.53","daynight":"N","commune":"Altkirch","code_insee":"68004","departement":"Haut-Rhin","region":"Grand Est"}},{"type":"Feature","geometry":{"type":"Point","coordinates":[8.80451,41.95282]},"properties":{"latitude":"41.95282","longitude":"8.80451","bright_ti4":"300.33","scan":"0.38","track":"0.36","acq_date":"2026-06-08","acq_time":"132","satellite":"N","instrument":"VIIRS","confidence":"n","version":"2.0NRT","bright_ti5":"288.77","frp":"0.65","daynight":"N","commune":"Sarrola-Carcopino","code_insee":"2A271","departement":"Corse-du-Sud","region":"Corse"}},{"type":"Feature","geometry":{"type":"Point","coordinates":[5.14458,43.53654]},"properties":{"latitude":"43.53654","longitude":"5.14458","bright_ti4":"342.72","scan":"0.44","track":"0.39","acq_date":"2026-06-08","acq_time":"1255","satellite":"N","instrument":"VIIRS","confidence":"n","version":"2.0NRT","bright_ti5":"302.83","frp":"2.16","daynight":"D","commune":"Lançon-Provence","code_insee":"13051","departement":"Bouches-du-Rhône","region":"Provence-Alpes-Côte d'Azur"}},{"type":"Feature","geometry":{"type":"Point","coordinates":[4.4068,43.98375]},"properties":{"latitude":"43.98375","longitude":"4.4068","bright_ti4":"337.6","scan":"0.43","track":"0.38","acq_date":"2026-06-08","acq_time":"1255","satellite":"N","instrument":"VIIRS","confidence":"n","version":"2.0NRT","bright_ti5":"302.37","frp":"4.02","daynight":"D","commune":"Uzès","code_insee":"30334","departement":"Gard","region":"Occitanie"}},{"type":"Feature","geometry":{"type":"Point","coordinates":[4.98184,44.09295]},"properties":{"latitude":"44.09295","longitude":"4.98184","bright_ti4":"331.64","scan":"0.44","track":"0.39","acq_date":"2026-06-08","acq_time":"1255","satellite":"N","instrument":"VIIRS","confidence":"n","version":"2.0NRT","bright_ti5":"302.17","frp":"1.58","daynight":"D","commune":"Sarrians","code_insee":"84122","departement":"Vaucluse","region":"Provence-Alpes-Côte d'Azur"}},{"type":"Feature","geometry":{"type":"Point","coordinates":[4.65306,45.61865]},"properties":{"latitude":"45.61865","longitude":"4.65306","bright_ti4":"304.75","scan":"0.39","track":"0.36","acq_date":"2026-06-08","acq_time":"147","satellite":"N20","instrument":"VIIRS","confidence":"n","version":"2.0NRT","bright_ti5":"276.39","frp":"0.94","daynight":"N","commune":"Mornant","code_insee":"69141","departement":"Rhône","region":"Auvergne-Rhône-Alpes"}},{"type":"Feature","geometry":{"type":"Point","coordinates":[3.42307,46.25203]},"properties":{"latitude":"46.25203","longitude":"3.42307","bright_ti4":"296.45","scan":"0.39","track":"0.36","acq_date":"2026-06-08","acq_time":"147","satellite":"N20","instrument":"VIIRS","confidence":"n","version":"2.0NRT","bright_ti5":"284.33","frp":"0.51","daynight":"N","commune":"Créchy","code_insee":"03091","departement":"Allier","region":"Auvergne-Rhône-Alpes"}},{"type":"Feature","geometry":{"type":"Point","coordinates":[2.98192,48.38798]},"properties":{"latitude":"48.38798","longitude":"2.98192","bright_ti4":"295.39","scan":"0.4","track":"0.37","acq_date":"2026-06-08","acq_time":"147","satellite":"N20","instrument":"VIIRS","confidence":"n","version":"2.0NRT","bright_ti5":"269.89","frp":"0.56","daynight":"N","commune":"Montereau-Fault-Yonne","code_insee":"77305","departement":"Seine-et-Marne","region":"Île-de-France"}},{"type":"Feature","geometry":{"type":"Point","coordinates":[3.029,43.02407]},"properties":{"latitude":"43.02407","longitude":"3.029","bright_ti4":"301.26","scan":"0.38","track":"0.36","acq_date":"2026-06-08","acq_time":"149","satellite":"N20","instrument":"VIIRS","confidence":"n","version":"2.0NRT","bright_ti5":"290.39","frp":"0.76","daynight":"N","commune":"Port-la-Nouvelle","code_insee":"11266","departement":"Aude","region":"Occitanie"}},{"type":"Feature","geometry":{"type":"Point","coordinates":[5.10735,43.39156]},"properties":{"latitude":"43.39156","longitude":"5.10735","bright_ti4":"297.92","scan":"0.4","track":"0.37","acq_date":"2026-06-08","acq_time":"149","satellite":"N20","instrument":"VIIRS","confidence":"n","version":"2.0NRT","bright_ti5":"283.83","frp":"0.37","daynight":"N","commune":"Châteauneuf-les-Martigues","code_insee":"13026","departement":"Bouches-du-Rhône","region":"Provence-Alpes-Côte d'Azur"}},{"type":"Feature","geometry":{"type":"Point","coordinates":[4.89202,43.43651]},"properties":{"latitude":"43.43651","longitude":"4.89202","bright_ti4":"301.68","scan":"0.4","track":"0.37","acq_date":"2026-06-08","acq_time":"149","satellite":"N20","instrument":"VIIRS","confidence":"n","version":"2.0NRT","bright_ti5":"282.56","frp":"1.39","daynight":"N","commune":"Fos-sur-Mer","code_insee":"13039","departement":"Bouches-du-Rhône","region":"Provence-Alpes-Côte d'Azur"}},{"type":"Feature","geometry":{"type":"Point","coordinates":[4.89311,43.43981]},"properties":{"latitude":"43.43981","longitude":"4.89311","bright_ti4":"312.92","scan":"0.4","track":"0.37","acq_date":"2026-06-08","acq_time":"149","satellite":"N20","instrument":"VIIRS","confidence":"n","version":"2.0NRT","bright_ti5":"283.24","frp":"0.91","daynight":"N","commune":"Fos-sur-Mer","code_insee":"13039","departement":"Bouches-du-Rhône","region":"Provence-Alpes-Côte d'Azur"}},{"type":"Feature","geometry":{"type":"Point","coordinates":[4.8883,43.44065]},"properties":{"latitude":"43.44065","longitude":"4.8883","bright_ti4":"299.49","scan":"0.4","track":"0.37","acq_date":"2026-06-08","acq_time":"149","satellite":"N20","instrument":"VIIRS","confidence":"n","version":"2.0NRT","bright_ti5":"281.95","frp":"0.69","daynight":"N","commune":"Fos-sur-Mer","code_insee":"13039","departement":"Bouches-du-Rhône","region":"Provence-Alpes-Côte d'Azur"}},{"type":"Feature","geometry":{"type":"Point","coordinates":[4.89901,43.44227]},"properties":{"latitude":"43.44227","longitude":"4.89901","bright_ti4":"299.96","scan":"0.4","track":"0.37","acq_date":"2026-06-08","acq_time":"149","satellite":"N20","instrument":"VIIRS","confidence":"n","version":"2.0NRT","bright_ti5":"280.51","frp":"0.91","daynight":"N","commune":"Fos-sur-Mer","code_insee":"13039","departement":"Bouches-du-Rhône","region":"Provence-Alpes-Côte d'Azur"}},{"type":"Feature","geometry":{"type":"Point","coordinates":[4.9001,43.44557]},"properties":{"latitude":"43.44557","longitude":"4.9001","bright_ti4":"310.61","scan":"0.4","track":"0.37","acq_date":"2026-06-08","acq_time":"149","satellite":"N20","instrument":"VIIRS","confidence":"n","version":"2.0NRT","bright_ti5":"282.92","frp":"1.36","daynight":"N","commune":"Fos-sur-Mer","code_insee":"13039","departement":"Bouches-du-Rhône","region":"Provence-Alpes-Côte d'Azur"}},{"type":"Feature","geometry":{"type":"Point","coordinates":[4.89528,43.44641]},"properties":{"latitude":"43.44641","longitude":"4.89528","bright_ti4":"313.79","scan":"0.4","track":"0.37","acq_date":"2026-06-08","acq_time":"149","satellite":"N20","instrument":"VIIRS","confidence":"n","version":"2.0NRT","bright_ti5":"282.89","frp":"1.36","daynight":"N","commune":"Fos-sur-Mer","code_insee":"13039","departement":"Bouches-du-Rhône","region":"Provence-Alpes-Côte d'Azur"}},{"type":"Feature","geometry":{"type":"Point","coordinates":[4.89637,43.44971]},"properties":{"latitude":"43.44971","longitude":"4.89637","bright_ti4":"322.01","scan":"0.4","track":"0.37","acq_date":"2026-06-08","acq_time":"149","satellite":"N20","instrument":"VIIRS","confidence":"n","version":"2.0NRT","bright_ti5":"282.13","frp":"1.36","daynight":"N","commune":"Fos-sur-Mer","code_insee":"13039","departement":"Bouches-du-Rhône","region":"Provence-Alpes-Côte d'Azur"}},{"type":"Feature","geometry":{"type":"Point","coordinates":[5.46159,43.45264]},"properties":{"latitude":"43.45264","longitude":"5.46159","bright_ti4":"296.45","scan":"0.41","track":"0.37","acq_date":"2026-06-08","acq_time":"149","satellite":"N20","instrument":"VIIRS","confidence":"n","version":"2.0NRT","bright_ti5":"285.97","frp":"0.51","daynight":"N","commune":"Gardanne","code_insee":"13041","departement":"Bouches-du-Rhône","region":"Provence-Alpes-Côte d'Azur"}},{"type":"Feature","geometry":{"type":"Point","coordinates":[7.37193,43.79343]},"properties":{"latitude":"43.79343","longitude":"7.37193","bright_ti4":"309.35","scan":"0.45","track":"0.39","acq_date":"2026-06-08","acq_time":"149","satellite":"N20","instrument":"VIIRS","confidence":"n","version":"2.0NRT","bright_ti5":"288.88","frp":"1.25","daynight":"N","commune":"Blausasc","code_insee":"06019","departement":"Alpes-Maritimes","region":"Provence-Alpes-Côte d'Azur"}},{"type":"Feature","geometry":{"type":"Point","coordinates":[5.83993,43.8432]},"properties":{"latitude":"43.8432","longitude":"5.83993","bright_ti4":"304.44","scan":"0.41","track":"0.37","acq_date":"2026-06-08","acq_time":"149","satellite":"N20","instrument":"VIIRS","confidence":"n","version":"2.0NRT","bright_ti5":"285.2","frp":"0.61","daynight":"N","commune":"Manosque","code_insee":"04112","departement":"Alpes-de-Haute-Provence","region":"Provence-Alpes-Côte d'Azur"}},{"type":"Feature","geometry":{"type":"Point","coordinates":[1.22797,43.98743]},"properties":{"latitude":"43.98743","longitude":"1.22797","bright_ti4":"304.52","scan":"0.4","track":"0.37","acq_date":"2026-06-08","acq_time":"149","satellite":"N20","instrument":"VIIRS","confidence":"n","version":"2.0NRT","bright_ti5":"284.92","frp":"1.55","daynight":"N","commune":"Montech","code_insee":"82125","departement":"Tarn-et-Garonne","region":"Occitanie"}},{"type":"Feature","geometry":{"type":"Point","coordinates":[4.69512,44.09021]},"properties":{"latitude":"44.09021","longitude":"4.69512","bright_ti4":"298.64","scan":"0.39","track":"0.36","acq_date":"2026-06-08","acq_time":"149","satellite":"N20","instrument":"VIIRS","confidence":"n","version":"2.0NRT","bright_ti5":"286.99","frp":"0.36","daynight":"N","commune":"Laudun-l'Ardoise","code_insee":"30141","departement":"Gard","region":"Occitanie"}},{"type":"Feature","geometry":{"type":"Point","coordinates":[4.89753,43.43115]},"properties":{"latitude":"43.43115","longitude":"4.89753","bright_ti4":"306.81","scan":"0.62","track":"0.54","acq_date":"2026-06-08","acq_time":"56","satellite":"N21","instrument":"VIIRS","confidence":"n","version":"2.0NRT","bright_ti5":"289.82","frp":"3.09","daynight":"N","commune":"Fos-sur-Mer","code_insee":"13039","departement":"Bouches-du-Rhône","region":"Provence-Alpes-Côte d'Azur"}},{"type":"Feature","geometry":{"type":"Point","coordinates":[4.8904,43.43656]},"properties":{"latitude":"43.43656","longitude":"4.8904","bright_ti4":"309.3","scan":"0.62","track":"0.54","acq_date":"2026-06-08","acq_time":"56","satellite":"N21","instrument":"VIIRS","confidence":"n","version":"2.0NRT","bright_ti5":"290.12","frp":"1.91","daynight":"N","commune":"Fos-sur-Mer","code_insee":"13039","departement":"Bouches-du-Rhône","region":"Provence-Alpes-Côte d'Azur"}},{"type":"Feature","geometry":{"type":"Point","coordinates":[4.89865,43.44106]},"properties":{"latitude":"43.44106","longitude":"4.89865","bright_ti4":"304.51","scan":"0.62","track":"0.54","acq_date":"2026-06-08","acq_time":"56","satellite":"N21","instrument":"VIIRS","confidence":"n","version":"2.0NRT","bright_ti5":"287.39","frp":"1.91","daynight":"N","commune":"Fos-sur-Mer","code_insee":"13039","departement":"Bouches-du-Rhône","region":"Provence-Alpes-Côte d'Azur"}},{"type":"Feature","geometry":{"type":"Point","coordinates":[4.89093,43.44152]},"properties":{"latitude":"43.44152","longitude":"4.89093","bright_ti4":"300.69","scan":"0.62","track":"0.54","acq_date":"2026-06-08","acq_time":"56","satellite":"N21","instrument":"VIIRS","confidence":"n","version":"2.0NRT","bright_ti5":"289.23","frp":"1.91","daynight":"N","commune":"Fos-sur-Mer","code_insee":"13039","departement":"Bouches-du-Rhône","region":"Provence-Alpes-Côte d'Azur"}},{"type":"Feature","geometry":{"type":"Point","coordinates":[4.89917,43.44602]},"properties":{"latitude":"43.44602","longitude":"4.89917","bright_ti4":"311.28","scan":"0.62","track":"0.54","acq_date":"2026-06-08","acq_time":"56","satellite":"N21","instrument":"VIIRS","confidence":"n","version":"2.0NRT","bright_ti5":"289.32","frp":"2.28","daynight":"N","commune":"Fos-sur-Mer","code_insee":"13039","departement":"Bouches-du-Rhône","region":"Provence-Alpes-Côte d'Azur"}},{"type":"Feature","geometry":{"type":"Point","coordinates":[4.89146,43.44648]},"properties":{"latitude":"43.44648","longitude":"4.89146","bright_ti4":"299.58","scan":"0.62","track":"0.54","acq_date":"2026-06-08","acq_time":"56","satellite":"N21","instrument":"VIIRS","confidence":"n","version":"2.0NRT","bright_ti5":"289.51","frp":"2.28","daynight":"N","commune":"Fos-sur-Mer","code_insee":"13039","departement":"Bouches-du-Rhône","region":"Provence-Alpes-Côte d'Azur"}},{"type":"Feature","geometry":{"type":"Point","coordinates":[7.37544,43.79472]},"properties":{"latitude":"43.79472","longitude":"7.37544","bright_ti4":"310.62","scan":"0.47","track":"0.48","acq_date":"2026-06-08","acq_time":"56","satellite":"N21","instrument":"VIIRS","confidence":"n","version":"2.0NRT","bright_ti5":"289.11","frp":"1.17","daynight":"N","commune":"Blausasc","code_insee":"06019","departement":"Alpes-Maritimes","region":"Provence-Alpes-Côte d'Azur"}},{"type":"Feature","geometry":{"type":"Point","coordinates":[4.89413,43.43369]},"properties":{"latitude":"43.43369","longitude":"4.89413","bright_ti4":"299.38","scan":"0.44","track":"0.62","acq_date":"2026-06-08","acq_time":"236","satellite":"N21","instrument":"VIIRS","confidence":"n","version":"2.0NRT","bright_ti5":"285.83","frp":"1.55","daynight":"N","commune":"Fos-sur-Mer","code_insee":"13039","departement":"Bouches-du-Rhône","region":"Provence-Alpes-Côte d'Azur"}},{"type":"Feature","geometry":{"type":"Point","coordinates":[4.9002,43.44429]},"properties":{"latitude":"43.44429","longitude":"4.9002","bright_ti4":"307.92","scan":"0.44","track":"0.62","acq_date":"2026-06-08","acq_time":"236","satellite":"N21","instrument":"VIIRS","confidence":"n","version":"2.0NRT","bright_ti5":"286.22","frp":"3.18","daynight":"N","commune":"Fos-sur-Mer","code_insee":"13039","departement":"Bouches-du-Rhône","region":"Provence-Alpes-Côte d'Azur"}},{"type":"Feature","geometry":{"type":"Point","coordinates":[4.89517,43.44577]},"properties":{"latitude":"43.44577","longitude":"4.89517","bright_ti4":"340.93","scan":"0.44","track":"0.62","acq_date":"2026-06-08","acq_time":"236","satellite":"N21","instrument":"VIIRS","confidence":"n","version":"2.0NRT","bright_ti5":"288.17","frp":"6.31","daynight":"N","commune":"Fos-sur-Mer","code_insee":"13039","departement":"Bouches-du-Rhône","region":"Provence-Alpes-Côte d'Azur"}},{"type":"Feature","geometry":{"type":"Point","coordinates":[4.62091,43.80373]},"properties":{"latitude":"43.80373","longitude":"4.62091","bright_ti4":"296.13","scan":"0.41","track":"0.61","acq_date":"2026-06-08","acq_time":"236","satellite":"N21","instrument":"VIIRS","confidence":"n","version":"2.0NRT","bright_ti5":"284.13","frp":"0.29","daynight":"N","commune":"Beaucaire","code_insee":"30032","departement":"Gard","region":"Occitanie"}},{"type":"Feature","geometry":{"type":"Point","coordinates":[4.62067,43.80409]},"properties":{"latitude":"43.80409","longitude":"4.62067","bright_ti4":"296.77","scan":"0.41","track":"0.61","acq_date":"2026-06-08","acq_time":"236","satellite":"N21","instrument":"VIIRS","confidence":"n","version":"2.0NRT","bright_ti5":"284.7","frp":"0.74","daynight":"N","commune":"Beaucaire","code_insee":"30032","departement":"Gard","region":"Occitanie"}}]}