{"type":"FeatureCollection","features":[{"type":"Feature","geometry":{"type":"Point","coordinates":[4.8996,43.44794]},"properties":{"latitude":"43.44794","longitude":"4.8996","bright_ti4":"316.86","scan":"0.48","track":"0.4","acq_date":"2026-06-02","acq_time":"202","satellite":"N20","instrument":"VIIRS","confidence":"n","version":"2.0NRT","bright_ti5":"267.52","frp":"1.14","daynight":"N","commune":"Fos-sur-Mer","code_insee":"13039","departement":"Bouches-du-Rhône","region":"Provence-Alpes-Côte d'Azur"}},{"type":"Feature","geometry":{"type":"Point","coordinates":[-0.78082,45.0795]},"properties":{"latitude":"45.0795","longitude":"-0.78082","bright_ti4":"329.59","scan":"0.42","track":"0.45","acq_date":"2026-06-02","acq_time":"1325","satellite":"N20","instrument":"VIIRS","confidence":"n","version":"2.0NRT","bright_ti5":"281.09","frp":"2.72","daynight":"D","commune":"Listrac-Médoc","code_insee":"33248","departement":"Gironde","region":"Nouvelle-Aquitaine"}},{"type":"Feature","geometry":{"type":"Point","coordinates":[2.84317,46.91443]},"properties":{"latitude":"46.91443","longitude":"2.84317","bright_ti4":"332.95","scan":"0.32","track":"0.55","acq_date":"2026-06-02","acq_time":"1327","satellite":"N20","instrument":"VIIRS","confidence":"n","version":"2.0NRT","bright_ti5":"295.47","frp":"2.86","daynight":"D","commune":"Croisy","code_insee":"18080","departement":"Cher","region":"Centre-Val de Loire"}},{"type":"Feature","geometry":{"type":"Point","coordinates":[4.8954,43.44815]},"properties":{"latitude":"43.44815","longitude":"4.8954","bright_ti4":"303.09","scan":"0.61","track":"0.71","acq_date":"2026-06-02","acq_time":"249","satellite":"N21","instrument":"VIIRS","confidence":"n","version":"2.0NRT","bright_ti5":"275.27","frp":"2.1","daynight":"N","commune":"Fos-sur-Mer","code_insee":"13039","departement":"Bouches-du-Rhône","region":"Provence-Alpes-Côte d'Azur"}},{"type":"Feature","geometry":{"type":"Point","coordinates":[2.84261,46.91537]},"properties":{"latitude":"46.91537","longitude":"2.84261","bright_ti4":"339.9","scan":"0.39","track":"0.36","acq_date":"2026-06-02","acq_time":"1234","satellite":"N21","instrument":"VIIRS","confidence":"n","version":"2.0NRT","bright_ti5":"295.09","frp":"4.42","daynight":"D","commune":"Croisy","code_insee":"18080","departement":"Cher","region":"Centre-Val de Loire"}}]}