{"type":"FeatureCollection","features":[{"type":"Feature","geometry":{"type":"Point","coordinates":[5.82028,45.91211]},"properties":{"latitude":"45.91211","longitude":"5.82028","bright_ti4":"303.63","scan":"0.41","track":"0.37","acq_date":"2026-06-13","acq_time":"134","satellite":"N","instrument":"VIIRS","confidence":"n","version":"2.0NRT","bright_ti5":"288.89","frp":"0.92","daynight":"N","commune":"Anglefort","code_insee":"01010","departement":"Ain","region":"Auvergne-Rhône-Alpes"}},{"type":"Feature","geometry":{"type":"Point","coordinates":[-0.4818,46.33617]},"properties":{"latitude":"46.33617","longitude":"-0.4818","bright_ti4":"298.08","scan":"0.48","track":"0.48","acq_date":"2026-06-13","acq_time":"134","satellite":"N","instrument":"VIIRS","confidence":"n","version":"2.0NRT","bright_ti5":"286.31","frp":"0.64","daynight":"N","commune":"Niort","code_insee":"79191","departement":"Deux-Sèvres","region":"Nouvelle-Aquitaine"}},{"type":"Feature","geometry":{"type":"Point","coordinates":[-0.14134,46.80822]},"properties":{"latitude":"46.80822","longitude":"-0.14134","bright_ti4":"297.76","scan":"0.47","track":"0.48","acq_date":"2026-06-13","acq_time":"134","satellite":"N","instrument":"VIIRS","confidence":"n","version":"2.0NRT","bright_ti5":"287.27","frp":"0.69","daynight":"N","commune":"Airvault","code_insee":"79005","departement":"Deux-Sèvres","region":"Nouvelle-Aquitaine"}},{"type":"Feature","geometry":{"type":"Point","coordinates":[2.26531,51.01226]},"properties":{"latitude":"51.01226","longitude":"2.26531","bright_ti4":"299.2","scan":"0.41","track":"0.45","acq_date":"2026-06-13","acq_time":"134","satellite":"N","instrument":"VIIRS","confidence":"n","version":"2.0NRT","bright_ti5":"284.62","frp":"0.41","daynight":"N","commune":"Dunkerque","code_insee":"59183","departement":"Nord","region":"Hauts-de-France"}},{"type":"Feature","geometry":{"type":"Point","coordinates":[2.26622,51.0164]},"properties":{"latitude":"51.0164","longitude":"2.26622","bright_ti4":"296.07","scan":"0.41","track":"0.45","acq_date":"2026-06-13","acq_time":"134","satellite":"N","instrument":"VIIRS","confidence":"n","version":"2.0NRT","bright_ti5":"285.09","frp":"0.41","daynight":"N","commune":"Grande-Synthe","code_insee":"59271","departement":"Nord","region":"Hauts-de-France"}},{"type":"Feature","geometry":{"type":"Point","coordinates":[2.28753,51.03146]},"properties":{"latitude":"51.03146","longitude":"2.28753","bright_ti4":"325.6","scan":"0.41","track":"0.45","acq_date":"2026-06-13","acq_time":"134","satellite":"N","instrument":"VIIRS","confidence":"n","version":"2.0NRT","bright_ti5":"286.31","frp":"1.61","daynight":"N","commune":"Grande-Synthe","code_insee":"59271","departement":"Nord","region":"Hauts-de-France"}},{"type":"Feature","geometry":{"type":"Point","coordinates":[2.28163,51.03197]},"properties":{"latitude":"51.03197","longitude":"2.28163","bright_ti4":"327.69","scan":"0.41","track":"0.45","acq_date":"2026-06-13","acq_time":"134","satellite":"N","instrument":"VIIRS","confidence":"n","version":"2.0NRT","bright_ti5":"286.88","frp":"2.86","daynight":"N","commune":"Grande-Synthe","code_insee":"59271","departement":"Nord","region":"Hauts-de-France"}},{"type":"Feature","geometry":{"type":"Point","coordinates":[2.27571,51.03247]},"properties":{"latitude":"51.03247","longitude":"2.27571","bright_ti4":"312.31","scan":"0.41","track":"0.45","acq_date":"2026-06-13","acq_time":"134","satellite":"N","instrument":"VIIRS","confidence":"n","version":"2.0NRT","bright_ti5":"284.05","frp":"2.86","daynight":"N","commune":"Grande-Synthe","code_insee":"59271","departement":"Nord","region":"Hauts-de-France"}},{"type":"Feature","geometry":{"type":"Point","coordinates":[2.252,51.03451]},"properties":{"latitude":"51.03451","longitude":"2.252","bright_ti4":"311.09","scan":"0.41","track":"0.45","acq_date":"2026-06-13","acq_time":"134","satellite":"N","instrument":"VIIRS","confidence":"n","version":"2.0NRT","bright_ti5":"285.39","frp":"1.04","daynight":"N","commune":"Dunkerque","code_insee":"59183","departement":"Nord","region":"Hauts-de-France"}},{"type":"Feature","geometry":{"type":"Point","coordinates":[2.28841,51.0356]},"properties":{"latitude":"51.0356","longitude":"2.28841","bright_ti4":"312.13","scan":"0.41","track":"0.45","acq_date":"2026-06-13","acq_time":"134","satellite":"N","instrument":"VIIRS","confidence":"n","version":"2.0NRT","bright_ti5":"286.79","frp":"1.06","daynight":"N","commune":"Grande-Synthe","code_insee":"59271","departement":"Nord","region":"Hauts-de-France"}},{"type":"Feature","geometry":{"type":"Point","coordinates":[2.27658,51.03662]},"properties":{"latitude":"51.03662","longitude":"2.27658","bright_ti4":"312.31","scan":"0.41","track":"0.45","acq_date":"2026-06-13","acq_time":"134","satellite":"N","instrument":"VIIRS","confidence":"n","version":"2.0NRT","bright_ti5":"284.75","frp":"1.96","daynight":"N","commune":"Grande-Synthe","code_insee":"59271","departement":"Nord","region":"Hauts-de-France"}},{"type":"Feature","geometry":{"type":"Point","coordinates":[2.30198,51.04287]},"properties":{"latitude":"51.04287","longitude":"2.30198","bright_ti4":"296.13","scan":"0.41","track":"0.45","acq_date":"2026-06-13","acq_time":"134","satellite":"N","instrument":"VIIRS","confidence":"n","version":"2.0NRT","bright_ti5":"284.48","frp":"0.62","daynight":"N","commune":"Grande-Synthe","code_insee":"59271","departement":"Nord","region":"Hauts-de-France"}},{"type":"Feature","geometry":{"type":"Point","coordinates":[2.29609,51.04338]},"properties":{"latitude":"51.04338","longitude":"2.29609","bright_ti4":"329.88","scan":"0.41","track":"0.45","acq_date":"2026-06-13","acq_time":"134","satellite":"N","instrument":"VIIRS","confidence":"n","version":"2.0NRT","bright_ti5":"287.6","frp":"2.49","daynight":"N","commune":"Grande-Synthe","code_insee":"59271","departement":"Nord","region":"Hauts-de-France"}},{"type":"Feature","geometry":{"type":"Point","coordinates":[2.3026,51.04397]},"properties":{"latitude":"51.04397","longitude":"2.3026","bright_ti4":"295.65","scan":"0.41","track":"0.45","acq_date":"2026-06-13","acq_time":"134","satellite":"N","instrument":"VIIRS","confidence":"n","version":"2.0NRT","bright_ti5":"284.27","frp":"1.87","daynight":"N","commune":"Grande-Synthe","code_insee":"59271","departement":"Nord","region":"Hauts-de-France"}},{"type":"Feature","geometry":{"type":"Point","coordinates":[2.29669,51.04445]},"properties":{"latitude":"51.04445","longitude":"2.29669","bright_ti4":"340.25","scan":"0.41","track":"0.45","acq_date":"2026-06-13","acq_time":"134","satellite":"N","instrument":"VIIRS","confidence":"n","version":"2.0NRT","bright_ti5":"288.88","frp":"1.87","daynight":"N","commune":"Grande-Synthe","code_insee":"59271","departement":"Nord","region":"Hauts-de-France"}},{"type":"Feature","geometry":{"type":"Point","coordinates":[2.32123,51.04665]},"properties":{"latitude":"51.04665","longitude":"2.32123","bright_ti4":"298.31","scan":"0.41","track":"0.45","acq_date":"2026-06-13","acq_time":"134","satellite":"N","instrument":"VIIRS","confidence":"n","version":"2.0NRT","bright_ti5":"285.58","frp":"0.88","daynight":"N","commune":"Dunkerque","code_insee":"59183","departement":"Nord","region":"Hauts-de-France"}},{"type":"Feature","geometry":{"type":"Point","coordinates":[2.29695,51.04753]},"properties":{"latitude":"51.04753","longitude":"2.29695","bright_ti4":"309.83","scan":"0.41","track":"0.45","acq_date":"2026-06-13","acq_time":"134","satellite":"N","instrument":"VIIRS","confidence":"n","version":"2.0NRT","bright_ti5":"286.48","frp":"2.49","daynight":"N","commune":"Grande-Synthe","code_insee":"59271","departement":"Nord","region":"Hauts-de-France"}},{"type":"Feature","geometry":{"type":"Point","coordinates":[4.89285,43.43494]},"properties":{"latitude":"43.43494","longitude":"4.89285","bright_ti4":"306.19","scan":"0.42","track":"0.37","acq_date":"2026-06-13","acq_time":"137","satellite":"N","instrument":"VIIRS","confidence":"n","version":"2.0NRT","bright_ti5":"293.42","frp":"1.82","daynight":"N","commune":"Fos-sur-Mer","code_insee":"13039","departement":"Bouches-du-Rhône","region":"Provence-Alpes-Côte d'Azur"}},{"type":"Feature","geometry":{"type":"Point","coordinates":[4.87917,43.44387]},"properties":{"latitude":"43.44387","longitude":"4.87917","bright_ti4":"319.01","scan":"0.42","track":"0.37","acq_date":"2026-06-13","acq_time":"137","satellite":"N","instrument":"VIIRS","confidence":"n","version":"2.0NRT","bright_ti5":"293.26","frp":"1.93","daynight":"N","commune":"Fos-sur-Mer","code_insee":"13039","departement":"Bouches-du-Rhône","region":"Provence-Alpes-Côte d'Azur"}},{"type":"Feature","geometry":{"type":"Point","coordinates":[4.90057,43.44455]},"properties":{"latitude":"43.44455","longitude":"4.90057","bright_ti4":"329.43","scan":"0.42","track":"0.37","acq_date":"2026-06-13","acq_time":"137","satellite":"N","instrument":"VIIRS","confidence":"n","version":"2.0NRT","bright_ti5":"294.56","frp":"3.17","daynight":"N","commune":"Fos-sur-Mer","code_insee":"13039","departement":"Bouches-du-Rhône","region":"Provence-Alpes-Côte d'Azur"}},{"type":"Feature","geometry":{"type":"Point","coordinates":[4.8963,43.44867]},"properties":{"latitude":"43.44867","longitude":"4.8963","bright_ti4":"330.98","scan":"0.42","track":"0.37","acq_date":"2026-06-13","acq_time":"137","satellite":"N","instrument":"VIIRS","confidence":"n","version":"2.0NRT","bright_ti5":"294.76","frp":"4.97","daynight":"N","commune":"Fos-sur-Mer","code_insee":"13039","departement":"Bouches-du-Rhône","region":"Provence-Alpes-Côte d'Azur"}},{"type":"Feature","geometry":{"type":"Point","coordinates":[7.37321,43.79506]},"properties":{"latitude":"43.79506","longitude":"7.37321","bright_ti4":"312.52","scan":"0.38","track":"0.36","acq_date":"2026-06-13","acq_time":"137","satellite":"N","instrument":"VIIRS","confidence":"n","version":"2.0NRT","bright_ti5":"290.17","frp":"1.28","daynight":"N","commune":"Blausasc","code_insee":"06019","departement":"Alpes-Maritimes","region":"Provence-Alpes-Côte d'Azur"}},{"type":"Feature","geometry":{"type":"Point","coordinates":[1.22885,43.98716]},"properties":{"latitude":"43.98716","longitude":"1.22885","bright_ti4":"301.41","scan":"0.57","track":"0.43","acq_date":"2026-06-13","acq_time":"137","satellite":"N","instrument":"VIIRS","confidence":"n","version":"2.0NRT","bright_ti5":"287.78","frp":"0.9","daynight":"N","commune":"Montech","code_insee":"82125","departement":"Tarn-et-Garonne","region":"Occitanie"}},{"type":"Feature","geometry":{"type":"Point","coordinates":[6.11163,48.56201]},"properties":{"latitude":"48.56201","longitude":"6.11163","bright_ti4":"300.06","scan":"0.43","track":"0.38","acq_date":"2026-06-13","acq_time":"137","satellite":"N","instrument":"VIIRS","confidence":"n","version":"2.0NRT","bright_ti5":"285.64","frp":"0.73","daynight":"N","commune":"Xeuilley","code_insee":"54596","departement":"Meurthe-et-Moselle","region":"Grand Est"}},{"type":"Feature","geometry":{"type":"Point","coordinates":[6.11339,48.60835]},"properties":{"latitude":"48.60835","longitude":"6.11339","bright_ti4":"295.84","scan":"0.43","track":"0.38","acq_date":"2026-06-13","acq_time":"137","satellite":"N","instrument":"VIIRS","confidence":"n","version":"2.0NRT","bright_ti5":"285.29","frp":"0.6","daynight":"N","commune":"Neuves-Maisons","code_insee":"54397","departement":"Meurthe-et-Moselle","region":"Grand Est"}},{"type":"Feature","geometry":{"type":"Point","coordinates":[6.11298,48.60863]},"properties":{"latitude":"48.60863","longitude":"6.11298","bright_ti4":"301.19","scan":"0.43","track":"0.38","acq_date":"2026-06-13","acq_time":"137","satellite":"N","instrument":"VIIRS","confidence":"n","version":"2.0NRT","bright_ti5":"285.43","frp":"1.07","daynight":"N","commune":"Neuves-Maisons","code_insee":"54397","departement":"Meurthe-et-Moselle","region":"Grand Est"}},{"type":"Feature","geometry":{"type":"Point","coordinates":[6.11441,48.61182]},"properties":{"latitude":"48.61182","longitude":"6.11441","bright_ti4":"297.22","scan":"0.43","track":"0.38","acq_date":"2026-06-13","acq_time":"137","satellite":"N","instrument":"VIIRS","confidence":"n","version":"2.0NRT","bright_ti5":"285.13","frp":"0.93","daynight":"N","commune":"Neuves-Maisons","code_insee":"54397","departement":"Meurthe-et-Moselle","region":"Grand Est"}},{"type":"Feature","geometry":{"type":"Point","coordinates":[6.10861,48.61254]},"properties":{"latitude":"48.61254","longitude":"6.10861","bright_ti4":"309.33","scan":"0.43","track":"0.38","acq_date":"2026-06-13","acq_time":"137","satellite":"N","instrument":"VIIRS","confidence":"n","version":"2.0NRT","bright_ti5":"285.48","frp":"0.88","daynight":"N","commune":"Neuves-Maisons","code_insee":"54397","departement":"Meurthe-et-Moselle","region":"Grand Est"}},{"type":"Feature","geometry":{"type":"Point","coordinates":[5.68078,48.71614]},"properties":{"latitude":"48.71614","longitude":"5.68078","bright_ti4":"299.87","scan":"0.44","track":"0.38","acq_date":"2026-06-13","acq_time":"137","satellite":"N","instrument":"VIIRS","confidence":"n","version":"2.0NRT","bright_ti5":"284.17","frp":"0.84","daynight":"N","commune":"Sorcy-Saint-Martin","code_insee":"55496","departement":"Meuse","region":"Grand Est"}},{"type":"Feature","geometry":{"type":"Point","coordinates":[2.27717,51.02923]},"properties":{"latitude":"51.02923","longitude":"2.27717","bright_ti4":"301.72","scan":"0.42","track":"0.61","acq_date":"2026-06-13","acq_time":"317","satellite":"N","instrument":"VIIRS","confidence":"n","version":"2.0NRT","bright_ti5":"282.34","frp":"1.55","daynight":"N","commune":"Grande-Synthe","code_insee":"59271","departement":"Nord","region":"Hauts-de-France"}},{"type":"Feature","geometry":{"type":"Point","coordinates":[2.28443,51.03034]},"properties":{"latitude":"51.03034","longitude":"2.28443","bright_ti4":"297.07","scan":"0.42","track":"0.61","acq_date":"2026-06-13","acq_time":"317","satellite":"N","instrument":"VIIRS","confidence":"n","version":"2.0NRT","bright_ti5":"283.21","frp":"1.72","daynight":"N","commune":"Grande-Synthe","code_insee":"59271","departement":"Nord","region":"Hauts-de-France"}},{"type":"Feature","geometry":{"type":"Point","coordinates":[2.27897,51.03214]},"properties":{"latitude":"51.03214","longitude":"2.27897","bright_ti4":"342.17","scan":"0.42","track":"0.61","acq_date":"2026-06-13","acq_time":"317","satellite":"N","instrument":"VIIRS","confidence":"n","version":"2.0NRT","bright_ti5":"284.89","frp":"5.95","daynight":"N","commune":"Grande-Synthe","code_insee":"59271","departement":"Nord","region":"Hauts-de-France"}},{"type":"Feature","geometry":{"type":"Point","coordinates":[2.28687,51.03254]},"properties":{"latitude":"51.03254","longitude":"2.28687","bright_ti4":"301.05","scan":"0.42","track":"0.61","acq_date":"2026-06-13","acq_time":"317","satellite":"N","instrument":"VIIRS","confidence":"n","version":"2.0NRT","bright_ti5":"283.52","frp":"1.55","daynight":"N","commune":"Grande-Synthe","code_insee":"59271","departement":"Nord","region":"Hauts-de-France"}},{"type":"Feature","geometry":{"type":"Point","coordinates":[2.28138,51.03432]},"properties":{"latitude":"51.03432","longitude":"2.28138","bright_ti4":"340.15","scan":"0.42","track":"0.61","acq_date":"2026-06-13","acq_time":"317","satellite":"N","instrument":"VIIRS","confidence":"n","version":"2.0NRT","bright_ti5":"285.61","frp":"1.55","daynight":"N","commune":"Grande-Synthe","code_insee":"59271","departement":"Nord","region":"Hauts-de-France"}},{"type":"Feature","geometry":{"type":"Point","coordinates":[2.29705,51.0456]},"properties":{"latitude":"51.0456","longitude":"2.29705","bright_ti4":"295.14","scan":"0.42","track":"0.61","acq_date":"2026-06-13","acq_time":"317","satellite":"N","instrument":"VIIRS","confidence":"n","version":"2.0NRT","bright_ti5":"283.46","frp":"0.48","daynight":"N","commune":"Grande-Synthe","code_insee":"59271","departement":"Nord","region":"Hauts-de-France"}},{"type":"Feature","geometry":{"type":"Point","coordinates":[9.2354,41.58416]},"properties":{"latitude":"41.58416","longitude":"9.2354","bright_ti4":"355.8","scan":"0.5","track":"0.49","acq_date":"2026-06-13","acq_time":"1259","satellite":"N","instrument":"VIIRS","confidence":"n","version":"2.0NRT","bright_ti5":"306.07","frp":"13.14","daynight":"D","commune":"Porto-Vecchio","code_insee":"2A247","departement":"Corse-du-Sud","region":"Corse"}},{"type":"Feature","geometry":{"type":"Point","coordinates":[9.24148,41.58464]},"properties":{"latitude":"41.58464","longitude":"9.24148","bright_ti4":"347.73","scan":"0.5","track":"0.49","acq_date":"2026-06-13","acq_time":"1259","satellite":"N","instrument":"VIIRS","confidence":"n","version":"2.0NRT","bright_ti5":"310.17","frp":"24.6","daynight":"D","commune":"Porto-Vecchio","code_insee":"2A247","departement":"Corse-du-Sud","region":"Corse"}},{"type":"Feature","geometry":{"type":"Point","coordinates":[4.89725,43.44673]},"properties":{"latitude":"43.44673","longitude":"4.89725","bright_ti4":"340.86","scan":"0.49","track":"0.41","acq_date":"2026-06-13","acq_time":"1301","satellite":"N","instrument":"VIIRS","confidence":"l","version":"2.0NRT","bright_ti5":"313.75","frp":"9.63","daynight":"D","commune":"Fos-sur-Mer","code_insee":"13039","departement":"Bouches-du-Rhône","region":"Provence-Alpes-Côte d'Azur"}},{"type":"Feature","geometry":{"type":"Point","coordinates":[2.02529,46.15294]},"properties":{"latitude":"46.15294","longitude":"2.02529","bright_ti4":"337.78","scan":"0.42","track":"0.38","acq_date":"2026-06-13","acq_time":"1301","satellite":"N","instrument":"VIIRS","confidence":"n","version":"2.0NRT","bright_ti5":"312.09","frp":"2.83","daynight":"D","commune":"Pionnat","code_insee":"23154","departement":"Creuse","region":"Nouvelle-Aquitaine"}},{"type":"Feature","geometry":{"type":"Point","coordinates":[2.39998,46.16655]},"properties":{"latitude":"46.16655","longitude":"2.39998","bright_ti4":"335.76","scan":"0.43","track":"0.38","acq_date":"2026-06-13","acq_time":"1301","satellite":"N","instrument":"VIIRS","confidence":"n","version":"2.0NRT","bright_ti5":"308.65","frp":"2.96","daynight":"D","commune":"Chambon-sur-Voueize","code_insee":"23045","departement":"Creuse","region":"Nouvelle-Aquitaine"}},{"type":"Feature","geometry":{"type":"Point","coordinates":[2.40225,46.16753]},"properties":{"latitude":"46.16753","longitude":"2.40225","bright_ti4":"337.7","scan":"0.43","track":"0.38","acq_date":"2026-06-13","acq_time":"1301","satellite":"N","instrument":"VIIRS","confidence":"n","version":"2.0NRT","bright_ti5":"308.68","frp":"3.05","daynight":"D","commune":"Chambon-sur-Voueize","code_insee":"23045","departement":"Creuse","region":"Nouvelle-Aquitaine"}},{"type":"Feature","geometry":{"type":"Point","coordinates":[2.50955,46.52839]},"properties":{"latitude":"46.52839","longitude":"2.50955","bright_ti4":"334.13","scan":"0.44","track":"0.38","acq_date":"2026-06-13","acq_time":"1301","satellite":"N","instrument":"VIIRS","confidence":"n","version":"2.0NRT","bright_ti5":"306.54","frp":"12","daynight":"D","commune":"Saint-Vitte","code_insee":"18238","departement":"Cher","region":"Centre-Val de Loire"}},{"type":"Feature","geometry":{"type":"Point","coordinates":[2.51532,46.52907]},"properties":{"latitude":"46.52907","longitude":"2.51532","bright_ti4":"347.66","scan":"0.44","track":"0.38","acq_date":"2026-06-13","acq_time":"1301","satellite":"N","instrument":"VIIRS","confidence":"n","version":"2.0NRT","bright_ti5":"314.13","frp":"12","daynight":"D","commune":"Saint-Désiré","code_insee":"03225","departement":"Allier","region":"Auvergne-Rhône-Alpes"}},{"type":"Feature","geometry":{"type":"Point","coordinates":[2.50868,46.53191]},"properties":{"latitude":"46.53191","longitude":"2.50868","bright_ti4":"337.91","scan":"0.44","track":"0.38","acq_date":"2026-06-13","acq_time":"1301","satellite":"N","instrument":"VIIRS","confidence":"n","version":"2.0NRT","bright_ti5":"310.88","frp":"6.26","daynight":"D","commune":"Saint-Vitte","code_insee":"18238","departement":"Cher","region":"Centre-Val de Loire"}},{"type":"Feature","geometry":{"type":"Point","coordinates":[2.51445,46.5326]},"properties":{"latitude":"46.5326","longitude":"2.51445","bright_ti4":"344.11","scan":"0.44","track":"0.38","acq_date":"2026-06-13","acq_time":"1301","satellite":"N","instrument":"VIIRS","confidence":"n","version":"2.0NRT","bright_ti5":"306.04","frp":"6.26","daynight":"D","commune":"Saint-Vitte","code_insee":"18238","departement":"Cher","region":"Centre-Val de Loire"}},{"type":"Feature","geometry":{"type":"Point","coordinates":[2.35112,48.76508]},"properties":{"latitude":"48.76508","longitude":"2.35112","bright_ti4":"337.35","scan":"0.46","track":"0.39","acq_date":"2026-06-13","acq_time":"1301","satellite":"N","instrument":"VIIRS","confidence":"l","version":"2.0NRT","bright_ti5":"309.15","frp":"3.2","daynight":"D","commune":"Chevilly-Larue","code_insee":"94021","departement":"Val-de-Marne","region":"Île-de-France"}},{"type":"Feature","geometry":{"type":"Point","coordinates":[6.10815,48.56208]},"properties":{"latitude":"48.56208","longitude":"6.10815","bright_ti4":"297.83","scan":"0.41","track":"0.37","acq_date":"2026-06-13","acq_time":"154","satellite":"N20","instrument":"VIIRS","confidence":"n","version":"2.0NRT","bright_ti5":"286.09","frp":"0.38","daynight":"N","commune":"Xeuilley","code_insee":"54596","departement":"Meurthe-et-Moselle","region":"Grand Est"}},{"type":"Feature","geometry":{"type":"Point","coordinates":[6.11664,48.61036]},"properties":{"latitude":"48.61036","longitude":"6.11664","bright_ti4":"301.41","scan":"0.41","track":"0.37","acq_date":"2026-06-13","acq_time":"154","satellite":"N20","instrument":"VIIRS","confidence":"n","version":"2.0NRT","bright_ti5":"286.01","frp":"0.62","daynight":"N","commune":"Neuves-Maisons","code_insee":"54397","departement":"Meurthe-et-Moselle","region":"Grand Est"}},{"type":"Feature","geometry":{"type":"Point","coordinates":[6.11127,48.61134]},"properties":{"latitude":"48.61134","longitude":"6.11127","bright_ti4":"303.79","scan":"0.41","track":"0.37","acq_date":"2026-06-13","acq_time":"154","satellite":"N20","instrument":"VIIRS","confidence":"n","version":"2.0NRT","bright_ti5":"286.7","frp":"0.62","daynight":"N","commune":"Neuves-Maisons","code_insee":"54397","departement":"Meurthe-et-Moselle","region":"Grand Est"}},{"type":"Feature","geometry":{"type":"Point","coordinates":[5.68483,48.71627]},"properties":{"latitude":"48.71627","longitude":"5.68483","bright_ti4":"304.9","scan":"0.4","track":"0.37","acq_date":"2026-06-13","acq_time":"154","satellite":"N20","instrument":"VIIRS","confidence":"n","version":"2.0NRT","bright_ti5":"285.23","frp":"0.63","daynight":"N","commune":"Sorcy-Saint-Martin","code_insee":"55496","departement":"Meuse","region":"Grand Est"}},{"type":"Feature","geometry":{"type":"Point","coordinates":[4.56156,48.76815]},"properties":{"latitude":"48.76815","longitude":"4.56156","bright_ti4":"297.59","scan":"0.39","track":"0.36","acq_date":"2026-06-13","acq_time":"154","satellite":"N20","instrument":"VIIRS","confidence":"n","version":"2.0NRT","bright_ti5":"286.1","frp":"0.85","daynight":"N","commune":"Couvrot","code_insee":"51195","departement":"Marne","region":"Grand Est"}},{"type":"Feature","geometry":{"type":"Point","coordinates":[1.7617,48.98435]},"properties":{"latitude":"48.98435","longitude":"1.7617","bright_ti4":"318.81","scan":"0.4","track":"0.37","acq_date":"2026-06-13","acq_time":"154","satellite":"N20","instrument":"VIIRS","confidence":"n","version":"2.0NRT","bright_ti5":"289.78","frp":"1.92","daynight":"N","commune":"Porcheville","code_insee":"78501","departement":"Yvelines","region":"Île-de-France"}},{"type":"Feature","geometry":{"type":"Point","coordinates":[2.26996,51.01125]},"properties":{"latitude":"51.01125","longitude":"2.26996","bright_ti4":"296.59","scan":"0.4","track":"0.37","acq_date":"2026-06-13","acq_time":"154","satellite":"N20","instrument":"VIIRS","confidence":"n","version":"2.0NRT","bright_ti5":"284.83","frp":"0.42","daynight":"N","commune":"Dunkerque","code_insee":"59183","departement":"Nord","region":"Hauts-de-France"}},{"type":"Feature","geometry":{"type":"Point","coordinates":[2.28025,51.02379]},"properties":{"latitude":"51.02379","longitude":"2.28025","bright_ti4":"300.6","scan":"0.4","track":"0.37","acq_date":"2026-06-13","acq_time":"154","satellite":"N20","instrument":"VIIRS","confidence":"n","version":"2.0NRT","bright_ti5":"284.65","frp":"0.49","daynight":"N","commune":"Grande-Synthe","code_insee":"59271","departement":"Nord","region":"Hauts-de-France"}},{"type":"Feature","geometry":{"type":"Point","coordinates":[2.28257,51.03045]},"properties":{"latitude":"51.03045","longitude":"2.28257","bright_ti4":"328.58","scan":"0.4","track":"0.37","acq_date":"2026-06-13","acq_time":"154","satellite":"N20","instrument":"VIIRS","confidence":"n","version":"2.0NRT","bright_ti5":"288.68","frp":"2.88","daynight":"N","commune":"Grande-Synthe","code_insee":"59271","departement":"Nord","region":"Hauts-de-France"}},{"type":"Feature","geometry":{"type":"Point","coordinates":[2.28428,51.03123]},"properties":{"latitude":"51.03123","longitude":"2.28428","bright_ti4":"315.47","scan":"0.4","track":"0.37","acq_date":"2026-06-13","acq_time":"154","satellite":"N20","instrument":"VIIRS","confidence":"n","version":"2.0NRT","bright_ti5":"285.91","frp":"1.95","daynight":"N","commune":"Grande-Synthe","code_insee":"59271","departement":"Nord","region":"Hauts-de-France"}},{"type":"Feature","geometry":{"type":"Point","coordinates":[2.27863,51.032]},"properties":{"latitude":"51.032","longitude":"2.27863","bright_ti4":"329.38","scan":"0.4","track":"0.37","acq_date":"2026-06-13","acq_time":"154","satellite":"N20","instrument":"VIIRS","confidence":"n","version":"2.0NRT","bright_ti5":"288.23","frp":"1.95","daynight":"N","commune":"Grande-Synthe","code_insee":"59271","departement":"Nord","region":"Hauts-de-France"}},{"type":"Feature","geometry":{"type":"Point","coordinates":[2.29109,51.03378]},"properties":{"latitude":"51.03378","longitude":"2.29109","bright_ti4":"296.1","scan":"0.4","track":"0.37","acq_date":"2026-06-13","acq_time":"154","satellite":"N20","instrument":"VIIRS","confidence":"n","version":"2.0NRT","bright_ti5":"285.92","frp":"1.31","daynight":"N","commune":"Grande-Synthe","code_insee":"59271","departement":"Nord","region":"Hauts-de-France"}},{"type":"Feature","geometry":{"type":"Point","coordinates":[2.25431,51.03438]},"properties":{"latitude":"51.03438","longitude":"2.25431","bright_ti4":"302.91","scan":"0.4","track":"0.37","acq_date":"2026-06-13","acq_time":"154","satellite":"N20","instrument":"VIIRS","confidence":"n","version":"2.0NRT","bright_ti5":"285.96","frp":"0.57","daynight":"N","commune":"Dunkerque","code_insee":"59183","departement":"Nord","region":"Hauts-de-France"}},{"type":"Feature","geometry":{"type":"Point","coordinates":[2.28544,51.03456]},"properties":{"latitude":"51.03456","longitude":"2.28544","bright_ti4":"311.43","scan":"0.4","track":"0.37","acq_date":"2026-06-13","acq_time":"154","satellite":"N20","instrument":"VIIRS","confidence":"n","version":"2.0NRT","bright_ti5":"285.56","frp":"1.95","daynight":"N","commune":"Grande-Synthe","code_insee":"59271","departement":"Nord","region":"Hauts-de-France"}},{"type":"Feature","geometry":{"type":"Point","coordinates":[2.256,51.0351]},"properties":{"latitude":"51.0351","longitude":"2.256","bright_ti4":"299.66","scan":"0.4","track":"0.37","acq_date":"2026-06-13","acq_time":"154","satellite":"N20","instrument":"VIIRS","confidence":"n","version":"2.0NRT","bright_ti5":"285.56","frp":"0.64","daynight":"N","commune":"Dunkerque","code_insee":"59183","departement":"Nord","region":"Hauts-de-France"}},{"type":"Feature","geometry":{"type":"Point","coordinates":[2.27979,51.03534]},"properties":{"latitude":"51.03534","longitude":"2.27979","bright_ti4":"318.56","scan":"0.4","track":"0.37","acq_date":"2026-06-13","acq_time":"154","satellite":"N20","instrument":"VIIRS","confidence":"n","version":"2.0NRT","bright_ti5":"286.17","frp":"1.95","daynight":"N","commune":"Grande-Synthe","code_insee":"59271","departement":"Nord","region":"Hauts-de-France"}},{"type":"Feature","geometry":{"type":"Point","coordinates":[2.30022,51.043]},"properties":{"latitude":"51.043","longitude":"2.30022","bright_ti4":"313.05","scan":"0.4","track":"0.37","acq_date":"2026-06-13","acq_time":"154","satellite":"N20","instrument":"VIIRS","confidence":"n","version":"2.0NRT","bright_ti5":"287.44","frp":"2.07","daynight":"N","commune":"Grande-Synthe","code_insee":"59271","departement":"Nord","region":"Hauts-de-France"}},{"type":"Feature","geometry":{"type":"Point","coordinates":[2.29457,51.04378]},"properties":{"latitude":"51.04378","longitude":"2.29457","bright_ti4":"330.15","scan":"0.4","track":"0.37","acq_date":"2026-06-13","acq_time":"154","satellite":"N20","instrument":"VIIRS","confidence":"n","version":"2.0NRT","bright_ti5":"286.54","frp":"2.07","daynight":"N","commune":"Grande-Synthe","code_insee":"59271","departement":"Nord","region":"Hauts-de-France"}},{"type":"Feature","geometry":{"type":"Point","coordinates":[2.32512,51.04655]},"properties":{"latitude":"51.04655","longitude":"2.32512","bright_ti4":"314.44","scan":"0.4","track":"0.37","acq_date":"2026-06-13","acq_time":"154","satellite":"N20","instrument":"VIIRS","confidence":"n","version":"2.0NRT","bright_ti5":"286.2","frp":"1.93","daynight":"N","commune":"Dunkerque","code_insee":"59183","departement":"Nord","region":"Hauts-de-France"}},{"type":"Feature","geometry":{"type":"Point","coordinates":[2.29572,51.04711]},"properties":{"latitude":"51.04711","longitude":"2.29572","bright_ti4":"320.01","scan":"0.4","track":"0.37","acq_date":"2026-06-13","acq_time":"154","satellite":"N20","instrument":"VIIRS","confidence":"n","version":"2.0NRT","bright_ti5":"287.41","frp":"2.07","daynight":"N","commune":"Grande-Synthe","code_insee":"59271","departement":"Nord","region":"Hauts-de-France"}},{"type":"Feature","geometry":{"type":"Point","coordinates":[2.31948,51.04733]},"properties":{"latitude":"51.04733","longitude":"2.31948","bright_ti4":"316.64","scan":"0.4","track":"0.37","acq_date":"2026-06-13","acq_time":"154","satellite":"N20","instrument":"VIIRS","confidence":"n","version":"2.0NRT","bright_ti5":"286.59","frp":"1.93","daynight":"N","commune":"Dunkerque","code_insee":"59183","departement":"Nord","region":"Hauts-de-France"}},{"type":"Feature","geometry":{"type":"Point","coordinates":[4.89692,43.43116]},"properties":{"latitude":"43.43116","longitude":"4.89692","bright_ti4":"305.11","scan":"0.43","track":"0.38","acq_date":"2026-06-13","acq_time":"156","satellite":"N20","instrument":"VIIRS","confidence":"n","version":"2.0NRT","bright_ti5":"293.54","frp":"1.19","daynight":"N","commune":"Fos-sur-Mer","code_insee":"13039","departement":"Bouches-du-Rhône","region":"Provence-Alpes-Côte d'Azur"}},{"type":"Feature","geometry":{"type":"Point","coordinates":[4.89292,43.43556]},"properties":{"latitude":"43.43556","longitude":"4.89292","bright_ti4":"304.76","scan":"0.43","track":"0.38","acq_date":"2026-06-13","acq_time":"156","satellite":"N20","instrument":"VIIRS","confidence":"n","version":"2.0NRT","bright_ti5":"293.42","frp":"1.19","daynight":"N","commune":"Fos-sur-Mer","code_insee":"13039","departement":"Bouches-du-Rhône","region":"Provence-Alpes-Côte d'Azur"}},{"type":"Feature","geometry":{"type":"Point","coordinates":[4.87853,43.44192]},"properties":{"latitude":"43.44192","longitude":"4.87853","bright_ti4":"316.29","scan":"0.43","track":"0.38","acq_date":"2026-06-13","acq_time":"156","satellite":"N20","instrument":"VIIRS","confidence":"n","version":"2.0NRT","bright_ti5":"292.26","frp":"1.6","daynight":"N","commune":"Fos-sur-Mer","code_insee":"13039","departement":"Bouches-du-Rhône","region":"Provence-Alpes-Côte d'Azur"}},{"type":"Feature","geometry":{"type":"Point","coordinates":[4.90179,43.44482]},"properties":{"latitude":"43.44482","longitude":"4.90179","bright_ti4":"317.67","scan":"0.43","track":"0.38","acq_date":"2026-06-13","acq_time":"156","satellite":"N20","instrument":"VIIRS","confidence":"n","version":"2.0NRT","bright_ti5":"293.67","frp":"2.32","daynight":"N","commune":"Fos-sur-Mer","code_insee":"13039","departement":"Bouches-du-Rhône","region":"Provence-Alpes-Côte d'Azur"}},{"type":"Feature","geometry":{"type":"Point","coordinates":[4.89657,43.4458]},"properties":{"latitude":"43.4458","longitude":"4.89657","bright_ti4":"312.93","scan":"0.43","track":"0.38","acq_date":"2026-06-13","acq_time":"156","satellite":"N20","instrument":"VIIRS","confidence":"n","version":"2.0NRT","bright_ti5":"293.81","frp":"2.32","daynight":"N","commune":"Fos-sur-Mer","code_insee":"13039","departement":"Bouches-du-Rhône","region":"Provence-Alpes-Côte d'Azur"}},{"type":"Feature","geometry":{"type":"Point","coordinates":[4.89779,43.44922]},"properties":{"latitude":"43.44922","longitude":"4.89779","bright_ti4":"328.94","scan":"0.43","track":"0.38","acq_date":"2026-06-13","acq_time":"156","satellite":"N20","instrument":"VIIRS","confidence":"n","version":"2.0NRT","bright_ti5":"293.28","frp":"2.32","daynight":"N","commune":"Fos-sur-Mer","code_insee":"13039","departement":"Bouches-du-Rhône","region":"Provence-Alpes-Côte d'Azur"}},{"type":"Feature","geometry":{"type":"Point","coordinates":[3.50537,43.63176]},"properties":{"latitude":"43.63176","longitude":"3.50537","bright_ti4":"309.18","scan":"0.4","track":"0.37","acq_date":"2026-06-13","acq_time":"156","satellite":"N20","instrument":"VIIRS","confidence":"n","version":"2.0NRT","bright_ti5":"288.59","frp":"0.28","daynight":"N","commune":"Saint-André-de-Sangonis","code_insee":"34239","departement":"Hérault","region":"Occitanie"}},{"type":"Feature","geometry":{"type":"Point","coordinates":[1.22803,43.98745]},"properties":{"latitude":"43.98745","longitude":"1.22803","bright_ti4":"300.2","scan":"0.38","track":"0.36","acq_date":"2026-06-13","acq_time":"156","satellite":"N20","instrument":"VIIRS","confidence":"n","version":"2.0NRT","bright_ti5":"287.57","frp":"0.41","daynight":"N","commune":"Montech","code_insee":"82125","departement":"Tarn-et-Garonne","region":"Occitanie"}},{"type":"Feature","geometry":{"type":"Point","coordinates":[4.65923,45.8674]},"properties":{"latitude":"45.8674","longitude":"4.65923","bright_ti4":"297.21","scan":"0.4","track":"0.37","acq_date":"2026-06-13","acq_time":"156","satellite":"N20","instrument":"VIIRS","confidence":"n","version":"2.0NRT","bright_ti5":"286.31","frp":"0.49","daynight":"N","commune":"Châtillon","code_insee":"69050","departement":"Rhône","region":"Auvergne-Rhône-Alpes"}},{"type":"Feature","geometry":{"type":"Point","coordinates":[-0.13997,46.80722]},"properties":{"latitude":"46.80722","longitude":"-0.13997","bright_ti4":"300.34","scan":"0.42","track":"0.37","acq_date":"2026-06-13","acq_time":"156","satellite":"N20","instrument":"VIIRS","confidence":"n","version":"2.0NRT","bright_ti5":"287.1","frp":"0.74","daynight":"N","commune":"Airvault","code_insee":"79005","departement":"Deux-Sèvres","region":"Nouvelle-Aquitaine"}},{"type":"Feature","geometry":{"type":"Point","coordinates":[3.76969,44.83176]},"properties":{"latitude":"44.83176","longitude":"3.76969","bright_ti4":"352.62","scan":"0.43","track":"0.62","acq_date":"2026-06-13","acq_time":"1140","satellite":"N20","instrument":"VIIRS","confidence":"n","version":"2.0NRT","bright_ti5":"299.43","frp":"5.54","daynight":"D","commune":"Saint-Haon","code_insee":"43192","departement":"Haute-Loire","region":"Auvergne-Rhône-Alpes"}},{"type":"Feature","geometry":{"type":"Point","coordinates":[9.23249,41.58453]},"properties":{"latitude":"41.58453","longitude":"9.23249","bright_ti4":"341.73","scan":"0.52","track":"0.67","acq_date":"2026-06-13","acq_time":"1321","satellite":"N20","instrument":"VIIRS","confidence":"n","version":"2.0NRT","bright_ti5":"301.77","frp":"8.79","daynight":"D","commune":"Porto-Vecchio","code_insee":"2A247","departement":"Corse-du-Sud","region":"Corse"}},{"type":"Feature","geometry":{"type":"Point","coordinates":[9.23896,41.58469]},"properties":{"latitude":"41.58469","longitude":"9.23896","bright_ti4":"367","scan":"0.52","track":"0.67","acq_date":"2026-06-13","acq_time":"1321","satellite":"N20","instrument":"VIIRS","confidence":"h","version":"2.0NRT","bright_ti5":"303.79","frp":"15.54","daynight":"D","commune":"Porto-Vecchio","code_insee":"2A247","departement":"Corse-du-Sud","region":"Corse"}},{"type":"Feature","geometry":{"type":"Point","coordinates":[4.89592,43.44522]},"properties":{"latitude":"43.44522","longitude":"4.89592","bright_ti4":"335.49","scan":"0.32","track":"0.55","acq_date":"2026-06-13","acq_time":"1321","satellite":"N20","instrument":"VIIRS","confidence":"l","version":"2.0NRT","bright_ti5":"309.69","frp":"2.99","daynight":"D","commune":"Fos-sur-Mer","code_insee":"13039","departement":"Bouches-du-Rhône","region":"Provence-Alpes-Côte d'Azur"}},{"type":"Feature","geometry":{"type":"Point","coordinates":[4.89994,43.44545]},"properties":{"latitude":"43.44545","longitude":"4.89994","bright_ti4":"339.9","scan":"0.32","track":"0.55","acq_date":"2026-06-13","acq_time":"1321","satellite":"N20","instrument":"VIIRS","confidence":"n","version":"2.0NRT","bright_ti5":"310.3","frp":"2.99","daynight":"D","commune":"Fos-sur-Mer","code_insee":"13039","departement":"Bouches-du-Rhône","region":"Provence-Alpes-Côte d'Azur"}},{"type":"Feature","geometry":{"type":"Point","coordinates":[2.51164,46.52894]},"properties":{"latitude":"46.52894","longitude":"2.51164","bright_ti4":"334.64","scan":"0.52","track":"0.5","acq_date":"2026-06-13","acq_time":"1323","satellite":"N20","instrument":"VIIRS","confidence":"n","version":"2.0NRT","bright_ti5":"307.07","frp":"4.45","daynight":"D","commune":"Saint-Vitte","code_insee":"18238","departement":"Cher","region":"Centre-Val de Loire"}},{"type":"Feature","geometry":{"type":"Point","coordinates":[-4.72376,48.51865]},"properties":{"latitude":"48.51865","longitude":"-4.72376","bright_ti4":"331.85","scan":"0.43","track":"0.38","acq_date":"2026-06-13","acq_time":"1323","satellite":"N20","instrument":"VIIRS","confidence":"n","version":"2.0NRT","bright_ti5":"301.49","frp":"5.9","daynight":"D","commune":"Landunvez","code_insee":"29109","departement":"Finistère","region":"Bretagne"}},{"type":"Feature","geometry":{"type":"Point","coordinates":[-4.71796,48.51935]},"properties":{"latitude":"48.51935","longitude":"-4.71796","bright_ti4":"342.72","scan":"0.43","track":"0.38","acq_date":"2026-06-13","acq_time":"1323","satellite":"N20","instrument":"VIIRS","confidence":"n","version":"2.0NRT","bright_ti5":"298.72","frp":"5.9","daynight":"D","commune":"Landunvez","code_insee":"29109","departement":"Finistère","region":"Bretagne"}},{"type":"Feature","geometry":{"type":"Point","coordinates":[-4.71891,48.52282]},"properties":{"latitude":"48.52282","longitude":"-4.71891","bright_ti4":"331.11","scan":"0.43","track":"0.38","acq_date":"2026-06-13","acq_time":"1323","satellite":"N20","instrument":"VIIRS","confidence":"l","version":"2.0NRT","bright_ti5":"303.42","frp":"57.51","daynight":"D","commune":"Landunvez","code_insee":"29109","departement":"Finistère","region":"Bretagne"}},{"type":"Feature","geometry":{"type":"Point","coordinates":[-4.71405,48.52699]},"properties":{"latitude":"48.52699","longitude":"-4.71405","bright_ti4":"342.06","scan":"0.43","track":"0.38","acq_date":"2026-06-13","acq_time":"1323","satellite":"N20","instrument":"VIIRS","confidence":"n","version":"2.0NRT","bright_ti5":"297.98","frp":"4.44","daynight":"D","commune":"Landunvez","code_insee":"29109","departement":"Finistère","region":"Bretagne"}},{"type":"Feature","geometry":{"type":"Point","coordinates":[4.0568,49.26082]},"properties":{"latitude":"49.26082","longitude":"4.0568","bright_ti4":"343.55","scan":"0.33","track":"0.55","acq_date":"2026-06-13","acq_time":"1323","satellite":"N20","instrument":"VIIRS","confidence":"n","version":"2.0NRT","bright_ti5":"298.61","frp":"2.69","daynight":"D","commune":"Reims","code_insee":"51454","departement":"Marne","region":"Grand Est"}},{"type":"Feature","geometry":{"type":"Point","coordinates":[2.28343,51.02911]},"properties":{"latitude":"51.02911","longitude":"2.28343","bright_ti4":"307.09","scan":"0.4","track":"0.6","acq_date":"2026-06-13","acq_time":"100","satellite":"N21","instrument":"VIIRS","confidence":"n","version":"2.0NRT","bright_ti5":"285.49","frp":"2.91","daynight":"N","commune":"Grande-Synthe","code_insee":"59271","departement":"Nord","region":"Hauts-de-France"}},{"type":"Feature","geometry":{"type":"Point","coordinates":[2.27771,51.02924]},"properties":{"latitude":"51.02924","longitude":"2.27771","bright_ti4":"331.58","scan":"0.4","track":"0.6","acq_date":"2026-06-13","acq_time":"100","satellite":"N21","instrument":"VIIRS","confidence":"n","version":"2.0NRT","bright_ti5":"285.75","frp":"2.91","daynight":"N","commune":"Grande-Synthe","code_insee":"59271","departement":"Nord","region":"Hauts-de-France"}},{"type":"Feature","geometry":{"type":"Point","coordinates":[2.28311,51.02944]},"properties":{"latitude":"51.02944","longitude":"2.28311","bright_ti4":"312.94","scan":"0.4","track":"0.6","acq_date":"2026-06-13","acq_time":"100","satellite":"N21","instrument":"VIIRS","confidence":"n","version":"2.0NRT","bright_ti5":"285.88","frp":"3.36","daynight":"N","commune":"Grande-Synthe","code_insee":"59271","departement":"Nord","region":"Hauts-de-France"}},{"type":"Feature","geometry":{"type":"Point","coordinates":[2.2774,51.0296]},"properties":{"latitude":"51.0296","longitude":"2.2774","bright_ti4":"331.17","scan":"0.4","track":"0.6","acq_date":"2026-06-13","acq_time":"100","satellite":"N21","instrument":"VIIRS","confidence":"n","version":"2.0NRT","bright_ti5":"285.22","frp":"3.36","daynight":"N","commune":"Grande-Synthe","code_insee":"59271","departement":"Nord","region":"Hauts-de-France"}},{"type":"Feature","geometry":{"type":"Point","coordinates":[2.28948,51.03449]},"properties":{"latitude":"51.03449","longitude":"2.28948","bright_ti4":"321.66","scan":"0.4","track":"0.6","acq_date":"2026-06-13","acq_time":"100","satellite":"N21","instrument":"VIIRS","confidence":"n","version":"2.0NRT","bright_ti5":"285.78","frp":"3.96","daynight":"N","commune":"Grande-Synthe","code_insee":"59271","departement":"Nord","region":"Hauts-de-France"}},{"type":"Feature","geometry":{"type":"Point","coordinates":[2.28378,51.03463]},"properties":{"latitude":"51.03463","longitude":"2.28378","bright_ti4":"312.4","scan":"0.4","track":"0.6","acq_date":"2026-06-13","acq_time":"100","satellite":"N21","instrument":"VIIRS","confidence":"n","version":"2.0NRT","bright_ti5":"284.75","frp":"2.7","daynight":"N","commune":"Grande-Synthe","code_insee":"59271","departement":"Nord","region":"Hauts-de-France"}},{"type":"Feature","geometry":{"type":"Point","coordinates":[2.27804,51.03477]},"properties":{"latitude":"51.03477","longitude":"2.27804","bright_ti4":"318.32","scan":"0.4","track":"0.6","acq_date":"2026-06-13","acq_time":"100","satellite":"N21","instrument":"VIIRS","confidence":"n","version":"2.0NRT","bright_ti5":"285.07","frp":"2.7","daynight":"N","commune":"Grande-Synthe","code_insee":"59271","departement":"Nord","region":"Hauts-de-France"}},{"type":"Feature","geometry":{"type":"Point","coordinates":[2.28912,51.0348]},"properties":{"latitude":"51.0348","longitude":"2.28912","bright_ti4":"325.01","scan":"0.4","track":"0.6","acq_date":"2026-06-13","acq_time":"100","satellite":"N21","instrument":"VIIRS","confidence":"n","version":"2.0NRT","bright_ti5":"285.95","frp":"3.36","daynight":"N","commune":"Grande-Synthe","code_insee":"59271","departement":"Nord","region":"Hauts-de-France"}},{"type":"Feature","geometry":{"type":"Point","coordinates":[2.28343,51.03496]},"properties":{"latitude":"51.03496","longitude":"2.28343","bright_ti4":"306.44","scan":"0.4","track":"0.6","acq_date":"2026-06-13","acq_time":"100","satellite":"N21","instrument":"VIIRS","confidence":"n","version":"2.0NRT","bright_ti5":"284.71","frp":"3.36","daynight":"N","commune":"Grande-Synthe","code_insee":"59271","departement":"Nord","region":"Hauts-de-France"}},{"type":"Feature","geometry":{"type":"Point","coordinates":[2.2777,51.03513]},"properties":{"latitude":"51.03513","longitude":"2.2777","bright_ti4":"315.23","scan":"0.4","track":"0.6","acq_date":"2026-06-13","acq_time":"100","satellite":"N21","instrument":"VIIRS","confidence":"n","version":"2.0NRT","bright_ti5":"284.93","frp":"3.36","daynight":"N","commune":"Grande-Synthe","code_insee":"59271","departement":"Nord","region":"Hauts-de-France"}},{"type":"Feature","geometry":{"type":"Point","coordinates":[2.25505,51.03532]},"properties":{"latitude":"51.03532","longitude":"2.25505","bright_ti4":"300.41","scan":"0.4","track":"0.6","acq_date":"2026-06-13","acq_time":"100","satellite":"N21","instrument":"VIIRS","confidence":"n","version":"2.0NRT","bright_ti5":"285.07","frp":"0.91","daynight":"N","commune":"Dunkerque","code_insee":"59183","departement":"Nord","region":"Hauts-de-France"}},{"type":"Feature","geometry":{"type":"Point","coordinates":[2.25478,51.03579]},"properties":{"latitude":"51.03579","longitude":"2.25478","bright_ti4":"299.62","scan":"0.4","track":"0.6","acq_date":"2026-06-13","acq_time":"100","satellite":"N21","instrument":"VIIRS","confidence":"n","version":"2.0NRT","bright_ti5":"284.88","frp":"0.87","daynight":"N","commune":"Dunkerque","code_insee":"59183","departement":"Nord","region":"Hauts-de-France"}},{"type":"Feature","geometry":{"type":"Point","coordinates":[2.32441,51.04469]},"properties":{"latitude":"51.04469","longitude":"2.32441","bright_ti4":"305.58","scan":"0.4","track":"0.6","acq_date":"2026-06-13","acq_time":"100","satellite":"N21","instrument":"VIIRS","confidence":"n","version":"2.0NRT","bright_ti5":"285.08","frp":"2.57","daynight":"N","commune":"Dunkerque","code_insee":"59183","departement":"Nord","region":"Hauts-de-France"}},{"type":"Feature","geometry":{"type":"Point","coordinates":[2.31874,51.04483]},"properties":{"latitude":"51.04483","longitude":"2.31874","bright_ti4":"305.47","scan":"0.4","track":"0.6","acq_date":"2026-06-13","acq_time":"100","satellite":"N21","instrument":"VIIRS","confidence":"n","version":"2.0NRT","bright_ti5":"285.72","frp":"2.9","daynight":"N","commune":"Dunkerque","code_insee":"59183","departement":"Nord","region":"Hauts-de-France"}},{"type":"Feature","geometry":{"type":"Point","coordinates":[2.30159,51.04526]},"properties":{"latitude":"51.04526","longitude":"2.30159","bright_ti4":"303.56","scan":"0.4","track":"0.6","acq_date":"2026-06-13","acq_time":"100","satellite":"N21","instrument":"VIIRS","confidence":"n","version":"2.0NRT","bright_ti5":"284.89","frp":"3.86","daynight":"N","commune":"Grande-Synthe","code_insee":"59271","departement":"Nord","region":"Hauts-de-France"}},{"type":"Feature","geometry":{"type":"Point","coordinates":[2.29585,51.0454]},"properties":{"latitude":"51.0454","longitude":"2.29585","bright_ti4":"367","scan":"0.4","track":"0.6","acq_date":"2026-06-13","acq_time":"100","satellite":"N21","instrument":"VIIRS","confidence":"h","version":"2.0NRT","bright_ti5":"289.12","frp":"8.89","daynight":"N","commune":"Grande-Synthe","code_insee":"59271","departement":"Nord","region":"Hauts-de-France"}},{"type":"Feature","geometry":{"type":"Point","coordinates":[2.32469,51.05021]},"properties":{"latitude":"51.05021","longitude":"2.32469","bright_ti4":"317.57","scan":"0.4","track":"0.6","acq_date":"2026-06-13","acq_time":"100","satellite":"N21","instrument":"VIIRS","confidence":"n","version":"2.0NRT","bright_ti5":"285.19","frp":"2.57","daynight":"N","commune":"Dunkerque","code_insee":"59183","departement":"Nord","region":"Hauts-de-France"}},{"type":"Feature","geometry":{"type":"Point","coordinates":[2.31901,51.05035]},"properties":{"latitude":"51.05035","longitude":"2.31901","bright_ti4":"316.16","scan":"0.4","track":"0.6","acq_date":"2026-06-13","acq_time":"100","satellite":"N21","instrument":"VIIRS","confidence":"n","version":"2.0NRT","bright_ti5":"285.91","frp":"2.9","daynight":"N","commune":"Dunkerque","code_insee":"59183","departement":"Nord","region":"Hauts-de-France"}},{"type":"Feature","geometry":{"type":"Point","coordinates":[4.87977,43.44069]},"properties":{"latitude":"43.44069","longitude":"4.87977","bright_ti4":"319.33","scan":"0.52","track":"0.5","acq_date":"2026-06-13","acq_time":"102","satellite":"N21","instrument":"VIIRS","confidence":"n","version":"2.0NRT","bright_ti5":"293.72","frp":"2.55","daynight":"N","commune":"Fos-sur-Mer","code_insee":"13039","departement":"Bouches-du-Rhône","region":"Provence-Alpes-Côte d'Azur"}},{"type":"Feature","geometry":{"type":"Point","coordinates":[4.8996,43.44387]},"properties":{"latitude":"43.44387","longitude":"4.8996","bright_ti4":"325.32","scan":"0.52","track":"0.5","acq_date":"2026-06-13","acq_time":"102","satellite":"N21","instrument":"VIIRS","confidence":"n","version":"2.0NRT","bright_ti5":"294.1","frp":"4.9","daynight":"N","commune":"Fos-sur-Mer","code_insee":"13039","departement":"Bouches-du-Rhône","region":"Provence-Alpes-Côte d'Azur"}},{"type":"Feature","geometry":{"type":"Point","coordinates":[7.37496,43.79307]},"properties":{"latitude":"43.79307","longitude":"7.37496","bright_ti4":"310.21","scan":"0.4","track":"0.44","acq_date":"2026-06-13","acq_time":"102","satellite":"N21","instrument":"VIIRS","confidence":"n","version":"2.0NRT","bright_ti5":"290.01","frp":"1.51","daynight":"N","commune":"Blausasc","code_insee":"06019","departement":"Alpes-Maritimes","region":"Provence-Alpes-Côte d'Azur"}},{"type":"Feature","geometry":{"type":"Point","coordinates":[1.22827,43.98713]},"properties":{"latitude":"43.98713","longitude":"1.22827","bright_ti4":"298.87","scan":"0.4","track":"0.6","acq_date":"2026-06-13","acq_time":"102","satellite":"N21","instrument":"VIIRS","confidence":"n","version":"2.0NRT","bright_ti5":"288.19","frp":"0.62","daynight":"N","commune":"Montech","code_insee":"82125","departement":"Tarn-et-Garonne","region":"Occitanie"}},{"type":"Feature","geometry":{"type":"Point","coordinates":[6.11864,48.6088]},"properties":{"latitude":"48.6088","longitude":"6.11864","bright_ti4":"295.33","scan":"0.51","track":"0.49","acq_date":"2026-06-13","acq_time":"102","satellite":"N21","instrument":"VIIRS","confidence":"n","version":"2.0NRT","bright_ti5":"280.57","frp":"0.63","daynight":"N","commune":"Neuves-Maisons","code_insee":"54397","departement":"Meurthe-et-Moselle","region":"Grand Est"}},{"type":"Feature","geometry":{"type":"Point","coordinates":[6.11166,48.60928]},"properties":{"latitude":"48.60928","longitude":"6.11166","bright_ti4":"302.07","scan":"0.51","track":"0.49","acq_date":"2026-06-13","acq_time":"102","satellite":"N21","instrument":"VIIRS","confidence":"n","version":"2.0NRT","bright_ti5":"280.67","frp":"1.56","daynight":"N","commune":"Neuves-Maisons","code_insee":"54397","departement":"Meurthe-et-Moselle","region":"Grand Est"}},{"type":"Feature","geometry":{"type":"Point","coordinates":[4.89412,43.43048]},"properties":{"latitude":"43.43048","longitude":"4.89412","bright_ti4":"309.87","scan":"0.52","track":"0.67","acq_date":"2026-06-13","acq_time":"241","satellite":"N21","instrument":"VIIRS","confidence":"n","version":"2.0NRT","bright_ti5":"292.19","frp":"2.38","daynight":"N","commune":"Fos-sur-Mer","code_insee":"13039","departement":"Bouches-du-Rhône","region":"Provence-Alpes-Côte d'Azur"}},{"type":"Feature","geometry":{"type":"Point","coordinates":[4.895,43.44358]},"properties":{"latitude":"43.44358","longitude":"4.895","bright_ti4":"307.69","scan":"0.52","track":"0.67","acq_date":"2026-06-13","acq_time":"241","satellite":"N21","instrument":"VIIRS","confidence":"n","version":"2.0NRT","bright_ti5":"292.28","frp":"3.59","daynight":"N","commune":"Fos-sur-Mer","code_insee":"13039","departement":"Bouches-du-Rhône","region":"Provence-Alpes-Côte d'Azur"}},{"type":"Feature","geometry":{"type":"Point","coordinates":[4.89844,43.44919]},"properties":{"latitude":"43.44919","longitude":"4.89844","bright_ti4":"317.31","scan":"0.52","track":"0.67","acq_date":"2026-06-13","acq_time":"241","satellite":"N21","instrument":"VIIRS","confidence":"n","version":"2.0NRT","bright_ti5":"290.86","frp":"2.17","daynight":"N","commune":"Fos-sur-Mer","code_insee":"13039","departement":"Bouches-du-Rhône","region":"Provence-Alpes-Côte d'Azur"}},{"type":"Feature","geometry":{"type":"Point","coordinates":[1.22886,43.98681]},"properties":{"latitude":"43.98681","longitude":"1.22886","bright_ti4":"301.62","scan":"0.34","track":"0.56","acq_date":"2026-06-13","acq_time":"241","satellite":"N21","instrument":"VIIRS","confidence":"n","version":"2.0NRT","bright_ti5":"287.14","frp":"0.58","daynight":"N","commune":"Montech","code_insee":"82125","departement":"Tarn-et-Garonne","region":"Occitanie"}},{"type":"Feature","geometry":{"type":"Point","coordinates":[6.42487,45.74146]},"properties":{"latitude":"45.74146","longitude":"6.42487","bright_ti4":"298.94","scan":"0.51","track":"0.66","acq_date":"2026-06-13","acq_time":"241","satellite":"N21","instrument":"VIIRS","confidence":"n","version":"2.0NRT","bright_ti5":"285.07","frp":"0.87","daynight":"N","commune":"Ugine","code_insee":"73303","departement":"Savoie","region":"Auvergne-Rhône-Alpes"}},{"type":"Feature","geometry":{"type":"Point","coordinates":[2.27027,51.01503]},"properties":{"latitude":"51.01503","longitude":"2.27027","bright_ti4":"296.2","scan":"0.47","track":"0.48","acq_date":"2026-06-13","acq_time":"241","satellite":"N21","instrument":"VIIRS","confidence":"n","version":"2.0NRT","bright_ti5":"284.34","frp":"1.1","daynight":"N","commune":"Grande-Synthe","code_insee":"59271","departement":"Nord","region":"Hauts-de-France"}},{"type":"Feature","geometry":{"type":"Point","coordinates":[2.28706,51.02978]},"properties":{"latitude":"51.02978","longitude":"2.28706","bright_ti4":"297.87","scan":"0.47","track":"0.48","acq_date":"2026-06-13","acq_time":"241","satellite":"N21","instrument":"VIIRS","confidence":"n","version":"2.0NRT","bright_ti5":"285.23","frp":"1","daynight":"N","commune":"Grande-Synthe","code_insee":"59271","departement":"Nord","region":"Hauts-de-France"}},{"type":"Feature","geometry":{"type":"Point","coordinates":[2.28078,51.03136]},"properties":{"latitude":"51.03136","longitude":"2.28078","bright_ti4":"346.32","scan":"0.47","track":"0.48","acq_date":"2026-06-13","acq_time":"241","satellite":"N21","instrument":"VIIRS","confidence":"n","version":"2.0NRT","bright_ti5":"287.75","frp":"9.04","daynight":"N","commune":"Grande-Synthe","code_insee":"59271","departement":"Nord","region":"Hauts-de-France"}},{"type":"Feature","geometry":{"type":"Point","coordinates":[2.27452,51.03294]},"properties":{"latitude":"51.03294","longitude":"2.27452","bright_ti4":"295.12","scan":"0.47","track":"0.48","acq_date":"2026-06-13","acq_time":"241","satellite":"N21","instrument":"VIIRS","confidence":"n","version":"2.0NRT","bright_ti5":"284.59","frp":"9.04","daynight":"N","commune":"Grande-Synthe","code_insee":"59271","departement":"Nord","region":"Hauts-de-France"}},{"type":"Feature","geometry":{"type":"Point","coordinates":[2.28972,51.03386]},"properties":{"latitude":"51.03386","longitude":"2.28972","bright_ti4":"303.77","scan":"0.47","track":"0.48","acq_date":"2026-06-13","acq_time":"241","satellite":"N21","instrument":"VIIRS","confidence":"n","version":"2.0NRT","bright_ti5":"285.78","frp":"0.97","daynight":"N","commune":"Grande-Synthe","code_insee":"59271","departement":"Nord","region":"Hauts-de-France"}},{"type":"Feature","geometry":{"type":"Point","coordinates":[2.29501,51.04202]},"properties":{"latitude":"51.04202","longitude":"2.29501","bright_ti4":"308.1","scan":"0.47","track":"0.48","acq_date":"2026-06-13","acq_time":"241","satellite":"N21","instrument":"VIIRS","confidence":"n","version":"2.0NRT","bright_ti5":"287.44","frp":"2.99","daynight":"N","commune":"Grande-Synthe","code_insee":"59271","departement":"Nord","region":"Hauts-de-France"}},{"type":"Feature","geometry":{"type":"Point","coordinates":[2.29665,51.04287]},"properties":{"latitude":"51.04287","longitude":"2.29665","bright_ti4":"336.82","scan":"0.47","track":"0.48","acq_date":"2026-06-13","acq_time":"241","satellite":"N21","instrument":"VIIRS","confidence":"n","version":"2.0NRT","bright_ti5":"289.03","frp":"6.61","daynight":"N","commune":"Grande-Synthe","code_insee":"59271","departement":"Nord","region":"Hauts-de-France"}},{"type":"Feature","geometry":{"type":"Point","coordinates":[2.29768,51.04609]},"properties":{"latitude":"51.04609","longitude":"2.29768","bright_ti4":"320.59","scan":"0.47","track":"0.48","acq_date":"2026-06-13","acq_time":"241","satellite":"N21","instrument":"VIIRS","confidence":"n","version":"2.0NRT","bright_ti5":"286.01","frp":"2.99","daynight":"N","commune":"Grande-Synthe","code_insee":"59271","departement":"Nord","region":"Hauts-de-France"}},{"type":"Feature","geometry":{"type":"Point","coordinates":[2.32073,51.04621]},"properties":{"latitude":"51.04621","longitude":"2.32073","bright_ti4":"309.27","scan":"0.47","track":"0.48","acq_date":"2026-06-13","acq_time":"241","satellite":"N21","instrument":"VIIRS","confidence":"n","version":"2.0NRT","bright_ti5":"286.55","frp":"2.22","daynight":"N","commune":"Dunkerque","code_insee":"59183","departement":"Nord","region":"Hauts-de-France"}},{"type":"Feature","geometry":{"type":"Point","coordinates":[2.32187,51.04951]},"properties":{"latitude":"51.04951","longitude":"2.32187","bright_ti4":"312.11","scan":"0.47","track":"0.48","acq_date":"2026-06-13","acq_time":"241","satellite":"N21","instrument":"VIIRS","confidence":"n","version":"2.0NRT","bright_ti5":"286.22","frp":"2.37","daynight":"N","commune":"Dunkerque","code_insee":"59183","departement":"Nord","region":"Hauts-de-France"}},{"type":"Feature","geometry":{"type":"Point","coordinates":[6.11915,48.61084]},"properties":{"latitude":"48.61084","longitude":"6.11915","bright_ti4":"296.2","scan":"0.4","track":"0.6","acq_date":"2026-06-13","acq_time":"243","satellite":"N21","instrument":"VIIRS","confidence":"n","version":"2.0NRT","bright_ti5":"285.42","frp":"0.41","daynight":"N","commune":"Neuves-Maisons","code_insee":"54397","departement":"Meurthe-et-Moselle","region":"Grand Est"}},{"type":"Feature","geometry":{"type":"Point","coordinates":[9.23703,41.58521]},"properties":{"latitude":"41.58521","longitude":"9.23703","bright_ti4":"367","scan":"0.4","track":"0.37","acq_date":"2026-06-13","acq_time":"1225","satellite":"N21","instrument":"VIIRS","confidence":"l","version":"2.0NRT","bright_ti5":"326.28","frp":"27.71","daynight":"D","commune":"Porto-Vecchio","code_insee":"2A247","departement":"Corse-du-Sud","region":"Corse"}},{"type":"Feature","geometry":{"type":"Point","coordinates":[9.24183,41.58586]},"properties":{"latitude":"41.58586","longitude":"9.24183","bright_ti4":"335.87","scan":"0.4","track":"0.37","acq_date":"2026-06-13","acq_time":"1225","satellite":"N21","instrument":"VIIRS","confidence":"l","version":"2.0NRT","bright_ti5":"309.6","frp":"27.71","daynight":"D","commune":"Porto-Vecchio","code_insee":"2A247","departement":"Corse-du-Sud","region":"Corse"}},{"type":"Feature","geometry":{"type":"Point","coordinates":[-3.72576,48.56883]},"properties":{"latitude":"48.56883","longitude":"-3.72576","bright_ti4":"329.67","scan":"0.41","track":"0.45","acq_date":"2026-06-13","acq_time":"1227","satellite":"N21","instrument":"VIIRS","confidence":"n","version":"2.0NRT","bright_ti5":"298.04","frp":"2.45","daynight":"D","commune":"Plouigneau","code_insee":"29199","departement":"Finistère","region":"Bretagne"}},{"type":"Feature","geometry":{"type":"Point","coordinates":[7.21566,49.01699]},"properties":{"latitude":"49.01699","longitude":"7.21566","bright_ti4":"331.56","scan":"0.41","track":"0.37","acq_date":"2026-06-13","acq_time":"1227","satellite":"N21","instrument":"VIIRS","confidence":"n","version":"2.0NRT","bright_ti5":"298.52","frp":"3.29","daynight":"D","commune":"Bining","code_insee":"57083","departement":"Moselle","region":"Grand Est"}}]}