{"type":"FeatureCollection","features":[{"type":"Feature","geometry":{"type":"Point","coordinates":[6.96518,48.68977]},"properties":{"latitude":"48.68977","longitude":"6.96518","bright_ti4":"299.93","scan":"0.39","track":"0.44","acq_date":"2026-05-29","acq_time":"115","satellite":"N","instrument":"VIIRS","confidence":"n","version":"2.0NRT","bright_ti5":"286.4","frp":"0.64","daynight":"N","commune":"Héming","code_insee":"57314","departement":"Moselle","region":"Grand Est"}},{"type":"Feature","geometry":{"type":"Point","coordinates":[6.96853,48.69008]},"properties":{"latitude":"48.69008","longitude":"6.96853","bright_ti4":"304.57","scan":"0.39","track":"0.44","acq_date":"2026-05-29","acq_time":"115","satellite":"N","instrument":"VIIRS","confidence":"n","version":"2.0NRT","bright_ti5":"285.91","frp":"0.78","daynight":"N","commune":"Héming","code_insee":"57314","departement":"Moselle","region":"Grand Est"}},{"type":"Feature","geometry":{"type":"Point","coordinates":[6.96604,48.69381]},"properties":{"latitude":"48.69381","longitude":"6.96604","bright_ti4":"298.93","scan":"0.39","track":"0.44","acq_date":"2026-05-29","acq_time":"115","satellite":"N","instrument":"VIIRS","confidence":"n","version":"2.0NRT","bright_ti5":"286.5","frp":"0.64","daynight":"N","commune":"Héming","code_insee":"57314","departement":"Moselle","region":"Grand Est"}},{"type":"Feature","geometry":{"type":"Point","coordinates":[5.68519,48.71616]},"properties":{"latitude":"48.71616","longitude":"5.68519","bright_ti4":"295.88","scan":"0.44","track":"0.46","acq_date":"2026-05-29","acq_time":"115","satellite":"N","instrument":"VIIRS","confidence":"n","version":"2.0NRT","bright_ti5":"285.24","frp":"0.85","daynight":"N","commune":"Sorcy-Saint-Martin","code_insee":"55496","departement":"Meuse","region":"Grand Est"}},{"type":"Feature","geometry":{"type":"Point","coordinates":[1.76208,48.98613]},"properties":{"latitude":"48.98613","longitude":"1.76208","bright_ti4":"319.72","scan":"0.33","track":"0.55","acq_date":"2026-05-29","acq_time":"115","satellite":"N","instrument":"VIIRS","confidence":"n","version":"2.0NRT","bright_ti5":"289.71","frp":"1.47","daynight":"N","commune":"Porcheville","code_insee":"78501","departement":"Yvelines","region":"Île-de-France"}},{"type":"Feature","geometry":{"type":"Point","coordinates":[0.21758,49.48898]},"properties":{"latitude":"49.48898","longitude":"0.21758","bright_ti4":"306.66","scan":"0.39","track":"0.59","acq_date":"2026-05-29","acq_time":"115","satellite":"N","instrument":"VIIRS","confidence":"n","version":"2.0NRT","bright_ti5":"289.69","frp":"1.37","daynight":"N","commune":"Gonfreville-l'Orcher","code_insee":"76305","departement":"Seine-Maritime","region":"Normandie"}},{"type":"Feature","geometry":{"type":"Point","coordinates":[4.8951,43.43767]},"properties":{"latitude":"43.43767","longitude":"4.8951","bright_ti4":"303.3","scan":"0.42","track":"0.45","acq_date":"2026-05-29","acq_time":"117","satellite":"N","instrument":"VIIRS","confidence":"n","version":"2.0NRT","bright_ti5":"292.24","frp":"2.04","daynight":"N","commune":"Fos-sur-Mer","code_insee":"13039","departement":"Bouches-du-Rhône","region":"Provence-Alpes-Côte d'Azur"}},{"type":"Feature","geometry":{"type":"Point","coordinates":[4.90102,43.44137]},"properties":{"latitude":"43.44137","longitude":"4.90102","bright_ti4":"313.64","scan":"0.42","track":"0.45","acq_date":"2026-05-29","acq_time":"117","satellite":"N","instrument":"VIIRS","confidence":"n","version":"2.0NRT","bright_ti5":"290.08","frp":"1.27","daynight":"N","commune":"Fos-sur-Mer","code_insee":"13039","departement":"Bouches-du-Rhône","region":"Provence-Alpes-Côte d'Azur"}},{"type":"Feature","geometry":{"type":"Point","coordinates":[4.89583,43.44185]},"properties":{"latitude":"43.44185","longitude":"4.89583","bright_ti4":"308","scan":"0.42","track":"0.45","acq_date":"2026-05-29","acq_time":"117","satellite":"N","instrument":"VIIRS","confidence":"n","version":"2.0NRT","bright_ti5":"292.2","frp":"1.75","daynight":"N","commune":"Fos-sur-Mer","code_insee":"13039","departement":"Bouches-du-Rhône","region":"Provence-Alpes-Côte d'Azur"}},{"type":"Feature","geometry":{"type":"Point","coordinates":[4.89059,43.44234]},"properties":{"latitude":"43.44234","longitude":"4.89059","bright_ti4":"313.26","scan":"0.42","track":"0.45","acq_date":"2026-05-29","acq_time":"117","satellite":"N","instrument":"VIIRS","confidence":"n","version":"2.0NRT","bright_ti5":"292.4","frp":"1.75","daynight":"N","commune":"Fos-sur-Mer","code_insee":"13039","departement":"Bouches-du-Rhône","region":"Provence-Alpes-Côte d'Azur"}},{"type":"Feature","geometry":{"type":"Point","coordinates":[4.90176,43.44555]},"properties":{"latitude":"43.44555","longitude":"4.90176","bright_ti4":"315.01","scan":"0.42","track":"0.45","acq_date":"2026-05-29","acq_time":"117","satellite":"N","instrument":"VIIRS","confidence":"n","version":"2.0NRT","bright_ti5":"292.77","frp":"1.27","daynight":"N","commune":"Fos-sur-Mer","code_insee":"13039","departement":"Bouches-du-Rhône","region":"Provence-Alpes-Côte d'Azur"}},{"type":"Feature","geometry":{"type":"Point","coordinates":[4.90277,43.44558]},"properties":{"latitude":"43.44558","longitude":"4.90277","bright_ti4":"308.35","scan":"0.42","track":"0.45","acq_date":"2026-05-29","acq_time":"117","satellite":"N","instrument":"VIIRS","confidence":"n","version":"2.0NRT","bright_ti5":"291.79","frp":"1.59","daynight":"N","commune":"Fos-sur-Mer","code_insee":"13039","departement":"Bouches-du-Rhône","region":"Provence-Alpes-Côte d'Azur"}},{"type":"Feature","geometry":{"type":"Point","coordinates":[4.89655,43.44604]},"properties":{"latitude":"43.44604","longitude":"4.89655","bright_ti4":"318.74","scan":"0.42","track":"0.45","acq_date":"2026-05-29","acq_time":"117","satellite":"N","instrument":"VIIRS","confidence":"n","version":"2.0NRT","bright_ti5":"292.77","frp":"1.75","daynight":"N","commune":"Fos-sur-Mer","code_insee":"13039","departement":"Bouches-du-Rhône","region":"Provence-Alpes-Côte d'Azur"}},{"type":"Feature","geometry":{"type":"Point","coordinates":[4.89756,43.44604]},"properties":{"latitude":"43.44604","longitude":"4.89756","bright_ti4":"328.62","scan":"0.42","track":"0.45","acq_date":"2026-05-29","acq_time":"117","satellite":"N","instrument":"VIIRS","confidence":"n","version":"2.0NRT","bright_ti5":"293.42","frp":"1.59","daynight":"N","commune":"Fos-sur-Mer","code_insee":"13039","departement":"Bouches-du-Rhône","region":"Provence-Alpes-Côte d'Azur"}},{"type":"Feature","geometry":{"type":"Point","coordinates":[4.89726,43.45023]},"properties":{"latitude":"43.45023","longitude":"4.89726","bright_ti4":"313.42","scan":"0.42","track":"0.45","acq_date":"2026-05-29","acq_time":"117","satellite":"N","instrument":"VIIRS","confidence":"n","version":"2.0NRT","bright_ti5":"291.56","frp":"1.07","daynight":"N","commune":"Fos-sur-Mer","code_insee":"13039","departement":"Bouches-du-Rhône","region":"Provence-Alpes-Côte d'Azur"}},{"type":"Feature","geometry":{"type":"Point","coordinates":[4.89828,43.45023]},"properties":{"latitude":"43.45023","longitude":"4.89828","bright_ti4":"309.38","scan":"0.42","track":"0.45","acq_date":"2026-05-29","acq_time":"117","satellite":"N","instrument":"VIIRS","confidence":"n","version":"2.0NRT","bright_ti5":"291.7","frp":"1.59","daynight":"N","commune":"Fos-sur-Mer","code_insee":"13039","departement":"Bouches-du-Rhône","region":"Provence-Alpes-Côte d'Azur"}},{"type":"Feature","geometry":{"type":"Point","coordinates":[6.11662,48.6105]},"properties":{"latitude":"48.6105","longitude":"6.11662","bright_ti4":"298.15","scan":"0.46","track":"0.64","acq_date":"2026-05-29","acq_time":"256","satellite":"N","instrument":"VIIRS","confidence":"n","version":"2.0NRT","bright_ti5":"286.48","frp":"1.02","daynight":"N","commune":"Neuves-Maisons","code_insee":"54397","departement":"Meurthe-et-Moselle","region":"Grand Est"}},{"type":"Feature","geometry":{"type":"Point","coordinates":[6.96665,48.69221]},"properties":{"latitude":"48.69221","longitude":"6.96665","bright_ti4":"298.64","scan":"0.5","track":"0.66","acq_date":"2026-05-29","acq_time":"256","satellite":"N","instrument":"VIIRS","confidence":"n","version":"2.0NRT","bright_ti5":"283.95","frp":"0.79","daynight":"N","commune":"Héming","code_insee":"57314","departement":"Moselle","region":"Grand Est"}},{"type":"Feature","geometry":{"type":"Point","coordinates":[4.56065,48.76768]},"properties":{"latitude":"48.76768","longitude":"4.56065","bright_ti4":"298.26","scan":"0.4","track":"0.6","acq_date":"2026-05-29","acq_time":"256","satellite":"N","instrument":"VIIRS","confidence":"n","version":"2.0NRT","bright_ti5":"287.35","frp":"0.87","daynight":"N","commune":"Couvrot","code_insee":"51195","departement":"Marne","region":"Grand Est"}},{"type":"Feature","geometry":{"type":"Point","coordinates":[6.05182,48.88495]},"properties":{"latitude":"48.88495","longitude":"6.05182","bright_ti4":"304.01","scan":"0.45","track":"0.63","acq_date":"2026-05-29","acq_time":"256","satellite":"N","instrument":"VIIRS","confidence":"n","version":"2.0NRT","bright_ti5":"285.11","frp":"1.14","daynight":"N","commune":"Blénod-lès-Pont-à-Mousson","code_insee":"54079","departement":"Meurthe-et-Moselle","region":"Grand Est"}},{"type":"Feature","geometry":{"type":"Point","coordinates":[1.75606,48.98275]},"properties":{"latitude":"48.98275","longitude":"1.75606","bright_ti4":"309.14","scan":"0.6","track":"0.53","acq_date":"2026-05-29","acq_time":"256","satellite":"N","instrument":"VIIRS","confidence":"n","version":"2.0NRT","bright_ti5":"288.7","frp":"1.57","daynight":"N","commune":"Limay","code_insee":"78335","departement":"Yvelines","region":"Île-de-France"}},{"type":"Feature","geometry":{"type":"Point","coordinates":[1.76035,48.98522]},"properties":{"latitude":"48.98522","longitude":"1.76035","bright_ti4":"314.97","scan":"0.6","track":"0.53","acq_date":"2026-05-29","acq_time":"256","satellite":"N","instrument":"VIIRS","confidence":"n","version":"2.0NRT","bright_ti5":"289.41","frp":"2.78","daynight":"N","commune":"Porcheville","code_insee":"78501","departement":"Yvelines","region":"Île-de-France"}},{"type":"Feature","geometry":{"type":"Point","coordinates":[1.75881,48.98738]},"properties":{"latitude":"48.98738","longitude":"1.75881","bright_ti4":"301.16","scan":"0.6","track":"0.53","acq_date":"2026-05-29","acq_time":"256","satellite":"N","instrument":"VIIRS","confidence":"n","version":"2.0NRT","bright_ti5":"288.36","frp":"0.85","daynight":"N","commune":"Limay","code_insee":"78335","departement":"Yvelines","region":"Île-de-France"}},{"type":"Feature","geometry":{"type":"Point","coordinates":[6.09701,49.32306]},"properties":{"latitude":"49.32306","longitude":"6.09701","bright_ti4":"301.43","scan":"0.44","track":"0.62","acq_date":"2026-05-29","acq_time":"256","satellite":"N","instrument":"VIIRS","confidence":"n","version":"2.0NRT","bright_ti5":"285.38","frp":"1.12","daynight":"N","commune":"Serémange-Erzange","code_insee":"57647","departement":"Moselle","region":"Grand Est"}},{"type":"Feature","geometry":{"type":"Point","coordinates":[6.09645,49.32335]},"properties":{"latitude":"49.32335","longitude":"6.09645","bright_ti4":"301.08","scan":"0.44","track":"0.62","acq_date":"2026-05-29","acq_time":"256","satellite":"N","instrument":"VIIRS","confidence":"n","version":"2.0NRT","bright_ti5":"285.81","frp":"0.7","daynight":"N","commune":"Serémange-Erzange","code_insee":"57647","departement":"Moselle","region":"Grand Est"}},{"type":"Feature","geometry":{"type":"Point","coordinates":[-1.84036,49.50785]},"properties":{"latitude":"49.50785","longitude":"-1.84036","bright_ti4":"316.67","scan":"0.41","track":"0.45","acq_date":"2026-05-29","acq_time":"256","satellite":"N","instrument":"VIIRS","confidence":"n","version":"2.0NRT","bright_ti5":"266.01","frp":"1.94","daynight":"N","commune":"Les Pieux","code_insee":"50402","departement":"Manche","region":"Normandie"}},{"type":"Feature","geometry":{"type":"Point","coordinates":[1.23151,43.2033]},"properties":{"latitude":"43.2033","longitude":"1.23151","bright_ti4":"312.72","scan":"0.42","track":"0.61","acq_date":"2026-05-29","acq_time":"258","satellite":"N","instrument":"VIIRS","confidence":"n","version":"2.0NRT","bright_ti5":"286.83","frp":"0.76","daynight":"N","commune":"Montesquieu-Volvestre","code_insee":"31375","departement":"Haute-Garonne","region":"Occitanie"}},{"type":"Feature","geometry":{"type":"Point","coordinates":[4.89498,43.4322]},"properties":{"latitude":"43.4322","longitude":"4.89498","bright_ti4":"301.62","scan":"0.61","track":"0.71","acq_date":"2026-05-29","acq_time":"258","satellite":"N","instrument":"VIIRS","confidence":"n","version":"2.0NRT","bright_ti5":"288.86","frp":"1.27","daynight":"N","commune":"Fos-sur-Mer","code_insee":"13039","departement":"Bouches-du-Rhône","region":"Provence-Alpes-Côte d'Azur"}},{"type":"Feature","geometry":{"type":"Point","coordinates":[4.88789,43.43458]},"properties":{"latitude":"43.43458","longitude":"4.88789","bright_ti4":"308.83","scan":"0.61","track":"0.71","acq_date":"2026-05-29","acq_time":"258","satellite":"N","instrument":"VIIRS","confidence":"n","version":"2.0NRT","bright_ti5":"288.63","frp":"1.27","daynight":"N","commune":"Fos-sur-Mer","code_insee":"13039","departement":"Bouches-du-Rhône","region":"Provence-Alpes-Côte d'Azur"}},{"type":"Feature","geometry":{"type":"Point","coordinates":[4.89883,43.43824]},"properties":{"latitude":"43.43824","longitude":"4.89883","bright_ti4":"301.35","scan":"0.61","track":"0.71","acq_date":"2026-05-29","acq_time":"258","satellite":"N","instrument":"VIIRS","confidence":"n","version":"2.0NRT","bright_ti5":"288.17","frp":"1.27","daynight":"N","commune":"Fos-sur-Mer","code_insee":"13039","departement":"Bouches-du-Rhône","region":"Provence-Alpes-Côte d'Azur"}},{"type":"Feature","geometry":{"type":"Point","coordinates":[4.89174,43.44062]},"properties":{"latitude":"43.44062","longitude":"4.89174","bright_ti4":"307.16","scan":"0.61","track":"0.71","acq_date":"2026-05-29","acq_time":"258","satellite":"N","instrument":"VIIRS","confidence":"n","version":"2.0NRT","bright_ti5":"289.3","frp":"1.27","daynight":"N","commune":"Fos-sur-Mer","code_insee":"13039","departement":"Bouches-du-Rhône","region":"Provence-Alpes-Côte d'Azur"}},{"type":"Feature","geometry":{"type":"Point","coordinates":[4.90269,43.44429]},"properties":{"latitude":"43.44429","longitude":"4.90269","bright_ti4":"312.74","scan":"0.61","track":"0.71","acq_date":"2026-05-29","acq_time":"258","satellite":"N","instrument":"VIIRS","confidence":"n","version":"2.0NRT","bright_ti5":"288.75","frp":"1.54","daynight":"N","commune":"Fos-sur-Mer","code_insee":"13039","departement":"Bouches-du-Rhône","region":"Provence-Alpes-Côte d'Azur"}},{"type":"Feature","geometry":{"type":"Point","coordinates":[4.89559,43.44667]},"properties":{"latitude":"43.44667","longitude":"4.89559","bright_ti4":"306.05","scan":"0.61","track":"0.71","acq_date":"2026-05-29","acq_time":"258","satellite":"N","instrument":"VIIRS","confidence":"n","version":"2.0NRT","bright_ti5":"288.77","frp":"1.54","daynight":"N","commune":"Fos-sur-Mer","code_insee":"13039","departement":"Bouches-du-Rhône","region":"Provence-Alpes-Côte d'Azur"}},{"type":"Feature","geometry":{"type":"Point","coordinates":[-0.0171,44.62993]},"properties":{"latitude":"44.62993","longitude":"-0.0171","bright_ti4":"314.45","scan":"0.34","track":"0.56","acq_date":"2026-05-29","acq_time":"258","satellite":"N","instrument":"VIIRS","confidence":"n","version":"2.0NRT","bright_ti5":"287.36","frp":"1.06","daynight":"N","commune":"Loubens","code_insee":"33250","departement":"Gironde","region":"Nouvelle-Aquitaine"}},{"type":"Feature","geometry":{"type":"Point","coordinates":[4.89319,43.43967]},"properties":{"latitude":"43.43967","longitude":"4.89319","bright_ti4":"346.9","scan":"0.38","track":"0.36","acq_date":"2026-05-29","acq_time":"1242","satellite":"N","instrument":"VIIRS","confidence":"n","version":"2.0NRT","bright_ti5":"311.3","frp":"8.29","daynight":"D","commune":"Fos-sur-Mer","code_insee":"13039","departement":"Bouches-du-Rhône","region":"Provence-Alpes-Côte d'Azur"}},{"type":"Feature","geometry":{"type":"Point","coordinates":[4.81929,44.1967]},"properties":{"latitude":"44.1967","longitude":"4.81929","bright_ti4":"341.75","scan":"0.39","track":"0.36","acq_date":"2026-05-29","acq_time":"1242","satellite":"N","instrument":"VIIRS","confidence":"n","version":"2.0NRT","bright_ti5":"306.93","frp":"3.88","daynight":"D","commune":"Uchaux","code_insee":"84135","departement":"Vaucluse","region":"Provence-Alpes-Côte d'Azur"}},{"type":"Feature","geometry":{"type":"Point","coordinates":[3.45658,45.9016]},"properties":{"latitude":"45.9016","longitude":"3.45658","bright_ti4":"332.9","scan":"0.38","track":"0.36","acq_date":"2026-05-29","acq_time":"1242","satellite":"N","instrument":"VIIRS","confidence":"n","version":"2.0NRT","bright_ti5":"306.13","frp":"1.82","daynight":"D","commune":"Dorat","code_insee":"63138","departement":"Puy-de-Dôme","region":"Auvergne-Rhône-Alpes"}},{"type":"Feature","geometry":{"type":"Point","coordinates":[2.02662,47.94571]},"properties":{"latitude":"47.94571","longitude":"2.02662","bright_ti4":"328.97","scan":"0.39","track":"0.36","acq_date":"2026-05-29","acq_time":"1244","satellite":"N","instrument":"VIIRS","confidence":"l","version":"2.0NRT","bright_ti5":"299.74","frp":"2.94","daynight":"D","commune":"Vennecy","code_insee":"45333","departement":"Loiret","region":"Centre-Val de Loire"}},{"type":"Feature","geometry":{"type":"Point","coordinates":[1.85707,48.09326]},"properties":{"latitude":"48.09326","longitude":"1.85707","bright_ti4":"328.71","scan":"0.39","track":"0.36","acq_date":"2026-05-29","acq_time":"1244","satellite":"N","instrument":"VIIRS","confidence":"n","version":"2.0NRT","bright_ti5":"297.49","frp":"4.21","daynight":"D","commune":"Poupry","code_insee":"28303","departement":"Eure-et-Loir","region":"Centre-Val de Loire"}},{"type":"Feature","geometry":{"type":"Point","coordinates":[6.11196,48.61113]},"properties":{"latitude":"48.61113","longitude":"6.11196","bright_ti4":"301.8","scan":"0.4","track":"0.37","acq_date":"2026-05-29","acq_time":"134","satellite":"N20","instrument":"VIIRS","confidence":"n","version":"2.0NRT","bright_ti5":"289.89","frp":"0.92","daynight":"N","commune":"Neuves-Maisons","code_insee":"54397","departement":"Meurthe-et-Moselle","region":"Grand Est"}},{"type":"Feature","geometry":{"type":"Point","coordinates":[6.96775,48.69055]},"properties":{"latitude":"48.69055","longitude":"6.96775","bright_ti4":"309.11","scan":"0.39","track":"0.36","acq_date":"2026-05-29","acq_time":"134","satellite":"N20","instrument":"VIIRS","confidence":"n","version":"2.0NRT","bright_ti5":"288.54","frp":"1.64","daynight":"N","commune":"Héming","code_insee":"57314","departement":"Moselle","region":"Grand Est"}},{"type":"Feature","geometry":{"type":"Point","coordinates":[5.68457,48.71507]},"properties":{"latitude":"48.71507","longitude":"5.68457","bright_ti4":"302.54","scan":"0.41","track":"0.37","acq_date":"2026-05-29","acq_time":"134","satellite":"N20","instrument":"VIIRS","confidence":"n","version":"2.0NRT","bright_ti5":"285.21","frp":"0.59","daynight":"N","commune":"Sorcy-Saint-Martin","code_insee":"55496","departement":"Meuse","region":"Grand Est"}},{"type":"Feature","geometry":{"type":"Point","coordinates":[1.76055,48.98549]},"properties":{"latitude":"48.98549","longitude":"1.76055","bright_ti4":"323.17","scan":"0.54","track":"0.42","acq_date":"2026-05-29","acq_time":"134","satellite":"N20","instrument":"VIIRS","confidence":"n","version":"2.0NRT","bright_ti5":"290.33","frp":"3.17","daynight":"N","commune":"Porcheville","code_insee":"78501","departement":"Yvelines","region":"Île-de-France"}},{"type":"Feature","geometry":{"type":"Point","coordinates":[0.53447,49.47643]},"properties":{"latitude":"49.47643","longitude":"0.53447","bright_ti4":"305.68","scan":"0.41","track":"0.45","acq_date":"2026-05-29","acq_time":"134","satellite":"N20","instrument":"VIIRS","confidence":"n","version":"2.0NRT","bright_ti5":"289.94","frp":"1.47","daynight":"N","commune":"Lillebonne","code_insee":"76384","departement":"Seine-Maritime","region":"Normandie"}},{"type":"Feature","geometry":{"type":"Point","coordinates":[-1.84005,49.51004]},"properties":{"latitude":"49.51004","longitude":"-1.84005","bright_ti4":"302.17","scan":"0.52","track":"0.5","acq_date":"2026-05-29","acq_time":"134","satellite":"N20","instrument":"VIIRS","confidence":"n","version":"2.0NRT","bright_ti5":"277.05","frp":"1.15","daynight":"N","commune":"Les Pieux","code_insee":"50402","departement":"Manche","region":"Normandie"}},{"type":"Feature","geometry":{"type":"Point","coordinates":[3.56529,50.40177]},"properties":{"latitude":"50.40177","longitude":"3.56529","bright_ti4":"329.02","scan":"0.48","track":"0.4","acq_date":"2026-05-29","acq_time":"134","satellite":"N20","instrument":"VIIRS","confidence":"n","version":"2.0NRT","bright_ti5":"288.56","frp":"4.9","daynight":"N","commune":"Saint-Saulve","code_insee":"59544","departement":"Nord","region":"Hauts-de-France"}},{"type":"Feature","geometry":{"type":"Point","coordinates":[2.29591,51.04325]},"properties":{"latitude":"51.04325","longitude":"2.29591","bright_ti4":"299.08","scan":"0.54","track":"0.42","acq_date":"2026-05-29","acq_time":"134","satellite":"N20","instrument":"VIIRS","confidence":"n","version":"2.0NRT","bright_ti5":"281.75","frp":"3.65","daynight":"N","commune":"Grande-Synthe","code_insee":"59271","departement":"Nord","region":"Hauts-de-France"}},{"type":"Feature","geometry":{"type":"Point","coordinates":[2.29526,51.04696]},"properties":{"latitude":"51.04696","longitude":"2.29526","bright_ti4":"328.62","scan":"0.54","track":"0.42","acq_date":"2026-05-29","acq_time":"134","satellite":"N20","instrument":"VIIRS","confidence":"n","version":"2.0NRT","bright_ti5":"279.32","frp":"8.04","daynight":"N","commune":"Grande-Synthe","code_insee":"59271","departement":"Nord","region":"Hauts-de-France"}},{"type":"Feature","geometry":{"type":"Point","coordinates":[2.29684,51.04714]},"properties":{"latitude":"51.04714","longitude":"2.29684","bright_ti4":"339.13","scan":"0.54","track":"0.42","acq_date":"2026-05-29","acq_time":"134","satellite":"N20","instrument":"VIIRS","confidence":"n","version":"2.0NRT","bright_ti5":"281.44","frp":"3.65","daynight":"N","commune":"Grande-Synthe","code_insee":"59271","departement":"Nord","region":"Hauts-de-France"}},{"type":"Feature","geometry":{"type":"Point","coordinates":[2.3196,51.04867]},"properties":{"latitude":"51.04867","longitude":"2.3196","bright_ti4":"322.35","scan":"0.54","track":"0.42","acq_date":"2026-05-29","acq_time":"134","satellite":"N20","instrument":"VIIRS","confidence":"n","version":"2.0NRT","bright_ti5":"289.17","frp":"5.58","daynight":"N","commune":"Dunkerque","code_insee":"59183","departement":"Nord","region":"Hauts-de-France"}},{"type":"Feature","geometry":{"type":"Point","coordinates":[2.32113,51.04874]},"properties":{"latitude":"51.04874","longitude":"2.32113","bright_ti4":"314.43","scan":"0.54","track":"0.42","acq_date":"2026-05-29","acq_time":"134","satellite":"N20","instrument":"VIIRS","confidence":"n","version":"2.0NRT","bright_ti5":"288.95","frp":"4.6","daynight":"N","commune":"Dunkerque","code_insee":"59183","departement":"Nord","region":"Hauts-de-France"}},{"type":"Feature","geometry":{"type":"Point","coordinates":[4.89508,43.43475]},"properties":{"latitude":"43.43475","longitude":"4.89508","bright_ti4":"313.09","scan":"0.39","track":"0.36","acq_date":"2026-05-29","acq_time":"137","satellite":"N20","instrument":"VIIRS","confidence":"n","version":"2.0NRT","bright_ti5":"293.18","frp":"1.58","daynight":"N","commune":"Fos-sur-Mer","code_insee":"13039","departement":"Bouches-du-Rhône","region":"Provence-Alpes-Côte d'Azur"}},{"type":"Feature","geometry":{"type":"Point","coordinates":[4.89028,43.43545]},"properties":{"latitude":"43.43545","longitude":"4.89028","bright_ti4":"303.74","scan":"0.39","track":"0.36","acq_date":"2026-05-29","acq_time":"137","satellite":"N20","instrument":"VIIRS","confidence":"n","version":"2.0NRT","bright_ti5":"293.73","frp":"0.93","daynight":"N","commune":"Fos-sur-Mer","code_insee":"13039","departement":"Bouches-du-Rhône","region":"Provence-Alpes-Côte d'Azur"}},{"type":"Feature","geometry":{"type":"Point","coordinates":[4.89119,43.43876]},"properties":{"latitude":"43.43876","longitude":"4.89119","bright_ti4":"319.06","scan":"0.39","track":"0.36","acq_date":"2026-05-29","acq_time":"137","satellite":"N20","instrument":"VIIRS","confidence":"n","version":"2.0NRT","bright_ti5":"293.08","frp":"0.91","daynight":"N","commune":"Fos-sur-Mer","code_insee":"13039","departement":"Bouches-du-Rhône","region":"Provence-Alpes-Côte d'Azur"}},{"type":"Feature","geometry":{"type":"Point","coordinates":[4.88638,43.43946]},"properties":{"latitude":"43.43946","longitude":"4.88638","bright_ti4":"304.61","scan":"0.39","track":"0.36","acq_date":"2026-05-29","acq_time":"137","satellite":"N20","instrument":"VIIRS","confidence":"n","version":"2.0NRT","bright_ti5":"291.91","frp":"0.91","daynight":"N","commune":"Fos-sur-Mer","code_insee":"13039","departement":"Bouches-du-Rhône","region":"Provence-Alpes-Côte d'Azur"}},{"type":"Feature","geometry":{"type":"Point","coordinates":[4.9017,43.44067]},"properties":{"latitude":"43.44067","longitude":"4.9017","bright_ti4":"319.36","scan":"0.39","track":"0.36","acq_date":"2026-05-29","acq_time":"137","satellite":"N20","instrument":"VIIRS","confidence":"n","version":"2.0NRT","bright_ti5":"290.58","frp":"1.44","daynight":"N","commune":"Fos-sur-Mer","code_insee":"13039","departement":"Bouches-du-Rhône","region":"Provence-Alpes-Côte d'Azur"}},{"type":"Feature","geometry":{"type":"Point","coordinates":[4.8969,43.44137]},"properties":{"latitude":"43.44137","longitude":"4.8969","bright_ti4":"309.75","scan":"0.39","track":"0.36","acq_date":"2026-05-29","acq_time":"137","satellite":"N20","instrument":"VIIRS","confidence":"n","version":"2.0NRT","bright_ti5":"291.75","frp":"1.44","daynight":"N","commune":"Fos-sur-Mer","code_insee":"13039","departement":"Bouches-du-Rhône","region":"Provence-Alpes-Côte d'Azur"}},{"type":"Feature","geometry":{"type":"Point","coordinates":[4.89209,43.44207]},"properties":{"latitude":"43.44207","longitude":"4.89209","bright_ti4":"304","scan":"0.39","track":"0.36","acq_date":"2026-05-29","acq_time":"137","satellite":"N20","instrument":"VIIRS","confidence":"n","version":"2.0NRT","bright_ti5":"292.81","frp":"0.91","daynight":"N","commune":"Fos-sur-Mer","code_insee":"13039","departement":"Bouches-du-Rhône","region":"Provence-Alpes-Côte d'Azur"}},{"type":"Feature","geometry":{"type":"Point","coordinates":[4.9026,43.44398]},"properties":{"latitude":"43.44398","longitude":"4.9026","bright_ti4":"303.26","scan":"0.39","track":"0.36","acq_date":"2026-05-29","acq_time":"137","satellite":"N20","instrument":"VIIRS","confidence":"n","version":"2.0NRT","bright_ti5":"292.32","frp":"1.55","daynight":"N","commune":"Fos-sur-Mer","code_insee":"13039","departement":"Bouches-du-Rhône","region":"Provence-Alpes-Côte d'Azur"}},{"type":"Feature","geometry":{"type":"Point","coordinates":[4.89781,43.44468]},"properties":{"latitude":"43.44468","longitude":"4.89781","bright_ti4":"324.66","scan":"0.39","track":"0.36","acq_date":"2026-05-29","acq_time":"137","satellite":"N20","instrument":"VIIRS","confidence":"n","version":"2.0NRT","bright_ti5":"294.14","frp":"1.55","daynight":"N","commune":"Fos-sur-Mer","code_insee":"13039","departement":"Bouches-du-Rhône","region":"Provence-Alpes-Côte d'Azur"}},{"type":"Feature","geometry":{"type":"Point","coordinates":[4.89871,43.44799]},"properties":{"latitude":"43.44799","longitude":"4.89871","bright_ti4":"324.04","scan":"0.39","track":"0.36","acq_date":"2026-05-29","acq_time":"137","satellite":"N20","instrument":"VIIRS","confidence":"n","version":"2.0NRT","bright_ti5":"293.56","frp":"1.55","daynight":"N","commune":"Fos-sur-Mer","code_insee":"13039","departement":"Bouches-du-Rhône","region":"Provence-Alpes-Côte d'Azur"}},{"type":"Feature","geometry":{"type":"Point","coordinates":[5.82346,45.91252]},"properties":{"latitude":"45.91252","longitude":"5.82346","bright_ti4":"303.4","scan":"0.39","track":"0.36","acq_date":"2026-05-29","acq_time":"137","satellite":"N20","instrument":"VIIRS","confidence":"n","version":"2.0NRT","bright_ti5":"293.22","frp":"0.47","daynight":"N","commune":"Anglefort","code_insee":"01010","departement":"Ain","region":"Auvergne-Rhône-Alpes"}},{"type":"Feature","geometry":{"type":"Point","coordinates":[3.42299,46.25172]},"properties":{"latitude":"46.25172","longitude":"3.42299","bright_ti4":"300.9","scan":"0.44","track":"0.39","acq_date":"2026-05-29","acq_time":"137","satellite":"N20","instrument":"VIIRS","confidence":"n","version":"2.0NRT","bright_ti5":"289.8","frp":"0.6","daynight":"N","commune":"Créchy","code_insee":"03091","departement":"Allier","region":"Auvergne-Rhône-Alpes"}},{"type":"Feature","geometry":{"type":"Point","coordinates":[2.981,48.38932]},"properties":{"latitude":"48.38932","longitude":"2.981","bright_ti4":"302.59","scan":"0.48","track":"0.4","acq_date":"2026-05-29","acq_time":"137","satellite":"N20","instrument":"VIIRS","confidence":"n","version":"2.0NRT","bright_ti5":"290.62","frp":"0.72","daynight":"N","commune":"Montereau-Fault-Yonne","code_insee":"77305","departement":"Seine-et-Marne","region":"Île-de-France"}},{"type":"Feature","geometry":{"type":"Point","coordinates":[6.10394,49.32879]},"properties":{"latitude":"49.32879","longitude":"6.10394","bright_ti4":"295.34","scan":"0.78","track":"0.78","acq_date":"2026-05-29","acq_time":"313","satellite":"N20","instrument":"VIIRS","confidence":"n","version":"2.0NRT","bright_ti5":"284.18","frp":"0.72","daynight":"N","commune":"Serémange-Erzange","code_insee":"57647","departement":"Moselle","region":"Grand Est"}},{"type":"Feature","geometry":{"type":"Point","coordinates":[-0.01874,44.62718]},"properties":{"latitude":"44.62718","longitude":"-0.01874","bright_ti4":"298.06","scan":"0.65","track":"0.73","acq_date":"2026-05-29","acq_time":"315","satellite":"N20","instrument":"VIIRS","confidence":"n","version":"2.0NRT","bright_ti5":"286.72","frp":"1.26","daynight":"N","commune":"Loubens","code_insee":"33250","departement":"Gironde","region":"Nouvelle-Aquitaine"}},{"type":"Feature","geometry":{"type":"Point","coordinates":[-0.0167,44.63168]},"properties":{"latitude":"44.63168","longitude":"-0.0167","bright_ti4":"302.26","scan":"0.65","track":"0.73","acq_date":"2026-05-29","acq_time":"315","satellite":"N20","instrument":"VIIRS","confidence":"n","version":"2.0NRT","bright_ti5":"286.62","frp":"0.91","daynight":"N","commune":"Loubens","code_insee":"33250","departement":"Gironde","region":"Nouvelle-Aquitaine"}},{"type":"Feature","geometry":{"type":"Point","coordinates":[1.76347,48.98556]},"properties":{"latitude":"48.98556","longitude":"1.76347","bright_ti4":"307.33","scan":"0.54","track":"0.68","acq_date":"2026-05-29","acq_time":"315","satellite":"N20","instrument":"VIIRS","confidence":"n","version":"2.0NRT","bright_ti5":"287.46","frp":"0.84","daynight":"N","commune":"Porcheville","code_insee":"78501","departement":"Yvelines","region":"Île-de-France"}},{"type":"Feature","geometry":{"type":"Point","coordinates":[-1.8388,49.50928]},"properties":{"latitude":"49.50928","longitude":"-1.8388","bright_ti4":"304.2","scan":"0.37","track":"0.58","acq_date":"2026-05-29","acq_time":"315","satellite":"N20","instrument":"VIIRS","confidence":"n","version":"2.0NRT","bright_ti5":"263.19","frp":"0.6","daynight":"N","commune":"Les Pieux","code_insee":"50402","departement":"Manche","region":"Normandie"}},{"type":"Feature","geometry":{"type":"Point","coordinates":[2.96148,42.59328]},"properties":{"latitude":"42.59328","longitude":"2.96148","bright_ti4":"343.5","scan":"0.46","track":"0.39","acq_date":"2026-05-29","acq_time":"1259","satellite":"N20","instrument":"VIIRS","confidence":"n","version":"2.0NRT","bright_ti5":"304.94","frp":"107.85","daynight":"D","commune":"Elne","code_insee":"66065","departement":"Pyrénées-Orientales","region":"Occitanie"}},{"type":"Feature","geometry":{"type":"Point","coordinates":[2.9307,43.40008]},"properties":{"latitude":"43.40008","longitude":"2.9307","bright_ti4":"335.31","scan":"0.47","track":"0.4","acq_date":"2026-05-29","acq_time":"1259","satellite":"N20","instrument":"VIIRS","confidence":"n","version":"2.0NRT","bright_ti5":"304.57","frp":"4.67","daynight":"D","commune":"Saint-Chinian","code_insee":"34245","departement":"Hérault","region":"Occitanie"}},{"type":"Feature","geometry":{"type":"Point","coordinates":[2.93002,43.4037]},"properties":{"latitude":"43.4037","longitude":"2.93002","bright_ti4":"336.12","scan":"0.47","track":"0.4","acq_date":"2026-05-29","acq_time":"1259","satellite":"N20","instrument":"VIIRS","confidence":"n","version":"2.0NRT","bright_ti5":"302.84","frp":"4.67","daynight":"D","commune":"Saint-Chinian","code_insee":"34245","departement":"Hérault","region":"Occitanie"}},{"type":"Feature","geometry":{"type":"Point","coordinates":[4.89224,43.43886]},"properties":{"latitude":"43.43886","longitude":"4.89224","bright_ti4":"338.84","scan":"0.56","track":"0.43","acq_date":"2026-05-29","acq_time":"1259","satellite":"N20","instrument":"VIIRS","confidence":"n","version":"2.0NRT","bright_ti5":"308.44","frp":"10.15","daynight":"D","commune":"Fos-sur-Mer","code_insee":"13039","departement":"Bouches-du-Rhône","region":"Provence-Alpes-Côte d'Azur"}},{"type":"Feature","geometry":{"type":"Point","coordinates":[2.66693,44.38132]},"properties":{"latitude":"44.38132","longitude":"2.66693","bright_ti4":"330.55","scan":"0.47","track":"0.4","acq_date":"2026-05-29","acq_time":"1301","satellite":"N20","instrument":"VIIRS","confidence":"n","version":"2.0NRT","bright_ti5":"302.73","frp":"2.08","daynight":"D","commune":"La Loubière","code_insee":"12131","departement":"Aveyron","region":"Occitanie"}},{"type":"Feature","geometry":{"type":"Point","coordinates":[0.58057,44.39941]},"properties":{"latitude":"44.39941","longitude":"0.58057","bright_ti4":"344.08","scan":"0.41","track":"0.37","acq_date":"2026-05-29","acq_time":"1301","satellite":"N20","instrument":"VIIRS","confidence":"n","version":"2.0NRT","bright_ti5":"303.86","frp":"9.46","daynight":"D","commune":"Sainte-Livrade-sur-Lot","code_insee":"47252","departement":"Lot-et-Garonne","region":"Nouvelle-Aquitaine"}},{"type":"Feature","geometry":{"type":"Point","coordinates":[0.77528,45.40073]},"properties":{"latitude":"45.40073","longitude":"0.77528","bright_ti4":"338.58","scan":"0.42","track":"0.38","acq_date":"2026-05-29","acq_time":"1301","satellite":"N20","instrument":"VIIRS","confidence":"n","version":"2.0NRT","bright_ti5":"296.18","frp":"3.15","daynight":"D","commune":"La Chapelle-Faucher","code_insee":"24107","departement":"Dordogne","region":"Nouvelle-Aquitaine"}},{"type":"Feature","geometry":{"type":"Point","coordinates":[4.8878,43.4304]},"properties":{"latitude":"43.4304","longitude":"4.8878","bright_ti4":"304.21","scan":"0.45","track":"0.63","acq_date":"2026-05-29","acq_time":"43","satellite":"N21","instrument":"VIIRS","confidence":"n","version":"2.0NRT","bright_ti5":"291.79","frp":"3.51","daynight":"N","commune":"Fos-sur-Mer","code_insee":"13039","departement":"Bouches-du-Rhône","region":"Provence-Alpes-Côte d'Azur"}},{"type":"Feature","geometry":{"type":"Point","coordinates":[4.89547,43.43048]},"properties":{"latitude":"43.43048","longitude":"4.89547","bright_ti4":"302.81","scan":"0.45","track":"0.63","acq_date":"2026-05-29","acq_time":"43","satellite":"N21","instrument":"VIIRS","confidence":"n","version":"2.0NRT","bright_ti5":"292.04","frp":"1.55","daynight":"N","commune":"Fos-sur-Mer","code_insee":"13039","departement":"Bouches-du-Rhône","region":"Provence-Alpes-Côte d'Azur"}},{"type":"Feature","geometry":{"type":"Point","coordinates":[4.88988,43.43068]},"properties":{"latitude":"43.43068","longitude":"4.88988","bright_ti4":"307.54","scan":"0.45","track":"0.63","acq_date":"2026-05-29","acq_time":"43","satellite":"N21","instrument":"VIIRS","confidence":"n","version":"2.0NRT","bright_ti5":"292.22","frp":"1.55","daynight":"N","commune":"Fos-sur-Mer","code_insee":"13039","departement":"Bouches-du-Rhône","region":"Provence-Alpes-Côte d'Azur"}},{"type":"Feature","geometry":{"type":"Point","coordinates":[4.89972,43.4417]},"properties":{"latitude":"43.4417","longitude":"4.89972","bright_ti4":"323.12","scan":"0.45","track":"0.63","acq_date":"2026-05-29","acq_time":"43","satellite":"N21","instrument":"VIIRS","confidence":"n","version":"2.0NRT","bright_ti5":"291.2","frp":"3.16","daynight":"N","commune":"Fos-sur-Mer","code_insee":"13039","departement":"Bouches-du-Rhône","region":"Provence-Alpes-Côte d'Azur"}},{"type":"Feature","geometry":{"type":"Point","coordinates":[6.96894,48.6914]},"properties":{"latitude":"48.6914","longitude":"6.96894","bright_ti4":"300.78","scan":"0.55","track":"0.51","acq_date":"2026-05-29","acq_time":"221","satellite":"N21","instrument":"VIIRS","confidence":"n","version":"2.0NRT","bright_ti5":"284.64","frp":"1.84","daynight":"N","commune":"Héming","code_insee":"57314","departement":"Moselle","region":"Grand Est"}},{"type":"Feature","geometry":{"type":"Point","coordinates":[5.68293,48.71575]},"properties":{"latitude":"48.71575","longitude":"5.68293","bright_ti4":"297.02","scan":"0.48","track":"0.48","acq_date":"2026-05-29","acq_time":"221","satellite":"N21","instrument":"VIIRS","confidence":"n","version":"2.0NRT","bright_ti5":"285.65","frp":"0.86","daynight":"N","commune":"Sorcy-Saint-Martin","code_insee":"55496","departement":"Meuse","region":"Grand Est"}},{"type":"Feature","geometry":{"type":"Point","coordinates":[4.56194,48.76913]},"properties":{"latitude":"48.76913","longitude":"4.56194","bright_ti4":"301.25","scan":"0.43","track":"0.46","acq_date":"2026-05-29","acq_time":"221","satellite":"N21","instrument":"VIIRS","confidence":"n","version":"2.0NRT","bright_ti5":"288.8","frp":"1.25","daynight":"N","commune":"Couvrot","code_insee":"51195","departement":"Marne","region":"Grand Est"}},{"type":"Feature","geometry":{"type":"Point","coordinates":[1.75892,48.98411]},"properties":{"latitude":"48.98411","longitude":"1.75892","bright_ti4":"320.25","scan":"0.5","track":"0.41","acq_date":"2026-05-29","acq_time":"221","satellite":"N21","instrument":"VIIRS","confidence":"n","version":"2.0NRT","bright_ti5":"292.01","frp":"2.65","daynight":"N","commune":"Porcheville","code_insee":"78501","departement":"Yvelines","region":"Île-de-France"}},{"type":"Feature","geometry":{"type":"Point","coordinates":[6.09652,49.32329]},"properties":{"latitude":"49.32329","longitude":"6.09652","bright_ti4":"300.27","scan":"0.48","track":"0.48","acq_date":"2026-05-29","acq_time":"221","satellite":"N21","instrument":"VIIRS","confidence":"n","version":"2.0NRT","bright_ti5":"286.87","frp":"1.34","daynight":"N","commune":"Serémange-Erzange","code_insee":"57647","departement":"Moselle","region":"Grand Est"}},{"type":"Feature","geometry":{"type":"Point","coordinates":[0.53245,49.4762]},"properties":{"latitude":"49.4762","longitude":"0.53245","bright_ti4":"307.25","scan":"0.45","track":"0.39","acq_date":"2026-05-29","acq_time":"221","satellite":"N21","instrument":"VIIRS","confidence":"n","version":"2.0NRT","bright_ti5":"290.87","frp":"1.42","daynight":"N","commune":"Lillebonne","code_insee":"76384","departement":"Seine-Maritime","region":"Normandie"}},{"type":"Feature","geometry":{"type":"Point","coordinates":[-1.83772,49.50598]},"properties":{"latitude":"49.50598","longitude":"-1.83772","bright_ti4":"326.77","scan":"0.4","track":"0.37","acq_date":"2026-05-29","acq_time":"221","satellite":"N21","instrument":"VIIRS","confidence":"n","version":"2.0NRT","bright_ti5":"276.22","frp":"2.73","daynight":"N","commune":"Les Pieux","code_insee":"50402","departement":"Manche","region":"Normandie"}},{"type":"Feature","geometry":{"type":"Point","coordinates":[-1.84302,49.50692]},"properties":{"latitude":"49.50692","longitude":"-1.84302","bright_ti4":"300.3","scan":"0.4","track":"0.37","acq_date":"2026-05-29","acq_time":"221","satellite":"N21","instrument":"VIIRS","confidence":"n","version":"2.0NRT","bright_ti5":"274.77","frp":"2","daynight":"N","commune":"Les Pieux","code_insee":"50402","departement":"Manche","region":"Normandie"}},{"type":"Feature","geometry":{"type":"Point","coordinates":[3.49108,50.33063]},"properties":{"latitude":"50.33063","longitude":"3.49108","bright_ti4":"295.98","scan":"0.54","track":"0.42","acq_date":"2026-05-29","acq_time":"221","satellite":"N21","instrument":"VIIRS","confidence":"n","version":"2.0NRT","bright_ti5":"281.86","frp":"0.65","daynight":"N","commune":"Trith-Saint-Léger","code_insee":"59603","departement":"Nord","region":"Hauts-de-France"}},{"type":"Feature","geometry":{"type":"Point","coordinates":[4.89937,43.43886]},"properties":{"latitude":"43.43886","longitude":"4.89937","bright_ti4":"305.73","scan":"0.62","track":"0.54","acq_date":"2026-05-29","acq_time":"224","satellite":"N21","instrument":"VIIRS","confidence":"n","version":"2.0NRT","bright_ti5":"289.67","frp":"1.97","daynight":"N","commune":"Fos-sur-Mer","code_insee":"13039","departement":"Bouches-du-Rhône","region":"Provence-Alpes-Côte d'Azur"}},{"type":"Feature","geometry":{"type":"Point","coordinates":[4.89214,43.44074]},"properties":{"latitude":"43.44074","longitude":"4.89214","bright_ti4":"312.6","scan":"0.62","track":"0.54","acq_date":"2026-05-29","acq_time":"224","satellite":"N21","instrument":"VIIRS","confidence":"n","version":"2.0NRT","bright_ti5":"291.39","frp":"5.81","daynight":"N","commune":"Fos-sur-Mer","code_insee":"13039","departement":"Bouches-du-Rhône","region":"Provence-Alpes-Côte d'Azur"}},{"type":"Feature","geometry":{"type":"Point","coordinates":[4.89889,43.4417]},"properties":{"latitude":"43.4417","longitude":"4.89889","bright_ti4":"319.94","scan":"0.62","track":"0.54","acq_date":"2026-05-29","acq_time":"224","satellite":"N21","instrument":"VIIRS","confidence":"n","version":"2.0NRT","bright_ti5":"290.94","frp":"4.74","daynight":"N","commune":"Fos-sur-Mer","code_insee":"13039","departement":"Bouches-du-Rhône","region":"Provence-Alpes-Côte d'Azur"}},{"type":"Feature","geometry":{"type":"Point","coordinates":[4.90172,43.44352]},"properties":{"latitude":"43.44352","longitude":"4.90172","bright_ti4":"315.55","scan":"0.62","track":"0.54","acq_date":"2026-05-29","acq_time":"224","satellite":"N21","instrument":"VIIRS","confidence":"n","version":"2.0NRT","bright_ti5":"291.17","frp":"3.79","daynight":"N","commune":"Fos-sur-Mer","code_insee":"13039","departement":"Bouches-du-Rhône","region":"Provence-Alpes-Côte d'Azur"}},{"type":"Feature","geometry":{"type":"Point","coordinates":[4.89449,43.4454]},"properties":{"latitude":"43.4454","longitude":"4.89449","bright_ti4":"333.59","scan":"0.62","track":"0.54","acq_date":"2026-05-29","acq_time":"224","satellite":"N21","instrument":"VIIRS","confidence":"n","version":"2.0NRT","bright_ti5":"292.48","frp":"8.07","daynight":"N","commune":"Fos-sur-Mer","code_insee":"13039","departement":"Bouches-du-Rhône","region":"Provence-Alpes-Côte d'Azur"}},{"type":"Feature","geometry":{"type":"Point","coordinates":[4.90124,43.44637]},"properties":{"latitude":"43.44637","longitude":"4.90124","bright_ti4":"310.31","scan":"0.62","track":"0.54","acq_date":"2026-05-29","acq_time":"224","satellite":"N21","instrument":"VIIRS","confidence":"n","version":"2.0NRT","bright_ti5":"291.66","frp":"4.74","daynight":"N","commune":"Fos-sur-Mer","code_insee":"13039","departement":"Bouches-du-Rhône","region":"Provence-Alpes-Côte d'Azur"}},{"type":"Feature","geometry":{"type":"Point","coordinates":[4.89404,43.44828]},"properties":{"latitude":"43.44828","longitude":"4.89404","bright_ti4":"325.8","scan":"0.62","track":"0.54","acq_date":"2026-05-29","acq_time":"224","satellite":"N21","instrument":"VIIRS","confidence":"n","version":"2.0NRT","bright_ti5":"290.93","frp":"4.74","daynight":"N","commune":"Fos-sur-Mer","code_insee":"13039","departement":"Bouches-du-Rhône","region":"Provence-Alpes-Côte d'Azur"}},{"type":"Feature","geometry":{"type":"Point","coordinates":[-0.01745,44.62821]},"properties":{"latitude":"44.62821","longitude":"-0.01745","bright_ti4":"304.21","scan":"0.52","track":"0.42","acq_date":"2026-05-29","acq_time":"224","satellite":"N21","instrument":"VIIRS","confidence":"n","version":"2.0NRT","bright_ti5":"288.49","frp":"0.95","daynight":"N","commune":"Loubens","code_insee":"33250","departement":"Gironde","region":"Nouvelle-Aquitaine"}},{"type":"Feature","geometry":{"type":"Point","coordinates":[-1.03624,48.10849]},"properties":{"latitude":"48.10849","longitude":"-1.03624","bright_ti4":"306.93","scan":"0.43","track":"0.38","acq_date":"2026-05-29","acq_time":"224","satellite":"N21","instrument":"VIIRS","confidence":"n","version":"2.0NRT","bright_ti5":"293.08","frp":"1","daynight":"N","commune":"Saint-Pierre-la-Cour","code_insee":"53247","departement":"Mayenne","region":"Pays de la Loire"}},{"type":"Feature","geometry":{"type":"Point","coordinates":[4.89394,43.44051]},"properties":{"latitude":"43.44051","longitude":"4.89394","bright_ti4":"338.3","scan":"0.55","track":"0.43","acq_date":"2026-05-29","acq_time":"1208","satellite":"N21","instrument":"VIIRS","confidence":"n","version":"2.0NRT","bright_ti5":"306.84","frp":"12.49","daynight":"D","commune":"Fos-sur-Mer","code_insee":"13039","departement":"Bouches-du-Rhône","region":"Provence-Alpes-Côte d'Azur"}},{"type":"Feature","geometry":{"type":"Point","coordinates":[4.81794,44.19391]},"properties":{"latitude":"44.19391","longitude":"4.81794","bright_ti4":"331.82","scan":"0.54","track":"0.42","acq_date":"2026-05-29","acq_time":"1208","satellite":"N21","instrument":"VIIRS","confidence":"l","version":"2.0NRT","bright_ti5":"303.33","frp":"2.14","daynight":"D","commune":"Uchaux","code_insee":"84135","departement":"Vaucluse","region":"Provence-Alpes-Côte d'Azur"}},{"type":"Feature","geometry":{"type":"Point","coordinates":[4.23387,48.78157]},"properties":{"latitude":"48.78157","longitude":"4.23387","bright_ti4":"344.1","scan":"0.46","track":"0.39","acq_date":"2026-05-29","acq_time":"1210","satellite":"N21","instrument":"VIIRS","confidence":"n","version":"2.0NRT","bright_ti5":"304.21","frp":"4.17","daynight":"D","commune":"Bussy-Lettrée","code_insee":"51099","departement":"Marne","region":"Grand Est"}},{"type":"Feature","geometry":{"type":"Point","coordinates":[4.23228,48.78506]},"properties":{"latitude":"48.78506","longitude":"4.23228","bright_ti4":"336.44","scan":"0.46","track":"0.39","acq_date":"2026-05-29","acq_time":"1210","satellite":"N21","instrument":"VIIRS","confidence":"n","version":"2.0NRT","bright_ti5":"307.39","frp":"4.17","daynight":"D","commune":"Bussy-Lettrée","code_insee":"51099","departement":"Marne","region":"Grand Est"}}]}