{"type":"FeatureCollection","features":[{"type":"Feature","geometry":{"type":"Point","coordinates":[4.88732,43.43439]},"properties":{"latitude":"43.43439","longitude":"4.88732","bright_ti4":"329.83","scan":"0.47","track":"0.4","acq_date":"2026-08-27","acq_time":"132","satellite":"N","instrument":"VIIRS","confidence":"n","version":"2.0NRT","bright_ti5":"291.9","frp":"4.7","daynight":"N","commune":"Fos-sur-Mer","code_insee":"13039","departement":"Bouches-du-Rhône","region":"Provence-Alpes-Côte d'Azur"}},{"type":"Feature","geometry":{"type":"Point","coordinates":[4.88234,43.4387]},"properties":{"latitude":"43.4387","longitude":"4.88234","bright_ti4":"302.55","scan":"0.47","track":"0.4","acq_date":"2026-08-27","acq_time":"132","satellite":"N","instrument":"VIIRS","confidence":"n","version":"2.0NRT","bright_ti5":"291.86","frp":"0.96","daynight":"N","commune":"Fos-sur-Mer","code_insee":"13039","departement":"Bouches-du-Rhône","region":"Provence-Alpes-Côte d'Azur"}},{"type":"Feature","geometry":{"type":"Point","coordinates":[4.88315,43.44233]},"properties":{"latitude":"43.44233","longitude":"4.88315","bright_ti4":"315.66","scan":"0.47","track":"0.4","acq_date":"2026-08-27","acq_time":"132","satellite":"N","instrument":"VIIRS","confidence":"n","version":"2.0NRT","bright_ti5":"292.61","frp":"7.05","daynight":"N","commune":"Fos-sur-Mer","code_insee":"13039","departement":"Bouches-du-Rhône","region":"Provence-Alpes-Côte d'Azur"}},{"type":"Feature","geometry":{"type":"Point","coordinates":[4.87735,43.443]},"properties":{"latitude":"43.443","longitude":"4.87735","bright_ti4":"330.5","scan":"0.47","track":"0.4","acq_date":"2026-08-27","acq_time":"132","satellite":"N","instrument":"VIIRS","confidence":"n","version":"2.0NRT","bright_ti5":"293.72","frp":"7.05","daynight":"N","commune":"Fos-sur-Mer","code_insee":"13039","departement":"Bouches-du-Rhône","region":"Provence-Alpes-Côte d'Azur"}},{"type":"Feature","geometry":{"type":"Point","coordinates":[4.90133,43.44393]},"properties":{"latitude":"43.44393","longitude":"4.90133","bright_ti4":"316.86","scan":"0.47","track":"0.4","acq_date":"2026-08-27","acq_time":"132","satellite":"N","instrument":"VIIRS","confidence":"n","version":"2.0NRT","bright_ti5":"292.5","frp":"1.67","daynight":"N","commune":"Fos-sur-Mer","code_insee":"13039","departement":"Bouches-du-Rhône","region":"Provence-Alpes-Côte d'Azur"}},{"type":"Feature","geometry":{"type":"Point","coordinates":[4.89636,43.44823]},"properties":{"latitude":"43.44823","longitude":"4.89636","bright_ti4":"313.15","scan":"0.47","track":"0.4","acq_date":"2026-08-27","acq_time":"132","satellite":"N","instrument":"VIIRS","confidence":"n","version":"2.0NRT","bright_ti5":"293.01","frp":"1.64","daynight":"N","commune":"Fos-sur-Mer","code_insee":"13039","departement":"Bouches-du-Rhône","region":"Provence-Alpes-Côte d'Azur"}},{"type":"Feature","geometry":{"type":"Point","coordinates":[6.05206,48.88684]},"properties":{"latitude":"48.88684","longitude":"6.05206","bright_ti4":"299.08","scan":"0.49","track":"0.4","acq_date":"2026-08-27","acq_time":"132","satellite":"N","instrument":"VIIRS","confidence":"n","version":"2.0NRT","bright_ti5":"277.64","frp":"0.36","daynight":"N","commune":"Blénod-lès-Pont-à-Mousson","code_insee":"54079","departement":"Meurthe-et-Moselle","region":"Grand Est"}},{"type":"Feature","geometry":{"type":"Point","coordinates":[7.23717,47.62833]},"properties":{"latitude":"47.62833","longitude":"7.23717","bright_ti4":"296.25","scan":"0.41","track":"0.37","acq_date":"2026-08-27","acq_time":"149","satellite":"N20","instrument":"VIIRS","confidence":"n","version":"2.0NRT","bright_ti5":"280.9","frp":"0.3","daynight":"N","commune":"Altkirch","code_insee":"68004","departement":"Haut-Rhin","region":"Grand Est"}},{"type":"Feature","geometry":{"type":"Point","coordinates":[6.14715,49.31675]},"properties":{"latitude":"49.31675","longitude":"6.14715","bright_ti4":"297.28","scan":"0.39","track":"0.36","acq_date":"2026-08-27","acq_time":"149","satellite":"N20","instrument":"VIIRS","confidence":"n","version":"2.0NRT","bright_ti5":"286.27","frp":"0.29","daynight":"N","commune":"Florange","code_insee":"57221","departement":"Moselle","region":"Grand Est"}},{"type":"Feature","geometry":{"type":"Point","coordinates":[6.14841,49.32]},"properties":{"latitude":"49.32","longitude":"6.14841","bright_ti4":"302.87","scan":"0.39","track":"0.36","acq_date":"2026-08-27","acq_time":"149","satellite":"N20","instrument":"VIIRS","confidence":"n","version":"2.0NRT","bright_ti5":"286.67","frp":"0.6","daynight":"N","commune":"Florange","code_insee":"57221","departement":"Moselle","region":"Grand Est"}},{"type":"Feature","geometry":{"type":"Point","coordinates":[4.89612,43.43374]},"properties":{"latitude":"43.43374","longitude":"4.89612","bright_ti4":"305.47","scan":"0.4","track":"0.37","acq_date":"2026-08-27","acq_time":"152","satellite":"N20","instrument":"VIIRS","confidence":"n","version":"2.0NRT","bright_ti5":"293.53","frp":"1.78","daynight":"N","commune":"Fos-sur-Mer","code_insee":"13039","departement":"Bouches-du-Rhône","region":"Provence-Alpes-Côte d'Azur"}},{"type":"Feature","geometry":{"type":"Point","coordinates":[4.89127,43.4346]},"properties":{"latitude":"43.4346","longitude":"4.89127","bright_ti4":"331.41","scan":"0.4","track":"0.37","acq_date":"2026-08-27","acq_time":"152","satellite":"N20","instrument":"VIIRS","confidence":"n","version":"2.0NRT","bright_ti5":"295.41","frp":"1.78","daynight":"N","commune":"Fos-sur-Mer","code_insee":"13039","departement":"Bouches-du-Rhône","region":"Provence-Alpes-Côte d'Azur"}},{"type":"Feature","geometry":{"type":"Point","coordinates":[4.88753,43.43876]},"properties":{"latitude":"43.43876","longitude":"4.88753","bright_ti4":"303.58","scan":"0.4","track":"0.37","acq_date":"2026-08-27","acq_time":"152","satellite":"N20","instrument":"VIIRS","confidence":"n","version":"2.0NRT","bright_ti5":"293.01","frp":"3.14","daynight":"N","commune":"Fos-sur-Mer","code_insee":"13039","departement":"Bouches-du-Rhône","region":"Provence-Alpes-Côte d'Azur"}},{"type":"Feature","geometry":{"type":"Point","coordinates":[4.87783,43.44047]},"properties":{"latitude":"43.44047","longitude":"4.87783","bright_ti4":"303.74","scan":"0.4","track":"0.37","acq_date":"2026-08-27","acq_time":"152","satellite":"N20","instrument":"VIIRS","confidence":"n","version":"2.0NRT","bright_ti5":"292.87","frp":"18.93","daynight":"N","commune":"Fos-sur-Mer","code_insee":"13039","departement":"Bouches-du-Rhône","region":"Provence-Alpes-Côte d'Azur"}},{"type":"Feature","geometry":{"type":"Point","coordinates":[4.88378,43.44292]},"properties":{"latitude":"43.44292","longitude":"4.88378","bright_ti4":"306.67","scan":"0.4","track":"0.37","acq_date":"2026-08-27","acq_time":"152","satellite":"N20","instrument":"VIIRS","confidence":"n","version":"2.0NRT","bright_ti5":"292.69","frp":"3.14","daynight":"N","commune":"Fos-sur-Mer","code_insee":"13039","departement":"Bouches-du-Rhône","region":"Provence-Alpes-Côte d'Azur"}},{"type":"Feature","geometry":{"type":"Point","coordinates":[4.89942,43.44367]},"properties":{"latitude":"43.44367","longitude":"4.89942","bright_ti4":"325.64","scan":"0.4","track":"0.37","acq_date":"2026-08-27","acq_time":"152","satellite":"N20","instrument":"VIIRS","confidence":"n","version":"2.0NRT","bright_ti5":"293.32","frp":"5.3","daynight":"N","commune":"Fos-sur-Mer","code_insee":"13039","departement":"Bouches-du-Rhône","region":"Provence-Alpes-Côte d'Azur"}},{"type":"Feature","geometry":{"type":"Point","coordinates":[4.87893,43.44378]},"properties":{"latitude":"43.44378","longitude":"4.87893","bright_ti4":"327.56","scan":"0.4","track":"0.37","acq_date":"2026-08-27","acq_time":"152","satellite":"N20","instrument":"VIIRS","confidence":"n","version":"2.0NRT","bright_ti5":"301.2","frp":"18.93","daynight":"N","commune":"Fos-sur-Mer","code_insee":"13039","departement":"Bouches-du-Rhône","region":"Provence-Alpes-Côte d'Azur"}},{"type":"Feature","geometry":{"type":"Point","coordinates":[4.89567,43.44783]},"properties":{"latitude":"43.44783","longitude":"4.89567","bright_ti4":"343.7","scan":"0.4","track":"0.37","acq_date":"2026-08-27","acq_time":"152","satellite":"N20","instrument":"VIIRS","confidence":"n","version":"2.0NRT","bright_ti5":"294.23","frp":"5.3","daynight":"N","commune":"Fos-sur-Mer","code_insee":"13039","departement":"Bouches-du-Rhône","region":"Provence-Alpes-Côte d'Azur"}},{"type":"Feature","geometry":{"type":"Point","coordinates":[7.37525,43.79234]},"properties":{"latitude":"43.79234","longitude":"7.37525","bright_ti4":"300.88","scan":"0.46","track":"0.39","acq_date":"2026-08-27","acq_time":"152","satellite":"N20","instrument":"VIIRS","confidence":"n","version":"2.0NRT","bright_ti5":"289.78","frp":"0.33","daynight":"N","commune":"Blausasc","code_insee":"06019","departement":"Alpes-Maritimes","region":"Provence-Alpes-Côte d'Azur"}},{"type":"Feature","geometry":{"type":"Point","coordinates":[4.88669,43.43268]},"properties":{"latitude":"43.43268","longitude":"4.88669","bright_ti4":"307.68","scan":"0.6","track":"0.53","acq_date":"2026-08-27","acq_time":"56","satellite":"N21","instrument":"VIIRS","confidence":"n","version":"2.0NRT","bright_ti5":"287","frp":"4.75","daynight":"N","commune":"Fos-sur-Mer","code_insee":"13039","departement":"Bouches-du-Rhône","region":"Provence-Alpes-Côte d'Azur"}},{"type":"Feature","geometry":{"type":"Point","coordinates":[4.8794,43.44011]},"properties":{"latitude":"43.44011","longitude":"4.8794","bright_ti4":"326.39","scan":"0.6","track":"0.53","acq_date":"2026-08-27","acq_time":"56","satellite":"N21","instrument":"VIIRS","confidence":"n","version":"2.0NRT","bright_ti5":"285.7","frp":"11.34","daynight":"N","commune":"Fos-sur-Mer","code_insee":"13039","departement":"Bouches-du-Rhône","region":"Provence-Alpes-Côte d'Azur"}},{"type":"Feature","geometry":{"type":"Point","coordinates":[4.87995,43.44501]},"properties":{"latitude":"43.44501","longitude":"4.87995","bright_ti4":"344.07","scan":"0.6","track":"0.53","acq_date":"2026-08-27","acq_time":"56","satellite":"N21","instrument":"VIIRS","confidence":"n","version":"2.0NRT","bright_ti5":"282.23","frp":"11.34","daynight":"N","commune":"Fos-sur-Mer","code_insee":"13039","departement":"Bouches-du-Rhône","region":"Provence-Alpes-Côte d'Azur"}},{"type":"Feature","geometry":{"type":"Point","coordinates":[4.87242,43.44547]},"properties":{"latitude":"43.44547","longitude":"4.87242","bright_ti4":"301.07","scan":"0.6","track":"0.53","acq_date":"2026-08-27","acq_time":"56","satellite":"N21","instrument":"VIIRS","confidence":"n","version":"2.0NRT","bright_ti5":"274.21","frp":"11.34","daynight":"N","commune":"Fos-sur-Mer","code_insee":"13039","departement":"Bouches-du-Rhône","region":"Provence-Alpes-Côte d'Azur"}},{"type":"Feature","geometry":{"type":"Point","coordinates":[7.37289,43.79327]},"properties":{"latitude":"43.79327","longitude":"7.37289","bright_ti4":"303.01","scan":"0.46","track":"0.47","acq_date":"2026-08-27","acq_time":"56","satellite":"N21","instrument":"VIIRS","confidence":"n","version":"2.0NRT","bright_ti5":"289.58","frp":"0.82","daynight":"N","commune":"Blausasc","code_insee":"06019","departement":"Alpes-Maritimes","region":"Provence-Alpes-Côte d'Azur"}},{"type":"Feature","geometry":{"type":"Point","coordinates":[4.89669,43.44621]},"properties":{"latitude":"43.44621","longitude":"4.89669","bright_ti4":"300.23","scan":"0.45","track":"0.63","acq_date":"2026-08-27","acq_time":"236","satellite":"N21","instrument":"VIIRS","confidence":"n","version":"2.0NRT","bright_ti5":"247","frp":"1.66","daynight":"N","commune":"Fos-sur-Mer","code_insee":"13039","departement":"Bouches-du-Rhône","region":"Provence-Alpes-Côte d'Azur"}}]}