{"type":"FeatureCollection","features":[{"type":"Feature","geometry":{"type":"Point","coordinates":[-2.0569,47.31633]},"properties":{"latitude":"47.31633","longitude":"-2.0569","bright_ti4":"297.96","scan":"0.49","track":"0.65","acq_date":"2026-08-17","acq_time":"117","satellite":"N","instrument":"VIIRS","confidence":"n","version":"2.0NRT","bright_ti5":"279.43","frp":"0.88","daynight":"N","commune":"Donges","code_insee":"44052","departement":"Loire-Atlantique","region":"Pays de la Loire"}},{"type":"Feature","geometry":{"type":"Point","coordinates":[6.1161,48.60865]},"properties":{"latitude":"48.60865","longitude":"6.1161","bright_ti4":"303.55","scan":"0.42","track":"0.46","acq_date":"2026-08-17","acq_time":"117","satellite":"N","instrument":"VIIRS","confidence":"n","version":"2.0NRT","bright_ti5":"283.69","frp":"1.18","daynight":"N","commune":"Neuves-Maisons","code_insee":"54397","departement":"Meurthe-et-Moselle","region":"Grand Est"}},{"type":"Feature","geometry":{"type":"Point","coordinates":[6.11026,48.60913]},"properties":{"latitude":"48.60913","longitude":"6.11026","bright_ti4":"301.79","scan":"0.42","track":"0.46","acq_date":"2026-08-17","acq_time":"117","satellite":"N","instrument":"VIIRS","confidence":"n","version":"2.0NRT","bright_ti5":"284.15","frp":"1","daynight":"N","commune":"Neuves-Maisons","code_insee":"54397","departement":"Meurthe-et-Moselle","region":"Grand Est"}},{"type":"Feature","geometry":{"type":"Point","coordinates":[1.5196,42.90186]},"properties":{"latitude":"42.90186","longitude":"1.5196","bright_ti4":"315.37","scan":"0.61","track":"0.54","acq_date":"2026-08-17","acq_time":"120","satellite":"N","instrument":"VIIRS","confidence":"n","version":"2.0NRT","bright_ti5":"284.76","frp":"2.46","daynight":"N","commune":"Saurat","code_insee":"09280","departement":"Ariège","region":"Occitanie"}},{"type":"Feature","geometry":{"type":"Point","coordinates":[1.51304,42.90226]},"properties":{"latitude":"42.90226","longitude":"1.51304","bright_ti4":"302.22","scan":"0.61","track":"0.54","acq_date":"2026-08-17","acq_time":"120","satellite":"N","instrument":"VIIRS","confidence":"n","version":"2.0NRT","bright_ti5":"283.53","frp":"2","daynight":"N","commune":"Saurat","code_insee":"09280","departement":"Ariège","region":"Occitanie"}},{"type":"Feature","geometry":{"type":"Point","coordinates":[1.52066,42.9068]},"properties":{"latitude":"42.9068","longitude":"1.52066","bright_ti4":"316.38","scan":"0.61","track":"0.54","acq_date":"2026-08-17","acq_time":"120","satellite":"N","instrument":"VIIRS","confidence":"n","version":"2.0NRT","bright_ti5":"284.89","frp":"2.5","daynight":"N","commune":"Saurat","code_insee":"09280","departement":"Ariège","region":"Occitanie"}},{"type":"Feature","geometry":{"type":"Point","coordinates":[1.51369,42.90723]},"properties":{"latitude":"42.90723","longitude":"1.51369","bright_ti4":"307.54","scan":"0.61","track":"0.54","acq_date":"2026-08-17","acq_time":"120","satellite":"N","instrument":"VIIRS","confidence":"n","version":"2.0NRT","bright_ti5":"283.68","frp":"2.76","daynight":"N","commune":"Brassac","code_insee":"09066","departement":"Ariège","region":"Occitanie"}},{"type":"Feature","geometry":{"type":"Point","coordinates":[0.98936,43.1841]},"properties":{"latitude":"43.1841","longitude":"0.98936","bright_ti4":"299.7","scan":"0.33","track":"0.55","acq_date":"2026-08-17","acq_time":"120","satellite":"N","instrument":"VIIRS","confidence":"n","version":"2.0NRT","bright_ti5":"288.11","frp":"0.43","daynight":"N","commune":"Martres-Tolosane","code_insee":"31324","departement":"Haute-Garonne","region":"Occitanie"}},{"type":"Feature","geometry":{"type":"Point","coordinates":[4.89678,43.43191]},"properties":{"latitude":"43.43191","longitude":"4.89678","bright_ti4":"305.9","scan":"0.42","track":"0.45","acq_date":"2026-08-17","acq_time":"120","satellite":"N","instrument":"VIIRS","confidence":"n","version":"2.0NRT","bright_ti5":"290.35","frp":"2.18","daynight":"N","commune":"Fos-sur-Mer","code_insee":"13039","departement":"Bouches-du-Rhône","region":"Provence-Alpes-Côte d'Azur"}},{"type":"Feature","geometry":{"type":"Point","coordinates":[4.89226,43.43658]},"properties":{"latitude":"43.43658","longitude":"4.89226","bright_ti4":"309.18","scan":"0.42","track":"0.45","acq_date":"2026-08-17","acq_time":"120","satellite":"N","instrument":"VIIRS","confidence":"n","version":"2.0NRT","bright_ti5":"289.52","frp":"1.37","daynight":"N","commune":"Fos-sur-Mer","code_insee":"13039","departement":"Bouches-du-Rhône","region":"Provence-Alpes-Côte d'Azur"}},{"type":"Feature","geometry":{"type":"Point","coordinates":[4.88698,43.43707]},"properties":{"latitude":"43.43707","longitude":"4.88698","bright_ti4":"332.92","scan":"0.42","track":"0.45","acq_date":"2026-08-17","acq_time":"120","satellite":"N","instrument":"VIIRS","confidence":"n","version":"2.0NRT","bright_ti5":"291.7","frp":"7.42","daynight":"N","commune":"Fos-sur-Mer","code_insee":"13039","departement":"Bouches-du-Rhône","region":"Provence-Alpes-Côte d'Azur"}},{"type":"Feature","geometry":{"type":"Point","coordinates":[4.8817,43.43755]},"properties":{"latitude":"43.43755","longitude":"4.8817","bright_ti4":"305.69","scan":"0.42","track":"0.45","acq_date":"2026-08-17","acq_time":"120","satellite":"N","instrument":"VIIRS","confidence":"n","version":"2.0NRT","bright_ti5":"291.25","frp":"7.42","daynight":"N","commune":"Fos-sur-Mer","code_insee":"13039","departement":"Bouches-du-Rhône","region":"Provence-Alpes-Côte d'Azur"}},{"type":"Feature","geometry":{"type":"Point","coordinates":[4.89298,43.44078]},"properties":{"latitude":"43.44078","longitude":"4.89298","bright_ti4":"320.35","scan":"0.42","track":"0.45","acq_date":"2026-08-17","acq_time":"120","satellite":"N","instrument":"VIIRS","confidence":"n","version":"2.0NRT","bright_ti5":"289.83","frp":"1.37","daynight":"N","commune":"Fos-sur-Mer","code_insee":"13039","departement":"Bouches-du-Rhône","region":"Provence-Alpes-Côte d'Azur"}},{"type":"Feature","geometry":{"type":"Point","coordinates":[4.88242,43.44175]},"properties":{"latitude":"43.44175","longitude":"4.88242","bright_ti4":"321.33","scan":"0.42","track":"0.45","acq_date":"2026-08-17","acq_time":"120","satellite":"N","instrument":"VIIRS","confidence":"n","version":"2.0NRT","bright_ti5":"290.15","frp":"7.42","daynight":"N","commune":"Fos-sur-Mer","code_insee":"13039","departement":"Bouches-du-Rhône","region":"Provence-Alpes-Côte d'Azur"}},{"type":"Feature","geometry":{"type":"Point","coordinates":[4.87714,43.44223]},"properties":{"latitude":"43.44223","longitude":"4.87714","bright_ti4":"339.54","scan":"0.42","track":"0.45","acq_date":"2026-08-17","acq_time":"120","satellite":"N","instrument":"VIIRS","confidence":"n","version":"2.0NRT","bright_ti5":"292.71","frp":"41.53","daynight":"N","commune":"Fos-sur-Mer","code_insee":"13039","departement":"Bouches-du-Rhône","region":"Provence-Alpes-Côte d'Azur"}},{"type":"Feature","geometry":{"type":"Point","coordinates":[4.89897,43.44449]},"properties":{"latitude":"43.44449","longitude":"4.89897","bright_ti4":"313.62","scan":"0.42","track":"0.45","acq_date":"2026-08-17","acq_time":"120","satellite":"N","instrument":"VIIRS","confidence":"n","version":"2.0NRT","bright_ti5":"290.08","frp":"2.51","daynight":"N","commune":"Fos-sur-Mer","code_insee":"13039","departement":"Bouches-du-Rhône","region":"Provence-Alpes-Côte d'Azur"}},{"type":"Feature","geometry":{"type":"Point","coordinates":[4.87786,43.44642]},"properties":{"latitude":"43.44642","longitude":"4.87786","bright_ti4":"302.12","scan":"0.42","track":"0.45","acq_date":"2026-08-17","acq_time":"120","satellite":"N","instrument":"VIIRS","confidence":"n","version":"2.0NRT","bright_ti5":"287.82","frp":"0.55","daynight":"N","commune":"Fos-sur-Mer","code_insee":"13039","departement":"Bouches-du-Rhône","region":"Provence-Alpes-Côte d'Azur"}},{"type":"Feature","geometry":{"type":"Point","coordinates":[7.37378,43.79498]},"properties":{"latitude":"43.79498","longitude":"7.37378","bright_ti4":"307.66","scan":"0.5","track":"0.41","acq_date":"2026-08-17","acq_time":"120","satellite":"N","instrument":"VIIRS","confidence":"n","version":"2.0NRT","bright_ti5":"291.69","frp":"1.27","daynight":"N","commune":"Blausasc","code_insee":"06019","departement":"Alpes-Maritimes","region":"Provence-Alpes-Côte d'Azur"}},{"type":"Feature","geometry":{"type":"Point","coordinates":[-0.69401,44.05479]},"properties":{"latitude":"44.05479","longitude":"-0.69401","bright_ti4":"299.79","scan":"0.4","track":"0.6","acq_date":"2026-08-17","acq_time":"120","satellite":"N","instrument":"VIIRS","confidence":"n","version":"2.0NRT","bright_ti5":"286.95","frp":"1.69","daynight":"N","commune":"Garein","code_insee":"40105","departement":"Landes","region":"Nouvelle-Aquitaine"}},{"type":"Feature","geometry":{"type":"Point","coordinates":[-0.69259,44.05782]},"properties":{"latitude":"44.05782","longitude":"-0.69259","bright_ti4":"300.23","scan":"0.4","track":"0.6","acq_date":"2026-08-17","acq_time":"120","satellite":"N","instrument":"VIIRS","confidence":"n","version":"2.0NRT","bright_ti5":"287.67","frp":"1.34","daynight":"N","commune":"Garein","code_insee":"40105","departement":"Landes","region":"Nouvelle-Aquitaine"}},{"type":"Feature","geometry":{"type":"Point","coordinates":[4.69464,44.08804]},"properties":{"latitude":"44.08804","longitude":"4.69464","bright_ti4":"300.58","scan":"0.44","track":"0.46","acq_date":"2026-08-17","acq_time":"120","satellite":"N","instrument":"VIIRS","confidence":"n","version":"2.0NRT","bright_ti5":"289.28","frp":"0.46","daynight":"N","commune":"Laudun-l'Ardoise","code_insee":"30141","departement":"Gard","region":"Occitanie"}},{"type":"Feature","geometry":{"type":"Point","coordinates":[5.81875,45.91107]},"properties":{"latitude":"45.91107","longitude":"5.81875","bright_ti4":"307.95","scan":"0.41","track":"0.45","acq_date":"2026-08-17","acq_time":"120","satellite":"N","instrument":"VIIRS","confidence":"n","version":"2.0NRT","bright_ti5":"289.82","frp":"0.74","daynight":"N","commune":"Anglefort","code_insee":"01010","departement":"Ain","region":"Auvergne-Rhône-Alpes"}},{"type":"Feature","geometry":{"type":"Point","coordinates":[4.84476,46.17275]},"properties":{"latitude":"46.17275","longitude":"4.84476","bright_ti4":"308.01","scan":"0.45","track":"0.47","acq_date":"2026-08-17","acq_time":"120","satellite":"N","instrument":"VIIRS","confidence":"n","version":"2.0NRT","bright_ti5":"278.98","frp":"2.01","daynight":"N","commune":"Saint-Didier-sur-Chalaronne","code_insee":"01348","departement":"Ain","region":"Auvergne-Rhône-Alpes"}},{"type":"Feature","geometry":{"type":"Point","coordinates":[1.51996,42.90503]},"properties":{"latitude":"42.90503","longitude":"1.51996","bright_ti4":"298.18","scan":"0.44","track":"0.63","acq_date":"2026-08-17","acq_time":"300","satellite":"N","instrument":"VIIRS","confidence":"n","version":"2.0NRT","bright_ti5":"283.78","frp":"0.49","daynight":"N","commune":"Saurat","code_insee":"09280","departement":"Ariège","region":"Occitanie"}},{"type":"Feature","geometry":{"type":"Point","coordinates":[4.89384,43.43488]},"properties":{"latitude":"43.43488","longitude":"4.89384","bright_ti4":"301.87","scan":"0.6","track":"0.71","acq_date":"2026-08-17","acq_time":"300","satellite":"N","instrument":"VIIRS","confidence":"n","version":"2.0NRT","bright_ti5":"288.05","frp":"2.65","daynight":"N","commune":"Fos-sur-Mer","code_insee":"13039","departement":"Bouches-du-Rhône","region":"Provence-Alpes-Côte d'Azur"}},{"type":"Feature","geometry":{"type":"Point","coordinates":[4.8884,43.43713]},"properties":{"latitude":"43.43713","longitude":"4.8884","bright_ti4":"323.1","scan":"0.6","track":"0.71","acq_date":"2026-08-17","acq_time":"300","satellite":"N","instrument":"VIIRS","confidence":"n","version":"2.0NRT","bright_ti5":"288.71","frp":"4.45","daynight":"N","commune":"Fos-sur-Mer","code_insee":"13039","departement":"Bouches-du-Rhône","region":"Provence-Alpes-Côte d'Azur"}},{"type":"Feature","geometry":{"type":"Point","coordinates":[4.88684,43.43724]},"properties":{"latitude":"43.43724","longitude":"4.88684","bright_ti4":"319.87","scan":"0.6","track":"0.71","acq_date":"2026-08-17","acq_time":"300","satellite":"N","instrument":"VIIRS","confidence":"n","version":"2.0NRT","bright_ti5":"288.67","frp":"2.45","daynight":"N","commune":"Fos-sur-Mer","code_insee":"13039","departement":"Bouches-du-Rhône","region":"Provence-Alpes-Côte d'Azur"}},{"type":"Feature","geometry":{"type":"Point","coordinates":[4.88138,43.43945]},"properties":{"latitude":"43.43945","longitude":"4.88138","bright_ti4":"304.59","scan":"0.6","track":"0.71","acq_date":"2026-08-17","acq_time":"300","satellite":"N","instrument":"VIIRS","confidence":"n","version":"2.0NRT","bright_ti5":"288.45","frp":"1.9","daynight":"N","commune":"Fos-sur-Mer","code_insee":"13039","departement":"Bouches-du-Rhône","region":"Provence-Alpes-Côte d'Azur"}},{"type":"Feature","geometry":{"type":"Point","coordinates":[4.87982,43.43961]},"properties":{"latitude":"43.43961","longitude":"4.87982","bright_ti4":"306.3","scan":"0.6","track":"0.71","acq_date":"2026-08-17","acq_time":"300","satellite":"N","instrument":"VIIRS","confidence":"n","version":"2.0NRT","bright_ti5":"288.53","frp":"2.45","daynight":"N","commune":"Fos-sur-Mer","code_insee":"13039","departement":"Bouches-du-Rhône","region":"Provence-Alpes-Côte d'Azur"}},{"type":"Feature","geometry":{"type":"Point","coordinates":[4.87433,43.44178]},"properties":{"latitude":"43.44178","longitude":"4.87433","bright_ti4":"303.3","scan":"0.6","track":"0.71","acq_date":"2026-08-17","acq_time":"300","satellite":"N","instrument":"VIIRS","confidence":"n","version":"2.0NRT","bright_ti5":"287.66","frp":"1.9","daynight":"N","commune":"Fos-sur-Mer","code_insee":"13039","departement":"Bouches-du-Rhône","region":"Provence-Alpes-Côte d'Azur"}},{"type":"Feature","geometry":{"type":"Point","coordinates":[4.88366,43.44563]},"properties":{"latitude":"43.44563","longitude":"4.88366","bright_ti4":"301.43","scan":"0.6","track":"0.71","acq_date":"2026-08-17","acq_time":"300","satellite":"N","instrument":"VIIRS","confidence":"n","version":"2.0NRT","bright_ti5":"287.89","frp":"1.82","daynight":"N","commune":"Fos-sur-Mer","code_insee":"13039","departement":"Bouches-du-Rhône","region":"Provence-Alpes-Côte d'Azur"}},{"type":"Feature","geometry":{"type":"Point","coordinates":[-2.05464,47.31564]},"properties":{"latitude":"47.31564","longitude":"-2.05464","bright_ti4":"296.58","scan":"0.46","track":"0.47","acq_date":"2026-08-17","acq_time":"300","satellite":"N","instrument":"VIIRS","confidence":"n","version":"2.0NRT","bright_ti5":"282.38","frp":"0.49","daynight":"N","commune":"Donges","code_insee":"44052","departement":"Loire-Atlantique","region":"Pays de la Loire"}},{"type":"Feature","geometry":{"type":"Point","coordinates":[7.37395,43.79554]},"properties":{"latitude":"43.79554","longitude":"7.37395","bright_ti4":"303.64","scan":"0.39","track":"0.36","acq_date":"2026-08-17","acq_time":"139","satellite":"N20","instrument":"VIIRS","confidence":"n","version":"2.0NRT","bright_ti5":"285.42","frp":"0.64","daynight":"N","commune":"Blausasc","code_insee":"06019","departement":"Alpes-Maritimes","region":"Provence-Alpes-Côte d'Azur"}},{"type":"Feature","geometry":{"type":"Point","coordinates":[4.69438,44.09121]},"properties":{"latitude":"44.09121","longitude":"4.69438","bright_ti4":"302.92","scan":"0.39","track":"0.37","acq_date":"2026-08-17","acq_time":"139","satellite":"N20","instrument":"VIIRS","confidence":"n","version":"2.0NRT","bright_ti5":"291.85","frp":"0.49","daynight":"N","commune":"Laudun-l'Ardoise","code_insee":"30141","departement":"Gard","region":"Occitanie"}},{"type":"Feature","geometry":{"type":"Point","coordinates":[5.81952,45.91102]},"properties":{"latitude":"45.91102","longitude":"5.81952","bright_ti4":"301.27","scan":"0.39","track":"0.36","acq_date":"2026-08-17","acq_time":"139","satellite":"N20","instrument":"VIIRS","confidence":"n","version":"2.0NRT","bright_ti5":"289.45","frp":"0.83","daynight":"N","commune":"Anglefort","code_insee":"01010","departement":"Ain","region":"Auvergne-Rhône-Alpes"}},{"type":"Feature","geometry":{"type":"Point","coordinates":[5.82109,45.91347]},"properties":{"latitude":"45.91347","longitude":"5.82109","bright_ti4":"304.48","scan":"0.39","track":"0.36","acq_date":"2026-08-17","acq_time":"139","satellite":"N20","instrument":"VIIRS","confidence":"n","version":"2.0NRT","bright_ti5":"290.58","frp":"0.52","daynight":"N","commune":"Anglefort","code_insee":"01010","departement":"Ain","region":"Auvergne-Rhône-Alpes"}},{"type":"Feature","geometry":{"type":"Point","coordinates":[4.84492,46.17131]},"properties":{"latitude":"46.17131","longitude":"4.84492","bright_ti4":"320","scan":"0.4","track":"0.37","acq_date":"2026-08-17","acq_time":"139","satellite":"N20","instrument":"VIIRS","confidence":"n","version":"2.0NRT","bright_ti5":"278.33","frp":"1.8","daynight":"N","commune":"Saint-Didier-sur-Chalaronne","code_insee":"01348","departement":"Ain","region":"Auvergne-Rhône-Alpes"}},{"type":"Feature","geometry":{"type":"Point","coordinates":[-2.05698,47.31894]},"properties":{"latitude":"47.31894","longitude":"-2.05698","bright_ti4":"296.23","scan":"0.49","track":"0.49","acq_date":"2026-08-17","acq_time":"139","satellite":"N20","instrument":"VIIRS","confidence":"n","version":"2.0NRT","bright_ti5":"281.3","frp":"0.68","daynight":"N","commune":"Donges","code_insee":"44052","departement":"Loire-Atlantique","region":"Pays de la Loire"}},{"type":"Feature","geometry":{"type":"Point","coordinates":[2.26132,47.54478]},"properties":{"latitude":"47.54478","longitude":"2.26132","bright_ti4":"304.48","scan":"0.49","track":"0.4","acq_date":"2026-08-17","acq_time":"139","satellite":"N20","instrument":"VIIRS","confidence":"n","version":"2.0NRT","bright_ti5":"282.79","frp":"1.07","daynight":"N","commune":"Brinon-sur-Sauldre","code_insee":"18037","departement":"Cher","region":"Centre-Val de Loire"}},{"type":"Feature","geometry":{"type":"Point","coordinates":[6.10996,48.56363]},"properties":{"latitude":"48.56363","longitude":"6.10996","bright_ti4":"301.14","scan":"0.4","track":"0.37","acq_date":"2026-08-17","acq_time":"139","satellite":"N20","instrument":"VIIRS","confidence":"n","version":"2.0NRT","bright_ti5":"290.08","frp":"0.75","daynight":"N","commune":"Xeuilley","code_insee":"54596","departement":"Meurthe-et-Moselle","region":"Grand Est"}},{"type":"Feature","geometry":{"type":"Point","coordinates":[6.11531,48.60962]},"properties":{"latitude":"48.60962","longitude":"6.11531","bright_ti4":"309.53","scan":"0.4","track":"0.37","acq_date":"2026-08-17","acq_time":"139","satellite":"N20","instrument":"VIIRS","confidence":"n","version":"2.0NRT","bright_ti5":"291.23","frp":"1.56","daynight":"N","commune":"Neuves-Maisons","code_insee":"54397","departement":"Meurthe-et-Moselle","region":"Grand Est"}},{"type":"Feature","geometry":{"type":"Point","coordinates":[6.96588,48.69287]},"properties":{"latitude":"48.69287","longitude":"6.96588","bright_ti4":"304.14","scan":"0.39","track":"0.36","acq_date":"2026-08-17","acq_time":"139","satellite":"N20","instrument":"VIIRS","confidence":"n","version":"2.0NRT","bright_ti5":"288.73","frp":"1.09","daynight":"N","commune":"Héming","code_insee":"57314","departement":"Moselle","region":"Grand Est"}},{"type":"Feature","geometry":{"type":"Point","coordinates":[5.68284,48.718]},"properties":{"latitude":"48.718","longitude":"5.68284","bright_ti4":"305.05","scan":"0.4","track":"0.37","acq_date":"2026-08-17","acq_time":"139","satellite":"N20","instrument":"VIIRS","confidence":"n","version":"2.0NRT","bright_ti5":"288.43","frp":"1.1","daynight":"N","commune":"Sorcy-Saint-Martin","code_insee":"55496","departement":"Meuse","region":"Grand Est"}},{"type":"Feature","geometry":{"type":"Point","coordinates":[1.51964,42.90252]},"properties":{"latitude":"42.90252","longitude":"1.51964","bright_ti4":"311.55","scan":"0.47","track":"0.39","acq_date":"2026-08-17","acq_time":"141","satellite":"N20","instrument":"VIIRS","confidence":"n","version":"2.0NRT","bright_ti5":"286.28","frp":"2.48","daynight":"N","commune":"Saurat","code_insee":"09280","departement":"Ariège","region":"Occitanie"}},{"type":"Feature","geometry":{"type":"Point","coordinates":[1.51439,42.90315]},"properties":{"latitude":"42.90315","longitude":"1.51439","bright_ti4":"309.48","scan":"0.47","track":"0.39","acq_date":"2026-08-17","acq_time":"141","satellite":"N20","instrument":"VIIRS","confidence":"n","version":"2.0NRT","bright_ti5":"284.23","frp":"1.73","daynight":"N","commune":"Saurat","code_insee":"09280","departement":"Ariège","region":"Occitanie"}},{"type":"Feature","geometry":{"type":"Point","coordinates":[1.52132,42.90325]},"properties":{"latitude":"42.90325","longitude":"1.52132","bright_ti4":"295.71","scan":"0.47","track":"0.39","acq_date":"2026-08-17","acq_time":"141","satellite":"N20","instrument":"VIIRS","confidence":"n","version":"2.0NRT","bright_ti5":"284.93","frp":"3.67","daynight":"N","commune":"Saurat","code_insee":"09280","departement":"Ariège","region":"Occitanie"}},{"type":"Feature","geometry":{"type":"Point","coordinates":[1.51607,42.90387]},"properties":{"latitude":"42.90387","longitude":"1.51607","bright_ti4":"337.63","scan":"0.47","track":"0.39","acq_date":"2026-08-17","acq_time":"141","satellite":"N20","instrument":"VIIRS","confidence":"n","version":"2.0NRT","bright_ti5":"289.13","frp":"3.67","daynight":"N","commune":"Saurat","code_insee":"09280","departement":"Ariège","region":"Occitanie"}},{"type":"Feature","geometry":{"type":"Point","coordinates":[1.52057,42.9061]},"properties":{"latitude":"42.9061","longitude":"1.52057","bright_ti4":"325.58","scan":"0.47","track":"0.39","acq_date":"2026-08-17","acq_time":"141","satellite":"N20","instrument":"VIIRS","confidence":"n","version":"2.0NRT","bright_ti5":"287.76","frp":"2.48","daynight":"N","commune":"Saurat","code_insee":"09280","departement":"Ariège","region":"Occitanie"}},{"type":"Feature","geometry":{"type":"Point","coordinates":[1.51509,42.90676]},"properties":{"latitude":"42.90676","longitude":"1.51509","bright_ti4":"309.27","scan":"0.47","track":"0.39","acq_date":"2026-08-17","acq_time":"141","satellite":"N20","instrument":"VIIRS","confidence":"n","version":"2.0NRT","bright_ti5":"283.08","frp":"1.73","daynight":"N","commune":"Brassac","code_insee":"09066","departement":"Ariège","region":"Occitanie"}},{"type":"Feature","geometry":{"type":"Point","coordinates":[1.51669,42.90749]},"properties":{"latitude":"42.90749","longitude":"1.51669","bright_ti4":"308.55","scan":"0.47","track":"0.39","acq_date":"2026-08-17","acq_time":"141","satellite":"N20","instrument":"VIIRS","confidence":"n","version":"2.0NRT","bright_ti5":"283.49","frp":"1.1","daynight":"N","commune":"Brassac","code_insee":"09066","departement":"Ariège","region":"Occitanie"}},{"type":"Feature","geometry":{"type":"Point","coordinates":[4.89802,43.43405]},"properties":{"latitude":"43.43405","longitude":"4.89802","bright_ti4":"306.97","scan":"0.39","track":"0.36","acq_date":"2026-08-17","acq_time":"141","satellite":"N20","instrument":"VIIRS","confidence":"n","version":"2.0NRT","bright_ti5":"292.87","frp":"1.22","daynight":"N","commune":"Fos-sur-Mer","code_insee":"13039","departement":"Bouches-du-Rhône","region":"Provence-Alpes-Côte d'Azur"}},{"type":"Feature","geometry":{"type":"Point","coordinates":[4.88848,43.43545]},"properties":{"latitude":"43.43545","longitude":"4.88848","bright_ti4":"337.91","scan":"0.39","track":"0.36","acq_date":"2026-08-17","acq_time":"141","satellite":"N20","instrument":"VIIRS","confidence":"n","version":"2.0NRT","bright_ti5":"293.97","frp":"5.21","daynight":"N","commune":"Fos-sur-Mer","code_insee":"13039","departement":"Bouches-du-Rhône","region":"Provence-Alpes-Côte d'Azur"}},{"type":"Feature","geometry":{"type":"Point","coordinates":[4.87895,43.43685]},"properties":{"latitude":"43.43685","longitude":"4.87895","bright_ti4":"305.21","scan":"0.39","track":"0.36","acq_date":"2026-08-17","acq_time":"141","satellite":"N20","instrument":"VIIRS","confidence":"n","version":"2.0NRT","bright_ti5":"292.87","frp":"1.75","daynight":"N","commune":"Fos-sur-Mer","code_insee":"13039","departement":"Bouches-du-Rhône","region":"Provence-Alpes-Côte d'Azur"}},{"type":"Feature","geometry":{"type":"Point","coordinates":[4.8894,43.43875]},"properties":{"latitude":"43.43875","longitude":"4.8894","bright_ti4":"332.31","scan":"0.39","track":"0.36","acq_date":"2026-08-17","acq_time":"141","satellite":"N20","instrument":"VIIRS","confidence":"n","version":"2.0NRT","bright_ti5":"293.16","frp":"4.03","daynight":"N","commune":"Fos-sur-Mer","code_insee":"13039","departement":"Bouches-du-Rhône","region":"Provence-Alpes-Côte d'Azur"}},{"type":"Feature","geometry":{"type":"Point","coordinates":[4.88079,43.44344]},"properties":{"latitude":"43.44344","longitude":"4.88079","bright_ti4":"339.06","scan":"0.39","track":"0.36","acq_date":"2026-08-17","acq_time":"141","satellite":"N20","instrument":"VIIRS","confidence":"n","version":"2.0NRT","bright_ti5":"296.45","frp":"19.4","daynight":"N","commune":"Fos-sur-Mer","code_insee":"13039","departement":"Bouches-du-Rhône","region":"Provence-Alpes-Côte d'Azur"}},{"type":"Feature","geometry":{"type":"Point","coordinates":[4.896,43.44463]},"properties":{"latitude":"43.44463","longitude":"4.896","bright_ti4":"329.71","scan":"0.39","track":"0.36","acq_date":"2026-08-17","acq_time":"141","satellite":"N20","instrument":"VIIRS","confidence":"n","version":"2.0NRT","bright_ti5":"293.27","frp":"1.59","daynight":"N","commune":"Fos-sur-Mer","code_insee":"13039","departement":"Bouches-du-Rhône","region":"Provence-Alpes-Côte d'Azur"}},{"type":"Feature","geometry":{"type":"Point","coordinates":[4.89692,43.44793]},"properties":{"latitude":"43.44793","longitude":"4.89692","bright_ti4":"309.11","scan":"0.39","track":"0.36","acq_date":"2026-08-17","acq_time":"141","satellite":"N20","instrument":"VIIRS","confidence":"n","version":"2.0NRT","bright_ti5":"292.74","frp":"1.59","daynight":"N","commune":"Fos-sur-Mer","code_insee":"13039","departement":"Bouches-du-Rhône","region":"Provence-Alpes-Côte d'Azur"}},{"type":"Feature","geometry":{"type":"Point","coordinates":[6.14871,49.31649]},"properties":{"latitude":"49.31649","longitude":"6.14871","bright_ti4":"300.91","scan":"0.42","track":"0.61","acq_date":"2026-08-17","acq_time":"41","satellite":"N21","instrument":"VIIRS","confidence":"n","version":"2.0NRT","bright_ti5":"287.42","frp":"0.55","daynight":"N","commune":"Florange","code_insee":"57221","departement":"Moselle","region":"Grand Est"}},{"type":"Feature","geometry":{"type":"Point","coordinates":[1.51683,42.90046]},"properties":{"latitude":"42.90046","longitude":"1.51683","bright_ti4":"311.57","scan":"0.66","track":"0.73","acq_date":"2026-08-17","acq_time":"43","satellite":"N21","instrument":"VIIRS","confidence":"n","version":"2.0NRT","bright_ti5":"283.5","frp":"3.27","daynight":"N","commune":"Saurat","code_insee":"09280","departement":"Ariège","region":"Occitanie"}},{"type":"Feature","geometry":{"type":"Point","coordinates":[1.5099,42.9005]},"properties":{"latitude":"42.9005","longitude":"1.5099","bright_ti4":"295.19","scan":"0.66","track":"0.73","acq_date":"2026-08-17","acq_time":"43","satellite":"N21","instrument":"VIIRS","confidence":"n","version":"2.0NRT","bright_ti5":"281.23","frp":"2.26","daynight":"N","commune":"Saurat","code_insee":"09280","departement":"Ariège","region":"Occitanie"}},{"type":"Feature","geometry":{"type":"Point","coordinates":[1.51857,42.90717]},"properties":{"latitude":"42.90717","longitude":"1.51857","bright_ti4":"307.03","scan":"0.66","track":"0.73","acq_date":"2026-08-17","acq_time":"43","satellite":"N21","instrument":"VIIRS","confidence":"n","version":"2.0NRT","bright_ti5":"281.59","frp":"2.74","daynight":"N","commune":"Saurat","code_insee":"09280","departement":"Ariège","region":"Occitanie"}},{"type":"Feature","geometry":{"type":"Point","coordinates":[1.51144,42.90722]},"properties":{"latitude":"42.90722","longitude":"1.51144","bright_ti4":"297.62","scan":"0.66","track":"0.73","acq_date":"2026-08-17","acq_time":"43","satellite":"N21","instrument":"VIIRS","confidence":"n","version":"2.0NRT","bright_ti5":"280.92","frp":"2.77","daynight":"N","commune":"Brassac","code_insee":"09066","departement":"Ariège","region":"Occitanie"}},{"type":"Feature","geometry":{"type":"Point","coordinates":[4.8924,43.43978]},"properties":{"latitude":"43.43978","longitude":"4.8924","bright_ti4":"297.3","scan":"0.44","track":"0.62","acq_date":"2026-08-17","acq_time":"43","satellite":"N21","instrument":"VIIRS","confidence":"n","version":"2.0NRT","bright_ti5":"275.09","frp":"0.67","daynight":"N","commune":"Fos-sur-Mer","code_insee":"13039","departement":"Bouches-du-Rhône","region":"Provence-Alpes-Côte d'Azur"}},{"type":"Feature","geometry":{"type":"Point","coordinates":[4.88138,43.44014]},"properties":{"latitude":"43.44014","longitude":"4.88138","bright_ti4":"312.46","scan":"0.44","track":"0.62","acq_date":"2026-08-17","acq_time":"43","satellite":"N21","instrument":"VIIRS","confidence":"n","version":"2.0NRT","bright_ti5":"275.25","frp":"3.56","daynight":"N","commune":"Fos-sur-Mer","code_insee":"13039","departement":"Bouches-du-Rhône","region":"Provence-Alpes-Côte d'Azur"}},{"type":"Feature","geometry":{"type":"Point","coordinates":[4.87589,43.44032]},"properties":{"latitude":"43.44032","longitude":"4.87589","bright_ti4":"309.08","scan":"0.44","track":"0.63","acq_date":"2026-08-17","acq_time":"43","satellite":"N21","instrument":"VIIRS","confidence":"n","version":"2.0NRT","bright_ti5":"275.39","frp":"2.68","daynight":"N","commune":"Fos-sur-Mer","code_insee":"13039","departement":"Bouches-du-Rhône","region":"Provence-Alpes-Côte d'Azur"}},{"type":"Feature","geometry":{"type":"Point","coordinates":[4.89823,43.44536]},"properties":{"latitude":"43.44536","longitude":"4.89823","bright_ti4":"295.94","scan":"0.44","track":"0.62","acq_date":"2026-08-17","acq_time":"43","satellite":"N21","instrument":"VIIRS","confidence":"n","version":"2.0NRT","bright_ti5":"275.96","frp":"0.67","daynight":"N","commune":"Fos-sur-Mer","code_insee":"13039","departement":"Bouches-du-Rhône","region":"Provence-Alpes-Côte d'Azur"}},{"type":"Feature","geometry":{"type":"Point","coordinates":[7.37243,43.79387]},"properties":{"latitude":"43.79387","longitude":"7.37243","bright_ti4":"296.73","scan":"0.33","track":"0.55","acq_date":"2026-08-17","acq_time":"43","satellite":"N21","instrument":"VIIRS","confidence":"n","version":"2.0NRT","bright_ti5":"278.27","frp":"1","daynight":"N","commune":"Blausasc","code_insee":"06019","departement":"Alpes-Maritimes","region":"Provence-Alpes-Côte d'Azur"}},{"type":"Feature","geometry":{"type":"Point","coordinates":[4.84622,46.17223]},"properties":{"latitude":"46.17223","longitude":"4.84622","bright_ti4":"297.65","scan":"0.46","track":"0.64","acq_date":"2026-08-17","acq_time":"43","satellite":"N21","instrument":"VIIRS","confidence":"n","version":"2.0NRT","bright_ti5":"283.84","frp":"1.09","daynight":"N","commune":"Saint-Didier-sur-Chalaronne","code_insee":"01348","departement":"Ain","region":"Auvergne-Rhône-Alpes"}},{"type":"Feature","geometry":{"type":"Point","coordinates":[1.51899,42.90302]},"properties":{"latitude":"42.90302","longitude":"1.51899","bright_ti4":"322.7","scan":"0.45","track":"0.47","acq_date":"2026-08-17","acq_time":"224","satellite":"N21","instrument":"VIIRS","confidence":"n","version":"2.0NRT","bright_ti5":"287.34","frp":"3.68","daynight":"N","commune":"Saurat","code_insee":"09280","departement":"Ariège","region":"Occitanie"}},{"type":"Feature","geometry":{"type":"Point","coordinates":[4.88796,43.42821]},"properties":{"latitude":"43.42821","longitude":"4.88796","bright_ti4":"303.13","scan":"0.63","track":"0.54","acq_date":"2026-08-17","acq_time":"224","satellite":"N21","instrument":"VIIRS","confidence":"n","version":"2.0NRT","bright_ti5":"291.03","frp":"2.12","daynight":"N","commune":"Fos-sur-Mer","code_insee":"13039","departement":"Bouches-du-Rhône","region":"Provence-Alpes-Côte d'Azur"}},{"type":"Feature","geometry":{"type":"Point","coordinates":[4.89774,43.43095]},"properties":{"latitude":"43.43095","longitude":"4.89774","bright_ti4":"304.1","scan":"0.63","track":"0.54","acq_date":"2026-08-17","acq_time":"224","satellite":"N21","instrument":"VIIRS","confidence":"n","version":"2.0NRT","bright_ti5":"291.12","frp":"2.12","daynight":"N","commune":"Fos-sur-Mer","code_insee":"13039","departement":"Bouches-du-Rhône","region":"Provence-Alpes-Côte d'Azur"}},{"type":"Feature","geometry":{"type":"Point","coordinates":[4.883,43.43486]},"properties":{"latitude":"43.43486","longitude":"4.883","bright_ti4":"302.88","scan":"0.63","track":"0.54","acq_date":"2026-08-17","acq_time":"224","satellite":"N21","instrument":"VIIRS","confidence":"n","version":"2.0NRT","bright_ti5":"290.77","frp":"1.95","daynight":"N","commune":"Fos-sur-Mer","code_insee":"13039","departement":"Bouches-du-Rhône","region":"Provence-Alpes-Côte d'Azur"}},{"type":"Feature","geometry":{"type":"Point","coordinates":[4.89273,43.43761]},"properties":{"latitude":"43.43761","longitude":"4.89273","bright_ti4":"324.63","scan":"0.63","track":"0.54","acq_date":"2026-08-17","acq_time":"224","satellite":"N21","instrument":"VIIRS","confidence":"n","version":"2.0NRT","bright_ti5":"291.19","frp":"2.89","daynight":"N","commune":"Fos-sur-Mer","code_insee":"13039","departement":"Bouches-du-Rhône","region":"Provence-Alpes-Côte d'Azur"}},{"type":"Feature","geometry":{"type":"Point","coordinates":[4.87805,43.4415]},"properties":{"latitude":"43.4415","longitude":"4.87805","bright_ti4":"329.64","scan":"0.63","track":"0.54","acq_date":"2026-08-17","acq_time":"224","satellite":"N21","instrument":"VIIRS","confidence":"n","version":"2.0NRT","bright_ti5":"290.75","frp":"10.3","daynight":"N","commune":"Fos-sur-Mer","code_insee":"13039","departement":"Bouches-du-Rhône","region":"Provence-Alpes-Côte d'Azur"}},{"type":"Feature","geometry":{"type":"Point","coordinates":[4.89511,43.44231]},"properties":{"latitude":"43.44231","longitude":"4.89511","bright_ti4":"307.26","scan":"0.63","track":"0.54","acq_date":"2026-08-17","acq_time":"224","satellite":"N21","instrument":"VIIRS","confidence":"n","version":"2.0NRT","bright_ti5":"290.34","frp":"2.89","daynight":"N","commune":"Fos-sur-Mer","code_insee":"13039","departement":"Bouches-du-Rhône","region":"Provence-Alpes-Côte d'Azur"}},{"type":"Feature","geometry":{"type":"Point","coordinates":[-0.69546,44.05437]},"properties":{"latitude":"44.05437","longitude":"-0.69546","bright_ti4":"302.55","scan":"0.51","track":"0.41","acq_date":"2026-08-17","acq_time":"224","satellite":"N21","instrument":"VIIRS","confidence":"n","version":"2.0NRT","bright_ti5":"290.77","frp":"1.88","daynight":"N","commune":"Garein","code_insee":"40105","departement":"Landes","region":"Nouvelle-Aquitaine"}},{"type":"Feature","geometry":{"type":"Point","coordinates":[5.82253,45.91172]},"properties":{"latitude":"45.91172","longitude":"5.82253","bright_ti4":"297.27","scan":"0.6","track":"0.53","acq_date":"2026-08-17","acq_time":"224","satellite":"N21","instrument":"VIIRS","confidence":"n","version":"2.0NRT","bright_ti5":"279.66","frp":"1.13","daynight":"N","commune":"Anglefort","code_insee":"01010","departement":"Ain","region":"Auvergne-Rhône-Alpes"}},{"type":"Feature","geometry":{"type":"Point","coordinates":[-2.05648,47.3166]},"properties":{"latitude":"47.3166","longitude":"-2.05648","bright_ti4":"303.11","scan":"0.42","track":"0.37","acq_date":"2026-08-17","acq_time":"224","satellite":"N21","instrument":"VIIRS","confidence":"n","version":"2.0NRT","bright_ti5":"287.29","frp":"0.65","daynight":"N","commune":"Donges","code_insee":"44052","departement":"Loire-Atlantique","region":"Pays de la Loire"}},{"type":"Feature","geometry":{"type":"Point","coordinates":[2.26622,47.54306]},"properties":{"latitude":"47.54306","longitude":"2.26622","bright_ti4":"328.04","scan":"0.57","track":"0.43","acq_date":"2026-08-17","acq_time":"224","satellite":"N21","instrument":"VIIRS","confidence":"n","version":"2.0NRT","bright_ti5":"278.02","frp":"3.78","daynight":"N","commune":"Brinon-sur-Sauldre","code_insee":"18037","departement":"Cher","region":"Centre-Val de Loire"}},{"type":"Feature","geometry":{"type":"Point","coordinates":[2.26669,47.5438]},"properties":{"latitude":"47.5438","longitude":"2.26669","bright_ti4":"327.64","scan":"0.57","track":"0.43","acq_date":"2026-08-17","acq_time":"224","satellite":"N21","instrument":"VIIRS","confidence":"n","version":"2.0NRT","bright_ti5":"277.9","frp":"4.41","daynight":"N","commune":"Brinon-sur-Sauldre","code_insee":"18037","departement":"Cher","region":"Centre-Val de Loire"}},{"type":"Feature","geometry":{"type":"Point","coordinates":[2.25902,47.54469]},"properties":{"latitude":"47.54469","longitude":"2.25902","bright_ti4":"295.32","scan":"0.57","track":"0.43","acq_date":"2026-08-17","acq_time":"224","satellite":"N21","instrument":"VIIRS","confidence":"n","version":"2.0NRT","bright_ti5":"277.41","frp":"3.78","daynight":"N","commune":"Brinon-sur-Sauldre","code_insee":"18037","departement":"Cher","region":"Centre-Val de Loire"}},{"type":"Feature","geometry":{"type":"Point","coordinates":[2.25947,47.5454]},"properties":{"latitude":"47.5454","longitude":"2.25947","bright_ti4":"295.91","scan":"0.57","track":"0.43","acq_date":"2026-08-17","acq_time":"224","satellite":"N21","instrument":"VIIRS","confidence":"n","version":"2.0NRT","bright_ti5":"277.07","frp":"2.89","daynight":"N","commune":"Brinon-sur-Sauldre","code_insee":"18037","departement":"Cher","region":"Centre-Val de Loire"}},{"type":"Feature","geometry":{"type":"Point","coordinates":[4.89112,43.43706]},"properties":{"latitude":"43.43706","longitude":"4.89112","bright_ti4":"332.84","scan":"0.54","track":"0.42","acq_date":"2026-08-17","acq_time":"1208","satellite":"N21","instrument":"VIIRS","confidence":"n","version":"2.0NRT","bright_ti5":"297.8","frp":"7.67","daynight":"D","commune":"Fos-sur-Mer","code_insee":"13039","departement":"Bouches-du-Rhône","region":"Provence-Alpes-Côte d'Azur"}},{"type":"Feature","geometry":{"type":"Point","coordinates":[5.43103,47.63485]},"properties":{"latitude":"47.63485","longitude":"5.43103","bright_ti4":"338.11","scan":"0.44","track":"0.38","acq_date":"2026-08-17","acq_time":"1210","satellite":"N21","instrument":"VIIRS","confidence":"n","version":"2.0NRT","bright_ti5":"295.62","frp":"5.37","daynight":"D","commune":"Champlitte","code_insee":"70122","departement":"Haute-Saône","region":"Bourgogne-Franche-Comté"}},{"type":"Feature","geometry":{"type":"Point","coordinates":[5.43534,47.63936]},"properties":{"latitude":"47.63936","longitude":"5.43534","bright_ti4":"336.74","scan":"0.44","track":"0.38","acq_date":"2026-08-17","acq_time":"1210","satellite":"N21","instrument":"VIIRS","confidence":"n","version":"2.0NRT","bright_ti5":"295.41","frp":"6.46","daynight":"D","commune":"Champlitte","code_insee":"70122","departement":"Haute-Saône","region":"Bourgogne-Franche-Comté"}},{"type":"Feature","geometry":{"type":"Point","coordinates":[7.31292,48.08128]},"properties":{"latitude":"48.08128","longitude":"7.31292","bright_ti4":"343.74","scan":"0.4","track":"0.37","acq_date":"2026-08-17","acq_time":"1210","satellite":"N21","instrument":"VIIRS","confidence":"n","version":"2.0NRT","bright_ti5":"297.09","frp":"3.53","daynight":"D","commune":"Wintzenheim","code_insee":"68374","departement":"Haut-Rhin","region":"Grand Est"}},{"type":"Feature","geometry":{"type":"Point","coordinates":[7.31811,48.08218]},"properties":{"latitude":"48.08218","longitude":"7.31811","bright_ti4":"335.49","scan":"0.4","track":"0.37","acq_date":"2026-08-17","acq_time":"1210","satellite":"N21","instrument":"VIIRS","confidence":"n","version":"2.0NRT","bright_ti5":"297.01","frp":"3.53","daynight":"D","commune":"Wintzenheim","code_insee":"68374","departement":"Haut-Rhin","region":"Grand Est"}},{"type":"Feature","geometry":{"type":"Point","coordinates":[2.83284,42.61593]},"properties":{"latitude":"42.61593","longitude":"2.83284","bright_ti4":"349.38","scan":"0.4","track":"0.37","acq_date":"2026-08-17","acq_time":"1244","satellite":"N","instrument":"VIIRS","confidence":"n","version":"2.0NRT","bright_ti5":"302.29","frp":"3.11","daynight":"D","commune":"Trouillas","code_insee":"66217","departement":"Pyrénées-Orientales","region":"Occitanie"}},{"type":"Feature","geometry":{"type":"Point","coordinates":[2.83767,42.61678]},"properties":{"latitude":"42.61678","longitude":"2.83767","bright_ti4":"347.49","scan":"0.4","track":"0.37","acq_date":"2026-08-17","acq_time":"1244","satellite":"N","instrument":"VIIRS","confidence":"n","version":"2.0NRT","bright_ti5":"301.84","frp":"3.11","daynight":"D","commune":"Trouillas","code_insee":"66217","departement":"Pyrénées-Orientales","region":"Occitanie"}},{"type":"Feature","geometry":{"type":"Point","coordinates":[2.8425,42.61761]},"properties":{"latitude":"42.61761","longitude":"2.8425","bright_ti4":"353.68","scan":"0.4","track":"0.37","acq_date":"2026-08-17","acq_time":"1244","satellite":"N","instrument":"VIIRS","confidence":"n","version":"2.0NRT","bright_ti5":"301.87","frp":"3.02","daynight":"D","commune":"Ponteilla","code_insee":"66145","departement":"Pyrénées-Orientales","region":"Occitanie"}},{"type":"Feature","geometry":{"type":"Point","coordinates":[2.83177,42.61927]},"properties":{"latitude":"42.61927","longitude":"2.83177","bright_ti4":"345.89","scan":"0.4","track":"0.37","acq_date":"2026-08-17","acq_time":"1244","satellite":"N","instrument":"VIIRS","confidence":"n","version":"2.0NRT","bright_ti5":"300.56","frp":"2.53","daynight":"D","commune":"Trouillas","code_insee":"66217","departement":"Pyrénées-Orientales","region":"Occitanie"}},{"type":"Feature","geometry":{"type":"Point","coordinates":[2.8366,42.62011]},"properties":{"latitude":"42.62011","longitude":"2.8366","bright_ti4":"341.47","scan":"0.4","track":"0.37","acq_date":"2026-08-17","acq_time":"1244","satellite":"N","instrument":"VIIRS","confidence":"n","version":"2.0NRT","bright_ti5":"301.27","frp":"2.53","daynight":"D","commune":"Trouillas","code_insee":"66217","departement":"Pyrénées-Orientales","region":"Occitanie"}},{"type":"Feature","geometry":{"type":"Point","coordinates":[2.84143,42.62095]},"properties":{"latitude":"42.62095","longitude":"2.84143","bright_ti4":"335.82","scan":"0.4","track":"0.37","acq_date":"2026-08-17","acq_time":"1244","satellite":"N","instrument":"VIIRS","confidence":"n","version":"2.0NRT","bright_ti5":"301.58","frp":"1.79","daynight":"D","commune":"Trouillas","code_insee":"66217","departement":"Pyrénées-Orientales","region":"Occitanie"}},{"type":"Feature","geometry":{"type":"Point","coordinates":[4.89039,43.43561]},"properties":{"latitude":"43.43561","longitude":"4.89039","bright_ti4":"335.52","scan":"0.38","track":"0.36","acq_date":"2026-08-17","acq_time":"1244","satellite":"N","instrument":"VIIRS","confidence":"n","version":"2.0NRT","bright_ti5":"277.11","frp":"5.71","daynight":"D","commune":"Fos-sur-Mer","code_insee":"13039","departement":"Bouches-du-Rhône","region":"Provence-Alpes-Côte d'Azur"}},{"type":"Feature","geometry":{"type":"Point","coordinates":[4.87814,43.44403]},"properties":{"latitude":"43.44403","longitude":"4.87814","bright_ti4":"336.62","scan":"0.38","track":"0.36","acq_date":"2026-08-17","acq_time":"1244","satellite":"N","instrument":"VIIRS","confidence":"n","version":"2.0NRT","bright_ti5":"276.48","frp":"4.97","daynight":"D","commune":"Fos-sur-Mer","code_insee":"13039","departement":"Bouches-du-Rhône","region":"Provence-Alpes-Côte d'Azur"}},{"type":"Feature","geometry":{"type":"Point","coordinates":[1.50024,46.60503]},"properties":{"latitude":"46.60503","longitude":"1.50024","bright_ti4":"344.85","scan":"0.4","track":"0.37","acq_date":"2026-08-17","acq_time":"1246","satellite":"N","instrument":"VIIRS","confidence":"n","version":"2.0NRT","bright_ti5":"296.57","frp":"5.24","daynight":"D","commune":"Saint-Marcel","code_insee":"36200","departement":"Indre","region":"Centre-Val de Loire"}},{"type":"Feature","geometry":{"type":"Point","coordinates":[0.92336,46.85592]},"properties":{"latitude":"46.85592","longitude":"0.92336","bright_ti4":"340.99","scan":"0.4","track":"0.37","acq_date":"2026-08-17","acq_time":"1246","satellite":"N","instrument":"VIIRS","confidence":"n","version":"2.0NRT","bright_ti5":"298.22","frp":"3.45","daynight":"D","commune":"Preuilly-sur-Claise","code_insee":"37189","departement":"Indre-et-Loire","region":"Centre-Val de Loire"}},{"type":"Feature","geometry":{"type":"Point","coordinates":[0.99912,46.95767]},"properties":{"latitude":"46.95767","longitude":"0.99912","bright_ti4":"346.94","scan":"0.4","track":"0.37","acq_date":"2026-08-17","acq_time":"1246","satellite":"N","instrument":"VIIRS","confidence":"n","version":"2.0NRT","bright_ti5":"296.66","frp":"7.32","daynight":"D","commune":"Saint-Flovier","code_insee":"37218","departement":"Indre-et-Loire","region":"Centre-Val de Loire"}},{"type":"Feature","geometry":{"type":"Point","coordinates":[0.99662,46.96431]},"properties":{"latitude":"46.96431","longitude":"0.99662","bright_ti4":"336.45","scan":"0.4","track":"0.37","acq_date":"2026-08-17","acq_time":"1246","satellite":"N","instrument":"VIIRS","confidence":"n","version":"2.0NRT","bright_ti5":"297.72","frp":"2.12","daynight":"D","commune":"Saint-Flovier","code_insee":"37218","departement":"Indre-et-Loire","region":"Centre-Val de Loire"}},{"type":"Feature","geometry":{"type":"Point","coordinates":[1.62881,46.97749]},"properties":{"latitude":"46.97749","longitude":"1.62881","bright_ti4":"346.49","scan":"0.39","track":"0.36","acq_date":"2026-08-17","acq_time":"1246","satellite":"N","instrument":"VIIRS","confidence":"n","version":"2.0NRT","bright_ti5":"297.93","frp":"3.83","daynight":"D","commune":"Levroux","code_insee":"36093","departement":"Indre","region":"Centre-Val de Loire"}},{"type":"Feature","geometry":{"type":"Point","coordinates":[1.69059,47.27847]},"properties":{"latitude":"47.27847","longitude":"1.69059","bright_ti4":"338.51","scan":"0.39","track":"0.36","acq_date":"2026-08-17","acq_time":"1246","satellite":"N","instrument":"VIIRS","confidence":"n","version":"2.0NRT","bright_ti5":"300.19","frp":"3.19","daynight":"D","commune":"Gièvres","code_insee":"41097","departement":"Loir-et-Cher","region":"Centre-Val de Loire"}},{"type":"Feature","geometry":{"type":"Point","coordinates":[0.63577,47.2876]},"properties":{"latitude":"47.2876","longitude":"0.63577","bright_ti4":"347.47","scan":"0.41","track":"0.37","acq_date":"2026-08-17","acq_time":"1246","satellite":"N","instrument":"VIIRS","confidence":"n","version":"2.0NRT","bright_ti5":"300.32","frp":"3.95","daynight":"D","commune":"Monts","code_insee":"37159","departement":"Indre-et-Loire","region":"Centre-Val de Loire"}},{"type":"Feature","geometry":{"type":"Point","coordinates":[0.63976,47.29187]},"properties":{"latitude":"47.29187","longitude":"0.63976","bright_ti4":"346.63","scan":"0.41","track":"0.37","acq_date":"2026-08-17","acq_time":"1246","satellite":"N","instrument":"VIIRS","confidence":"n","version":"2.0NRT","bright_ti5":"300.56","frp":"7.72","daynight":"D","commune":"Monts","code_insee":"37159","departement":"Indre-et-Loire","region":"Centre-Val de Loire"}},{"type":"Feature","geometry":{"type":"Point","coordinates":[0.63849,47.29521]},"properties":{"latitude":"47.29521","longitude":"0.63849","bright_ti4":"340.22","scan":"0.41","track":"0.37","acq_date":"2026-08-17","acq_time":"1246","satellite":"N","instrument":"VIIRS","confidence":"n","version":"2.0NRT","bright_ti5":"301.04","frp":"7.72","daynight":"D","commune":"Monts","code_insee":"37159","departement":"Indre-et-Loire","region":"Centre-Val de Loire"}},{"type":"Feature","geometry":{"type":"Point","coordinates":[0.37636,47.32287]},"properties":{"latitude":"47.32287","longitude":"0.37636","bright_ti4":"337.17","scan":"0.41","track":"0.37","acq_date":"2026-08-17","acq_time":"1246","satellite":"N","instrument":"VIIRS","confidence":"n","version":"2.0NRT","bright_ti5":"299.56","frp":"7.2","daynight":"D","commune":"Langeais","code_insee":"37123","departement":"Indre-et-Loire","region":"Centre-Val de Loire"}},{"type":"Feature","geometry":{"type":"Point","coordinates":[1.03393,47.41415]},"properties":{"latitude":"47.41415","longitude":"1.03393","bright_ti4":"354.85","scan":"0.4","track":"0.37","acq_date":"2026-08-17","acq_time":"1246","satellite":"N","instrument":"VIIRS","confidence":"n","version":"2.0NRT","bright_ti5":"300.73","frp":"3.17","daynight":"D","commune":"Saint-Règle","code_insee":"37236","departement":"Indre-et-Loire","region":"Centre-Val de Loire"}},{"type":"Feature","geometry":{"type":"Point","coordinates":[0.29627,47.45056]},"properties":{"latitude":"47.45056","longitude":"0.29627","bright_ti4":"336.98","scan":"0.41","track":"0.37","acq_date":"2026-08-17","acq_time":"1246","satellite":"N","instrument":"VIIRS","confidence":"n","version":"2.0NRT","bright_ti5":"301.69","frp":"2.32","daynight":"D","commune":"Hommes","code_insee":"37117","departement":"Indre-et-Loire","region":"Centre-Val de Loire"}},{"type":"Feature","geometry":{"type":"Point","coordinates":[0.30161,47.45152]},"properties":{"latitude":"47.45152","longitude":"0.30161","bright_ti4":"336.36","scan":"0.41","track":"0.37","acq_date":"2026-08-17","acq_time":"1246","satellite":"N","instrument":"VIIRS","confidence":"n","version":"2.0NRT","bright_ti5":"304.97","frp":"2.32","daynight":"D","commune":"Savigné-sur-Lathan","code_insee":"37241","departement":"Indre-et-Loire","region":"Centre-Val de Loire"}},{"type":"Feature","geometry":{"type":"Point","coordinates":[0.46529,47.48452]},"properties":{"latitude":"47.48452","longitude":"0.46529","bright_ti4":"349.07","scan":"0.41","track":"0.37","acq_date":"2026-08-17","acq_time":"1246","satellite":"N","instrument":"VIIRS","confidence":"n","version":"2.0NRT","bright_ti5":"304.59","frp":"6.1","daynight":"D","commune":"Sonzay","code_insee":"37249","departement":"Indre-et-Loire","region":"Centre-Val de Loire"}},{"type":"Feature","geometry":{"type":"Point","coordinates":[0.58732,47.54893]},"properties":{"latitude":"47.54893","longitude":"0.58732","bright_ti4":"338.88","scan":"0.4","track":"0.37","acq_date":"2026-08-17","acq_time":"1246","satellite":"N","instrument":"VIIRS","confidence":"n","version":"2.0NRT","bright_ti5":"303.63","frp":"3.2","daynight":"D","commune":"Neuillé-Pont-Pierre","code_insee":"37167","departement":"Indre-et-Loire","region":"Centre-Val de Loire"}},{"type":"Feature","geometry":{"type":"Point","coordinates":[0.59659,47.55412]},"properties":{"latitude":"47.55412","longitude":"0.59659","bright_ti4":"343.65","scan":"0.4","track":"0.37","acq_date":"2026-08-17","acq_time":"1246","satellite":"N","instrument":"VIIRS","confidence":"n","version":"2.0NRT","bright_ti5":"303.21","frp":"1.69","daynight":"D","commune":"Neuillé-Pont-Pierre","code_insee":"37167","departement":"Indre-et-Loire","region":"Centre-Val de Loire"}},{"type":"Feature","geometry":{"type":"Point","coordinates":[1.1743,47.60181]},"properties":{"latitude":"47.60181","longitude":"1.1743","bright_ti4":"346.91","scan":"0.4","track":"0.37","acq_date":"2026-08-17","acq_time":"1246","satellite":"N","instrument":"VIIRS","confidence":"n","version":"2.0NRT","bright_ti5":"298.25","frp":"7.64","daynight":"D","commune":"Valencisse","code_insee":"41142","departement":"Loir-et-Cher","region":"Centre-Val de Loire"}},{"type":"Feature","geometry":{"type":"Point","coordinates":[0.12882,47.64448]},"properties":{"latitude":"47.64448","longitude":"0.12882","bright_ti4":"335.19","scan":"0.41","track":"0.37","acq_date":"2026-08-17","acq_time":"1246","satellite":"N","instrument":"VIIRS","confidence":"n","version":"2.0NRT","bright_ti5":"301.06","frp":"2.51","daynight":"D","commune":"Le Lude","code_insee":"72176","departement":"Sarthe","region":"Pays de la Loire"}},{"type":"Feature","geometry":{"type":"Point","coordinates":[0.13419,47.64545]},"properties":{"latitude":"47.64545","longitude":"0.13419","bright_ti4":"337.6","scan":"0.41","track":"0.37","acq_date":"2026-08-17","acq_time":"1246","satellite":"N","instrument":"VIIRS","confidence":"n","version":"2.0NRT","bright_ti5":"301.2","frp":"5.55","daynight":"D","commune":"Le Lude","code_insee":"72176","departement":"Sarthe","region":"Pays de la Loire"}},{"type":"Feature","geometry":{"type":"Point","coordinates":[1.05072,47.87901]},"properties":{"latitude":"47.87901","longitude":"1.05072","bright_ti4":"349.34","scan":"0.4","track":"0.37","acq_date":"2026-08-17","acq_time":"1246","satellite":"N","instrument":"VIIRS","confidence":"n","version":"2.0NRT","bright_ti5":"297.04","frp":"7.6","daynight":"D","commune":"Danzé","code_insee":"41073","departement":"Loir-et-Cher","region":"Centre-Val de Loire"}},{"type":"Feature","geometry":{"type":"Point","coordinates":[2.07458,47.91414]},"properties":{"latitude":"47.91414","longitude":"2.07458","bright_ti4":"351.16","scan":"0.39","track":"0.36","acq_date":"2026-08-17","acq_time":"1246","satellite":"N","instrument":"VIIRS","confidence":"n","version":"2.0NRT","bright_ti5":"296.55","frp":"6.03","daynight":"D","commune":"Donnery","code_insee":"45126","departement":"Loiret","region":"Centre-Val de Loire"}},{"type":"Feature","geometry":{"type":"Point","coordinates":[2.0734,47.91741]},"properties":{"latitude":"47.91741","longitude":"2.0734","bright_ti4":"337.01","scan":"0.39","track":"0.36","acq_date":"2026-08-17","acq_time":"1246","satellite":"N","instrument":"VIIRS","confidence":"n","version":"2.0NRT","bright_ti5":"296.43","frp":"6.03","daynight":"D","commune":"Donnery","code_insee":"45126","departement":"Loiret","region":"Centre-Val de Loire"}},{"type":"Feature","geometry":{"type":"Point","coordinates":[0.27904,48.00289]},"properties":{"latitude":"48.00289","longitude":"0.27904","bright_ti4":"346.13","scan":"0.41","track":"0.37","acq_date":"2026-08-17","acq_time":"1246","satellite":"N","instrument":"VIIRS","confidence":"n","version":"2.0NRT","bright_ti5":"299.54","frp":"4.11","daynight":"D","commune":"Yvré-l'Évêque","code_insee":"72386","departement":"Sarthe","region":"Pays de la Loire"}},{"type":"Feature","geometry":{"type":"Point","coordinates":[0.28438,48.00385]},"properties":{"latitude":"48.00385","longitude":"0.28438","bright_ti4":"351.93","scan":"0.41","track":"0.37","acq_date":"2026-08-17","acq_time":"1246","satellite":"N","instrument":"VIIRS","confidence":"n","version":"2.0NRT","bright_ti5":"301.04","frp":"4.11","daynight":"D","commune":"Yvré-l'Évêque","code_insee":"72386","departement":"Sarthe","region":"Pays de la Loire"}},{"type":"Feature","geometry":{"type":"Point","coordinates":[0.27771,48.00622]},"properties":{"latitude":"48.00622","longitude":"0.27771","bright_ti4":"335.43","scan":"0.41","track":"0.37","acq_date":"2026-08-17","acq_time":"1246","satellite":"N","instrument":"VIIRS","confidence":"n","version":"2.0NRT","bright_ti5":"298.67","frp":"3.47","daynight":"D","commune":"Yvré-l'Évêque","code_insee":"72386","departement":"Sarthe","region":"Pays de la Loire"}},{"type":"Feature","geometry":{"type":"Point","coordinates":[0.28306,48.00718]},"properties":{"latitude":"48.00718","longitude":"0.28306","bright_ti4":"347.99","scan":"0.41","track":"0.37","acq_date":"2026-08-17","acq_time":"1246","satellite":"N","instrument":"VIIRS","confidence":"n","version":"2.0NRT","bright_ti5":"301.31","frp":"3.47","daynight":"D","commune":"Yvré-l'Évêque","code_insee":"72386","departement":"Sarthe","region":"Pays de la Loire"}},{"type":"Feature","geometry":{"type":"Point","coordinates":[0.39631,48.03799]},"properties":{"latitude":"48.03799","longitude":"0.39631","bright_ti4":"341.35","scan":"0.4","track":"0.37","acq_date":"2026-08-17","acq_time":"1246","satellite":"N","instrument":"VIIRS","confidence":"n","version":"2.0NRT","bright_ti5":"300.33","frp":"3.25","daynight":"D","commune":"Saint-Mars-la-Brière","code_insee":"72300","departement":"Sarthe","region":"Pays de la Loire"}},{"type":"Feature","geometry":{"type":"Point","coordinates":[-0.64183,48.06999]},"properties":{"latitude":"48.06999","longitude":"-0.64183","bright_ti4":"340.12","scan":"0.42","track":"0.38","acq_date":"2026-08-17","acq_time":"1246","satellite":"N","instrument":"VIIRS","confidence":"n","version":"2.0NRT","bright_ti5":"297.53","frp":"3.01","daynight":"D","commune":"Argentré","code_insee":"53007","departement":"Mayenne","region":"Pays de la Loire"}},{"type":"Feature","geometry":{"type":"Point","coordinates":[-0.64325,48.07338]},"properties":{"latitude":"48.07338","longitude":"-0.64325","bright_ti4":"337.66","scan":"0.42","track":"0.38","acq_date":"2026-08-17","acq_time":"1246","satellite":"N","instrument":"VIIRS","confidence":"n","version":"2.0NRT","bright_ti5":"298.98","frp":"1.99","daynight":"D","commune":"Argentré","code_insee":"53007","departement":"Mayenne","region":"Pays de la Loire"}},{"type":"Feature","geometry":{"type":"Point","coordinates":[-0.63765,48.07442]},"properties":{"latitude":"48.07442","longitude":"-0.63765","bright_ti4":"335.72","scan":"0.42","track":"0.38","acq_date":"2026-08-17","acq_time":"1246","satellite":"N","instrument":"VIIRS","confidence":"n","version":"2.0NRT","bright_ti5":"295.91","frp":"1.99","daynight":"D","commune":"Argentré","code_insee":"53007","departement":"Mayenne","region":"Pays de la Loire"}},{"type":"Feature","geometry":{"type":"Point","coordinates":[2.22217,48.65921]},"properties":{"latitude":"48.65921","longitude":"2.22217","bright_ti4":"334.54","scan":"0.38","track":"0.36","acq_date":"2026-08-17","acq_time":"1246","satellite":"N","instrument":"VIIRS","confidence":"n","version":"2.0NRT","bright_ti5":"301.15","frp":"2.34","daynight":"D","commune":"Nozay","code_insee":"91458","departement":"Essonne","region":"Île-de-France"}},{"type":"Feature","geometry":{"type":"Point","coordinates":[4.88428,43.43907]},"properties":{"latitude":"43.43907","longitude":"4.88428","bright_ti4":"331.67","scan":"0.57","track":"0.43","acq_date":"2026-08-17","acq_time":"1304","satellite":"N20","instrument":"VIIRS","confidence":"n","version":"2.0NRT","bright_ti5":"286.27","frp":"9.03","daynight":"D","commune":"Fos-sur-Mer","code_insee":"13039","departement":"Bouches-du-Rhône","region":"Provence-Alpes-Côte d'Azur"}},{"type":"Feature","geometry":{"type":"Point","coordinates":[4.88358,43.44306]},"properties":{"latitude":"43.44306","longitude":"4.88358","bright_ti4":"333.46","scan":"0.57","track":"0.43","acq_date":"2026-08-17","acq_time":"1304","satellite":"N20","instrument":"VIIRS","confidence":"n","version":"2.0NRT","bright_ti5":"287.06","frp":"6.55","daynight":"D","commune":"Fos-sur-Mer","code_insee":"13039","departement":"Bouches-du-Rhône","region":"Provence-Alpes-Côte d'Azur"}},{"type":"Feature","geometry":{"type":"Point","coordinates":[4.90132,43.44478]},"properties":{"latitude":"43.44478","longitude":"4.90132","bright_ti4":"329.35","scan":"0.38","track":"0.43","acq_date":"2026-08-17","acq_time":"1304","satellite":"N20","instrument":"VIIRS","confidence":"n","version":"2.0NRT","bright_ti5":"287.57","frp":"3.66","daynight":"D","commune":"Fos-sur-Mer","code_insee":"13039","departement":"Bouches-du-Rhône","region":"Provence-Alpes-Côte d'Azur"}},{"type":"Feature","geometry":{"type":"Point","coordinates":[0.77631,46.80259]},"properties":{"latitude":"46.80259","longitude":"0.77631","bright_ti4":"333.9","scan":"0.44","track":"0.38","acq_date":"2026-08-17","acq_time":"1304","satellite":"N20","instrument":"VIIRS","confidence":"n","version":"2.0NRT","bright_ti5":"294.89","frp":"4.07","daynight":"D","commune":"La Roche-Posay","code_insee":"86207","departement":"Vienne","region":"Nouvelle-Aquitaine"}},{"type":"Feature","geometry":{"type":"Point","coordinates":[0.7731,46.8067]},"properties":{"latitude":"46.8067","longitude":"0.7731","bright_ti4":"346.17","scan":"0.53","track":"0.67","acq_date":"2026-08-17","acq_time":"1350","satellite":"N21","instrument":"VIIRS","confidence":"n","version":"2.0NRT","bright_ti5":"284.99","frp":"8","daynight":"D","commune":"Coussay-les-Bois","code_insee":"86086","departement":"Vienne","region":"Nouvelle-Aquitaine"}}]}