{"type":"FeatureCollection","features":[{"type":"Feature","geometry":{"type":"Point","coordinates":[5.78507,48.67194]},"properties":{"latitude":"48.67194","longitude":"5.78507","bright_ti4":"301.24","scan":"0.4","track":"0.37","acq_date":"2026-06-17","acq_time":"200","satellite":"N","instrument":"VIIRS","confidence":"n","version":"2.0NRT","bright_ti5":"283.51","frp":"0.78","daynight":"N","commune":"Foug","code_insee":"54205","departement":"Meurthe-et-Moselle","region":"Grand Est"}},{"type":"Feature","geometry":{"type":"Point","coordinates":[5.78645,48.67526]},"properties":{"latitude":"48.67526","longitude":"5.78645","bright_ti4":"321.3","scan":"0.4","track":"0.37","acq_date":"2026-06-17","acq_time":"200","satellite":"N","instrument":"VIIRS","confidence":"n","version":"2.0NRT","bright_ti5":"283.97","frp":"0.78","daynight":"N","commune":"Foug","code_insee":"54205","departement":"Meurthe-et-Moselle","region":"Grand Est"}},{"type":"Feature","geometry":{"type":"Point","coordinates":[6.0564,48.88631]},"properties":{"latitude":"48.88631","longitude":"6.0564","bright_ti4":"300.91","scan":"0.41","track":"0.37","acq_date":"2026-06-17","acq_time":"200","satellite":"N","instrument":"VIIRS","confidence":"n","version":"2.0NRT","bright_ti5":"286.89","frp":"0.59","daynight":"N","commune":"Blénod-lès-Pont-à-Mousson","code_insee":"54079","departement":"Meurthe-et-Moselle","region":"Grand Est"}},{"type":"Feature","geometry":{"type":"Point","coordinates":[3.5608,50.40144]},"properties":{"latitude":"50.40144","longitude":"3.5608","bright_ti4":"298.19","scan":"0.39","track":"0.36","acq_date":"2026-06-17","acq_time":"200","satellite":"N","instrument":"VIIRS","confidence":"n","version":"2.0NRT","bright_ti5":"284.61","frp":"0.75","daynight":"N","commune":"Saint-Saulve","code_insee":"59544","departement":"Nord","region":"Hauts-de-France"}},{"type":"Feature","geometry":{"type":"Point","coordinates":[5.01253,43.37894]},"properties":{"latitude":"43.37894","longitude":"5.01253","bright_ti4":"313.53","scan":"0.44","track":"0.38","acq_date":"2026-06-17","acq_time":"202","satellite":"N","instrument":"VIIRS","confidence":"n","version":"2.0NRT","bright_ti5":"291.45","frp":"2.08","daynight":"N","commune":"Martigues","code_insee":"13056","departement":"Bouches-du-Rhône","region":"Provence-Alpes-Côte d'Azur"}},{"type":"Feature","geometry":{"type":"Point","coordinates":[4.89302,43.43478]},"properties":{"latitude":"43.43478","longitude":"4.89302","bright_ti4":"309.99","scan":"0.44","track":"0.38","acq_date":"2026-06-17","acq_time":"202","satellite":"N","instrument":"VIIRS","confidence":"n","version":"2.0NRT","bright_ti5":"290.6","frp":"2.11","daynight":"N","commune":"Fos-sur-Mer","code_insee":"13039","departement":"Bouches-du-Rhône","region":"Provence-Alpes-Côte d'Azur"}},{"type":"Feature","geometry":{"type":"Point","coordinates":[4.89674,43.44512]},"properties":{"latitude":"43.44512","longitude":"4.89674","bright_ti4":"327.49","scan":"0.44","track":"0.38","acq_date":"2026-06-17","acq_time":"202","satellite":"N","instrument":"VIIRS","confidence":"n","version":"2.0NRT","bright_ti5":"291.46","frp":"2.93","daynight":"N","commune":"Fos-sur-Mer","code_insee":"13039","departement":"Bouches-du-Rhône","region":"Provence-Alpes-Côte d'Azur"}},{"type":"Feature","geometry":{"type":"Point","coordinates":[4.89799,43.44857]},"properties":{"latitude":"43.44857","longitude":"4.89799","bright_ti4":"328.97","scan":"0.44","track":"0.38","acq_date":"2026-06-17","acq_time":"202","satellite":"N","instrument":"VIIRS","confidence":"n","version":"2.0NRT","bright_ti5":"291.45","frp":"2.93","daynight":"N","commune":"Fos-sur-Mer","code_insee":"13039","departement":"Bouches-du-Rhône","region":"Provence-Alpes-Côte d'Azur"}},{"type":"Feature","geometry":{"type":"Point","coordinates":[4.74279,43.80135]},"properties":{"latitude":"43.80135","longitude":"4.74279","bright_ti4":"332.41","scan":"0.43","track":"0.38","acq_date":"2026-06-17","acq_time":"202","satellite":"N","instrument":"VIIRS","confidence":"n","version":"2.0NRT","bright_ti5":"287.03","frp":"3.5","daynight":"N","commune":"Saint-Étienne-du-Grès","code_insee":"13094","departement":"Bouches-du-Rhône","region":"Provence-Alpes-Côte d'Azur"}},{"type":"Feature","geometry":{"type":"Point","coordinates":[5.66545,45.23238]},"properties":{"latitude":"45.23238","longitude":"5.66545","bright_ti4":"302.38","scan":"0.43","track":"0.38","acq_date":"2026-06-17","acq_time":"202","satellite":"N","instrument":"VIIRS","confidence":"n","version":"2.0NRT","bright_ti5":"289.36","frp":"0.76","daynight":"N","commune":"Saint-Égrève","code_insee":"38382","departement":"Isère","region":"Auvergne-Rhône-Alpes"}},{"type":"Feature","geometry":{"type":"Point","coordinates":[-0.13976,46.8084]},"properties":{"latitude":"46.8084","longitude":"-0.13976","bright_ti4":"303.15","scan":"0.41","track":"0.37","acq_date":"2026-06-17","acq_time":"202","satellite":"N","instrument":"VIIRS","confidence":"n","version":"2.0NRT","bright_ti5":"288.65","frp":"0.78","daynight":"N","commune":"Airvault","code_insee":"79005","departement":"Deux-Sèvres","region":"Nouvelle-Aquitaine"}},{"type":"Feature","geometry":{"type":"Point","coordinates":[5.55029,47.13433]},"properties":{"latitude":"47.13433","longitude":"5.55029","bright_ti4":"296.3","scan":"0.41","track":"0.37","acq_date":"2026-06-17","acq_time":"202","satellite":"N","instrument":"VIIRS","confidence":"n","version":"2.0NRT","bright_ti5":"286.08","frp":"0.36","daynight":"N","commune":"Rochefort-sur-Nenon","code_insee":"39462","departement":"Jura","region":"Bourgogne-Franche-Comté"}},{"type":"Feature","geometry":{"type":"Point","coordinates":[7.2372,47.63083]},"properties":{"latitude":"47.63083","longitude":"7.2372","bright_ti4":"297.09","scan":"0.45","track":"0.39","acq_date":"2026-06-17","acq_time":"202","satellite":"N","instrument":"VIIRS","confidence":"n","version":"2.0NRT","bright_ti5":"286.86","frp":"0.6","daynight":"N","commune":"Altkirch","code_insee":"68004","departement":"Haut-Rhin","region":"Grand Est"}},{"type":"Feature","geometry":{"type":"Point","coordinates":[-1.03975,48.10759]},"properties":{"latitude":"48.10759","longitude":"-1.03975","bright_ti4":"300.46","scan":"0.44","track":"0.39","acq_date":"2026-06-17","acq_time":"202","satellite":"N","instrument":"VIIRS","confidence":"n","version":"2.0NRT","bright_ti5":"286.42","frp":"0.79","daynight":"N","commune":"Saint-Pierre-la-Cour","code_insee":"53247","departement":"Mayenne","region":"Pays de la Loire"}},{"type":"Feature","geometry":{"type":"Point","coordinates":[6.1097,48.56316]},"properties":{"latitude":"48.56316","longitude":"6.1097","bright_ti4":"299.47","scan":"0.41","track":"0.37","acq_date":"2026-06-17","acq_time":"202","satellite":"N","instrument":"VIIRS","confidence":"n","version":"2.0NRT","bright_ti5":"286.59","frp":"0.71","daynight":"N","commune":"Xeuilley","code_insee":"54596","departement":"Meurthe-et-Moselle","region":"Grand Est"}},{"type":"Feature","geometry":{"type":"Point","coordinates":[4.56487,48.76932]},"properties":{"latitude":"48.76932","longitude":"4.56487","bright_ti4":"304.4","scan":"0.39","track":"0.36","acq_date":"2026-06-17","acq_time":"202","satellite":"N","instrument":"VIIRS","confidence":"n","version":"2.0NRT","bright_ti5":"287.48","frp":"0.77","daynight":"N","commune":"Couvrot","code_insee":"51195","departement":"Marne","region":"Grand Est"}},{"type":"Feature","geometry":{"type":"Point","coordinates":[1.75809,48.98129]},"properties":{"latitude":"48.98129","longitude":"1.75809","bright_ti4":"296.17","scan":"0.39","track":"0.37","acq_date":"2026-06-17","acq_time":"202","satellite":"N","instrument":"VIIRS","confidence":"n","version":"2.0NRT","bright_ti5":"282.17","frp":"2","daynight":"N","commune":"Porcheville","code_insee":"78501","departement":"Yvelines","region":"Île-de-France"}},{"type":"Feature","geometry":{"type":"Point","coordinates":[1.7592,48.98462]},"properties":{"latitude":"48.98462","longitude":"1.7592","bright_ti4":"335.51","scan":"0.39","track":"0.37","acq_date":"2026-06-17","acq_time":"202","satellite":"N","instrument":"VIIRS","confidence":"n","version":"2.0NRT","bright_ti5":"286.81","frp":"2","daynight":"N","commune":"Porcheville","code_insee":"78501","departement":"Yvelines","region":"Île-de-France"}},{"type":"Feature","geometry":{"type":"Point","coordinates":[4.90289,43.44266]},"properties":{"latitude":"43.44266","longitude":"4.90289","bright_ti4":"331.23","scan":"0.4","track":"0.6","acq_date":"2026-06-17","acq_time":"1147","satellite":"N","instrument":"VIIRS","confidence":"n","version":"2.0NRT","bright_ti5":"300.79","frp":"3.12","daynight":"D","commune":"Fos-sur-Mer","code_insee":"13039","departement":"Bouches-du-Rhône","region":"Provence-Alpes-Côte d'Azur"}},{"type":"Feature","geometry":{"type":"Point","coordinates":[0.04325,43.54782]},"properties":{"latitude":"43.54782","longitude":"0.04325","bright_ti4":"332","scan":"0.66","track":"0.73","acq_date":"2026-06-17","acq_time":"1147","satellite":"N","instrument":"VIIRS","confidence":"n","version":"2.0NRT","bright_ti5":"293.9","frp":"3.94","daynight":"D","commune":"Tieste-Uragnoux","code_insee":"32445","departement":"Gers","region":"Occitanie"}},{"type":"Feature","geometry":{"type":"Point","coordinates":[4.06748,46.60554]},"properties":{"latitude":"46.60554","longitude":"4.06748","bright_ti4":"338.02","scan":"0.36","track":"0.57","acq_date":"2026-06-17","acq_time":"1149","satellite":"N","instrument":"VIIRS","confidence":"n","version":"2.0NRT","bright_ti5":"303.97","frp":"2.28","daynight":"D","commune":"Gueugnon","code_insee":"71230","departement":"Saône-et-Loire","region":"Bourgogne-Franche-Comté"}},{"type":"Feature","geometry":{"type":"Point","coordinates":[2.58944,42.82821]},"properties":{"latitude":"42.82821","longitude":"2.58944","bright_ti4":"339.16","scan":"0.49","track":"0.49","acq_date":"2026-06-17","acq_time":"1325","satellite":"N","instrument":"VIIRS","confidence":"n","version":"2.0NRT","bright_ti5":"305.16","frp":"4.01","daynight":"D","commune":"Maury","code_insee":"66107","departement":"Pyrénées-Orientales","region":"Occitanie"}},{"type":"Feature","geometry":{"type":"Point","coordinates":[4.90061,43.4431]},"properties":{"latitude":"43.4431","longitude":"4.90061","bright_ti4":"332.05","scan":"0.33","track":"0.55","acq_date":"2026-06-17","acq_time":"1325","satellite":"N","instrument":"VIIRS","confidence":"l","version":"2.0NRT","bright_ti5":"302.91","frp":"3.98","daynight":"D","commune":"Fos-sur-Mer","code_insee":"13039","departement":"Bouches-du-Rhône","region":"Provence-Alpes-Côte d'Azur"}},{"type":"Feature","geometry":{"type":"Point","coordinates":[5.20001,43.59093]},"properties":{"latitude":"43.59093","longitude":"5.20001","bright_ti4":"349.47","scan":"0.34","track":"0.56","acq_date":"2026-06-17","acq_time":"1325","satellite":"N","instrument":"VIIRS","confidence":"n","version":"2.0NRT","bright_ti5":"306.24","frp":"14.94","daynight":"D","commune":"Lançon-Provence","code_insee":"13051","departement":"Bouches-du-Rhône","region":"Provence-Alpes-Côte d'Azur"}},{"type":"Feature","geometry":{"type":"Point","coordinates":[5.20416,43.59114]},"properties":{"latitude":"43.59114","longitude":"5.20416","bright_ti4":"367","scan":"0.34","track":"0.56","acq_date":"2026-06-17","acq_time":"1325","satellite":"N","instrument":"VIIRS","confidence":"h","version":"2.0NRT","bright_ti5":"304.21","frp":"14.94","daynight":"D","commune":"Lançon-Provence","code_insee":"13051","departement":"Bouches-du-Rhône","region":"Provence-Alpes-Côte d'Azur"}},{"type":"Feature","geometry":{"type":"Point","coordinates":[-1.41378,43.63696]},"properties":{"latitude":"43.63696","longitude":"-1.41378","bright_ti4":"334.69","scan":"0.5","track":"0.41","acq_date":"2026-06-17","acq_time":"1325","satellite":"N","instrument":"VIIRS","confidence":"n","version":"2.0NRT","bright_ti5":"297.75","frp":"12.75","daynight":"D","commune":"Capbreton","code_insee":"40065","departement":"Landes","region":"Nouvelle-Aquitaine"}},{"type":"Feature","geometry":{"type":"Point","coordinates":[4.69859,44.38716]},"properties":{"latitude":"44.38716","longitude":"4.69859","bright_ti4":"341.46","scan":"0.32","track":"0.55","acq_date":"2026-06-17","acq_time":"1325","satellite":"N","instrument":"VIIRS","confidence":"n","version":"2.0NRT","bright_ti5":"304.22","frp":"1.15","daynight":"D","commune":"Pierrelatte","code_insee":"26235","departement":"Drôme","region":"Auvergne-Rhône-Alpes"}},{"type":"Feature","geometry":{"type":"Point","coordinates":[4.70083,44.38947]},"properties":{"latitude":"44.38947","longitude":"4.70083","bright_ti4":"336.02","scan":"0.33","track":"0.55","acq_date":"2026-06-17","acq_time":"1325","satellite":"N","instrument":"VIIRS","confidence":"n","version":"2.0NRT","bright_ti5":"304.5","frp":"2.63","daynight":"D","commune":"Pierrelatte","code_insee":"26235","departement":"Drôme","region":"Auvergne-Rhône-Alpes"}},{"type":"Feature","geometry":{"type":"Point","coordinates":[3.40697,45.27127]},"properties":{"latitude":"45.27127","longitude":"3.40697","bright_ti4":"343.14","scan":"0.57","track":"0.52","acq_date":"2026-06-17","acq_time":"1327","satellite":"N","instrument":"VIIRS","confidence":"n","version":"2.0NRT","bright_ti5":"301.61","frp":"8.12","daynight":"D","commune":"Vieille-Brioude","code_insee":"43262","departement":"Haute-Loire","region":"Auvergne-Rhône-Alpes"}},{"type":"Feature","geometry":{"type":"Point","coordinates":[-0.88055,45.33295]},"properties":{"latitude":"45.33295","longitude":"-0.88055","bright_ti4":"332.99","scan":"0.55","track":"0.42","acq_date":"2026-06-17","acq_time":"1327","satellite":"N","instrument":"VIIRS","confidence":"n","version":"2.0NRT","bright_ti5":"304.56","frp":"3.48","daynight":"D","commune":"Civrac-en-Médoc","code_insee":"33128","departement":"Gironde","region":"Nouvelle-Aquitaine"}},{"type":"Feature","geometry":{"type":"Point","coordinates":[-0.88104,45.33559]},"properties":{"latitude":"45.33559","longitude":"-0.88104","bright_ti4":"334.26","scan":"0.55","track":"0.42","acq_date":"2026-06-17","acq_time":"1327","satellite":"N","instrument":"VIIRS","confidence":"n","version":"2.0NRT","bright_ti5":"304.31","frp":"5.09","daynight":"D","commune":"Civrac-en-Médoc","code_insee":"33128","departement":"Gironde","region":"Nouvelle-Aquitaine"}},{"type":"Feature","geometry":{"type":"Point","coordinates":[0.20261,46.27937]},"properties":{"latitude":"46.27937","longitude":"0.20261","bright_ti4":"333","scan":"0.42","track":"0.45","acq_date":"2026-06-17","acq_time":"1327","satellite":"N","instrument":"VIIRS","confidence":"n","version":"2.0NRT","bright_ti5":"301.6","frp":"3.46","daynight":"D","commune":"Valence-en-Poitou","code_insee":"86082","departement":"Vienne","region":"Nouvelle-Aquitaine"}},{"type":"Feature","geometry":{"type":"Point","coordinates":[0.2019,46.28354]},"properties":{"latitude":"46.28354","longitude":"0.2019","bright_ti4":"343","scan":"0.42","track":"0.45","acq_date":"2026-06-17","acq_time":"1327","satellite":"N","instrument":"VIIRS","confidence":"n","version":"2.0NRT","bright_ti5":"301.15","frp":"5","daynight":"D","commune":"Valence-en-Poitou","code_insee":"86082","departement":"Vienne","region":"Nouvelle-Aquitaine"}},{"type":"Feature","geometry":{"type":"Point","coordinates":[-0.72032,47.10916]},"properties":{"latitude":"47.10916","longitude":"-0.72032","bright_ti4":"333.73","scan":"0.39","track":"0.44","acq_date":"2026-06-17","acq_time":"1327","satellite":"N","instrument":"VIIRS","confidence":"n","version":"2.0NRT","bright_ti5":"303.65","frp":"3.4","daynight":"D","commune":"Vezins","code_insee":"49371","departement":"Maine-et-Loire","region":"Pays de la Loire"}},{"type":"Feature","geometry":{"type":"Point","coordinates":[-4.1342,47.97229]},"properties":{"latitude":"47.97229","longitude":"-4.1342","bright_ti4":"335.82","scan":"0.45","track":"0.39","acq_date":"2026-06-17","acq_time":"1327","satellite":"N","instrument":"VIIRS","confidence":"n","version":"2.0NRT","bright_ti5":"298.44","frp":"2.27","daynight":"D","commune":"Pluguffan","code_insee":"29216","departement":"Finistère","region":"Bretagne"}},{"type":"Feature","geometry":{"type":"Point","coordinates":[2.42623,48.9019]},"properties":{"latitude":"48.9019","longitude":"2.42623","bright_ti4":"339.83","scan":"0.56","track":"0.51","acq_date":"2026-06-17","acq_time":"1327","satellite":"N","instrument":"VIIRS","confidence":"n","version":"2.0NRT","bright_ti5":"303.46","frp":"4.51","daynight":"D","commune":"Bobigny","code_insee":"93008","departement":"Seine-Saint-Denis","region":"Île-de-France"}},{"type":"Feature","geometry":{"type":"Point","coordinates":[1.76461,48.98207]},"properties":{"latitude":"48.98207","longitude":"1.76461","bright_ti4":"332.17","scan":"0.52","track":"0.5","acq_date":"2026-06-17","acq_time":"1327","satellite":"N","instrument":"VIIRS","confidence":"n","version":"2.0NRT","bright_ti5":"300.68","frp":"2.75","daynight":"D","commune":"Porcheville","code_insee":"78501","departement":"Yvelines","region":"Île-de-France"}},{"type":"Feature","geometry":{"type":"Point","coordinates":[2.26744,51.02995]},"properties":{"latitude":"51.02995","longitude":"2.26744","bright_ti4":"300.34","scan":"0.74","track":"0.76","acq_date":"2026-06-17","acq_time":"37","satellite":"N20","instrument":"VIIRS","confidence":"n","version":"2.0NRT","bright_ti5":"278.54","frp":"4.57","daynight":"N","commune":"Grande-Synthe","code_insee":"59271","departement":"Nord","region":"Hauts-de-France"}},{"type":"Feature","geometry":{"type":"Point","coordinates":[5.00643,43.37852]},"properties":{"latitude":"43.37852","longitude":"5.00643","bright_ti4":"313.34","scan":"0.53","track":"0.67","acq_date":"2026-06-17","acq_time":"39","satellite":"N20","instrument":"VIIRS","confidence":"n","version":"2.0NRT","bright_ti5":"287.84","frp":"1.81","daynight":"N","commune":"Martigues","code_insee":"13056","departement":"Bouches-du-Rhône","region":"Provence-Alpes-Côte d'Azur"}},{"type":"Feature","geometry":{"type":"Point","coordinates":[4.89573,43.43705]},"properties":{"latitude":"43.43705","longitude":"4.89573","bright_ti4":"299.05","scan":"0.53","track":"0.67","acq_date":"2026-06-17","acq_time":"39","satellite":"N20","instrument":"VIIRS","confidence":"n","version":"2.0NRT","bright_ti5":"288.88","frp":"2.03","daynight":"N","commune":"Fos-sur-Mer","code_insee":"13039","departement":"Bouches-du-Rhône","region":"Provence-Alpes-Côte d'Azur"}},{"type":"Feature","geometry":{"type":"Point","coordinates":[4.8774,43.4409]},"properties":{"latitude":"43.4409","longitude":"4.8774","bright_ti4":"302.82","scan":"0.53","track":"0.67","acq_date":"2026-06-17","acq_time":"39","satellite":"N20","instrument":"VIIRS","confidence":"n","version":"2.0NRT","bright_ti5":"288.34","frp":"1.68","daynight":"N","commune":"Fos-sur-Mer","code_insee":"13039","departement":"Bouches-du-Rhône","region":"Provence-Alpes-Côte d'Azur"}},{"type":"Feature","geometry":{"type":"Point","coordinates":[4.88248,43.44361]},"properties":{"latitude":"43.44361","longitude":"4.88248","bright_ti4":"300.31","scan":"0.53","track":"0.67","acq_date":"2026-06-17","acq_time":"39","satellite":"N20","instrument":"VIIRS","confidence":"n","version":"2.0NRT","bright_ti5":"288.78","frp":"1.47","daynight":"N","commune":"Fos-sur-Mer","code_insee":"13039","departement":"Bouches-du-Rhône","region":"Provence-Alpes-Côte d'Azur"}},{"type":"Feature","geometry":{"type":"Point","coordinates":[7.37317,43.79323]},"properties":{"latitude":"43.79323","longitude":"7.37317","bright_ti4":"298.74","scan":"0.4","track":"0.6","acq_date":"2026-06-17","acq_time":"39","satellite":"N20","instrument":"VIIRS","confidence":"n","version":"2.0NRT","bright_ti5":"287.75","frp":"0.49","daynight":"N","commune":"Blausasc","code_insee":"06019","departement":"Alpes-Maritimes","region":"Provence-Alpes-Côte d'Azur"}},{"type":"Feature","geometry":{"type":"Point","coordinates":[7.37441,43.79733]},"properties":{"latitude":"43.79733","longitude":"7.37441","bright_ti4":"301.52","scan":"0.4","track":"0.6","acq_date":"2026-06-17","acq_time":"39","satellite":"N20","instrument":"VIIRS","confidence":"n","version":"2.0NRT","bright_ti5":"287.98","frp":"0.52","daynight":"N","commune":"Blausasc","code_insee":"06019","departement":"Alpes-Maritimes","region":"Provence-Alpes-Côte d'Azur"}},{"type":"Feature","geometry":{"type":"Point","coordinates":[5.66674,45.2317]},"properties":{"latitude":"45.2317","longitude":"5.66674","bright_ti4":"301.58","scan":"0.5","track":"0.66","acq_date":"2026-06-17","acq_time":"39","satellite":"N20","instrument":"VIIRS","confidence":"n","version":"2.0NRT","bright_ti5":"286.83","frp":"0.3","daynight":"N","commune":"Saint-Égrève","code_insee":"38382","departement":"Isère","region":"Auvergne-Rhône-Alpes"}},{"type":"Feature","geometry":{"type":"Point","coordinates":[5.66802,45.23214]},"properties":{"latitude":"45.23214","longitude":"5.66802","bright_ti4":"300.01","scan":"0.5","track":"0.66","acq_date":"2026-06-17","acq_time":"39","satellite":"N20","instrument":"VIIRS","confidence":"n","version":"2.0NRT","bright_ti5":"287.3","frp":"0.83","daynight":"N","commune":"Saint-Égrève","code_insee":"38382","departement":"Isère","region":"Auvergne-Rhône-Alpes"}},{"type":"Feature","geometry":{"type":"Point","coordinates":[4.74313,43.8032]},"properties":{"latitude":"43.8032","longitude":"4.74313","bright_ti4":"315.55","scan":"0.5","track":"0.49","acq_date":"2026-06-17","acq_time":"219","satellite":"N20","instrument":"VIIRS","confidence":"n","version":"2.0NRT","bright_ti5":"287.08","frp":"2.16","daynight":"N","commune":"Saint-Étienne-du-Grès","code_insee":"13094","departement":"Bouches-du-Rhône","region":"Provence-Alpes-Côte d'Azur"}},{"type":"Feature","geometry":{"type":"Point","coordinates":[7.237,47.62844]},"properties":{"latitude":"47.62844","longitude":"7.237","bright_ti4":"296.98","scan":"0.52","track":"0.5","acq_date":"2026-06-17","acq_time":"219","satellite":"N20","instrument":"VIIRS","confidence":"n","version":"2.0NRT","bright_ti5":"286.2","frp":"0.71","daynight":"N","commune":"Altkirch","code_insee":"68004","departement":"Haut-Rhin","region":"Grand Est"}},{"type":"Feature","geometry":{"type":"Point","coordinates":[-1.03392,48.10726]},"properties":{"latitude":"48.10726","longitude":"-1.03392","bright_ti4":"303.22","scan":"0.4","track":"0.37","acq_date":"2026-06-17","acq_time":"219","satellite":"N20","instrument":"VIIRS","confidence":"n","version":"2.0NRT","bright_ti5":"288.6","frp":"0.65","daynight":"N","commune":"Saint-Pierre-la-Cour","code_insee":"53247","departement":"Mayenne","region":"Pays de la Loire"}},{"type":"Feature","geometry":{"type":"Point","coordinates":[5.78398,48.67346]},"properties":{"latitude":"48.67346","longitude":"5.78398","bright_ti4":"335.76","scan":"0.42","track":"0.45","acq_date":"2026-06-17","acq_time":"219","satellite":"N20","instrument":"VIIRS","confidence":"n","version":"2.0NRT","bright_ti5":"284.31","frp":"4.05","daynight":"N","commune":"Foug","code_insee":"54205","departement":"Meurthe-et-Moselle","region":"Grand Est"}},{"type":"Feature","geometry":{"type":"Point","coordinates":[4.56787,48.76933]},"properties":{"latitude":"48.76933","longitude":"4.56787","bright_ti4":"297.09","scan":"0.56","track":"0.43","acq_date":"2026-06-17","acq_time":"219","satellite":"N20","instrument":"VIIRS","confidence":"n","version":"2.0NRT","bright_ti5":"286.35","frp":"1.2","daynight":"N","commune":"Couvrot","code_insee":"51195","departement":"Marne","region":"Grand Est"}},{"type":"Feature","geometry":{"type":"Point","coordinates":[2.73575,48.94909]},"properties":{"latitude":"48.94909","longitude":"2.73575","bright_ti4":"295.61","scan":"0.48","track":"0.4","acq_date":"2026-06-17","acq_time":"219","satellite":"N20","instrument":"VIIRS","confidence":"n","version":"2.0NRT","bright_ti5":"285.28","frp":"0.44","daynight":"N","commune":"Fresnes-sur-Marne","code_insee":"77196","departement":"Seine-et-Marne","region":"Île-de-France"}},{"type":"Feature","geometry":{"type":"Point","coordinates":[1.76589,48.98391]},"properties":{"latitude":"48.98391","longitude":"1.76589","bright_ti4":"298.81","scan":"0.45","track":"0.39","acq_date":"2026-06-17","acq_time":"219","satellite":"N20","instrument":"VIIRS","confidence":"n","version":"2.0NRT","bright_ti5":"286.08","frp":"0.8","daynight":"N","commune":"Porcheville","code_insee":"78501","departement":"Yvelines","region":"Île-de-France"}},{"type":"Feature","geometry":{"type":"Point","coordinates":[1.75995,48.98509]},"properties":{"latitude":"48.98509","longitude":"1.75995","bright_ti4":"325.4","scan":"0.45","track":"0.39","acq_date":"2026-06-17","acq_time":"219","satellite":"N20","instrument":"VIIRS","confidence":"n","version":"2.0NRT","bright_ti5":"287.68","frp":"2.58","daynight":"N","commune":"Porcheville","code_insee":"78501","departement":"Yvelines","region":"Île-de-France"}},{"type":"Feature","geometry":{"type":"Point","coordinates":[0.54146,49.47034]},"properties":{"latitude":"49.47034","longitude":"0.54146","bright_ti4":"297.51","scan":"0.41","track":"0.37","acq_date":"2026-06-17","acq_time":"219","satellite":"N20","instrument":"VIIRS","confidence":"n","version":"2.0NRT","bright_ti5":"285.53","frp":"0.8","daynight":"N","commune":"Port-Jérôme-sur-Seine","code_insee":"76476","departement":"Seine-Maritime","region":"Normandie"}},{"type":"Feature","geometry":{"type":"Point","coordinates":[0.5333,49.47906]},"properties":{"latitude":"49.47906","longitude":"0.5333","bright_ti4":"298.02","scan":"0.41","track":"0.37","acq_date":"2026-06-17","acq_time":"219","satellite":"N20","instrument":"VIIRS","confidence":"n","version":"2.0NRT","bright_ti5":"284.84","frp":"1.27","daynight":"N","commune":"Port-Jérôme-sur-Seine","code_insee":"76476","departement":"Seine-Maritime","region":"Normandie"}},{"type":"Feature","geometry":{"type":"Point","coordinates":[3.56176,50.40451]},"properties":{"latitude":"50.40451","longitude":"3.56176","bright_ti4":"307.35","scan":"0.48","track":"0.4","acq_date":"2026-06-17","acq_time":"219","satellite":"N20","instrument":"VIIRS","confidence":"n","version":"2.0NRT","bright_ti5":"285.02","frp":"0.68","daynight":"N","commune":"Saint-Saulve","code_insee":"59544","departement":"Nord","region":"Hauts-de-France"}},{"type":"Feature","geometry":{"type":"Point","coordinates":[3.03123,43.02455]},"properties":{"latitude":"43.02455","longitude":"3.03123","bright_ti4":"301.9","scan":"0.44","track":"0.46","acq_date":"2026-06-17","acq_time":"221","satellite":"N20","instrument":"VIIRS","confidence":"n","version":"2.0NRT","bright_ti5":"291.85","frp":"1.01","daynight":"N","commune":"Port-la-Nouvelle","code_insee":"11266","departement":"Aude","region":"Occitanie"}},{"type":"Feature","geometry":{"type":"Point","coordinates":[5.01271,43.37806]},"properties":{"latitude":"43.37806","longitude":"5.01271","bright_ti4":"315.18","scan":"0.53","track":"0.5","acq_date":"2026-06-17","acq_time":"221","satellite":"N20","instrument":"VIIRS","confidence":"n","version":"2.0NRT","bright_ti5":"290.51","frp":"2.61","daynight":"N","commune":"Martigues","code_insee":"13056","departement":"Bouches-du-Rhône","region":"Provence-Alpes-Côte d'Azur"}},{"type":"Feature","geometry":{"type":"Point","coordinates":[4.89896,43.43105]},"properties":{"latitude":"43.43105","longitude":"4.89896","bright_ti4":"303.29","scan":"0.52","track":"0.5","acq_date":"2026-06-17","acq_time":"221","satellite":"N20","instrument":"VIIRS","confidence":"n","version":"2.0NRT","bright_ti5":"289.73","frp":"0.87","daynight":"N","commune":"Fos-sur-Mer","code_insee":"13039","departement":"Bouches-du-Rhône","region":"Provence-Alpes-Côte d'Azur"}},{"type":"Feature","geometry":{"type":"Point","coordinates":[4.89481,43.43697]},"properties":{"latitude":"43.43697","longitude":"4.89481","bright_ti4":"313.68","scan":"0.52","track":"0.5","acq_date":"2026-06-17","acq_time":"221","satellite":"N20","instrument":"VIIRS","confidence":"n","version":"2.0NRT","bright_ti5":"289.82","frp":"2","daynight":"N","commune":"Fos-sur-Mer","code_insee":"13039","departement":"Bouches-du-Rhône","region":"Provence-Alpes-Côte d'Azur"}},{"type":"Feature","geometry":{"type":"Point","coordinates":[4.88253,43.44002]},"properties":{"latitude":"43.44002","longitude":"4.88253","bright_ti4":"303.86","scan":"0.52","track":"0.5","acq_date":"2026-06-17","acq_time":"221","satellite":"N20","instrument":"VIIRS","confidence":"n","version":"2.0NRT","bright_ti5":"289.59","frp":"0.96","daynight":"N","commune":"Fos-sur-Mer","code_insee":"13039","departement":"Bouches-du-Rhône","region":"Provence-Alpes-Côte d'Azur"}},{"type":"Feature","geometry":{"type":"Point","coordinates":[4.89075,43.44287]},"properties":{"latitude":"43.44287","longitude":"4.89075","bright_ti4":"300.05","scan":"0.52","track":"0.5","acq_date":"2026-06-17","acq_time":"221","satellite":"N20","instrument":"VIIRS","confidence":"n","version":"2.0NRT","bright_ti5":"289","frp":"2","daynight":"N","commune":"Fos-sur-Mer","code_insee":"13039","departement":"Bouches-du-Rhône","region":"Provence-Alpes-Côte d'Azur"}},{"type":"Feature","geometry":{"type":"Point","coordinates":[4.8846,43.44439]},"properties":{"latitude":"43.44439","longitude":"4.8846","bright_ti4":"301.8","scan":"0.52","track":"0.5","acq_date":"2026-06-17","acq_time":"221","satellite":"N20","instrument":"VIIRS","confidence":"n","version":"2.0NRT","bright_ti5":"288.39","frp":"0.96","daynight":"N","commune":"Fos-sur-Mer","code_insee":"13039","departement":"Bouches-du-Rhône","region":"Provence-Alpes-Côte d'Azur"}},{"type":"Feature","geometry":{"type":"Point","coordinates":[4.89896,43.44572]},"properties":{"latitude":"43.44572","longitude":"4.89896","bright_ti4":"322.46","scan":"0.52","track":"0.5","acq_date":"2026-06-17","acq_time":"221","satellite":"N20","instrument":"VIIRS","confidence":"n","version":"2.0NRT","bright_ti5":"291.1","frp":"3.8","daynight":"N","commune":"Fos-sur-Mer","code_insee":"13039","departement":"Bouches-du-Rhône","region":"Provence-Alpes-Côte d'Azur"}},{"type":"Feature","geometry":{"type":"Point","coordinates":[4.89899,43.44456]},"properties":{"latitude":"43.44456","longitude":"4.89899","bright_ti4":"343.6","scan":"0.42","track":"0.45","acq_date":"2026-06-17","acq_time":"1204","satellite":"N20","instrument":"VIIRS","confidence":"n","version":"2.0NRT","bright_ti5":"308.85","frp":"6.99","daynight":"D","commune":"Fos-sur-Mer","code_insee":"13039","departement":"Bouches-du-Rhône","region":"Provence-Alpes-Côte d'Azur"}},{"type":"Feature","geometry":{"type":"Point","coordinates":[4.72105,44.3267]},"properties":{"latitude":"44.3267","longitude":"4.72105","bright_ti4":"330.54","scan":"0.41","track":"0.45","acq_date":"2026-06-17","acq_time":"1206","satellite":"N20","instrument":"VIIRS","confidence":"l","version":"2.0NRT","bright_ti5":"305.49","frp":"5.67","daynight":"D","commune":"Pierrelatte","code_insee":"26235","departement":"Drôme","region":"Auvergne-Rhône-Alpes"}},{"type":"Feature","geometry":{"type":"Point","coordinates":[-1.01198,47.21811]},"properties":{"latitude":"47.21811","longitude":"-1.01198","bright_ti4":"340.97","scan":"0.62","track":"0.54","acq_date":"2026-06-17","acq_time":"1206","satellite":"N20","instrument":"VIIRS","confidence":"n","version":"2.0NRT","bright_ti5":"300.91","frp":"9.54","daynight":"D","commune":"Beaupréau-en-Mauges","code_insee":"49023","departement":"Maine-et-Loire","region":"Pays de la Loire"}},{"type":"Feature","geometry":{"type":"Point","coordinates":[-1.01183,47.22049]},"properties":{"latitude":"47.22049","longitude":"-1.01183","bright_ti4":"348.94","scan":"0.62","track":"0.54","acq_date":"2026-06-17","acq_time":"1206","satellite":"N20","instrument":"VIIRS","confidence":"n","version":"2.0NRT","bright_ti5":"299.87","frp":"6.46","daynight":"D","commune":"Beaupréau-en-Mauges","code_insee":"49023","departement":"Maine-et-Loire","region":"Pays de la Loire"}},{"type":"Feature","geometry":{"type":"Point","coordinates":[2.98388,48.38645]},"properties":{"latitude":"48.38645","longitude":"2.98388","bright_ti4":"334.5","scan":"0.39","track":"0.44","acq_date":"2026-06-17","acq_time":"1206","satellite":"N20","instrument":"VIIRS","confidence":"n","version":"2.0NRT","bright_ti5":"305.25","frp":"4.26","daynight":"D","commune":"Montereau-Fault-Yonne","code_insee":"77305","departement":"Seine-et-Marne","region":"Île-de-France"}},{"type":"Feature","geometry":{"type":"Point","coordinates":[3.38245,48.50569]},"properties":{"latitude":"48.50569","longitude":"3.38245","bright_ti4":"333.88","scan":"0.56","track":"0.43","acq_date":"2026-06-17","acq_time":"1206","satellite":"N20","instrument":"VIIRS","confidence":"n","version":"2.0NRT","bright_ti5":"292.08","frp":"6.35","daynight":"D","commune":"Melz-sur-Seine","code_insee":"77289","departement":"Seine-et-Marne","region":"Île-de-France"}},{"type":"Feature","geometry":{"type":"Point","coordinates":[2.43095,48.90383]},"properties":{"latitude":"48.90383","longitude":"2.43095","bright_ti4":"343.02","scan":"0.4","track":"0.44","acq_date":"2026-06-17","acq_time":"1206","satellite":"N20","instrument":"VIIRS","confidence":"n","version":"2.0NRT","bright_ti5":"302.72","frp":"18.14","daynight":"D","commune":"Bobigny","code_insee":"93008","departement":"Seine-Saint-Denis","region":"Île-de-France"}},{"type":"Feature","geometry":{"type":"Point","coordinates":[5.20023,43.591]},"properties":{"latitude":"43.591","longitude":"5.20023","bright_ti4":"331.73","scan":"0.7","track":"0.75","acq_date":"2026-06-17","acq_time":"1346","satellite":"N20","instrument":"VIIRS","confidence":"n","version":"2.0NRT","bright_ti5":"296.73","frp":"4.21","daynight":"D","commune":"Lançon-Provence","code_insee":"13051","departement":"Bouches-du-Rhône","region":"Provence-Alpes-Côte d'Azur"}},{"type":"Feature","geometry":{"type":"Point","coordinates":[4.1505,43.6006]},"properties":{"latitude":"43.6006","longitude":"4.1505","bright_ti4":"344.86","scan":"0.62","track":"0.71","acq_date":"2026-06-17","acq_time":"1346","satellite":"N20","instrument":"VIIRS","confidence":"n","version":"2.0NRT","bright_ti5":"297.16","frp":"7.34","daynight":"D","commune":"Marsillargues","code_insee":"34151","departement":"Hérault","region":"Occitanie"}},{"type":"Feature","geometry":{"type":"Point","coordinates":[4.15214,43.60457]},"properties":{"latitude":"43.60457","longitude":"4.15214","bright_ti4":"354.55","scan":"0.62","track":"0.71","acq_date":"2026-06-17","acq_time":"1346","satellite":"N20","instrument":"VIIRS","confidence":"n","version":"2.0NRT","bright_ti5":"300.26","frp":"34.76","daynight":"D","commune":"Marsillargues","code_insee":"34151","departement":"Hérault","region":"Occitanie"}},{"type":"Feature","geometry":{"type":"Point","coordinates":[4.15051,43.60724]},"properties":{"latitude":"43.60724","longitude":"4.15051","bright_ti4":"355.25","scan":"0.62","track":"0.71","acq_date":"2026-06-17","acq_time":"1346","satellite":"N20","instrument":"VIIRS","confidence":"n","version":"2.0NRT","bright_ti5":"297.12","frp":"19.77","daynight":"D","commune":"Marsillargues","code_insee":"34151","departement":"Hérault","region":"Occitanie"}},{"type":"Feature","geometry":{"type":"Point","coordinates":[4.15835,43.60732]},"properties":{"latitude":"43.60732","longitude":"4.15835","bright_ti4":"339.97","scan":"0.62","track":"0.71","acq_date":"2026-06-17","acq_time":"1346","satellite":"N20","instrument":"VIIRS","confidence":"n","version":"2.0NRT","bright_ti5":"296.27","frp":"14.91","daynight":"D","commune":"Marsillargues","code_insee":"34151","departement":"Hérault","region":"Occitanie"}},{"type":"Feature","geometry":{"type":"Point","coordinates":[-1.27528,47.54023]},"properties":{"latitude":"47.54023","longitude":"-1.27528","bright_ti4":"333.5","scan":"0.35","track":"0.57","acq_date":"2026-06-17","acq_time":"1346","satellite":"N20","instrument":"VIIRS","confidence":"n","version":"2.0NRT","bright_ti5":"299.42","frp":"1.89","daynight":"D","commune":"Riaillé","code_insee":"44144","departement":"Loire-Atlantique","region":"Pays de la Loire"}},{"type":"Feature","geometry":{"type":"Point","coordinates":[5.82076,45.91097]},"properties":{"latitude":"45.91097","longitude":"5.82076","bright_ti4":"303.98","scan":"0.42","track":"0.38","acq_date":"2026-06-17","acq_time":"126","satellite":"N21","instrument":"VIIRS","confidence":"n","version":"2.0NRT","bright_ti5":"290.55","frp":"0.97","daynight":"N","commune":"Anglefort","code_insee":"01010","departement":"Ain","region":"Auvergne-Rhône-Alpes"}},{"type":"Feature","geometry":{"type":"Point","coordinates":[7.23617,47.62967]},"properties":{"latitude":"47.62967","longitude":"7.23617","bright_ti4":"301.92","scan":"0.4","track":"0.37","acq_date":"2026-06-17","acq_time":"126","satellite":"N21","instrument":"VIIRS","confidence":"n","version":"2.0NRT","bright_ti5":"288.01","frp":"0.65","daynight":"N","commune":"Altkirch","code_insee":"68004","departement":"Haut-Rhin","region":"Grand Est"}},{"type":"Feature","geometry":{"type":"Point","coordinates":[6.96648,48.69154]},"properties":{"latitude":"48.69154","longitude":"6.96648","bright_ti4":"299.13","scan":"0.41","track":"0.37","acq_date":"2026-06-17","acq_time":"126","satellite":"N21","instrument":"VIIRS","confidence":"n","version":"2.0NRT","bright_ti5":"286.55","frp":"0.75","daynight":"N","commune":"Héming","code_insee":"57314","departement":"Moselle","region":"Grand Est"}},{"type":"Feature","geometry":{"type":"Point","coordinates":[6.05279,48.88329]},"properties":{"latitude":"48.88329","longitude":"6.05279","bright_ti4":"320.99","scan":"0.44","track":"0.38","acq_date":"2026-06-17","acq_time":"126","satellite":"N21","instrument":"VIIRS","confidence":"n","version":"2.0NRT","bright_ti5":"286.29","frp":"3.58","daynight":"N","commune":"Blénod-lès-Pont-à-Mousson","code_insee":"54079","departement":"Meurthe-et-Moselle","region":"Grand Est"}},{"type":"Feature","geometry":{"type":"Point","coordinates":[1.76223,48.9811]},"properties":{"latitude":"48.9811","longitude":"1.76223","bright_ti4":"303.75","scan":"0.42","track":"0.45","acq_date":"2026-06-17","acq_time":"126","satellite":"N21","instrument":"VIIRS","confidence":"n","version":"2.0NRT","bright_ti5":"285.49","frp":"1.26","daynight":"N","commune":"Porcheville","code_insee":"78501","departement":"Yvelines","region":"Île-de-France"}},{"type":"Feature","geometry":{"type":"Point","coordinates":[1.76314,48.98524]},"properties":{"latitude":"48.98524","longitude":"1.76314","bright_ti4":"298.47","scan":"0.42","track":"0.45","acq_date":"2026-06-17","acq_time":"126","satellite":"N21","instrument":"VIIRS","confidence":"n","version":"2.0NRT","bright_ti5":"285.29","frp":"1.26","daynight":"N","commune":"Porcheville","code_insee":"78501","departement":"Yvelines","region":"Île-de-France"}},{"type":"Feature","geometry":{"type":"Point","coordinates":[0.53272,49.47886]},"properties":{"latitude":"49.47886","longitude":"0.53272","bright_ti4":"296.21","scan":"0.48","track":"0.48","acq_date":"2026-06-17","acq_time":"126","satellite":"N21","instrument":"VIIRS","confidence":"n","version":"2.0NRT","bright_ti5":"283.22","frp":"1.05","daynight":"N","commune":"Port-Jérôme-sur-Seine","code_insee":"76476","departement":"Seine-Maritime","region":"Normandie"}},{"type":"Feature","geometry":{"type":"Point","coordinates":[2.27134,51.02497]},"properties":{"latitude":"51.02497","longitude":"2.27134","bright_ti4":"310.5","scan":"0.42","track":"0.45","acq_date":"2026-06-17","acq_time":"126","satellite":"N21","instrument":"VIIRS","confidence":"n","version":"2.0NRT","bright_ti5":"280.94","frp":"1.6","daynight":"N","commune":"Grande-Synthe","code_insee":"59271","departement":"Nord","region":"Hauts-de-France"}},{"type":"Feature","geometry":{"type":"Point","coordinates":[2.27237,51.02604]},"properties":{"latitude":"51.02604","longitude":"2.27237","bright_ti4":"333.07","scan":"0.42","track":"0.45","acq_date":"2026-06-17","acq_time":"126","satellite":"N21","instrument":"VIIRS","confidence":"n","version":"2.0NRT","bright_ti5":"283.17","frp":"3.81","daynight":"N","commune":"Grande-Synthe","code_insee":"59271","departement":"Nord","region":"Hauts-de-France"}},{"type":"Feature","geometry":{"type":"Point","coordinates":[2.27216,51.02913]},"properties":{"latitude":"51.02913","longitude":"2.27216","bright_ti4":"321.15","scan":"0.42","track":"0.45","acq_date":"2026-06-17","acq_time":"126","satellite":"N21","instrument":"VIIRS","confidence":"n","version":"2.0NRT","bright_ti5":"283.69","frp":"3.6","daynight":"N","commune":"Grande-Synthe","code_insee":"59271","departement":"Nord","region":"Hauts-de-France"}},{"type":"Feature","geometry":{"type":"Point","coordinates":[2.25516,51.0316]},"properties":{"latitude":"51.0316","longitude":"2.25516","bright_ti4":"304.59","scan":"0.42","track":"0.45","acq_date":"2026-06-17","acq_time":"126","satellite":"N21","instrument":"VIIRS","confidence":"n","version":"2.0NRT","bright_ti5":"282.26","frp":"1.02","daynight":"N","commune":"Dunkerque","code_insee":"59183","departement":"Nord","region":"Hauts-de-France"}},{"type":"Feature","geometry":{"type":"Point","coordinates":[2.28607,51.03341]},"properties":{"latitude":"51.03341","longitude":"2.28607","bright_ti4":"307.41","scan":"0.42","track":"0.45","acq_date":"2026-06-17","acq_time":"126","satellite":"N21","instrument":"VIIRS","confidence":"n","version":"2.0NRT","bright_ti5":"282.1","frp":"1.88","daynight":"N","commune":"Grande-Synthe","code_insee":"59271","departement":"Nord","region":"Hauts-de-France"}},{"type":"Feature","geometry":{"type":"Point","coordinates":[2.25494,51.03477]},"properties":{"latitude":"51.03477","longitude":"2.25494","bright_ti4":"300.58","scan":"0.42","track":"0.45","acq_date":"2026-06-17","acq_time":"126","satellite":"N21","instrument":"VIIRS","confidence":"n","version":"2.0NRT","bright_ti5":"282.88","frp":"1.39","daynight":"N","commune":"Dunkerque","code_insee":"59183","departement":"Nord","region":"Hauts-de-France"}},{"type":"Feature","geometry":{"type":"Point","coordinates":[2.29372,51.04126]},"properties":{"latitude":"51.04126","longitude":"2.29372","bright_ti4":"298.2","scan":"0.42","track":"0.45","acq_date":"2026-06-17","acq_time":"126","satellite":"N21","instrument":"VIIRS","confidence":"n","version":"2.0NRT","bright_ti5":"283.79","frp":"2.78","daynight":"N","commune":"Grande-Synthe","code_insee":"59271","departement":"Nord","region":"Hauts-de-France"}},{"type":"Feature","geometry":{"type":"Point","coordinates":[2.30055,51.04494]},"properties":{"latitude":"51.04494","longitude":"2.30055","bright_ti4":"300.08","scan":"0.42","track":"0.45","acq_date":"2026-06-17","acq_time":"126","satellite":"N21","instrument":"VIIRS","confidence":"n","version":"2.0NRT","bright_ti5":"283.51","frp":"3.3","daynight":"N","commune":"Grande-Synthe","code_insee":"59271","departement":"Nord","region":"Hauts-de-France"}},{"type":"Feature","geometry":{"type":"Point","coordinates":[2.29454,51.04542]},"properties":{"latitude":"51.04542","longitude":"2.29454","bright_ti4":"336.64","scan":"0.42","track":"0.45","acq_date":"2026-06-17","acq_time":"126","satellite":"N21","instrument":"VIIRS","confidence":"n","version":"2.0NRT","bright_ti5":"284.73","frp":"2.78","daynight":"N","commune":"Grande-Synthe","code_insee":"59271","departement":"Nord","region":"Hauts-de-France"}},{"type":"Feature","geometry":{"type":"Point","coordinates":[2.31936,51.04768]},"properties":{"latitude":"51.04768","longitude":"2.31936","bright_ti4":"329.38","scan":"0.42","track":"0.45","acq_date":"2026-06-17","acq_time":"126","satellite":"N21","instrument":"VIIRS","confidence":"n","version":"2.0NRT","bright_ti5":"284.89","frp":"4.09","daynight":"N","commune":"Dunkerque","code_insee":"59183","departement":"Nord","region":"Hauts-de-France"}},{"type":"Feature","geometry":{"type":"Point","coordinates":[5.00852,43.37745]},"properties":{"latitude":"43.37745","longitude":"5.00852","bright_ti4":"312.11","scan":"0.42","track":"0.38","acq_date":"2026-06-17","acq_time":"128","satellite":"N21","instrument":"VIIRS","confidence":"n","version":"2.0NRT","bright_ti5":"290.98","frp":"2.28","daynight":"N","commune":"Martigues","code_insee":"13056","departement":"Bouches-du-Rhône","region":"Provence-Alpes-Côte d'Azur"}},{"type":"Feature","geometry":{"type":"Point","coordinates":[4.89555,43.42999]},"properties":{"latitude":"43.42999","longitude":"4.89555","bright_ti4":"302.04","scan":"0.42","track":"0.38","acq_date":"2026-06-17","acq_time":"128","satellite":"N21","instrument":"VIIRS","confidence":"n","version":"2.0NRT","bright_ti5":"291.48","frp":"1.14","daynight":"N","commune":"Fos-sur-Mer","code_insee":"13039","departement":"Bouches-du-Rhône","region":"Provence-Alpes-Côte d'Azur"}},{"type":"Feature","geometry":{"type":"Point","coordinates":[4.89121,43.43408]},"properties":{"latitude":"43.43408","longitude":"4.89121","bright_ti4":"303.8","scan":"0.42","track":"0.38","acq_date":"2026-06-17","acq_time":"128","satellite":"N21","instrument":"VIIRS","confidence":"n","version":"2.0NRT","bright_ti5":"291.56","frp":"1.14","daynight":"N","commune":"Fos-sur-Mer","code_insee":"13039","departement":"Bouches-du-Rhône","region":"Provence-Alpes-Côte d'Azur"}},{"type":"Feature","geometry":{"type":"Point","coordinates":[4.88686,43.43817]},"properties":{"latitude":"43.43817","longitude":"4.88686","bright_ti4":"302.01","scan":"0.42","track":"0.38","acq_date":"2026-06-17","acq_time":"128","satellite":"N21","instrument":"VIIRS","confidence":"n","version":"2.0NRT","bright_ti5":"290.8","frp":"0.87","daynight":"N","commune":"Fos-sur-Mer","code_insee":"13039","departement":"Bouches-du-Rhône","region":"Provence-Alpes-Côte d'Azur"}},{"type":"Feature","geometry":{"type":"Point","coordinates":[4.88252,43.44226]},"properties":{"latitude":"43.44226","longitude":"4.88252","bright_ti4":"305.1","scan":"0.42","track":"0.38","acq_date":"2026-06-17","acq_time":"128","satellite":"N21","instrument":"VIIRS","confidence":"n","version":"2.0NRT","bright_ti5":"290.58","frp":"0.87","daynight":"N","commune":"Fos-sur-Mer","code_insee":"13039","departement":"Bouches-du-Rhône","region":"Provence-Alpes-Côte d'Azur"}},{"type":"Feature","geometry":{"type":"Point","coordinates":[4.89887,43.4437]},"properties":{"latitude":"43.4437","longitude":"4.89887","bright_ti4":"330.23","scan":"0.42","track":"0.38","acq_date":"2026-06-17","acq_time":"128","satellite":"N21","instrument":"VIIRS","confidence":"n","version":"2.0NRT","bright_ti5":"291.84","frp":"3.76","daynight":"N","commune":"Fos-sur-Mer","code_insee":"13039","departement":"Bouches-du-Rhône","region":"Provence-Alpes-Côte d'Azur"}},{"type":"Feature","geometry":{"type":"Point","coordinates":[4.89453,43.44779]},"properties":{"latitude":"43.44779","longitude":"4.89453","bright_ti4":"329.05","scan":"0.42","track":"0.38","acq_date":"2026-06-17","acq_time":"128","satellite":"N21","instrument":"VIIRS","confidence":"n","version":"2.0NRT","bright_ti5":"291.07","frp":"3.76","daynight":"N","commune":"Fos-sur-Mer","code_insee":"13039","departement":"Bouches-du-Rhône","region":"Provence-Alpes-Côte d'Azur"}},{"type":"Feature","geometry":{"type":"Point","coordinates":[5.4636,43.45354]},"properties":{"latitude":"43.45354","longitude":"5.4636","bright_ti4":"300.61","scan":"0.41","track":"0.37","acq_date":"2026-06-17","acq_time":"128","satellite":"N21","instrument":"VIIRS","confidence":"n","version":"2.0NRT","bright_ti5":"290.43","frp":"0.73","daynight":"N","commune":"Gardanne","code_insee":"13041","departement":"Bouches-du-Rhône","region":"Provence-Alpes-Côte d'Azur"}},{"type":"Feature","geometry":{"type":"Point","coordinates":[7.37168,43.79457]},"properties":{"latitude":"43.79457","longitude":"7.37168","bright_ti4":"305.07","scan":"0.39","track":"0.36","acq_date":"2026-06-17","acq_time":"128","satellite":"N21","instrument":"VIIRS","confidence":"n","version":"2.0NRT","bright_ti5":"290.5","frp":"0.74","daynight":"N","commune":"Blausasc","code_insee":"06019","departement":"Alpes-Maritimes","region":"Provence-Alpes-Côte d'Azur"}},{"type":"Feature","geometry":{"type":"Point","coordinates":[5.66474,45.22983]},"properties":{"latitude":"45.22983","longitude":"5.66474","bright_ti4":"300.1","scan":"0.42","track":"0.37","acq_date":"2026-06-17","acq_time":"128","satellite":"N21","instrument":"VIIRS","confidence":"n","version":"2.0NRT","bright_ti5":"289.02","frp":"0.29","daynight":"N","commune":"Saint-Égrève","code_insee":"38382","departement":"Isère","region":"Auvergne-Rhône-Alpes"}},{"type":"Feature","geometry":{"type":"Point","coordinates":[4.56336,48.76841]},"properties":{"latitude":"48.76841","longitude":"4.56336","bright_ti4":"297.48","scan":"0.62","track":"0.72","acq_date":"2026-06-17","acq_time":"306","satellite":"N21","instrument":"VIIRS","confidence":"n","version":"2.0NRT","bright_ti5":"282.88","frp":"1.43","daynight":"N","commune":"Couvrot","code_insee":"51195","departement":"Marne","region":"Grand Est"}},{"type":"Feature","geometry":{"type":"Point","coordinates":[1.75735,48.98137]},"properties":{"latitude":"48.98137","longitude":"1.75735","bright_ti4":"301.76","scan":"0.47","track":"0.64","acq_date":"2026-06-17","acq_time":"306","satellite":"N21","instrument":"VIIRS","confidence":"n","version":"2.0NRT","bright_ti5":"283.21","frp":"0.94","daynight":"N","commune":"Porcheville","code_insee":"78501","departement":"Yvelines","region":"Île-de-France"}},{"type":"Feature","geometry":{"type":"Point","coordinates":[1.76105,48.98677]},"properties":{"latitude":"48.98677","longitude":"1.76105","bright_ti4":"298.08","scan":"0.47","track":"0.64","acq_date":"2026-06-17","acq_time":"306","satellite":"N21","instrument":"VIIRS","confidence":"n","version":"2.0NRT","bright_ti5":"282.62","frp":"0.94","daynight":"N","commune":"Porcheville","code_insee":"78501","departement":"Yvelines","region":"Île-de-France"}},{"type":"Feature","geometry":{"type":"Point","coordinates":[2.58909,42.82919]},"properties":{"latitude":"42.82919","longitude":"2.58909","bright_ti4":"339.34","scan":"0.4","track":"0.37","acq_date":"2026-06-17","acq_time":"1253","satellite":"N21","instrument":"VIIRS","confidence":"n","version":"2.0NRT","bright_ti5":"312.82","frp":"15.46","daynight":"D","commune":"Maury","code_insee":"66107","departement":"Pyrénées-Orientales","region":"Occitanie"}},{"type":"Feature","geometry":{"type":"Point","coordinates":[4.89243,43.44045]},"properties":{"latitude":"43.44045","longitude":"4.89243","bright_ti4":"336.46","scan":"0.48","track":"0.4","acq_date":"2026-06-17","acq_time":"1253","satellite":"N21","instrument":"VIIRS","confidence":"l","version":"2.0NRT","bright_ti5":"311.25","frp":"5.24","daynight":"D","commune":"Fos-sur-Mer","code_insee":"13039","departement":"Bouches-du-Rhône","region":"Provence-Alpes-Côte d'Azur"}},{"type":"Feature","geometry":{"type":"Point","coordinates":[4.89684,43.44434]},"properties":{"latitude":"43.44434","longitude":"4.89684","bright_ti4":"335.83","scan":"0.48","track":"0.4","acq_date":"2026-06-17","acq_time":"1253","satellite":"N21","instrument":"VIIRS","confidence":"l","version":"2.0NRT","bright_ti5":"308.93","frp":"4.34","daynight":"D","commune":"Fos-sur-Mer","code_insee":"13039","departement":"Bouches-du-Rhône","region":"Provence-Alpes-Côte d'Azur"}},{"type":"Feature","geometry":{"type":"Point","coordinates":[4.89752,43.44476]},"properties":{"latitude":"43.44476","longitude":"4.89752","bright_ti4":"336.99","scan":"0.48","track":"0.4","acq_date":"2026-06-17","acq_time":"1253","satellite":"N21","instrument":"VIIRS","confidence":"l","version":"2.0NRT","bright_ti5":"310.23","frp":"5.24","daynight":"D","commune":"Fos-sur-Mer","code_insee":"13039","departement":"Bouches-du-Rhône","region":"Provence-Alpes-Côte d'Azur"}},{"type":"Feature","geometry":{"type":"Point","coordinates":[4.89607,43.44799]},"properties":{"latitude":"43.44799","longitude":"4.89607","bright_ti4":"334.33","scan":"0.48","track":"0.4","acq_date":"2026-06-17","acq_time":"1253","satellite":"N21","instrument":"VIIRS","confidence":"l","version":"2.0NRT","bright_ti5":"308.26","frp":"4.34","daynight":"D","commune":"Fos-sur-Mer","code_insee":"13039","departement":"Bouches-du-Rhône","region":"Provence-Alpes-Côte d'Azur"}},{"type":"Feature","geometry":{"type":"Point","coordinates":[4.89675,43.44841]},"properties":{"latitude":"43.44841","longitude":"4.89675","bright_ti4":"336.56","scan":"0.48","track":"0.4","acq_date":"2026-06-17","acq_time":"1253","satellite":"N21","instrument":"VIIRS","confidence":"l","version":"2.0NRT","bright_ti5":"308.35","frp":"5.79","daynight":"D","commune":"Fos-sur-Mer","code_insee":"13039","departement":"Bouches-du-Rhône","region":"Provence-Alpes-Côte d'Azur"}},{"type":"Feature","geometry":{"type":"Point","coordinates":[0.09834,46.31222]},"properties":{"latitude":"46.31222","longitude":"0.09834","bright_ti4":"336.82","scan":"0.39","track":"0.36","acq_date":"2026-06-17","acq_time":"1253","satellite":"N21","instrument":"VIIRS","confidence":"n","version":"2.0NRT","bright_ti5":"306.69","frp":"3.31","daynight":"D","commune":"Rom","code_insee":"79230","departement":"Deux-Sèvres","region":"Nouvelle-Aquitaine"}},{"type":"Feature","geometry":{"type":"Point","coordinates":[-0.7226,47.11122]},"properties":{"latitude":"47.11122","longitude":"-0.7226","bright_ti4":"337.64","scan":"0.38","track":"0.36","acq_date":"2026-06-17","acq_time":"1253","satellite":"N21","instrument":"VIIRS","confidence":"n","version":"2.0NRT","bright_ti5":"310.61","frp":"6.31","daynight":"D","commune":"Vezins","code_insee":"49371","departement":"Maine-et-Loire","region":"Pays de la Loire"}},{"type":"Feature","geometry":{"type":"Point","coordinates":[-1.49813,47.26688]},"properties":{"latitude":"47.26688","longitude":"-1.49813","bright_ti4":"340.31","scan":"0.38","track":"0.36","acq_date":"2026-06-17","acq_time":"1253","satellite":"N21","instrument":"VIIRS","confidence":"n","version":"2.0NRT","bright_ti5":"309.93","frp":"4.77","daynight":"D","commune":"Carquefou","code_insee":"44026","departement":"Loire-Atlantique","region":"Pays de la Loire"}},{"type":"Feature","geometry":{"type":"Point","coordinates":[2.4269,48.90183]},"properties":{"latitude":"48.90183","longitude":"2.4269","bright_ti4":"345.49","scan":"0.45","track":"0.39","acq_date":"2026-06-17","acq_time":"1255","satellite":"N21","instrument":"VIIRS","confidence":"n","version":"2.0NRT","bright_ti5":"308.76","frp":"11.31","daynight":"D","commune":"Bobigny","code_insee":"93008","departement":"Seine-Saint-Denis","region":"Île-de-France"}},{"type":"Feature","geometry":{"type":"Point","coordinates":[2.42597,48.90537]},"properties":{"latitude":"48.90537","longitude":"2.42597","bright_ti4":"341.24","scan":"0.45","track":"0.39","acq_date":"2026-06-17","acq_time":"1255","satellite":"N21","instrument":"VIIRS","confidence":"n","version":"2.0NRT","bright_ti5":"307.31","frp":"17.2","daynight":"D","commune":"Bobigny","code_insee":"93008","departement":"Seine-Saint-Denis","region":"Île-de-France"}},{"type":"Feature","geometry":{"type":"Point","coordinates":[-1.42898,48.92005]},"properties":{"latitude":"48.92005","longitude":"-1.42898","bright_ti4":"332.02","scan":"0.38","track":"0.36","acq_date":"2026-06-17","acq_time":"1255","satellite":"N21","instrument":"VIIRS","confidence":"n","version":"2.0NRT","bright_ti5":"306.6","frp":"2.52","daynight":"D","commune":"Cérences","code_insee":"50109","departement":"Manche","region":"Normandie"}},{"type":"Feature","geometry":{"type":"Point","coordinates":[1.76152,48.98276]},"properties":{"latitude":"48.98276","longitude":"1.76152","bright_ti4":"337.5","scan":"0.43","track":"0.38","acq_date":"2026-06-17","acq_time":"1255","satellite":"N21","instrument":"VIIRS","confidence":"n","version":"2.0NRT","bright_ti5":"304.95","frp":"3.82","daynight":"D","commune":"Porcheville","code_insee":"78501","departement":"Yvelines","region":"Île-de-France"}}]}