{"type":"FeatureCollection","features":[{"type":"Feature","geometry":{"type":"Point","coordinates":[-0.13876,46.80678]},"properties":{"latitude":"46.80678","longitude":"-0.13876","bright_ti4":"300.66","scan":"0.45","track":"0.39","acq_date":"2026-05-27","acq_time":"154","satellite":"N","instrument":"VIIRS","confidence":"n","version":"2.0NRT","bright_ti5":"290.49","frp":"0.57","daynight":"N","commune":"Airvault","code_insee":"79005","departement":"Deux-Sèvres","region":"Nouvelle-Aquitaine"}},{"type":"Feature","geometry":{"type":"Point","coordinates":[4.39872,47.86099]},"properties":{"latitude":"47.86099","longitude":"4.39872","bright_ti4":"305.4","scan":"0.38","track":"0.36","acq_date":"2026-05-27","acq_time":"154","satellite":"N","instrument":"VIIRS","confidence":"n","version":"2.0NRT","bright_ti5":"285.7","frp":"0.54","daynight":"N","commune":"Marcenay","code_insee":"21378","departement":"Côte-d'Or","region":"Bourgogne-Franche-Comté"}},{"type":"Feature","geometry":{"type":"Point","coordinates":[2.98151,48.3856]},"properties":{"latitude":"48.3856","longitude":"2.98151","bright_ti4":"310.44","scan":"0.4","track":"0.37","acq_date":"2026-05-27","acq_time":"154","satellite":"N","instrument":"VIIRS","confidence":"n","version":"2.0NRT","bright_ti5":"291.62","frp":"1.24","daynight":"N","commune":"Montereau-Fault-Yonne","code_insee":"77305","departement":"Seine-et-Marne","region":"Île-de-France"}},{"type":"Feature","geometry":{"type":"Point","coordinates":[6.11065,48.5622]},"properties":{"latitude":"48.5622","longitude":"6.11065","bright_ti4":"299.58","scan":"0.39","track":"0.36","acq_date":"2026-05-27","acq_time":"154","satellite":"N","instrument":"VIIRS","confidence":"n","version":"2.0NRT","bright_ti5":"287.61","frp":"0.49","daynight":"N","commune":"Xeuilley","code_insee":"54596","departement":"Meurthe-et-Moselle","region":"Grand Est"}},{"type":"Feature","geometry":{"type":"Point","coordinates":[6.96462,48.69143]},"properties":{"latitude":"48.69143","longitude":"6.96462","bright_ti4":"308.68","scan":"0.4","track":"0.37","acq_date":"2026-05-27","acq_time":"154","satellite":"N","instrument":"VIIRS","confidence":"n","version":"2.0NRT","bright_ti5":"289.26","frp":"1.21","daynight":"N","commune":"Héming","code_insee":"57314","departement":"Moselle","region":"Grand Est"}},{"type":"Feature","geometry":{"type":"Point","coordinates":[5.68124,48.71584]},"properties":{"latitude":"48.71584","longitude":"5.68124","bright_ti4":"301.92","scan":"0.39","track":"0.36","acq_date":"2026-05-27","acq_time":"154","satellite":"N","instrument":"VIIRS","confidence":"n","version":"2.0NRT","bright_ti5":"286.15","frp":"0.66","daynight":"N","commune":"Sorcy-Saint-Martin","code_insee":"55496","departement":"Meuse","region":"Grand Est"}},{"type":"Feature","geometry":{"type":"Point","coordinates":[4.5635,48.76797]},"properties":{"latitude":"48.76797","longitude":"4.5635","bright_ti4":"305.82","scan":"0.38","track":"0.36","acq_date":"2026-05-27","acq_time":"154","satellite":"N","instrument":"VIIRS","confidence":"n","version":"2.0NRT","bright_ti5":"290.51","frp":"0.88","daynight":"N","commune":"Couvrot","code_insee":"51195","departement":"Marne","region":"Grand Est"}},{"type":"Feature","geometry":{"type":"Point","coordinates":[6.0569,48.88323]},"properties":{"latitude":"48.88323","longitude":"6.0569","bright_ti4":"318.72","scan":"0.39","track":"0.36","acq_date":"2026-05-27","acq_time":"154","satellite":"N","instrument":"VIIRS","confidence":"n","version":"2.0NRT","bright_ti5":"285.96","frp":"0.69","daynight":"N","commune":"Blénod-lès-Pont-à-Mousson","code_insee":"54079","departement":"Meurthe-et-Moselle","region":"Grand Est"}},{"type":"Feature","geometry":{"type":"Point","coordinates":[6.05816,48.88649]},"properties":{"latitude":"48.88649","longitude":"6.05816","bright_ti4":"304.95","scan":"0.39","track":"0.36","acq_date":"2026-05-27","acq_time":"154","satellite":"N","instrument":"VIIRS","confidence":"n","version":"2.0NRT","bright_ti5":"289.58","frp":"0.69","daynight":"N","commune":"Blénod-lès-Pont-à-Mousson","code_insee":"54079","departement":"Meurthe-et-Moselle","region":"Grand Est"}},{"type":"Feature","geometry":{"type":"Point","coordinates":[0.53282,49.47718]},"properties":{"latitude":"49.47718","longitude":"0.53282","bright_ti4":"306.14","scan":"0.46","track":"0.39","acq_date":"2026-05-27","acq_time":"154","satellite":"N","instrument":"VIIRS","confidence":"n","version":"2.0NRT","bright_ti5":"291.57","frp":"1.26","daynight":"N","commune":"Lillebonne","code_insee":"76384","departement":"Seine-Maritime","region":"Normandie"}},{"type":"Feature","geometry":{"type":"Point","coordinates":[0.21786,49.49089]},"properties":{"latitude":"49.49089","longitude":"0.21786","bright_ti4":"318.72","scan":"0.47","track":"0.4","acq_date":"2026-05-27","acq_time":"154","satellite":"N","instrument":"VIIRS","confidence":"n","version":"2.0NRT","bright_ti5":"291.98","frp":"2.37","daynight":"N","commune":"Gonfreville-l'Orcher","code_insee":"76305","departement":"Seine-Maritime","region":"Normandie"}},{"type":"Feature","geometry":{"type":"Point","coordinates":[1.89473,50.97021]},"properties":{"latitude":"50.97021","longitude":"1.89473","bright_ti4":"298.43","scan":"0.44","track":"0.38","acq_date":"2026-05-27","acq_time":"154","satellite":"N","instrument":"VIIRS","confidence":"n","version":"2.0NRT","bright_ti5":"287.75","frp":"0.71","daynight":"N","commune":"Calais","code_insee":"62193","departement":"Pas-de-Calais","region":"Hauts-de-France"}},{"type":"Feature","geometry":{"type":"Point","coordinates":[1.89511,50.9714]},"properties":{"latitude":"50.9714","longitude":"1.89511","bright_ti4":"299.65","scan":"0.44","track":"0.38","acq_date":"2026-05-27","acq_time":"154","satellite":"N","instrument":"VIIRS","confidence":"n","version":"2.0NRT","bright_ti5":"287.81","frp":"0.76","daynight":"N","commune":"Calais","code_insee":"62193","departement":"Pas-de-Calais","region":"Hauts-de-France"}},{"type":"Feature","geometry":{"type":"Point","coordinates":[2.27683,51.02807]},"properties":{"latitude":"51.02807","longitude":"2.27683","bright_ti4":"304.28","scan":"0.43","track":"0.38","acq_date":"2026-05-27","acq_time":"154","satellite":"N","instrument":"VIIRS","confidence":"n","version":"2.0NRT","bright_ti5":"288.88","frp":"1.15","daynight":"N","commune":"Grande-Synthe","code_insee":"59271","departement":"Nord","region":"Hauts-de-France"}},{"type":"Feature","geometry":{"type":"Point","coordinates":[2.27028,51.02859]},"properties":{"latitude":"51.02859","longitude":"2.27028","bright_ti4":"309.78","scan":"0.43","track":"0.38","acq_date":"2026-05-27","acq_time":"154","satellite":"N","instrument":"VIIRS","confidence":"n","version":"2.0NRT","bright_ti5":"289.92","frp":"1.68","daynight":"N","commune":"Grande-Synthe","code_insee":"59271","departement":"Nord","region":"Hauts-de-France"}},{"type":"Feature","geometry":{"type":"Point","coordinates":[2.27073,51.02883]},"properties":{"latitude":"51.02883","longitude":"2.27073","bright_ti4":"309.73","scan":"0.43","track":"0.38","acq_date":"2026-05-27","acq_time":"154","satellite":"N","instrument":"VIIRS","confidence":"n","version":"2.0NRT","bright_ti5":"290.01","frp":"1.14","daynight":"N","commune":"Grande-Synthe","code_insee":"59271","departement":"Nord","region":"Hauts-de-France"}},{"type":"Feature","geometry":{"type":"Point","coordinates":[2.28354,51.03051]},"properties":{"latitude":"51.03051","longitude":"2.28354","bright_ti4":"302.77","scan":"0.43","track":"0.38","acq_date":"2026-05-27","acq_time":"154","satellite":"N","instrument":"VIIRS","confidence":"n","version":"2.0NRT","bright_ti5":"290.31","frp":"1.65","daynight":"N","commune":"Grande-Synthe","code_insee":"59271","departement":"Nord","region":"Hauts-de-France"}},{"type":"Feature","geometry":{"type":"Point","coordinates":[2.28401,51.03078]},"properties":{"latitude":"51.03078","longitude":"2.28401","bright_ti4":"303.58","scan":"0.43","track":"0.38","acq_date":"2026-05-27","acq_time":"154","satellite":"N","instrument":"VIIRS","confidence":"n","version":"2.0NRT","bright_ti5":"290.25","frp":"1.15","daynight":"N","commune":"Grande-Synthe","code_insee":"59271","departement":"Nord","region":"Hauts-de-France"}},{"type":"Feature","geometry":{"type":"Point","coordinates":[2.27746,51.03128]},"properties":{"latitude":"51.03128","longitude":"2.27746","bright_ti4":"322.29","scan":"0.43","track":"0.38","acq_date":"2026-05-27","acq_time":"154","satellite":"N","instrument":"VIIRS","confidence":"n","version":"2.0NRT","bright_ti5":"291.66","frp":"1.68","daynight":"N","commune":"Grande-Synthe","code_insee":"59271","departement":"Nord","region":"Hauts-de-France"}},{"type":"Feature","geometry":{"type":"Point","coordinates":[2.27793,51.03154]},"properties":{"latitude":"51.03154","longitude":"2.27793","bright_ti4":"319.21","scan":"0.43","track":"0.38","acq_date":"2026-05-27","acq_time":"154","satellite":"N","instrument":"VIIRS","confidence":"n","version":"2.0NRT","bright_ti5":"291.85","frp":"1.15","daynight":"N","commune":"Grande-Synthe","code_insee":"59271","departement":"Nord","region":"Hauts-de-France"}},{"type":"Feature","geometry":{"type":"Point","coordinates":[2.28511,51.03425]},"properties":{"latitude":"51.03425","longitude":"2.28511","bright_ti4":"314.46","scan":"0.43","track":"0.38","acq_date":"2026-05-27","acq_time":"154","satellite":"N","instrument":"VIIRS","confidence":"n","version":"2.0NRT","bright_ti5":"290.87","frp":"1.48","daynight":"N","commune":"Grande-Synthe","code_insee":"59271","departement":"Nord","region":"Hauts-de-France"}},{"type":"Feature","geometry":{"type":"Point","coordinates":[2.25312,51.03437]},"properties":{"latitude":"51.03437","longitude":"2.25312","bright_ti4":"304.38","scan":"0.43","track":"0.38","acq_date":"2026-05-27","acq_time":"154","satellite":"N","instrument":"VIIRS","confidence":"n","version":"2.0NRT","bright_ti5":"289.65","frp":"1.01","daynight":"N","commune":"Dunkerque","code_insee":"59183","departement":"Nord","region":"Hauts-de-France"}},{"type":"Feature","geometry":{"type":"Point","coordinates":[2.25355,51.03456]},"properties":{"latitude":"51.03456","longitude":"2.25355","bright_ti4":"302.35","scan":"0.43","track":"0.38","acq_date":"2026-05-27","acq_time":"154","satellite":"N","instrument":"VIIRS","confidence":"n","version":"2.0NRT","bright_ti5":"289.57","frp":"0.95","daynight":"N","commune":"Dunkerque","code_insee":"59183","departement":"Nord","region":"Hauts-de-France"}},{"type":"Feature","geometry":{"type":"Point","coordinates":[2.29339,51.04042]},"properties":{"latitude":"51.04042","longitude":"2.29339","bright_ti4":"303.62","scan":"0.43","track":"0.38","acq_date":"2026-05-27","acq_time":"154","satellite":"N","instrument":"VIIRS","confidence":"n","version":"2.0NRT","bright_ti5":"290.95","frp":"3.43","daynight":"N","commune":"Grande-Synthe","code_insee":"59271","departement":"Nord","region":"Hauts-de-France"}},{"type":"Feature","geometry":{"type":"Point","coordinates":[2.29449,51.04388]},"properties":{"latitude":"51.04388","longitude":"2.29449","bright_ti4":"336.91","scan":"0.43","track":"0.38","acq_date":"2026-05-27","acq_time":"154","satellite":"N","instrument":"VIIRS","confidence":"n","version":"2.0NRT","bright_ti5":"292.79","frp":"3.43","daynight":"N","commune":"Grande-Synthe","code_insee":"59271","departement":"Nord","region":"Hauts-de-France"}},{"type":"Feature","geometry":{"type":"Point","coordinates":[8.80786,41.95218]},"properties":{"latitude":"41.95218","longitude":"8.80786","bright_ti4":"300.32","scan":"0.56","track":"0.43","acq_date":"2026-05-27","acq_time":"156","satellite":"N","instrument":"VIIRS","confidence":"n","version":"2.0NRT","bright_ti5":"288.71","frp":"0.89","daynight":"N","commune":"Sarrola-Carcopino","code_insee":"2A271","departement":"Corse-du-Sud","region":"Corse"}},{"type":"Feature","geometry":{"type":"Point","coordinates":[2.84131,43.14213]},"properties":{"latitude":"43.14213","longitude":"2.84131","bright_ti4":"307.25","scan":"0.38","track":"0.36","acq_date":"2026-05-27","acq_time":"156","satellite":"N","instrument":"VIIRS","confidence":"n","version":"2.0NRT","bright_ti5":"286.2","frp":"0.94","daynight":"N","commune":"Bizanet","code_insee":"11040","departement":"Aude","region":"Occitanie"}},{"type":"Feature","geometry":{"type":"Point","coordinates":[2.84228,43.14541]},"properties":{"latitude":"43.14541","longitude":"2.84228","bright_ti4":"306.07","scan":"0.38","track":"0.36","acq_date":"2026-05-27","acq_time":"156","satellite":"N","instrument":"VIIRS","confidence":"n","version":"2.0NRT","bright_ti5":"286.74","frp":"0.62","daynight":"N","commune":"Bizanet","code_insee":"11040","departement":"Aude","region":"Occitanie"}},{"type":"Feature","geometry":{"type":"Point","coordinates":[4.88844,43.42878]},"properties":{"latitude":"43.42878","longitude":"4.88844","bright_ti4":"305.07","scan":"0.4","track":"0.37","acq_date":"2026-05-27","acq_time":"156","satellite":"N","instrument":"VIIRS","confidence":"n","version":"2.0NRT","bright_ti5":"292.67","frp":"1.16","daynight":"N","commune":"Fos-sur-Mer","code_insee":"13039","departement":"Bouches-du-Rhône","region":"Provence-Alpes-Côte d'Azur"}},{"type":"Feature","geometry":{"type":"Point","coordinates":[4.89442,43.43124]},"properties":{"latitude":"43.43124","longitude":"4.89442","bright_ti4":"306.6","scan":"0.4","track":"0.37","acq_date":"2026-05-27","acq_time":"156","satellite":"N","instrument":"VIIRS","confidence":"n","version":"2.0NRT","bright_ti5":"293.08","frp":"1.64","daynight":"N","commune":"Fos-sur-Mer","code_insee":"13039","departement":"Bouches-du-Rhône","region":"Provence-Alpes-Côte d'Azur"}},{"type":"Feature","geometry":{"type":"Point","coordinates":[4.88092,43.43713]},"properties":{"latitude":"43.43713","longitude":"4.88092","bright_ti4":"304.71","scan":"0.4","track":"0.37","acq_date":"2026-05-27","acq_time":"156","satellite":"N","instrument":"VIIRS","confidence":"n","version":"2.0NRT","bright_ti5":"293.2","frp":"1.31","daynight":"N","commune":"Fos-sur-Mer","code_insee":"13039","departement":"Bouches-du-Rhône","region":"Provence-Alpes-Côte d'Azur"}},{"type":"Feature","geometry":{"type":"Point","coordinates":[4.89176,43.43875]},"properties":{"latitude":"43.43875","longitude":"4.89176","bright_ti4":"304.28","scan":"0.4","track":"0.37","acq_date":"2026-05-27","acq_time":"156","satellite":"N","instrument":"VIIRS","confidence":"n","version":"2.0NRT","bright_ti5":"292.37","frp":"0.95","daynight":"N","commune":"Fos-sur-Mer","code_insee":"13039","departement":"Bouches-du-Rhône","region":"Provence-Alpes-Côte d'Azur"}},{"type":"Feature","geometry":{"type":"Point","coordinates":[4.89602,43.44586]},"properties":{"latitude":"43.44586","longitude":"4.89602","bright_ti4":"333.1","scan":"0.4","track":"0.37","acq_date":"2026-05-27","acq_time":"156","satellite":"N","instrument":"VIIRS","confidence":"n","version":"2.0NRT","bright_ti5":"293.74","frp":"3.31","daynight":"N","commune":"Fos-sur-Mer","code_insee":"13039","departement":"Bouches-du-Rhône","region":"Provence-Alpes-Côte d'Azur"}},{"type":"Feature","geometry":{"type":"Point","coordinates":[4.89713,43.44918]},"properties":{"latitude":"43.44918","longitude":"4.89713","bright_ti4":"312.18","scan":"0.4","track":"0.37","acq_date":"2026-05-27","acq_time":"156","satellite":"N","instrument":"VIIRS","confidence":"n","version":"2.0NRT","bright_ti5":"290.12","frp":"0.95","daynight":"N","commune":"Fos-sur-Mer","code_insee":"13039","departement":"Bouches-du-Rhône","region":"Provence-Alpes-Côte d'Azur"}},{"type":"Feature","geometry":{"type":"Point","coordinates":[4.17802,43.52697]},"properties":{"latitude":"43.52697","longitude":"4.17802","bright_ti4":"316.5","scan":"0.39","track":"0.36","acq_date":"2026-05-27","acq_time":"156","satellite":"N","instrument":"VIIRS","confidence":"n","version":"2.0NRT","bright_ti5":"290.81","frp":"1.76","daynight":"N","commune":"Le Grau-du-Roi","code_insee":"30133","departement":"Gard","region":"Occitanie"}},{"type":"Feature","geometry":{"type":"Point","coordinates":[1.13631,43.7753]},"properties":{"latitude":"43.7753","longitude":"1.13631","bright_ti4":"300.76","scan":"0.4","track":"0.37","acq_date":"2026-05-27","acq_time":"156","satellite":"N","instrument":"VIIRS","confidence":"n","version":"2.0NRT","bright_ti5":"288.39","frp":"0.63","daynight":"N","commune":"Le Burgaud","code_insee":"31093","departement":"Haute-Garonne","region":"Occitanie"}},{"type":"Feature","geometry":{"type":"Point","coordinates":[4.61906,43.8047]},"properties":{"latitude":"43.8047","longitude":"4.61906","bright_ti4":"302.38","scan":"0.39","track":"0.36","acq_date":"2026-05-27","acq_time":"156","satellite":"N","instrument":"VIIRS","confidence":"n","version":"2.0NRT","bright_ti5":"291.91","frp":"0.56","daynight":"N","commune":"Beaucaire","code_insee":"30032","departement":"Gard","region":"Occitanie"}},{"type":"Feature","geometry":{"type":"Point","coordinates":[-0.23935,44.98864]},"properties":{"latitude":"44.98864","longitude":"-0.23935","bright_ti4":"305.86","scan":"0.44","track":"0.38","acq_date":"2026-05-27","acq_time":"156","satellite":"N","instrument":"VIIRS","confidence":"n","version":"2.0NRT","bright_ti5":"289.65","frp":"1","daynight":"N","commune":"Savignac-de-l'Isle","code_insee":"33509","departement":"Gironde","region":"Nouvelle-Aquitaine"}},{"type":"Feature","geometry":{"type":"Point","coordinates":[2.27762,51.03253]},"properties":{"latitude":"51.03253","longitude":"2.27762","bright_ti4":"301.06","scan":"0.63","track":"0.72","acq_date":"2026-05-27","acq_time":"334","satellite":"N","instrument":"VIIRS","confidence":"n","version":"2.0NRT","bright_ti5":"287.66","frp":"2.71","daynight":"N","commune":"Grande-Synthe","code_insee":"59271","departement":"Nord","region":"Hauts-de-France"}},{"type":"Feature","geometry":{"type":"Point","coordinates":[2.2912,51.03523]},"properties":{"latitude":"51.03523","longitude":"2.2912","bright_ti4":"308.1","scan":"0.63","track":"0.72","acq_date":"2026-05-27","acq_time":"334","satellite":"N","instrument":"VIIRS","confidence":"n","version":"2.0NRT","bright_ti5":"287.04","frp":"1.46","daynight":"N","commune":"Grande-Synthe","code_insee":"59271","departement":"Nord","region":"Hauts-de-France"}},{"type":"Feature","geometry":{"type":"Point","coordinates":[2.28325,51.03827]},"properties":{"latitude":"51.03827","longitude":"2.28325","bright_ti4":"301.53","scan":"0.63","track":"0.72","acq_date":"2026-05-27","acq_time":"334","satellite":"N","instrument":"VIIRS","confidence":"n","version":"2.0NRT","bright_ti5":"287.16","frp":"2.06","daynight":"N","commune":"Grande-Synthe","code_insee":"59271","departement":"Nord","region":"Hauts-de-France"}},{"type":"Feature","geometry":{"type":"Point","coordinates":[2.29678,51.04099]},"properties":{"latitude":"51.04099","longitude":"2.29678","bright_ti4":"300.45","scan":"0.63","track":"0.72","acq_date":"2026-05-27","acq_time":"334","satellite":"N","instrument":"VIIRS","confidence":"n","version":"2.0NRT","bright_ti5":"287.78","frp":"1.46","daynight":"N","commune":"Grande-Synthe","code_insee":"59271","departement":"Nord","region":"Hauts-de-France"}},{"type":"Feature","geometry":{"type":"Point","coordinates":[2.28887,51.04402]},"properties":{"latitude":"51.04402","longitude":"2.28887","bright_ti4":"300.42","scan":"0.63","track":"0.72","acq_date":"2026-05-27","acq_time":"334","satellite":"N","instrument":"VIIRS","confidence":"n","version":"2.0NRT","bright_ti5":"287.18","frp":"2.06","daynight":"N","commune":"Grande-Synthe","code_insee":"59271","departement":"Nord","region":"Hauts-de-France"}},{"type":"Feature","geometry":{"type":"Point","coordinates":[4.21303,43.4835]},"properties":{"latitude":"43.4835","longitude":"4.21303","bright_ti4":"330.28","scan":"0.51","track":"0.66","acq_date":"2026-05-27","acq_time":"1140","satellite":"N","instrument":"VIIRS","confidence":"n","version":"2.0NRT","bright_ti5":"298.7","frp":"4.49","daynight":"D","commune":"Le Grau-du-Roi","code_insee":"30133","departement":"Gard","region":"Occitanie"}},{"type":"Feature","geometry":{"type":"Point","coordinates":[4.06645,46.60401]},"properties":{"latitude":"46.60401","longitude":"4.06645","bright_ti4":"335.86","scan":"0.42","track":"0.61","acq_date":"2026-05-27","acq_time":"1140","satellite":"N","instrument":"VIIRS","confidence":"n","version":"2.0NRT","bright_ti5":"306.43","frp":"4.25","daynight":"D","commune":"Gueugnon","code_insee":"71230","departement":"Saône-et-Loire","region":"Bourgogne-Franche-Comté"}},{"type":"Feature","geometry":{"type":"Point","coordinates":[2.43268,48.62325]},"properties":{"latitude":"48.62325","longitude":"2.43268","bright_ti4":"335.01","scan":"0.42","track":"0.61","acq_date":"2026-05-27","acq_time":"1140","satellite":"N","instrument":"VIIRS","confidence":"n","version":"2.0NRT","bright_ti5":"300.43","frp":"2.6","daynight":"D","commune":"Évry-Courcouronnes","code_insee":"91228","departement":"Essonne","region":"Île-de-France"}},{"type":"Feature","geometry":{"type":"Point","coordinates":[0.22046,49.49082]},"properties":{"latitude":"49.49082","longitude":"0.22046","bright_ti4":"327.42","scan":"0.48","track":"0.65","acq_date":"2026-05-27","acq_time":"1142","satellite":"N","instrument":"VIIRS","confidence":"l","version":"2.0NRT","bright_ti5":"300.98","frp":"2.87","daynight":"D","commune":"Gonfreville-l'Orcher","code_insee":"76305","departement":"Seine-Maritime","region":"Normandie"}},{"type":"Feature","geometry":{"type":"Point","coordinates":[2.28177,51.0286]},"properties":{"latitude":"51.0286","longitude":"2.28177","bright_ti4":"339.01","scan":"0.36","track":"0.57","acq_date":"2026-05-27","acq_time":"1142","satellite":"N","instrument":"VIIRS","confidence":"n","version":"2.0NRT","bright_ti5":"299.88","frp":"4.57","daynight":"D","commune":"Grande-Synthe","code_insee":"59271","departement":"Nord","region":"Hauts-de-France"}},{"type":"Feature","geometry":{"type":"Point","coordinates":[2.27809,51.03221]},"properties":{"latitude":"51.03221","longitude":"2.27809","bright_ti4":"332.94","scan":"0.36","track":"0.57","acq_date":"2026-05-27","acq_time":"1142","satellite":"N","instrument":"VIIRS","confidence":"n","version":"2.0NRT","bright_ti5":"297.53","frp":"6.07","daynight":"D","commune":"Grande-Synthe","code_insee":"59271","departement":"Nord","region":"Hauts-de-France"}},{"type":"Feature","geometry":{"type":"Point","coordinates":[2.29786,51.04418]},"properties":{"latitude":"51.04418","longitude":"2.29786","bright_ti4":"367","scan":"0.35","track":"0.57","acq_date":"2026-05-27","acq_time":"1142","satellite":"N","instrument":"VIIRS","confidence":"h","version":"2.0NRT","bright_ti5":"298.95","frp":"6.89","daynight":"D","commune":"Grande-Synthe","code_insee":"59271","departement":"Nord","region":"Hauts-de-France"}},{"type":"Feature","geometry":{"type":"Point","coordinates":[-0.51535,43.29961]},"properties":{"latitude":"43.29961","longitude":"-0.51535","bright_ti4":"347.88","scan":"0.47","track":"0.39","acq_date":"2026-05-27","acq_time":"1321","satellite":"N","instrument":"VIIRS","confidence":"n","version":"2.0NRT","bright_ti5":"306.91","frp":"4.59","daynight":"D","commune":"Monein","code_insee":"64393","departement":"Pyrénées-Atlantiques","region":"Nouvelle-Aquitaine"}},{"type":"Feature","geometry":{"type":"Point","coordinates":[-1.07306,44.48393]},"properties":{"latitude":"44.48393","longitude":"-1.07306","bright_ti4":"346.17","scan":"0.46","track":"0.39","acq_date":"2026-05-27","acq_time":"1321","satellite":"N","instrument":"VIIRS","confidence":"n","version":"2.0NRT","bright_ti5":"305.35","frp":"9.95","daynight":"D","commune":"Sanguinet","code_insee":"40287","departement":"Landes","region":"Nouvelle-Aquitaine"}},{"type":"Feature","geometry":{"type":"Point","coordinates":[0.26115,44.61691]},"properties":{"latitude":"44.61691","longitude":"0.26115","bright_ti4":"336.7","scan":"0.51","track":"0.41","acq_date":"2026-05-27","acq_time":"1321","satellite":"N","instrument":"VIIRS","confidence":"n","version":"2.0NRT","bright_ti5":"307.07","frp":"3.24","daynight":"D","commune":"Monteton","code_insee":"47187","departement":"Lot-et-Garonne","region":"Nouvelle-Aquitaine"}},{"type":"Feature","geometry":{"type":"Point","coordinates":[2.27731,51.02765]},"properties":{"latitude":"51.02765","longitude":"2.27731","bright_ti4":"331.17","scan":"0.49","track":"0.49","acq_date":"2026-05-27","acq_time":"1323","satellite":"N","instrument":"VIIRS","confidence":"n","version":"2.0NRT","bright_ti5":"300.86","frp":"5.3","daynight":"D","commune":"Grande-Synthe","code_insee":"59271","departement":"Nord","region":"Hauts-de-France"}},{"type":"Feature","geometry":{"type":"Point","coordinates":[2.28441,51.02811]},"properties":{"latitude":"51.02811","longitude":"2.28441","bright_ti4":"341.68","scan":"0.49","track":"0.49","acq_date":"2026-05-27","acq_time":"1323","satellite":"N","instrument":"VIIRS","confidence":"n","version":"2.0NRT","bright_ti5":"302.58","frp":"5.3","daynight":"D","commune":"Grande-Synthe","code_insee":"59271","departement":"Nord","region":"Hauts-de-France"}},{"type":"Feature","geometry":{"type":"Point","coordinates":[2.27659,51.03215]},"properties":{"latitude":"51.03215","longitude":"2.27659","bright_ti4":"335.91","scan":"0.49","track":"0.49","acq_date":"2026-05-27","acq_time":"1323","satellite":"N","instrument":"VIIRS","confidence":"n","version":"2.0NRT","bright_ti5":"300.19","frp":"6.81","daynight":"D","commune":"Grande-Synthe","code_insee":"59271","departement":"Nord","region":"Hauts-de-France"}},{"type":"Feature","geometry":{"type":"Point","coordinates":[2.28368,51.03261]},"properties":{"latitude":"51.03261","longitude":"2.28368","bright_ti4":"342.13","scan":"0.49","track":"0.49","acq_date":"2026-05-27","acq_time":"1323","satellite":"N","instrument":"VIIRS","confidence":"n","version":"2.0NRT","bright_ti5":"301.1","frp":"6.81","daynight":"D","commune":"Grande-Synthe","code_insee":"59271","departement":"Nord","region":"Hauts-de-France"}},{"type":"Feature","geometry":{"type":"Point","coordinates":[2.29079,51.03307]},"properties":{"latitude":"51.03307","longitude":"2.29079","bright_ti4":"335.75","scan":"0.49","track":"0.49","acq_date":"2026-05-27","acq_time":"1323","satellite":"N","instrument":"VIIRS","confidence":"n","version":"2.0NRT","bright_ti5":"302.68","frp":"4.94","daynight":"D","commune":"Grande-Synthe","code_insee":"59271","departement":"Nord","region":"Hauts-de-France"}},{"type":"Feature","geometry":{"type":"Point","coordinates":[2.28297,51.03712]},"properties":{"latitude":"51.03712","longitude":"2.28297","bright_ti4":"342.29","scan":"0.49","track":"0.49","acq_date":"2026-05-27","acq_time":"1323","satellite":"N","instrument":"VIIRS","confidence":"n","version":"2.0NRT","bright_ti5":"299.92","frp":"6.81","daynight":"D","commune":"Grande-Synthe","code_insee":"59271","departement":"Nord","region":"Hauts-de-France"}},{"type":"Feature","geometry":{"type":"Point","coordinates":[2.29646,51.04255]},"properties":{"latitude":"51.04255","longitude":"2.29646","bright_ti4":"337.16","scan":"0.49","track":"0.49","acq_date":"2026-05-27","acq_time":"1323","satellite":"N","instrument":"VIIRS","confidence":"n","version":"2.0NRT","bright_ti5":"301.43","frp":"2.8","daynight":"D","commune":"Grande-Synthe","code_insee":"59271","departement":"Nord","region":"Hauts-de-France"}},{"type":"Feature","geometry":{"type":"Point","coordinates":[4.74656,46.43755]},"properties":{"latitude":"46.43755","longitude":"4.74656","bright_ti4":"300.42","scan":"0.67","track":"0.74","acq_date":"2026-05-27","acq_time":"33","satellite":"N20","instrument":"VIIRS","confidence":"n","version":"2.0NRT","bright_ti5":"288.64","frp":"1.03","daynight":"N","commune":"Azé","code_insee":"71016","departement":"Saône-et-Loire","region":"Bourgogne-Franche-Comté"}},{"type":"Feature","geometry":{"type":"Point","coordinates":[4.39674,47.862]},"properties":{"latitude":"47.862","longitude":"4.39674","bright_ti4":"304.3","scan":"0.7","track":"0.75","acq_date":"2026-05-27","acq_time":"33","satellite":"N20","instrument":"VIIRS","confidence":"n","version":"2.0NRT","bright_ti5":"285.17","frp":"1.61","daynight":"N","commune":"Marcenay","code_insee":"21378","departement":"Côte-d'Or","region":"Bourgogne-Franche-Comté"}},{"type":"Feature","geometry":{"type":"Point","coordinates":[4.40649,47.86214]},"properties":{"latitude":"47.86214","longitude":"4.40649","bright_ti4":"295.92","scan":"0.7","track":"0.75","acq_date":"2026-05-27","acq_time":"33","satellite":"N20","instrument":"VIIRS","confidence":"n","version":"2.0NRT","bright_ti5":"285.14","frp":"1.26","daynight":"N","commune":"Marcenay","code_insee":"21378","departement":"Côte-d'Or","region":"Bourgogne-Franche-Comté"}},{"type":"Feature","geometry":{"type":"Point","coordinates":[4.40174,47.86401]},"properties":{"latitude":"47.86401","longitude":"4.40174","bright_ti4":"317.49","scan":"0.7","track":"0.75","acq_date":"2026-05-27","acq_time":"33","satellite":"N20","instrument":"VIIRS","confidence":"n","version":"2.0NRT","bright_ti5":"285.68","frp":"2.54","daynight":"N","commune":"Marcenay","code_insee":"21378","departement":"Côte-d'Or","region":"Bourgogne-Franche-Comté"}},{"type":"Feature","geometry":{"type":"Point","coordinates":[4.88815,43.42897]},"properties":{"latitude":"43.42897","longitude":"4.88815","bright_ti4":"304.08","scan":"0.65","track":"0.73","acq_date":"2026-05-27","acq_time":"35","satellite":"N20","instrument":"VIIRS","confidence":"n","version":"2.0NRT","bright_ti5":"288.79","frp":"2.93","daynight":"N","commune":"Fos-sur-Mer","code_insee":"13039","departement":"Bouches-du-Rhône","region":"Provence-Alpes-Côte d'Azur"}},{"type":"Feature","geometry":{"type":"Point","coordinates":[4.89586,43.43109]},"properties":{"latitude":"43.43109","longitude":"4.89586","bright_ti4":"303.85","scan":"0.65","track":"0.73","acq_date":"2026-05-27","acq_time":"35","satellite":"N20","instrument":"VIIRS","confidence":"n","version":"2.0NRT","bright_ti5":"289.71","frp":"1.8","daynight":"N","commune":"Fos-sur-Mer","code_insee":"13039","departement":"Bouches-du-Rhône","region":"Provence-Alpes-Côte d'Azur"}},{"type":"Feature","geometry":{"type":"Point","coordinates":[4.17966,43.52739]},"properties":{"latitude":"43.52739","longitude":"4.17966","bright_ti4":"312.46","scan":"0.7","track":"0.75","acq_date":"2026-05-27","acq_time":"35","satellite":"N20","instrument":"VIIRS","confidence":"n","version":"2.0NRT","bright_ti5":"288.69","frp":"2.66","daynight":"N","commune":"Aigues-Mortes","code_insee":"30003","departement":"Gard","region":"Occitanie"}},{"type":"Feature","geometry":{"type":"Point","coordinates":[4.17926,43.52922]},"properties":{"latitude":"43.52922","longitude":"4.17926","bright_ti4":"314.76","scan":"0.7","track":"0.75","acq_date":"2026-05-27","acq_time":"35","satellite":"N20","instrument":"VIIRS","confidence":"n","version":"2.0NRT","bright_ti5":"289.34","frp":"2.96","daynight":"N","commune":"Aigues-Mortes","code_insee":"30003","departement":"Gard","region":"Occitanie"}},{"type":"Feature","geometry":{"type":"Point","coordinates":[2.98292,48.3873]},"properties":{"latitude":"48.3873","longitude":"2.98292","bright_ti4":"312.41","scan":"0.44","track":"0.39","acq_date":"2026-05-27","acq_time":"211","satellite":"N20","instrument":"VIIRS","confidence":"n","version":"2.0NRT","bright_ti5":"292.14","frp":"1.61","daynight":"N","commune":"Montereau-Fault-Yonne","code_insee":"77305","departement":"Seine-et-Marne","region":"Île-de-France"}},{"type":"Feature","geometry":{"type":"Point","coordinates":[5.68474,48.71713]},"properties":{"latitude":"48.71713","longitude":"5.68474","bright_ti4":"296.64","scan":"0.54","track":"0.42","acq_date":"2026-05-27","acq_time":"211","satellite":"N20","instrument":"VIIRS","confidence":"n","version":"2.0NRT","bright_ti5":"286.31","frp":"0.74","daynight":"N","commune":"Sorcy-Saint-Martin","code_insee":"55496","departement":"Meuse","region":"Grand Est"}},{"type":"Feature","geometry":{"type":"Point","coordinates":[4.56389,48.77066]},"properties":{"latitude":"48.77066","longitude":"4.56389","bright_ti4":"300.11","scan":"0.49","track":"0.4","acq_date":"2026-05-27","acq_time":"211","satellite":"N20","instrument":"VIIRS","confidence":"n","version":"2.0NRT","bright_ti5":"288.88","frp":"0.86","daynight":"N","commune":"Couvrot","code_insee":"51195","departement":"Marne","region":"Grand Est"}},{"type":"Feature","geometry":{"type":"Point","coordinates":[6.05388,48.88535]},"properties":{"latitude":"48.88535","longitude":"6.05388","bright_ti4":"301.54","scan":"0.55","track":"0.43","acq_date":"2026-05-27","acq_time":"211","satellite":"N20","instrument":"VIIRS","confidence":"n","version":"2.0NRT","bright_ti5":"287.22","frp":"1.25","daynight":"N","commune":"Blénod-lès-Pont-à-Mousson","code_insee":"54079","departement":"Meurthe-et-Moselle","region":"Grand Est"}},{"type":"Feature","geometry":{"type":"Point","coordinates":[2.73565,48.94812]},"properties":{"latitude":"48.94812","longitude":"2.73565","bright_ti4":"301.95","scan":"0.43","track":"0.38","acq_date":"2026-05-27","acq_time":"211","satellite":"N20","instrument":"VIIRS","confidence":"n","version":"2.0NRT","bright_ti5":"288.59","frp":"0.71","daynight":"N","commune":"Fresnes-sur-Marne","code_insee":"77196","departement":"Seine-et-Marne","region":"Île-de-France"}},{"type":"Feature","geometry":{"type":"Point","coordinates":[2.73668,48.94934]},"properties":{"latitude":"48.94934","longitude":"2.73668","bright_ti4":"303.43","scan":"0.43","track":"0.38","acq_date":"2026-05-27","acq_time":"211","satellite":"N20","instrument":"VIIRS","confidence":"n","version":"2.0NRT","bright_ti5":"289.9","frp":"0.96","daynight":"N","commune":"Fresnes-sur-Marne","code_insee":"77196","departement":"Seine-et-Marne","region":"Île-de-France"}},{"type":"Feature","geometry":{"type":"Point","coordinates":[0.5331,49.47739]},"properties":{"latitude":"49.47739","longitude":"0.5331","bright_ti4":"303.82","scan":"0.39","track":"0.36","acq_date":"2026-05-27","acq_time":"211","satellite":"N20","instrument":"VIIRS","confidence":"n","version":"2.0NRT","bright_ti5":"290.71","frp":"1.05","daynight":"N","commune":"Lillebonne","code_insee":"76384","departement":"Seine-Maritime","region":"Normandie"}},{"type":"Feature","geometry":{"type":"Point","coordinates":[0.22259,49.48905]},"properties":{"latitude":"49.48905","longitude":"0.22259","bright_ti4":"316.18","scan":"0.39","track":"0.36","acq_date":"2026-05-27","acq_time":"211","satellite":"N20","instrument":"VIIRS","confidence":"n","version":"2.0NRT","bright_ti5":"292.56","frp":"1.61","daynight":"N","commune":"Gonfreville-l'Orcher","code_insee":"76305","departement":"Seine-Maritime","region":"Normandie"}},{"type":"Feature","geometry":{"type":"Point","coordinates":[2.27806,51.02881]},"properties":{"latitude":"51.02881","longitude":"2.27806","bright_ti4":"315.67","scan":"0.4","track":"0.37","acq_date":"2026-05-27","acq_time":"211","satellite":"N20","instrument":"VIIRS","confidence":"n","version":"2.0NRT","bright_ti5":"289.51","frp":"0.93","daynight":"N","commune":"Grande-Synthe","code_insee":"59271","departement":"Nord","region":"Hauts-de-France"}},{"type":"Feature","geometry":{"type":"Point","coordinates":[2.27251,51.02981]},"properties":{"latitude":"51.02981","longitude":"2.27251","bright_ti4":"306.61","scan":"0.4","track":"0.37","acq_date":"2026-05-27","acq_time":"211","satellite":"N20","instrument":"VIIRS","confidence":"n","version":"2.0NRT","bright_ti5":"289.4","frp":"0.93","daynight":"N","commune":"Grande-Synthe","code_insee":"59271","departement":"Nord","region":"Hauts-de-France"}},{"type":"Feature","geometry":{"type":"Point","coordinates":[2.28511,51.03109]},"properties":{"latitude":"51.03109","longitude":"2.28511","bright_ti4":"304.08","scan":"0.4","track":"0.37","acq_date":"2026-05-27","acq_time":"211","satellite":"N20","instrument":"VIIRS","confidence":"n","version":"2.0NRT","bright_ti5":"290.07","frp":"1.5","daynight":"N","commune":"Grande-Synthe","code_insee":"59271","departement":"Nord","region":"Hauts-de-France"}},{"type":"Feature","geometry":{"type":"Point","coordinates":[2.27955,51.03209]},"properties":{"latitude":"51.03209","longitude":"2.27955","bright_ti4":"306.3","scan":"0.4","track":"0.37","acq_date":"2026-05-27","acq_time":"211","satellite":"N20","instrument":"VIIRS","confidence":"n","version":"2.0NRT","bright_ti5":"291.14","frp":"0.93","daynight":"N","commune":"Grande-Synthe","code_insee":"59271","departement":"Nord","region":"Hauts-de-France"}},{"type":"Feature","geometry":{"type":"Point","coordinates":[2.25583,51.03279]},"properties":{"latitude":"51.03279","longitude":"2.25583","bright_ti4":"307.47","scan":"0.4","track":"0.37","acq_date":"2026-05-27","acq_time":"211","satellite":"N20","instrument":"VIIRS","confidence":"n","version":"2.0NRT","bright_ti5":"289.51","frp":"1.16","daynight":"N","commune":"Dunkerque","code_insee":"59183","departement":"Nord","region":"Hauts-de-France"}},{"type":"Feature","geometry":{"type":"Point","coordinates":[2.2866,51.03437]},"properties":{"latitude":"51.03437","longitude":"2.2866","bright_ti4":"328.67","scan":"0.4","track":"0.37","acq_date":"2026-05-27","acq_time":"211","satellite":"N20","instrument":"VIIRS","confidence":"n","version":"2.0NRT","bright_ti5":"292.05","frp":"4.7","daynight":"N","commune":"Grande-Synthe","code_insee":"59271","departement":"Nord","region":"Hauts-de-France"}},{"type":"Feature","geometry":{"type":"Point","coordinates":[2.29161,51.04189]},"properties":{"latitude":"51.04189","longitude":"2.29161","bright_ti4":"309.6","scan":"0.4","track":"0.37","acq_date":"2026-05-27","acq_time":"211","satellite":"N20","instrument":"VIIRS","confidence":"n","version":"2.0NRT","bright_ti5":"291.36","frp":"1.14","daynight":"N","commune":"Grande-Synthe","code_insee":"59271","departement":"Nord","region":"Hauts-de-France"}},{"type":"Feature","geometry":{"type":"Point","coordinates":[2.29309,51.04517]},"properties":{"latitude":"51.04517","longitude":"2.29309","bright_ti4":"310.7","scan":"0.4","track":"0.37","acq_date":"2026-05-27","acq_time":"211","satellite":"N20","instrument":"VIIRS","confidence":"n","version":"2.0NRT","bright_ti5":"288.17","frp":"9.77","daynight":"N","commune":"Grande-Synthe","code_insee":"59271","departement":"Nord","region":"Hauts-de-France"}},{"type":"Feature","geometry":{"type":"Point","coordinates":[2.84359,43.1454]},"properties":{"latitude":"43.1454","longitude":"2.84359","bright_ti4":"311.27","scan":"0.54","track":"0.42","acq_date":"2026-05-27","acq_time":"213","satellite":"N20","instrument":"VIIRS","confidence":"n","version":"2.0NRT","bright_ti5":"286.1","frp":"1.44","daynight":"N","commune":"Bizanet","code_insee":"11040","departement":"Aude","region":"Occitanie"}},{"type":"Feature","geometry":{"type":"Point","coordinates":[4.89994,43.43272]},"properties":{"latitude":"43.43272","longitude":"4.89994","bright_ti4":"303.7","scan":"0.44","track":"0.46","acq_date":"2026-05-27","acq_time":"213","satellite":"N20","instrument":"VIIRS","confidence":"n","version":"2.0NRT","bright_ti5":"292.19","frp":"0.92","daynight":"N","commune":"Fos-sur-Mer","code_insee":"13039","departement":"Bouches-du-Rhône","region":"Provence-Alpes-Côte d'Azur"}},{"type":"Feature","geometry":{"type":"Point","coordinates":[4.89473,43.43392]},"properties":{"latitude":"43.43392","longitude":"4.89473","bright_ti4":"302.15","scan":"0.44","track":"0.46","acq_date":"2026-05-27","acq_time":"213","satellite":"N20","instrument":"VIIRS","confidence":"n","version":"2.0NRT","bright_ti5":"291.01","frp":"0.92","daynight":"N","commune":"Fos-sur-Mer","code_insee":"13039","departement":"Bouches-du-Rhône","region":"Provence-Alpes-Côte d'Azur"}},{"type":"Feature","geometry":{"type":"Point","coordinates":[4.90012,43.44613]},"properties":{"latitude":"43.44613","longitude":"4.90012","bright_ti4":"327.44","scan":"0.44","track":"0.46","acq_date":"2026-05-27","acq_time":"213","satellite":"N20","instrument":"VIIRS","confidence":"n","version":"2.0NRT","bright_ti5":"292.59","frp":"5.58","daynight":"N","commune":"Fos-sur-Mer","code_insee":"13039","departement":"Bouches-du-Rhône","region":"Provence-Alpes-Côte d'Azur"}},{"type":"Feature","geometry":{"type":"Point","coordinates":[4.89638,43.44705]},"properties":{"latitude":"43.44705","longitude":"4.89638","bright_ti4":"344.54","scan":"0.44","track":"0.46","acq_date":"2026-05-27","acq_time":"213","satellite":"N20","instrument":"VIIRS","confidence":"n","version":"2.0NRT","bright_ti5":"293.34","frp":"9.99","daynight":"N","commune":"Fos-sur-Mer","code_insee":"13039","departement":"Bouches-du-Rhône","region":"Provence-Alpes-Côte d'Azur"}},{"type":"Feature","geometry":{"type":"Point","coordinates":[4.89493,43.44733]},"properties":{"latitude":"43.44733","longitude":"4.89493","bright_ti4":"337.28","scan":"0.44","track":"0.46","acq_date":"2026-05-27","acq_time":"213","satellite":"N20","instrument":"VIIRS","confidence":"n","version":"2.0NRT","bright_ti5":"290.51","frp":"6.28","daynight":"N","commune":"Fos-sur-Mer","code_insee":"13039","departement":"Bouches-du-Rhône","region":"Provence-Alpes-Côte d'Azur"}},{"type":"Feature","geometry":{"type":"Point","coordinates":[4.18237,43.52729]},"properties":{"latitude":"43.52729","longitude":"4.18237","bright_ti4":"309.5","scan":"0.4","track":"0.45","acq_date":"2026-05-27","acq_time":"213","satellite":"N20","instrument":"VIIRS","confidence":"n","version":"2.0NRT","bright_ti5":"289.34","frp":"1.11","daynight":"N","commune":"Aigues-Mortes","code_insee":"30003","departement":"Gard","region":"Occitanie"}},{"type":"Feature","geometry":{"type":"Point","coordinates":[1.13712,43.77862]},"properties":{"latitude":"43.77862","longitude":"1.13712","bright_ti4":"301.28","scan":"0.46","track":"0.39","acq_date":"2026-05-27","acq_time":"213","satellite":"N20","instrument":"VIIRS","confidence":"n","version":"2.0NRT","bright_ti5":"289.34","frp":"0.67","daynight":"N","commune":"Le Burgaud","code_insee":"31093","departement":"Haute-Garonne","region":"Occitanie"}},{"type":"Feature","geometry":{"type":"Point","coordinates":[1.23096,43.98957]},"properties":{"latitude":"43.98957","longitude":"1.23096","bright_ti4":"297.12","scan":"0.46","track":"0.39","acq_date":"2026-05-27","acq_time":"213","satellite":"N20","instrument":"VIIRS","confidence":"n","version":"2.0NRT","bright_ti5":"286.9","frp":"0.46","daynight":"N","commune":"Montech","code_insee":"82125","departement":"Tarn-et-Garonne","region":"Occitanie"}},{"type":"Feature","geometry":{"type":"Point","coordinates":[-0.23767,44.9903]},"properties":{"latitude":"44.9903","longitude":"-0.23767","bright_ti4":"306.08","scan":"0.41","track":"0.37","acq_date":"2026-05-27","acq_time":"213","satellite":"N20","instrument":"VIIRS","confidence":"n","version":"2.0NRT","bright_ti5":"290.73","frp":"1.14","daynight":"N","commune":"Savignac-de-l'Isle","code_insee":"33509","departement":"Gironde","region":"Nouvelle-Aquitaine"}},{"type":"Feature","geometry":{"type":"Point","coordinates":[5.82409,45.91259]},"properties":{"latitude":"45.91259","longitude":"5.82409","bright_ti4":"302.74","scan":"0.42","track":"0.45","acq_date":"2026-05-27","acq_time":"213","satellite":"N20","instrument":"VIIRS","confidence":"n","version":"2.0NRT","bright_ti5":"290.5","frp":"1.22","daynight":"N","commune":"Anglefort","code_insee":"01010","departement":"Ain","region":"Auvergne-Rhône-Alpes"}},{"type":"Feature","geometry":{"type":"Point","coordinates":[-0.13964,46.80939]},"properties":{"latitude":"46.80939","longitude":"-0.13964","bright_ti4":"303.63","scan":"0.4","track":"0.37","acq_date":"2026-05-27","acq_time":"213","satellite":"N20","instrument":"VIIRS","confidence":"n","version":"2.0NRT","bright_ti5":"290.57","frp":"0.74","daynight":"N","commune":"Airvault","code_insee":"79005","departement":"Deux-Sèvres","region":"Nouvelle-Aquitaine"}},{"type":"Feature","geometry":{"type":"Point","coordinates":[-1.03686,48.10948]},"properties":{"latitude":"48.10948","longitude":"-1.03686","bright_ti4":"310.4","scan":"0.38","track":"0.36","acq_date":"2026-05-27","acq_time":"213","satellite":"N20","instrument":"VIIRS","confidence":"n","version":"2.0NRT","bright_ti5":"294.57","frp":"1.26","daynight":"N","commune":"Saint-Pierre-la-Cour","code_insee":"53247","departement":"Mayenne","region":"Pays de la Loire"}},{"type":"Feature","geometry":{"type":"Point","coordinates":[2.77391,42.70052]},"properties":{"latitude":"42.70052","longitude":"2.77391","bright_ti4":"341.63","scan":"0.33","track":"0.56","acq_date":"2026-05-27","acq_time":"1157","satellite":"N20","instrument":"VIIRS","confidence":"n","version":"2.0NRT","bright_ti5":"303.68","frp":"2.11","daynight":"D","commune":"Pézilla-la-Rivière","code_insee":"66140","departement":"Pyrénées-Orientales","region":"Occitanie"}},{"type":"Feature","geometry":{"type":"Point","coordinates":[4.90162,43.44624]},"properties":{"latitude":"43.44624","longitude":"4.90162","bright_ti4":"333.8","scan":"0.5","track":"0.49","acq_date":"2026-05-27","acq_time":"1157","satellite":"N20","instrument":"VIIRS","confidence":"l","version":"2.0NRT","bright_ti5":"307.31","frp":"4.11","daynight":"D","commune":"Fos-sur-Mer","code_insee":"13039","departement":"Bouches-du-Rhône","region":"Provence-Alpes-Côte d'Azur"}},{"type":"Feature","geometry":{"type":"Point","coordinates":[4.18139,43.52311]},"properties":{"latitude":"43.52311","longitude":"4.18139","bright_ti4":"340.22","scan":"0.54","track":"0.51","acq_date":"2026-05-27","acq_time":"1157","satellite":"N20","instrument":"VIIRS","confidence":"n","version":"2.0NRT","bright_ti5":"304.61","frp":"5.84","daynight":"D","commune":"Aigues-Mortes","code_insee":"30003","departement":"Gard","region":"Occitanie"}},{"type":"Feature","geometry":{"type":"Point","coordinates":[4.18267,43.52461]},"properties":{"latitude":"43.52461","longitude":"4.18267","bright_ti4":"332.85","scan":"0.54","track":"0.51","acq_date":"2026-05-27","acq_time":"1157","satellite":"N20","instrument":"VIIRS","confidence":"l","version":"2.0NRT","bright_ti5":"304.4","frp":"3.98","daynight":"D","commune":"Aigues-Mortes","code_insee":"30003","departement":"Gard","region":"Occitanie"}},{"type":"Feature","geometry":{"type":"Point","coordinates":[4.83761,43.84325]},"properties":{"latitude":"43.84325","longitude":"4.83761","bright_ti4":"332.41","scan":"0.5","track":"0.49","acq_date":"2026-05-27","acq_time":"1157","satellite":"N20","instrument":"VIIRS","confidence":"l","version":"2.0NRT","bright_ti5":"303.08","frp":"3.05","daynight":"D","commune":"Eyragues","code_insee":"13036","departement":"Bouches-du-Rhône","region":"Provence-Alpes-Côte d'Azur"}},{"type":"Feature","geometry":{"type":"Point","coordinates":[7.43412,47.73687]},"properties":{"latitude":"47.73687","longitude":"7.43412","bright_ti4":"346.19","scan":"0.48","track":"0.4","acq_date":"2026-05-27","acq_time":"1157","satellite":"N20","instrument":"VIIRS","confidence":"n","version":"2.0NRT","bright_ti5":"303.85","frp":"5.42","daynight":"D","commune":"Habsheim","code_insee":"68118","departement":"Haut-Rhin","region":"Grand Est"}},{"type":"Feature","geometry":{"type":"Point","coordinates":[7.4403,47.73812]},"properties":{"latitude":"47.73812","longitude":"7.4403","bright_ti4":"346.56","scan":"0.48","track":"0.4","acq_date":"2026-05-27","acq_time":"1157","satellite":"N20","instrument":"VIIRS","confidence":"n","version":"2.0NRT","bright_ti5":"301.97","frp":"5.42","daynight":"D","commune":"Habsheim","code_insee":"68118","departement":"Haut-Rhin","region":"Grand Est"}},{"type":"Feature","geometry":{"type":"Point","coordinates":[7.43871,47.74166]},"properties":{"latitude":"47.74166","longitude":"7.43871","bright_ti4":"348.15","scan":"0.48","track":"0.4","acq_date":"2026-05-27","acq_time":"1157","satellite":"N20","instrument":"VIIRS","confidence":"n","version":"2.0NRT","bright_ti5":"307.27","frp":"13.86","daynight":"D","commune":"Habsheim","code_insee":"68118","departement":"Haut-Rhin","region":"Grand Est"}},{"type":"Feature","geometry":{"type":"Point","coordinates":[7.71235,48.50926]},"properties":{"latitude":"48.50926","longitude":"7.71235","bright_ti4":"338.73","scan":"0.46","track":"0.39","acq_date":"2026-05-27","acq_time":"1157","satellite":"N20","instrument":"VIIRS","confidence":"n","version":"2.0NRT","bright_ti5":"308","frp":"4.53","daynight":"D","commune":"Illkirch-Graffenstaden","code_insee":"67218","departement":"Bas-Rhin","region":"Grand Est"}},{"type":"Feature","geometry":{"type":"Point","coordinates":[3.54176,50.37643]},"properties":{"latitude":"50.37643","longitude":"3.54176","bright_ti4":"342.21","scan":"0.39","track":"0.44","acq_date":"2026-05-27","acq_time":"1200","satellite":"N20","instrument":"VIIRS","confidence":"n","version":"2.0NRT","bright_ti5":"300.98","frp":"0.79","daynight":"D","commune":"Valenciennes","code_insee":"59606","departement":"Nord","region":"Hauts-de-France"}},{"type":"Feature","geometry":{"type":"Point","coordinates":[3.56206,50.40249]},"properties":{"latitude":"50.40249","longitude":"3.56206","bright_ti4":"340.57","scan":"0.39","track":"0.44","acq_date":"2026-05-27","acq_time":"1200","satellite":"N20","instrument":"VIIRS","confidence":"n","version":"2.0NRT","bright_ti5":"301.14","frp":"3.52","daynight":"D","commune":"Saint-Saulve","code_insee":"59544","departement":"Nord","region":"Hauts-de-France"}},{"type":"Feature","geometry":{"type":"Point","coordinates":[2.28353,51.0279]},"properties":{"latitude":"51.0279","longitude":"2.28353","bright_ti4":"342.13","scan":"0.42","track":"0.45","acq_date":"2026-05-27","acq_time":"1200","satellite":"N20","instrument":"VIIRS","confidence":"n","version":"2.0NRT","bright_ti5":"304.23","frp":"7.69","daynight":"D","commune":"Grande-Synthe","code_insee":"59271","departement":"Nord","region":"Hauts-de-France"}},{"type":"Feature","geometry":{"type":"Point","coordinates":[2.28678,51.03315]},"properties":{"latitude":"51.03315","longitude":"2.28678","bright_ti4":"332.72","scan":"0.42","track":"0.45","acq_date":"2026-05-27","acq_time":"1200","satellite":"N20","instrument":"VIIRS","confidence":"l","version":"2.0NRT","bright_ti5":"303.15","frp":"6.62","daynight":"D","commune":"Grande-Synthe","code_insee":"59271","departement":"Nord","region":"Hauts-de-France"}},{"type":"Feature","geometry":{"type":"Point","coordinates":[2.29882,51.04499]},"properties":{"latitude":"51.04499","longitude":"2.29882","bright_ti4":"340.81","scan":"0.41","track":"0.45","acq_date":"2026-05-27","acq_time":"1200","satellite":"N20","instrument":"VIIRS","confidence":"n","version":"2.0NRT","bright_ti5":"300.47","frp":"10.96","daynight":"D","commune":"Grande-Synthe","code_insee":"59271","departement":"Nord","region":"Hauts-de-France"}},{"type":"Feature","geometry":{"type":"Point","coordinates":[4.90178,43.44523]},"properties":{"latitude":"43.44523","longitude":"4.90178","bright_ti4":"336.46","scan":"0.56","track":"0.68","acq_date":"2026-05-27","acq_time":"1338","satellite":"N20","instrument":"VIIRS","confidence":"n","version":"2.0NRT","bright_ti5":"302.4","frp":"4.73","daynight":"D","commune":"Fos-sur-Mer","code_insee":"13039","departement":"Bouches-du-Rhône","region":"Provence-Alpes-Côte d'Azur"}},{"type":"Feature","geometry":{"type":"Point","coordinates":[4.90021,43.44707]},"properties":{"latitude":"43.44707","longitude":"4.90021","bright_ti4":"334.91","scan":"0.56","track":"0.68","acq_date":"2026-05-27","acq_time":"1338","satellite":"N20","instrument":"VIIRS","confidence":"n","version":"2.0NRT","bright_ti5":"301.76","frp":"5.62","daynight":"D","commune":"Fos-sur-Mer","code_insee":"13039","departement":"Bouches-du-Rhône","region":"Provence-Alpes-Côte d'Azur"}},{"type":"Feature","geometry":{"type":"Point","coordinates":[0.26329,44.61694]},"properties":{"latitude":"44.61694","longitude":"0.26329","bright_ti4":"339.6","scan":"0.33","track":"0.55","acq_date":"2026-05-27","acq_time":"1338","satellite":"N20","instrument":"VIIRS","confidence":"n","version":"2.0NRT","bright_ti5":"304.42","frp":"1.66","daynight":"D","commune":"Monteton","code_insee":"47187","departement":"Lot-et-Garonne","region":"Nouvelle-Aquitaine"}},{"type":"Feature","geometry":{"type":"Point","coordinates":[0.22249,49.48925]},"properties":{"latitude":"49.48925","longitude":"0.22249","bright_ti4":"332.77","scan":"0.36","track":"0.57","acq_date":"2026-05-27","acq_time":"1340","satellite":"N20","instrument":"VIIRS","confidence":"n","version":"2.0NRT","bright_ti5":"305.65","frp":"3.12","daynight":"D","commune":"Gonfreville-l'Orcher","code_insee":"76305","departement":"Seine-Maritime","region":"Normandie"}},{"type":"Feature","geometry":{"type":"Point","coordinates":[2.27293,51.02727]},"properties":{"latitude":"51.02727","longitude":"2.27293","bright_ti4":"334.98","scan":"0.45","track":"0.63","acq_date":"2026-05-27","acq_time":"1340","satellite":"N20","instrument":"VIIRS","confidence":"n","version":"2.0NRT","bright_ti5":"296.75","frp":"8.6","daynight":"D","commune":"Grande-Synthe","code_insee":"59271","departement":"Nord","region":"Hauts-de-France"}},{"type":"Feature","geometry":{"type":"Point","coordinates":[2.27948,51.02736]},"properties":{"latitude":"51.02736","longitude":"2.27948","bright_ti4":"355.42","scan":"0.45","track":"0.63","acq_date":"2026-05-27","acq_time":"1340","satellite":"N20","instrument":"VIIRS","confidence":"n","version":"2.0NRT","bright_ti5":"300.21","frp":"12.96","daynight":"D","commune":"Grande-Synthe","code_insee":"59271","departement":"Nord","region":"Hauts-de-France"}},{"type":"Feature","geometry":{"type":"Point","coordinates":[2.28592,51.03332]},"properties":{"latitude":"51.03332","longitude":"2.28592","bright_ti4":"332.07","scan":"0.45","track":"0.63","acq_date":"2026-05-27","acq_time":"1340","satellite":"N20","instrument":"VIIRS","confidence":"n","version":"2.0NRT","bright_ti5":"297.48","frp":"12.96","daynight":"D","commune":"Grande-Synthe","code_insee":"59271","departement":"Nord","region":"Hauts-de-France"}},{"type":"Feature","geometry":{"type":"Point","coordinates":[5.81805,45.91246]},"properties":{"latitude":"45.91246","longitude":"5.81805","bright_ti4":"301.98","scan":"0.46","track":"0.39","acq_date":"2026-05-27","acq_time":"120","satellite":"N21","instrument":"VIIRS","confidence":"n","version":"2.0NRT","bright_ti5":"290.04","frp":"1.17","daynight":"N","commune":"Anglefort","code_insee":"01010","departement":"Ain","region":"Auvergne-Rhône-Alpes"}},{"type":"Feature","geometry":{"type":"Point","coordinates":[7.23455,47.62774]},"properties":{"latitude":"47.62774","longitude":"7.23455","bright_ti4":"296.77","scan":"0.44","track":"0.38","acq_date":"2026-05-27","acq_time":"120","satellite":"N21","instrument":"VIIRS","confidence":"n","version":"2.0NRT","bright_ti5":"285.25","frp":"0.84","daynight":"N","commune":"Altkirch","code_insee":"68004","departement":"Haut-Rhin","region":"Grand Est"}},{"type":"Feature","geometry":{"type":"Point","coordinates":[2.97931,48.3856]},"properties":{"latitude":"48.3856","longitude":"2.97931","bright_ti4":"306.42","scan":"0.43","track":"0.46","acq_date":"2026-05-27","acq_time":"120","satellite":"N21","instrument":"VIIRS","confidence":"n","version":"2.0NRT","bright_ti5":"291.98","frp":"1.47","daynight":"N","commune":"Montereau-Fault-Yonne","code_insee":"77305","departement":"Seine-et-Marne","region":"Île-de-France"}},{"type":"Feature","geometry":{"type":"Point","coordinates":[6.10981,48.56096]},"properties":{"latitude":"48.56096","longitude":"6.10981","bright_ti4":"298.16","scan":"0.48","track":"0.4","acq_date":"2026-05-27","acq_time":"120","satellite":"N21","instrument":"VIIRS","confidence":"n","version":"2.0NRT","bright_ti5":"287.68","frp":"0.64","daynight":"N","commune":"Xeuilley","code_insee":"54596","departement":"Meurthe-et-Moselle","region":"Grand Est"}},{"type":"Feature","geometry":{"type":"Point","coordinates":[6.96588,48.6922]},"properties":{"latitude":"48.6922","longitude":"6.96588","bright_ti4":"301.6","scan":"0.46","track":"0.39","acq_date":"2026-05-27","acq_time":"120","satellite":"N21","instrument":"VIIRS","confidence":"n","version":"2.0NRT","bright_ti5":"288.26","frp":"1.52","daynight":"N","commune":"Héming","code_insee":"57314","departement":"Moselle","region":"Grand Est"}},{"type":"Feature","geometry":{"type":"Point","coordinates":[2.73879,48.95044]},"properties":{"latitude":"48.95044","longitude":"2.73879","bright_ti4":"300.19","scan":"0.44","track":"0.46","acq_date":"2026-05-27","acq_time":"120","satellite":"N21","instrument":"VIIRS","confidence":"n","version":"2.0NRT","bright_ti5":"289.89","frp":"0.99","daynight":"N","commune":"Fresnes-sur-Marne","code_insee":"77196","departement":"Seine-et-Marne","region":"Île-de-France"}},{"type":"Feature","geometry":{"type":"Point","coordinates":[2.46314,50.62527]},"properties":{"latitude":"50.62527","longitude":"2.46314","bright_ti4":"303.72","scan":"0.48","track":"0.48","acq_date":"2026-05-27","acq_time":"120","satellite":"N21","instrument":"VIIRS","confidence":"n","version":"2.0NRT","bright_ti5":"288.26","frp":"0.97","daynight":"N","commune":"Isbergues","code_insee":"62473","departement":"Pas-de-Calais","region":"Hauts-de-France"}},{"type":"Feature","geometry":{"type":"Point","coordinates":[2.28103,51.02719]},"properties":{"latitude":"51.02719","longitude":"2.28103","bright_ti4":"306.6","scan":"0.49","track":"0.48","acq_date":"2026-05-27","acq_time":"120","satellite":"N21","instrument":"VIIRS","confidence":"n","version":"2.0NRT","bright_ti5":"290","frp":"1.76","daynight":"N","commune":"Grande-Synthe","code_insee":"59271","departement":"Nord","region":"Hauts-de-France"}},{"type":"Feature","geometry":{"type":"Point","coordinates":[2.274,51.02766]},"properties":{"latitude":"51.02766","longitude":"2.274","bright_ti4":"306.24","scan":"0.49","track":"0.49","acq_date":"2026-05-27","acq_time":"120","satellite":"N21","instrument":"VIIRS","confidence":"n","version":"2.0NRT","bright_ti5":"289.55","frp":"1.76","daynight":"N","commune":"Grande-Synthe","code_insee":"59271","departement":"Nord","region":"Hauts-de-France"}},{"type":"Feature","geometry":{"type":"Point","coordinates":[2.28877,51.0312]},"properties":{"latitude":"51.0312","longitude":"2.28877","bright_ti4":"303.07","scan":"0.49","track":"0.48","acq_date":"2026-05-27","acq_time":"120","satellite":"N21","instrument":"VIIRS","confidence":"n","version":"2.0NRT","bright_ti5":"289.69","frp":"0.95","daynight":"N","commune":"Grande-Synthe","code_insee":"59271","departement":"Nord","region":"Hauts-de-France"}},{"type":"Feature","geometry":{"type":"Point","coordinates":[2.28177,51.03166]},"properties":{"latitude":"51.03166","longitude":"2.28177","bright_ti4":"309.47","scan":"0.49","track":"0.48","acq_date":"2026-05-27","acq_time":"120","satellite":"N21","instrument":"VIIRS","confidence":"n","version":"2.0NRT","bright_ti5":"290.98","frp":"1.76","daynight":"N","commune":"Grande-Synthe","code_insee":"59271","departement":"Nord","region":"Hauts-de-France"}},{"type":"Feature","geometry":{"type":"Point","coordinates":[2.28949,51.03566]},"properties":{"latitude":"51.03566","longitude":"2.28949","bright_ti4":"318.47","scan":"0.49","track":"0.48","acq_date":"2026-05-27","acq_time":"120","satellite":"N21","instrument":"VIIRS","confidence":"n","version":"2.0NRT","bright_ti5":"290.89","frp":"1.62","daynight":"N","commune":"Grande-Synthe","code_insee":"59271","departement":"Nord","region":"Hauts-de-France"}},{"type":"Feature","geometry":{"type":"Point","coordinates":[2.29022,51.04012]},"properties":{"latitude":"51.04012","longitude":"2.29022","bright_ti4":"302.56","scan":"0.49","track":"0.48","acq_date":"2026-05-27","acq_time":"120","satellite":"N21","instrument":"VIIRS","confidence":"n","version":"2.0NRT","bright_ti5":"290.5","frp":"1.62","daynight":"N","commune":"Grande-Synthe","code_insee":"59271","departement":"Nord","region":"Hauts-de-France"}},{"type":"Feature","geometry":{"type":"Point","coordinates":[2.29796,51.04411]},"properties":{"latitude":"51.04411","longitude":"2.29796","bright_ti4":"337.95","scan":"0.49","track":"0.48","acq_date":"2026-05-27","acq_time":"120","satellite":"N21","instrument":"VIIRS","confidence":"n","version":"2.0NRT","bright_ti5":"293.22","frp":"12.77","daynight":"N","commune":"Grande-Synthe","code_insee":"59271","departement":"Nord","region":"Hauts-de-France"}},{"type":"Feature","geometry":{"type":"Point","coordinates":[2.83632,43.14345]},"properties":{"latitude":"43.14345","longitude":"2.83632","bright_ti4":"301.9","scan":"0.57","track":"0.43","acq_date":"2026-05-27","acq_time":"122","satellite":"N21","instrument":"VIIRS","confidence":"n","version":"2.0NRT","bright_ti5":"285.75","frp":"1.97","daynight":"N","commune":"Bizanet","code_insee":"11040","departement":"Aude","region":"Occitanie"}},{"type":"Feature","geometry":{"type":"Point","coordinates":[2.83678,43.14509]},"properties":{"latitude":"43.14509","longitude":"2.83678","bright_ti4":"301.38","scan":"0.57","track":"0.43","acq_date":"2026-05-27","acq_time":"122","satellite":"N21","instrument":"VIIRS","confidence":"n","version":"2.0NRT","bright_ti5":"285.78","frp":"0.94","daynight":"N","commune":"Bizanet","code_insee":"11040","departement":"Aude","region":"Occitanie"}},{"type":"Feature","geometry":{"type":"Point","coordinates":[4.89666,43.42986]},"properties":{"latitude":"43.42986","longitude":"4.89666","bright_ti4":"305.29","scan":"0.47","track":"0.4","acq_date":"2026-05-27","acq_time":"122","satellite":"N21","instrument":"VIIRS","confidence":"n","version":"2.0NRT","bright_ti5":"293.29","frp":"1.48","daynight":"N","commune":"Fos-sur-Mer","code_insee":"13039","departement":"Bouches-du-Rhône","region":"Provence-Alpes-Côte d'Azur"}},{"type":"Feature","geometry":{"type":"Point","coordinates":[4.89745,43.43349]},"properties":{"latitude":"43.43349","longitude":"4.89745","bright_ti4":"306.62","scan":"0.47","track":"0.4","acq_date":"2026-05-27","acq_time":"122","satellite":"N21","instrument":"VIIRS","confidence":"n","version":"2.0NRT","bright_ti5":"292.61","frp":"1.48","daynight":"N","commune":"Fos-sur-Mer","code_insee":"13039","departement":"Bouches-du-Rhône","region":"Provence-Alpes-Côte d'Azur"}},{"type":"Feature","geometry":{"type":"Point","coordinates":[4.8866,43.43846]},"properties":{"latitude":"43.43846","longitude":"4.8866","bright_ti4":"303.43","scan":"0.47","track":"0.4","acq_date":"2026-05-27","acq_time":"122","satellite":"N21","instrument":"VIIRS","confidence":"n","version":"2.0NRT","bright_ti5":"291.33","frp":"1.95","daynight":"N","commune":"Fos-sur-Mer","code_insee":"13039","departement":"Bouches-du-Rhône","region":"Provence-Alpes-Côte d'Azur"}},{"type":"Feature","geometry":{"type":"Point","coordinates":[4.89978,43.44437]},"properties":{"latitude":"43.44437","longitude":"4.89978","bright_ti4":"307.64","scan":"0.47","track":"0.4","acq_date":"2026-05-27","acq_time":"122","satellite":"N21","instrument":"VIIRS","confidence":"n","version":"2.0NRT","bright_ti5":"292.45","frp":"1.78","daynight":"N","commune":"Fos-sur-Mer","code_insee":"13039","departement":"Bouches-du-Rhône","region":"Provence-Alpes-Côte d'Azur"}},{"type":"Feature","geometry":{"type":"Point","coordinates":[4.89475,43.44867]},"properties":{"latitude":"43.44867","longitude":"4.89475","bright_ti4":"314.38","scan":"0.47","track":"0.4","acq_date":"2026-05-27","acq_time":"122","satellite":"N21","instrument":"VIIRS","confidence":"n","version":"2.0NRT","bright_ti5":"290.87","frp":"1.78","daynight":"N","commune":"Fos-sur-Mer","code_insee":"13039","departement":"Bouches-du-Rhône","region":"Provence-Alpes-Côte d'Azur"}},{"type":"Feature","geometry":{"type":"Point","coordinates":[4.17966,43.52595]},"properties":{"latitude":"43.52595","longitude":"4.17966","bright_ti4":"324.86","scan":"0.5","track":"0.41","acq_date":"2026-05-27","acq_time":"122","satellite":"N21","instrument":"VIIRS","confidence":"n","version":"2.0NRT","bright_ti5":"290.66","frp":"3.68","daynight":"N","commune":"Aigues-Mortes","code_insee":"30003","departement":"Gard","region":"Occitanie"}},{"type":"Feature","geometry":{"type":"Point","coordinates":[0.53747,49.47677]},"properties":{"latitude":"49.47677","longitude":"0.53747","bright_ti4":"300.71","scan":"0.35","track":"0.57","acq_date":"2026-05-27","acq_time":"300","satellite":"N21","instrument":"VIIRS","confidence":"n","version":"2.0NRT","bright_ti5":"289.16","frp":"1.15","daynight":"N","commune":"Port-Jérôme-sur-Seine","code_insee":"76476","departement":"Seine-Maritime","region":"Normandie"}},{"type":"Feature","geometry":{"type":"Point","coordinates":[0.22173,49.48905]},"properties":{"latitude":"49.48905","longitude":"0.22173","bright_ti4":"313.82","scan":"0.34","track":"0.56","acq_date":"2026-05-27","acq_time":"300","satellite":"N21","instrument":"VIIRS","confidence":"n","version":"2.0NRT","bright_ti5":"291.49","frp":"0.82","daynight":"N","commune":"Gonfreville-l'Orcher","code_insee":"76305","departement":"Seine-Maritime","region":"Normandie"}},{"type":"Feature","geometry":{"type":"Point","coordinates":[1.24497,49.70772]},"properties":{"latitude":"49.70772","longitude":"1.24497","bright_ti4":"298.88","scan":"0.37","track":"0.58","acq_date":"2026-05-27","acq_time":"300","satellite":"N21","instrument":"VIIRS","confidence":"n","version":"2.0NRT","bright_ti5":"285.3","frp":"0.63","daynight":"N","commune":"Bellencombre","code_insee":"76070","departement":"Seine-Maritime","region":"Normandie"}},{"type":"Feature","geometry":{"type":"Point","coordinates":[2.26836,51.02614]},"properties":{"latitude":"51.02614","longitude":"2.26836","bright_ti4":"303.82","scan":"0.36","track":"0.58","acq_date":"2026-05-27","acq_time":"300","satellite":"N21","instrument":"VIIRS","confidence":"n","version":"2.0NRT","bright_ti5":"288.77","frp":"1.2","daynight":"N","commune":"Grande-Synthe","code_insee":"59271","departement":"Nord","region":"Hauts-de-France"}},{"type":"Feature","geometry":{"type":"Point","coordinates":[2.27678,51.0295]},"properties":{"latitude":"51.0295","longitude":"2.27678","bright_ti4":"302.05","scan":"0.36","track":"0.58","acq_date":"2026-05-27","acq_time":"300","satellite":"N21","instrument":"VIIRS","confidence":"n","version":"2.0NRT","bright_ti5":"288.7","frp":"1.2","daynight":"N","commune":"Grande-Synthe","code_insee":"59271","departement":"Nord","region":"Hauts-de-France"}},{"type":"Feature","geometry":{"type":"Point","coordinates":[2.28521,51.03286]},"properties":{"latitude":"51.03286","longitude":"2.28521","bright_ti4":"333.75","scan":"0.36","track":"0.58","acq_date":"2026-05-27","acq_time":"300","satellite":"N21","instrument":"VIIRS","confidence":"n","version":"2.0NRT","bright_ti5":"291.17","frp":"4.86","daynight":"N","commune":"Grande-Synthe","code_insee":"59271","departement":"Nord","region":"Hauts-de-France"}},{"type":"Feature","geometry":{"type":"Point","coordinates":[2.2927,51.04242]},"properties":{"latitude":"51.04242","longitude":"2.2927","bright_ti4":"306.62","scan":"0.36","track":"0.58","acq_date":"2026-05-27","acq_time":"300","satellite":"N21","instrument":"VIIRS","confidence":"n","version":"2.0NRT","bright_ti5":"290.55","frp":"1.82","daynight":"N","commune":"Grande-Synthe","code_insee":"59271","departement":"Nord","region":"Hauts-de-France"}},{"type":"Feature","geometry":{"type":"Point","coordinates":[2.83947,43.14105]},"properties":{"latitude":"43.14105","longitude":"2.83947","bright_ti4":"295.39","scan":"0.71","track":"0.75","acq_date":"2026-05-27","acq_time":"302","satellite":"N21","instrument":"VIIRS","confidence":"n","version":"2.0NRT","bright_ti5":"284.46","frp":"0.97","daynight":"N","commune":"Bizanet","code_insee":"11040","departement":"Aude","region":"Occitanie"}},{"type":"Feature","geometry":{"type":"Point","coordinates":[2.84019,43.14287]},"properties":{"latitude":"43.14287","longitude":"2.84019","bright_ti4":"295.53","scan":"0.71","track":"0.75","acq_date":"2026-05-27","acq_time":"302","satellite":"N21","instrument":"VIIRS","confidence":"n","version":"2.0NRT","bright_ti5":"284.81","frp":"0.75","daynight":"N","commune":"Bizanet","code_insee":"11040","departement":"Aude","region":"Occitanie"}},{"type":"Feature","geometry":{"type":"Point","coordinates":[-0.24062,44.98901]},"properties":{"latitude":"44.98901","longitude":"-0.24062","bright_ti4":"304.84","scan":"0.45","track":"0.63","acq_date":"2026-05-27","acq_time":"302","satellite":"N21","instrument":"VIIRS","confidence":"n","version":"2.0NRT","bright_ti5":"289.23","frp":"1.54","daynight":"N","commune":"Savignac-de-l'Isle","code_insee":"33509","departement":"Gironde","region":"Nouvelle-Aquitaine"}},{"type":"Feature","geometry":{"type":"Point","coordinates":[2.28013,51.02927]},"properties":{"latitude":"51.02927","longitude":"2.28013","bright_ti4":"328.62","scan":"0.66","track":"0.73","acq_date":"2026-05-27","acq_time":"1108","satellite":"N21","instrument":"VIIRS","confidence":"n","version":"2.0NRT","bright_ti5":"295.18","frp":"6","daynight":"D","commune":"Grande-Synthe","code_insee":"59271","departement":"Nord","region":"Hauts-de-France"}},{"type":"Feature","geometry":{"type":"Point","coordinates":[6.06024,43.15536]},"properties":{"latitude":"43.15536","longitude":"6.06024","bright_ti4":"343.13","scan":"0.46","track":"0.39","acq_date":"2026-05-27","acq_time":"1246","satellite":"N21","instrument":"VIIRS","confidence":"n","version":"2.0NRT","bright_ti5":"308.82","frp":"5.17","daynight":"D","commune":"La Farlède","code_insee":"83054","departement":"Var","region":"Provence-Alpes-Côte d'Azur"}},{"type":"Feature","geometry":{"type":"Point","coordinates":[6.05944,43.15894]},"properties":{"latitude":"43.15894","longitude":"6.05944","bright_ti4":"336.8","scan":"0.46","track":"0.39","acq_date":"2026-05-27","acq_time":"1246","satellite":"N21","instrument":"VIIRS","confidence":"l","version":"2.0NRT","bright_ti5":"307.75","frp":"5.17","daynight":"D","commune":"La Farlède","code_insee":"83054","departement":"Var","region":"Provence-Alpes-Côte d'Azur"}},{"type":"Feature","geometry":{"type":"Point","coordinates":[4.89763,43.44547]},"properties":{"latitude":"43.44547","longitude":"4.89763","bright_ti4":"339.33","scan":"0.43","track":"0.38","acq_date":"2026-05-27","acq_time":"1246","satellite":"N21","instrument":"VIIRS","confidence":"l","version":"2.0NRT","bright_ti5":"313.31","frp":"5.54","daynight":"D","commune":"Fos-sur-Mer","code_insee":"13039","departement":"Bouches-du-Rhône","region":"Provence-Alpes-Côte d'Azur"}},{"type":"Feature","geometry":{"type":"Point","coordinates":[4.89681,43.44892]},"properties":{"latitude":"43.44892","longitude":"4.89681","bright_ti4":"333.86","scan":"0.43","track":"0.38","acq_date":"2026-05-27","acq_time":"1246","satellite":"N21","instrument":"VIIRS","confidence":"l","version":"2.0NRT","bright_ti5":"308.18","frp":"2.94","daynight":"D","commune":"Fos-sur-Mer","code_insee":"13039","departement":"Bouches-du-Rhône","region":"Provence-Alpes-Côte d'Azur"}},{"type":"Feature","geometry":{"type":"Point","coordinates":[4.21599,43.48118]},"properties":{"latitude":"43.48118","longitude":"4.21599","bright_ti4":"330.24","scan":"0.41","track":"0.37","acq_date":"2026-05-27","acq_time":"1246","satellite":"N21","instrument":"VIIRS","confidence":"l","version":"2.0NRT","bright_ti5":"304.82","frp":"1.99","daynight":"D","commune":"Le Grau-du-Roi","code_insee":"30133","departement":"Gard","region":"Occitanie"}},{"type":"Feature","geometry":{"type":"Point","coordinates":[1.91029,43.84809]},"properties":{"latitude":"43.84809","longitude":"1.91029","bright_ti4":"338.55","scan":"0.38","track":"0.36","acq_date":"2026-05-27","acq_time":"1246","satellite":"N21","instrument":"VIIRS","confidence":"n","version":"2.0NRT","bright_ti5":"311.32","frp":"2.92","daynight":"D","commune":"Montans","code_insee":"81171","departement":"Tarn","region":"Occitanie"}},{"type":"Feature","geometry":{"type":"Point","coordinates":[2.46157,44.41064]},"properties":{"latitude":"44.41064","longitude":"2.46157","bright_ti4":"338.53","scan":"0.39","track":"0.36","acq_date":"2026-05-27","acq_time":"1246","satellite":"N21","instrument":"VIIRS","confidence":"n","version":"2.0NRT","bright_ti5":"307.52","frp":"5.51","daynight":"D","commune":"Druelle Balsac","code_insee":"12090","departement":"Aveyron","region":"Occitanie"}},{"type":"Feature","geometry":{"type":"Point","coordinates":[2.46639,44.41133]},"properties":{"latitude":"44.41133","longitude":"2.46639","bright_ti4":"338.48","scan":"0.39","track":"0.36","acq_date":"2026-05-27","acq_time":"1246","satellite":"N21","instrument":"VIIRS","confidence":"n","version":"2.0NRT","bright_ti5":"306.64","frp":"5.51","daynight":"D","commune":"Druelle Balsac","code_insee":"12090","departement":"Aveyron","region":"Occitanie"}},{"type":"Feature","geometry":{"type":"Point","coordinates":[-0.81484,44.71854]},"properties":{"latitude":"44.71854","longitude":"-0.81484","bright_ti4":"339.68","scan":"0.4","track":"0.37","acq_date":"2026-05-27","acq_time":"1246","satellite":"N21","instrument":"VIIRS","confidence":"l","version":"2.0NRT","bright_ti5":"312.45","frp":"4.83","daynight":"D","commune":"Cestas","code_insee":"33122","departement":"Gironde","region":"Nouvelle-Aquitaine"}},{"type":"Feature","geometry":{"type":"Point","coordinates":[-0.80987,44.71939]},"properties":{"latitude":"44.71939","longitude":"-0.80987","bright_ti4":"343.24","scan":"0.4","track":"0.37","acq_date":"2026-05-27","acq_time":"1246","satellite":"N21","instrument":"VIIRS","confidence":"l","version":"2.0NRT","bright_ti5":"313.71","frp":"6.16","daynight":"D","commune":"Cestas","code_insee":"33122","departement":"Gironde","region":"Nouvelle-Aquitaine"}},{"type":"Feature","geometry":{"type":"Point","coordinates":[-0.81596,44.72184]},"properties":{"latitude":"44.72184","longitude":"-0.81596","bright_ti4":"341.77","scan":"0.4","track":"0.37","acq_date":"2026-05-27","acq_time":"1246","satellite":"N21","instrument":"VIIRS","confidence":"l","version":"2.0NRT","bright_ti5":"312.21","frp":"4.83","daynight":"D","commune":"Cestas","code_insee":"33122","departement":"Gironde","region":"Nouvelle-Aquitaine"}},{"type":"Feature","geometry":{"type":"Point","coordinates":[-0.81099,44.7227]},"properties":{"latitude":"44.7227","longitude":"-0.81099","bright_ti4":"342.18","scan":"0.4","track":"0.37","acq_date":"2026-05-27","acq_time":"1246","satellite":"N21","instrument":"VIIRS","confidence":"l","version":"2.0NRT","bright_ti5":"313.09","frp":"6.16","daynight":"D","commune":"Cestas","code_insee":"33122","departement":"Gironde","region":"Nouvelle-Aquitaine"}},{"type":"Feature","geometry":{"type":"Point","coordinates":[-0.82205,44.7243]},"properties":{"latitude":"44.7243","longitude":"-0.82205","bright_ti4":"339.73","scan":"0.4","track":"0.37","acq_date":"2026-05-27","acq_time":"1246","satellite":"N21","instrument":"VIIRS","confidence":"l","version":"2.0NRT","bright_ti5":"312.89","frp":"3.87","daynight":"D","commune":"Cestas","code_insee":"33122","departement":"Gironde","region":"Nouvelle-Aquitaine"}},{"type":"Feature","geometry":{"type":"Point","coordinates":[-0.81708,44.72516]},"properties":{"latitude":"44.72516","longitude":"-0.81708","bright_ti4":"341.44","scan":"0.4","track":"0.37","acq_date":"2026-05-27","acq_time":"1246","satellite":"N21","instrument":"VIIRS","confidence":"l","version":"2.0NRT","bright_ti5":"312.66","frp":"3.87","daynight":"D","commune":"Cestas","code_insee":"33122","departement":"Gironde","region":"Nouvelle-Aquitaine"}},{"type":"Feature","geometry":{"type":"Point","coordinates":[-0.81211,44.72601]},"properties":{"latitude":"44.72601","longitude":"-0.81211","bright_ti4":"342.42","scan":"0.4","track":"0.37","acq_date":"2026-05-27","acq_time":"1246","satellite":"N21","instrument":"VIIRS","confidence":"l","version":"2.0NRT","bright_ti5":"313.11","frp":"6.39","daynight":"D","commune":"Cestas","code_insee":"33122","departement":"Gironde","region":"Nouvelle-Aquitaine"}},{"type":"Feature","geometry":{"type":"Point","coordinates":[-0.82317,44.72761]},"properties":{"latitude":"44.72761","longitude":"-0.82317","bright_ti4":"340.13","scan":"0.4","track":"0.37","acq_date":"2026-05-27","acq_time":"1246","satellite":"N21","instrument":"VIIRS","confidence":"l","version":"2.0NRT","bright_ti5":"313.48","frp":"3.87","daynight":"D","commune":"Cestas","code_insee":"33122","departement":"Gironde","region":"Nouvelle-Aquitaine"}},{"type":"Feature","geometry":{"type":"Point","coordinates":[-0.8182,44.72846]},"properties":{"latitude":"44.72846","longitude":"-0.8182","bright_ti4":"339.56","scan":"0.4","track":"0.37","acq_date":"2026-05-27","acq_time":"1246","satellite":"N21","instrument":"VIIRS","confidence":"l","version":"2.0NRT","bright_ti5":"313.15","frp":"3.87","daynight":"D","commune":"Cestas","code_insee":"33122","departement":"Gironde","region":"Nouvelle-Aquitaine"}},{"type":"Feature","geometry":{"type":"Point","coordinates":[-0.81323,44.72932]},"properties":{"latitude":"44.72932","longitude":"-0.81323","bright_ti4":"340.46","scan":"0.4","track":"0.37","acq_date":"2026-05-27","acq_time":"1246","satellite":"N21","instrument":"VIIRS","confidence":"l","version":"2.0NRT","bright_ti5":"312.78","frp":"6.39","daynight":"D","commune":"Cestas","code_insee":"33122","departement":"Gironde","region":"Nouvelle-Aquitaine"}},{"type":"Feature","geometry":{"type":"Point","coordinates":[-0.81436,44.73263]},"properties":{"latitude":"44.73263","longitude":"-0.81436","bright_ti4":"339.8","scan":"0.4","track":"0.37","acq_date":"2026-05-27","acq_time":"1246","satellite":"N21","instrument":"VIIRS","confidence":"l","version":"2.0NRT","bright_ti5":"312.78","frp":"3.55","daynight":"D","commune":"Cestas","code_insee":"33122","departement":"Gironde","region":"Nouvelle-Aquitaine"}},{"type":"Feature","geometry":{"type":"Point","coordinates":[4.09475,46.43779]},"properties":{"latitude":"46.43779","longitude":"4.09475","bright_ti4":"331.32","scan":"0.43","track":"0.38","acq_date":"2026-05-27","acq_time":"1246","satellite":"N21","instrument":"VIIRS","confidence":"n","version":"2.0NRT","bright_ti5":"305.22","frp":"2.49","daynight":"D","commune":"Paray-le-Monial","code_insee":"71342","departement":"Saône-et-Loire","region":"Bourgogne-Franche-Comté"}},{"type":"Feature","geometry":{"type":"Point","coordinates":[0.78587,47.30144]},"properties":{"latitude":"47.30144","longitude":"0.78587","bright_ti4":"338.55","scan":"0.38","track":"0.36","acq_date":"2026-05-27","acq_time":"1246","satellite":"N21","instrument":"VIIRS","confidence":"n","version":"2.0NRT","bright_ti5":"306.88","frp":"6.2","daynight":"D","commune":"Esvres","code_insee":"37104","departement":"Indre-et-Loire","region":"Centre-Val de Loire"}},{"type":"Feature","geometry":{"type":"Point","coordinates":[2.28269,51.03086]},"properties":{"latitude":"51.03086","longitude":"2.28269","bright_ti4":"334.86","scan":"0.42","track":"0.38","acq_date":"2026-05-27","acq_time":"1246","satellite":"N21","instrument":"VIIRS","confidence":"n","version":"2.0NRT","bright_ti5":"304.81","frp":"15.51","daynight":"D","commune":"Grande-Synthe","code_insee":"59271","departement":"Nord","region":"Hauts-de-France"}},{"type":"Feature","geometry":{"type":"Point","coordinates":[2.28764,51.03502]},"properties":{"latitude":"51.03502","longitude":"2.28764","bright_ti4":"337.21","scan":"0.42","track":"0.38","acq_date":"2026-05-27","acq_time":"1246","satellite":"N21","instrument":"VIIRS","confidence":"n","version":"2.0NRT","bright_ti5":"305.63","frp":"5.64","daynight":"D","commune":"Grande-Synthe","code_insee":"59271","departement":"Nord","region":"Hauts-de-France"}},{"type":"Feature","geometry":{"type":"Point","coordinates":[2.29754,51.04335]},"properties":{"latitude":"51.04335","longitude":"2.29754","bright_ti4":"339.8","scan":"0.43","track":"0.38","acq_date":"2026-05-27","acq_time":"1246","satellite":"N21","instrument":"VIIRS","confidence":"n","version":"2.0NRT","bright_ti5":"304.07","frp":"7.05","daynight":"D","commune":"Grande-Synthe","code_insee":"59271","departement":"Nord","region":"Hauts-de-France"}}]}