{"type":"FeatureCollection","features":[{"type":"Feature","geometry":{"type":"Point","coordinates":[2.27052,51.02525]},"properties":{"latitude":"51.02525","longitude":"2.27052","bright_ti4":"297.09","scan":"0.53","track":"0.67","acq_date":"2026-07-17","acq_time":"58","satellite":"N","instrument":"VIIRS","confidence":"n","version":"2.0NRT","bright_ti5":"286.06","frp":"2.07","daynight":"N","commune":"Grande-Synthe","code_insee":"59271","departement":"Nord","region":"Hauts-de-France"}},{"type":"Feature","geometry":{"type":"Point","coordinates":[2.26716,51.02921]},"properties":{"latitude":"51.02921","longitude":"2.26716","bright_ti4":"315.25","scan":"0.53","track":"0.67","acq_date":"2026-07-17","acq_time":"58","satellite":"N","instrument":"VIIRS","confidence":"n","version":"2.0NRT","bright_ti5":"286.79","frp":"2.07","daynight":"N","commune":"Grande-Synthe","code_insee":"59271","departement":"Nord","region":"Hauts-de-France"}},{"type":"Feature","geometry":{"type":"Point","coordinates":[9.08396,42.27798]},"properties":{"latitude":"42.27798","longitude":"9.08396","bright_ti4":"312.11","scan":"0.43","track":"0.46","acq_date":"2026-07-17","acq_time":"100","satellite":"N","instrument":"VIIRS","confidence":"n","version":"2.0NRT","bright_ti5":"291.83","frp":"2.69","daynight":"N","commune":"Corte","code_insee":"2B096","departement":"Haute-Corse","region":"Corse"}},{"type":"Feature","geometry":{"type":"Point","coordinates":[9.0795,42.27838]},"properties":{"latitude":"42.27838","longitude":"9.0795","bright_ti4":"334.72","scan":"0.43","track":"0.46","acq_date":"2026-07-17","acq_time":"100","satellite":"N","instrument":"VIIRS","confidence":"n","version":"2.0NRT","bright_ti5":"293.9","frp":"2.69","daynight":"N","commune":"Corte","code_insee":"2B096","departement":"Haute-Corse","region":"Corse"}},{"type":"Feature","geometry":{"type":"Point","coordinates":[9.07949,42.28268]},"properties":{"latitude":"42.28268","longitude":"9.07949","bright_ti4":"303.59","scan":"0.43","track":"0.46","acq_date":"2026-07-17","acq_time":"100","satellite":"N","instrument":"VIIRS","confidence":"n","version":"2.0NRT","bright_ti5":"291.38","frp":"0.93","daynight":"N","commune":"Corte","code_insee":"2B096","departement":"Haute-Corse","region":"Corse"}},{"type":"Feature","geometry":{"type":"Point","coordinates":[8.93719,42.32584]},"properties":{"latitude":"42.32584","longitude":"8.93719","bright_ti4":"312.89","scan":"0.44","track":"0.46","acq_date":"2026-07-17","acq_time":"100","satellite":"N","instrument":"VIIRS","confidence":"n","version":"2.0NRT","bright_ti5":"295.91","frp":"2.78","daynight":"N","commune":"Albertacce","code_insee":"2B007","departement":"Haute-Corse","region":"Corse"}},{"type":"Feature","geometry":{"type":"Point","coordinates":[4.89105,43.43128]},"properties":{"latitude":"43.43128","longitude":"4.89105","bright_ti4":"318.17","scan":"0.36","track":"0.57","acq_date":"2026-07-17","acq_time":"100","satellite":"N","instrument":"VIIRS","confidence":"n","version":"2.0NRT","bright_ti5":"292.94","frp":"1.5","daynight":"N","commune":"Fos-sur-Mer","code_insee":"13039","departement":"Bouches-du-Rhône","region":"Provence-Alpes-Côte d'Azur"}},{"type":"Feature","geometry":{"type":"Point","coordinates":[4.8865,43.43151]},"properties":{"latitude":"43.43151","longitude":"4.8865","bright_ti4":"317.68","scan":"0.36","track":"0.57","acq_date":"2026-07-17","acq_time":"100","satellite":"N","instrument":"VIIRS","confidence":"n","version":"2.0NRT","bright_ti5":"293.15","frp":"1.5","daynight":"N","commune":"Fos-sur-Mer","code_insee":"13039","departement":"Bouches-du-Rhône","region":"Provence-Alpes-Côte d'Azur"}},{"type":"Feature","geometry":{"type":"Point","coordinates":[4.8916,43.43663]},"properties":{"latitude":"43.43663","longitude":"4.8916","bright_ti4":"308.32","scan":"0.36","track":"0.57","acq_date":"2026-07-17","acq_time":"100","satellite":"N","instrument":"VIIRS","confidence":"n","version":"2.0NRT","bright_ti5":"292.46","frp":"1.5","daynight":"N","commune":"Fos-sur-Mer","code_insee":"13039","departement":"Bouches-du-Rhône","region":"Provence-Alpes-Côte d'Azur"}},{"type":"Feature","geometry":{"type":"Point","coordinates":[4.88701,43.43686]},"properties":{"latitude":"43.43686","longitude":"4.88701","bright_ti4":"319.18","scan":"0.36","track":"0.57","acq_date":"2026-07-17","acq_time":"100","satellite":"N","instrument":"VIIRS","confidence":"n","version":"2.0NRT","bright_ti5":"293.4","frp":"1.5","daynight":"N","commune":"Fos-sur-Mer","code_insee":"13039","departement":"Bouches-du-Rhône","region":"Provence-Alpes-Côte d'Azur"}},{"type":"Feature","geometry":{"type":"Point","coordinates":[4.89718,43.4471]},"properties":{"latitude":"43.4471","longitude":"4.89718","bright_ti4":"312.51","scan":"0.36","track":"0.57","acq_date":"2026-07-17","acq_time":"100","satellite":"N","instrument":"VIIRS","confidence":"n","version":"2.0NRT","bright_ti5":"292.75","frp":"1.49","daynight":"N","commune":"Fos-sur-Mer","code_insee":"13039","departement":"Bouches-du-Rhône","region":"Provence-Alpes-Côte d'Azur"}},{"type":"Feature","geometry":{"type":"Point","coordinates":[4.89262,43.44734]},"properties":{"latitude":"43.44734","longitude":"4.89262","bright_ti4":"304.24","scan":"0.36","track":"0.57","acq_date":"2026-07-17","acq_time":"100","satellite":"N","instrument":"VIIRS","confidence":"n","version":"2.0NRT","bright_ti5":"292.14","frp":"1.96","daynight":"N","commune":"Fos-sur-Mer","code_insee":"13039","departement":"Bouches-du-Rhône","region":"Provence-Alpes-Côte d'Azur"}},{"type":"Feature","geometry":{"type":"Point","coordinates":[4.89335,43.4496]},"properties":{"latitude":"43.4496","longitude":"4.89335","bright_ti4":"304.59","scan":"0.36","track":"0.57","acq_date":"2026-07-17","acq_time":"100","satellite":"N","instrument":"VIIRS","confidence":"n","version":"2.0NRT","bright_ti5":"291.8","frp":"0.81","daynight":"N","commune":"Fos-sur-Mer","code_insee":"13039","departement":"Bouches-du-Rhône","region":"Provence-Alpes-Côte d'Azur"}},{"type":"Feature","geometry":{"type":"Point","coordinates":[3.56152,50.40362]},"properties":{"latitude":"50.40362","longitude":"3.56152","bright_ti4":"298.48","scan":"0.42","track":"0.45","acq_date":"2026-07-17","acq_time":"238","satellite":"N","instrument":"VIIRS","confidence":"n","version":"2.0NRT","bright_ti5":"287.79","frp":"0.54","daynight":"N","commune":"Saint-Saulve","code_insee":"59544","departement":"Nord","region":"Hauts-de-France"}},{"type":"Feature","geometry":{"type":"Point","coordinates":[2.27035,51.02888]},"properties":{"latitude":"51.02888","longitude":"2.27035","bright_ti4":"302.27","scan":"0.54","track":"0.42","acq_date":"2026-07-17","acq_time":"238","satellite":"N","instrument":"VIIRS","confidence":"n","version":"2.0NRT","bright_ti5":"288.64","frp":"1.15","daynight":"N","commune":"Grande-Synthe","code_insee":"59271","departement":"Nord","region":"Hauts-de-France"}},{"type":"Feature","geometry":{"type":"Point","coordinates":[0.09557,42.88013]},"properties":{"latitude":"42.88013","longitude":"0.09557","bright_ti4":"299.26","scan":"0.46","track":"0.47","acq_date":"2026-07-17","acq_time":"241","satellite":"N","instrument":"VIIRS","confidence":"n","version":"2.0NRT","bright_ti5":"285.25","frp":"1.15","daynight":"N","commune":"Barèges","code_insee":"65481","departement":"Hautes-Pyrénées","region":"Occitanie"}},{"type":"Feature","geometry":{"type":"Point","coordinates":[0.09844,42.88407]},"properties":{"latitude":"42.88407","longitude":"0.09844","bright_ti4":"296.48","scan":"0.46","track":"0.47","acq_date":"2026-07-17","acq_time":"241","satellite":"N","instrument":"VIIRS","confidence":"n","version":"2.0NRT","bright_ti5":"285.14","frp":"1.15","daynight":"N","commune":"Barèges","code_insee":"65481","departement":"Hautes-Pyrénées","region":"Occitanie"}},{"type":"Feature","geometry":{"type":"Point","coordinates":[0.09379,42.88517]},"properties":{"latitude":"42.88517","longitude":"0.09379","bright_ti4":"304.77","scan":"0.46","track":"0.47","acq_date":"2026-07-17","acq_time":"241","satellite":"N","instrument":"VIIRS","confidence":"n","version":"2.0NRT","bright_ti5":"287.33","frp":"1.15","daynight":"N","commune":"Barèges","code_insee":"65481","departement":"Hautes-Pyrénées","region":"Occitanie"}},{"type":"Feature","geometry":{"type":"Point","coordinates":[4.89417,43.44697]},"properties":{"latitude":"43.44697","longitude":"4.89417","bright_ti4":"307.51","scan":"0.37","track":"0.58","acq_date":"2026-07-17","acq_time":"241","satellite":"N","instrument":"VIIRS","confidence":"n","version":"2.0NRT","bright_ti5":"290.83","frp":"1.02","daynight":"N","commune":"Fos-sur-Mer","code_insee":"13039","departement":"Bouches-du-Rhône","region":"Provence-Alpes-Côte d'Azur"}},{"type":"Feature","geometry":{"type":"Point","coordinates":[-0.36413,45.22699]},"properties":{"latitude":"45.22699","longitude":"-0.36413","bright_ti4":"300.64","scan":"0.39","track":"0.44","acq_date":"2026-07-17","acq_time":"241","satellite":"N","instrument":"VIIRS","confidence":"n","version":"2.0NRT","bright_ti5":"290.07","frp":"0.71","daynight":"N","commune":"Bussac-Forêt","code_insee":"17074","departement":"Charente-Maritime","region":"Nouvelle-Aquitaine"}},{"type":"Feature","geometry":{"type":"Point","coordinates":[1.91209,46.39023]},"properties":{"latitude":"46.39023","longitude":"1.91209","bright_ti4":"339.56","scan":"0.45","track":"0.47","acq_date":"2026-07-17","acq_time":"241","satellite":"N","instrument":"VIIRS","confidence":"n","version":"2.0NRT","bright_ti5":"282.17","frp":"6.07","daynight":"N","commune":"Mortroux","code_insee":"23136","departement":"Creuse","region":"Nouvelle-Aquitaine"}},{"type":"Feature","geometry":{"type":"Point","coordinates":[0.51259,47.14933]},"properties":{"latitude":"47.14933","longitude":"0.51259","bright_ti4":"299.34","scan":"0.57","track":"0.43","acq_date":"2026-07-17","acq_time":"241","satellite":"N","instrument":"VIIRS","confidence":"n","version":"2.0NRT","bright_ti5":"284.8","frp":"1.64","daynight":"N","commune":"Saint-Épain","code_insee":"37216","departement":"Indre-et-Loire","region":"Centre-Val de Loire"}},{"type":"Feature","geometry":{"type":"Point","coordinates":[9.08404,42.27603]},"properties":{"latitude":"42.27603","longitude":"9.08404","bright_ti4":"338.36","scan":"0.39","track":"0.36","acq_date":"2026-07-17","acq_time":"1223","satellite":"N","instrument":"VIIRS","confidence":"n","version":"2.0NRT","bright_ti5":"307.29","frp":"2.64","daynight":"D","commune":"Corte","code_insee":"2B096","departement":"Haute-Corse","region":"Corse"}},{"type":"Feature","geometry":{"type":"Point","coordinates":[9.0886,42.27676]},"properties":{"latitude":"42.27676","longitude":"9.0886","bright_ti4":"331.89","scan":"0.39","track":"0.36","acq_date":"2026-07-17","acq_time":"1223","satellite":"N","instrument":"VIIRS","confidence":"l","version":"2.0NRT","bright_ti5":"305.68","frp":"2.64","daynight":"D","commune":"Corte","code_insee":"2B096","departement":"Haute-Corse","region":"Corse"}},{"type":"Feature","geometry":{"type":"Point","coordinates":[8.93964,42.32752]},"properties":{"latitude":"42.32752","longitude":"8.93964","bright_ti4":"339.58","scan":"0.39","track":"0.36","acq_date":"2026-07-17","acq_time":"1223","satellite":"N","instrument":"VIIRS","confidence":"n","version":"2.0NRT","bright_ti5":"308.25","frp":"24.57","daynight":"D","commune":"Albertacce","code_insee":"2B007","departement":"Haute-Corse","region":"Corse"}},{"type":"Feature","geometry":{"type":"Point","coordinates":[0.09398,42.87944]},"properties":{"latitude":"42.87944","longitude":"0.09398","bright_ti4":"334.75","scan":"0.51","track":"0.49","acq_date":"2026-07-17","acq_time":"1223","satellite":"N","instrument":"VIIRS","confidence":"n","version":"2.0NRT","bright_ti5":"299.33","frp":"6.32","daynight":"D","commune":"Barèges","code_insee":"65481","departement":"Hautes-Pyrénées","region":"Occitanie"}},{"type":"Feature","geometry":{"type":"Point","coordinates":[3.40328,43.36992]},"properties":{"latitude":"43.36992","longitude":"3.40328","bright_ti4":"333.59","scan":"0.53","track":"0.42","acq_date":"2026-07-17","acq_time":"1223","satellite":"N","instrument":"VIIRS","confidence":"l","version":"2.0NRT","bright_ti5":"307.21","frp":"2.45","daynight":"D","commune":"Bessan","code_insee":"34031","departement":"Hérault","region":"Occitanie"}},{"type":"Feature","geometry":{"type":"Point","coordinates":[4.89083,43.43237]},"properties":{"latitude":"43.43237","longitude":"4.89083","bright_ti4":"345.33","scan":"0.46","track":"0.39","acq_date":"2026-07-17","acq_time":"1223","satellite":"N","instrument":"VIIRS","confidence":"n","version":"2.0NRT","bright_ti5":"314.64","frp":"21.47","daynight":"D","commune":"Fos-sur-Mer","code_insee":"13039","departement":"Bouches-du-Rhône","region":"Provence-Alpes-Côte d'Azur"}},{"type":"Feature","geometry":{"type":"Point","coordinates":[4.88952,43.43591]},"properties":{"latitude":"43.43591","longitude":"4.88952","bright_ti4":"345.87","scan":"0.46","track":"0.39","acq_date":"2026-07-17","acq_time":"1223","satellite":"N","instrument":"VIIRS","confidence":"n","version":"2.0NRT","bright_ti5":"314.35","frp":"12.86","daynight":"D","commune":"Fos-sur-Mer","code_insee":"13039","departement":"Bouches-du-Rhône","region":"Provence-Alpes-Côte d'Azur"}},{"type":"Feature","geometry":{"type":"Point","coordinates":[4.89815,43.44518]},"properties":{"latitude":"43.44518","longitude":"4.89815","bright_ti4":"340","scan":"0.46","track":"0.39","acq_date":"2026-07-17","acq_time":"1223","satellite":"N","instrument":"VIIRS","confidence":"l","version":"2.0NRT","bright_ti5":"313.74","frp":"6.71","daynight":"D","commune":"Fos-sur-Mer","code_insee":"13039","departement":"Bouches-du-Rhône","region":"Provence-Alpes-Côte d'Azur"}},{"type":"Feature","geometry":{"type":"Point","coordinates":[-1.38072,47.17706]},"properties":{"latitude":"47.17706","longitude":"-1.38072","bright_ti4":"343.69","scan":"0.46","track":"0.47","acq_date":"2026-07-17","acq_time":"1225","satellite":"N","instrument":"VIIRS","confidence":"n","version":"2.0NRT","bright_ti5":"296.99","frp":"3.76","daynight":"D","commune":"Haute-Goulaine","code_insee":"44071","departement":"Loire-Atlantique","region":"Pays de la Loire"}},{"type":"Feature","geometry":{"type":"Point","coordinates":[0.09059,42.87627]},"properties":{"latitude":"42.87627","longitude":"0.09059","bright_ti4":"333.83","scan":"0.56","track":"0.69","acq_date":"2026-07-17","acq_time":"1405","satellite":"N","instrument":"VIIRS","confidence":"n","version":"2.0NRT","bright_ti5":"295.56","frp":"7.69","daynight":"D","commune":"Barèges","code_insee":"65481","departement":"Hautes-Pyrénées","region":"Occitanie"}},{"type":"Feature","geometry":{"type":"Point","coordinates":[0.08691,42.88265]},"properties":{"latitude":"42.88265","longitude":"0.08691","bright_ti4":"335.38","scan":"0.56","track":"0.69","acq_date":"2026-07-17","acq_time":"1405","satellite":"N","instrument":"VIIRS","confidence":"n","version":"2.0NRT","bright_ti5":"296.6","frp":"7.69","daynight":"D","commune":"Barèges","code_insee":"65481","departement":"Hautes-Pyrénées","region":"Occitanie"}},{"type":"Feature","geometry":{"type":"Point","coordinates":[0.09469,42.88277]},"properties":{"latitude":"42.88277","longitude":"0.09469","bright_ti4":"330.47","scan":"0.56","track":"0.69","acq_date":"2026-07-17","acq_time":"1405","satellite":"N","instrument":"VIIRS","confidence":"n","version":"2.0NRT","bright_ti5":"296.95","frp":"10.47","daynight":"D","commune":"Barèges","code_insee":"65481","departement":"Hautes-Pyrénées","region":"Occitanie"}},{"type":"Feature","geometry":{"type":"Point","coordinates":[2.29973,51.04133]},"properties":{"latitude":"51.04133","longitude":"2.29973","bright_ti4":"331.58","scan":"0.73","track":"0.76","acq_date":"2026-07-17","acq_time":"1408","satellite":"N","instrument":"VIIRS","confidence":"n","version":"2.0NRT","bright_ti5":"291.82","frp":"4.62","daynight":"D","commune":"Grande-Synthe","code_insee":"59271","departement":"Nord","region":"Hauts-de-France"}},{"type":"Feature","geometry":{"type":"Point","coordinates":[2.26743,51.03045]},"properties":{"latitude":"51.03045","longitude":"2.26743","bright_ti4":"307.82","scan":"0.56","track":"0.52","acq_date":"2026-07-17","acq_time":"117","satellite":"N20","instrument":"VIIRS","confidence":"n","version":"2.0NRT","bright_ti5":"287.92","frp":"2.09","daynight":"N","commune":"Grande-Synthe","code_insee":"59271","departement":"Nord","region":"Hauts-de-France"}},{"type":"Feature","geometry":{"type":"Point","coordinates":[2.31889,51.04667]},"properties":{"latitude":"51.04667","longitude":"2.31889","bright_ti4":"298.5","scan":"0.56","track":"0.51","acq_date":"2026-07-17","acq_time":"117","satellite":"N20","instrument":"VIIRS","confidence":"n","version":"2.0NRT","bright_ti5":"287.48","frp":"1.16","daynight":"N","commune":"Dunkerque","code_insee":"59183","departement":"Nord","region":"Hauts-de-France"}},{"type":"Feature","geometry":{"type":"Point","coordinates":[2.31799,51.04691]},"properties":{"latitude":"51.04691","longitude":"2.31799","bright_ti4":"300.25","scan":"0.56","track":"0.52","acq_date":"2026-07-17","acq_time":"117","satellite":"N20","instrument":"VIIRS","confidence":"n","version":"2.0NRT","bright_ti5":"287.84","frp":"1.4","daynight":"N","commune":"Dunkerque","code_insee":"59183","departement":"Nord","region":"Hauts-de-France"}},{"type":"Feature","geometry":{"type":"Point","coordinates":[9.08171,42.27828]},"properties":{"latitude":"42.27828","longitude":"9.08171","bright_ti4":"344.57","scan":"0.39","track":"0.36","acq_date":"2026-07-17","acq_time":"120","satellite":"N20","instrument":"VIIRS","confidence":"n","version":"2.0NRT","bright_ti5":"295.14","frp":"4.45","daynight":"N","commune":"Corte","code_insee":"2B096","departement":"Haute-Corse","region":"Corse"}},{"type":"Feature","geometry":{"type":"Point","coordinates":[9.08324,42.28491]},"properties":{"latitude":"42.28491","longitude":"9.08324","bright_ti4":"310.14","scan":"0.39","track":"0.36","acq_date":"2026-07-17","acq_time":"120","satellite":"N20","instrument":"VIIRS","confidence":"n","version":"2.0NRT","bright_ti5":"292.75","frp":"0.94","daynight":"N","commune":"Corte","code_insee":"2B096","departement":"Haute-Corse","region":"Corse"}},{"type":"Feature","geometry":{"type":"Point","coordinates":[8.94109,42.32276]},"properties":{"latitude":"42.32276","longitude":"8.94109","bright_ti4":"313.91","scan":"0.39","track":"0.36","acq_date":"2026-07-17","acq_time":"120","satellite":"N20","instrument":"VIIRS","confidence":"n","version":"2.0NRT","bright_ti5":"296.33","frp":"2.03","daynight":"N","commune":"Albertacce","code_insee":"2B007","departement":"Haute-Corse","region":"Corse"}},{"type":"Feature","geometry":{"type":"Point","coordinates":[8.93719,42.32676]},"properties":{"latitude":"42.32676","longitude":"8.93719","bright_ti4":"307.04","scan":"0.39","track":"0.36","acq_date":"2026-07-17","acq_time":"120","satellite":"N20","instrument":"VIIRS","confidence":"n","version":"2.0NRT","bright_ti5":"296.1","frp":"1.29","daynight":"N","commune":"Albertacce","code_insee":"2B007","departement":"Haute-Corse","region":"Corse"}},{"type":"Feature","geometry":{"type":"Point","coordinates":[4.89301,43.42925]},"properties":{"latitude":"43.42925","longitude":"4.89301","bright_ti4":"306.58","scan":"0.54","track":"0.42","acq_date":"2026-07-17","acq_time":"120","satellite":"N20","instrument":"VIIRS","confidence":"n","version":"2.0NRT","bright_ti5":"293.95","frp":"2.69","daynight":"N","commune":"Fos-sur-Mer","code_insee":"13039","departement":"Bouches-du-Rhône","region":"Provence-Alpes-Côte d'Azur"}},{"type":"Feature","geometry":{"type":"Point","coordinates":[4.89379,43.43311]},"properties":{"latitude":"43.43311","longitude":"4.89379","bright_ti4":"325.64","scan":"0.54","track":"0.42","acq_date":"2026-07-17","acq_time":"120","satellite":"N20","instrument":"VIIRS","confidence":"n","version":"2.0NRT","bright_ti5":"294.97","frp":"2.69","daynight":"N","commune":"Fos-sur-Mer","code_insee":"13039","departement":"Bouches-du-Rhône","region":"Provence-Alpes-Côte d'Azur"}},{"type":"Feature","geometry":{"type":"Point","coordinates":[4.88715,43.4338]},"properties":{"latitude":"43.4338","longitude":"4.88715","bright_ti4":"310.09","scan":"0.54","track":"0.42","acq_date":"2026-07-17","acq_time":"120","satellite":"N20","instrument":"VIIRS","confidence":"n","version":"2.0NRT","bright_ti5":"293.85","frp":"3.39","daynight":"N","commune":"Fos-sur-Mer","code_insee":"13039","departement":"Bouches-du-Rhône","region":"Provence-Alpes-Côte d'Azur"}},{"type":"Feature","geometry":{"type":"Point","coordinates":[4.88792,43.43767]},"properties":{"latitude":"43.43767","longitude":"4.88792","bright_ti4":"333.83","scan":"0.54","track":"0.42","acq_date":"2026-07-17","acq_time":"120","satellite":"N20","instrument":"VIIRS","confidence":"n","version":"2.0NRT","bright_ti5":"294.56","frp":"6.3","daynight":"N","commune":"Fos-sur-Mer","code_insee":"13039","departement":"Bouches-du-Rhône","region":"Provence-Alpes-Côte d'Azur"}},{"type":"Feature","geometry":{"type":"Point","coordinates":[4.89611,43.44469]},"properties":{"latitude":"43.44469","longitude":"4.89611","bright_ti4":"325.32","scan":"0.54","track":"0.42","acq_date":"2026-07-17","acq_time":"120","satellite":"N20","instrument":"VIIRS","confidence":"n","version":"2.0NRT","bright_ti5":"294.05","frp":"3.23","daynight":"N","commune":"Fos-sur-Mer","code_insee":"13039","departement":"Bouches-du-Rhône","region":"Provence-Alpes-Côte d'Azur"}},{"type":"Feature","geometry":{"type":"Point","coordinates":[4.88945,43.44539]},"properties":{"latitude":"43.44539","longitude":"4.88945","bright_ti4":"306.02","scan":"0.54","track":"0.42","acq_date":"2026-07-17","acq_time":"120","satellite":"N20","instrument":"VIIRS","confidence":"n","version":"2.0NRT","bright_ti5":"293.13","frp":"0.95","daynight":"N","commune":"Fos-sur-Mer","code_insee":"13039","departement":"Bouches-du-Rhône","region":"Provence-Alpes-Côte d'Azur"}},{"type":"Feature","geometry":{"type":"Point","coordinates":[4.89687,43.44855]},"properties":{"latitude":"43.44855","longitude":"4.89687","bright_ti4":"318.1","scan":"0.54","track":"0.42","acq_date":"2026-07-17","acq_time":"120","satellite":"N20","instrument":"VIIRS","confidence":"n","version":"2.0NRT","bright_ti5":"293.77","frp":"3.23","daynight":"N","commune":"Fos-sur-Mer","code_insee":"13039","departement":"Bouches-du-Rhône","region":"Provence-Alpes-Côte d'Azur"}},{"type":"Feature","geometry":{"type":"Point","coordinates":[5.66732,45.228]},"properties":{"latitude":"45.228","longitude":"5.66732","bright_ti4":"295.16","scan":"0.69","track":"0.74","acq_date":"2026-07-17","acq_time":"258","satellite":"N20","instrument":"VIIRS","confidence":"n","version":"2.0NRT","bright_ti5":"284.12","frp":"1.35","daynight":"N","commune":"Saint-Égrève","code_insee":"38382","departement":"Isère","region":"Auvergne-Rhône-Alpes"}},{"type":"Feature","geometry":{"type":"Point","coordinates":[2.13194,46.27523]},"properties":{"latitude":"46.27523","longitude":"2.13194","bright_ti4":"298.48","scan":"0.45","track":"0.63","acq_date":"2026-07-17","acq_time":"258","satellite":"N20","instrument":"VIIRS","confidence":"n","version":"2.0NRT","bright_ti5":"282.78","frp":"1.35","daynight":"N","commune":"Clugnat","code_insee":"23064","departement":"Creuse","region":"Nouvelle-Aquitaine"}},{"type":"Feature","geometry":{"type":"Point","coordinates":[3.56241,50.40175]},"properties":{"latitude":"50.40175","longitude":"3.56241","bright_ti4":"309.87","scan":"0.38","track":"0.58","acq_date":"2026-07-17","acq_time":"258","satellite":"N20","instrument":"VIIRS","confidence":"n","version":"2.0NRT","bright_ti5":"287.45","frp":"0.87","daynight":"N","commune":"Saint-Saulve","code_insee":"59544","departement":"Nord","region":"Hauts-de-France"}},{"type":"Feature","geometry":{"type":"Point","coordinates":[2.27517,51.02892]},"properties":{"latitude":"51.02892","longitude":"2.27517","bright_ti4":"297.66","scan":"0.32","track":"0.54","acq_date":"2026-07-17","acq_time":"258","satellite":"N20","instrument":"VIIRS","confidence":"n","version":"2.0NRT","bright_ti5":"287.62","frp":"0.84","daynight":"N","commune":"Grande-Synthe","code_insee":"59271","departement":"Nord","region":"Hauts-de-France"}},{"type":"Feature","geometry":{"type":"Point","coordinates":[2.27103,51.03012]},"properties":{"latitude":"51.03012","longitude":"2.27103","bright_ti4":"312.02","scan":"0.32","track":"0.54","acq_date":"2026-07-17","acq_time":"258","satellite":"N20","instrument":"VIIRS","confidence":"n","version":"2.0NRT","bright_ti5":"288.35","frp":"0.84","daynight":"N","commune":"Grande-Synthe","code_insee":"59271","departement":"Nord","region":"Hauts-de-France"}},{"type":"Feature","geometry":{"type":"Point","coordinates":[2.29692,51.0448]},"properties":{"latitude":"51.0448","longitude":"2.29692","bright_ti4":"299.05","scan":"0.32","track":"0.54","acq_date":"2026-07-17","acq_time":"258","satellite":"N20","instrument":"VIIRS","confidence":"n","version":"2.0NRT","bright_ti5":"288.25","frp":"0.76","daynight":"N","commune":"Grande-Synthe","code_insee":"59271","departement":"Nord","region":"Hauts-de-France"}},{"type":"Feature","geometry":{"type":"Point","coordinates":[0.09425,42.87798]},"properties":{"latitude":"42.87798","longitude":"0.09425","bright_ti4":"307.75","scan":"0.46","track":"0.64","acq_date":"2026-07-17","acq_time":"300","satellite":"N20","instrument":"VIIRS","confidence":"n","version":"2.0NRT","bright_ti5":"287.43","frp":"1.57","daynight":"N","commune":"Barèges","code_insee":"65481","departement":"Hautes-Pyrénées","region":"Occitanie"}},{"type":"Feature","geometry":{"type":"Point","coordinates":[0.09142,42.87883]},"properties":{"latitude":"42.87883","longitude":"0.09142","bright_ti4":"301.63","scan":"0.46","track":"0.64","acq_date":"2026-07-17","acq_time":"300","satellite":"N20","instrument":"VIIRS","confidence":"n","version":"2.0NRT","bright_ti5":"285.32","frp":"1.57","daynight":"N","commune":"Barèges","code_insee":"65481","departement":"Hautes-Pyrénées","region":"Occitanie"}},{"type":"Feature","geometry":{"type":"Point","coordinates":[0.09754,42.88333]},"properties":{"latitude":"42.88333","longitude":"0.09754","bright_ti4":"308.62","scan":"0.46","track":"0.64","acq_date":"2026-07-17","acq_time":"300","satellite":"N20","instrument":"VIIRS","confidence":"n","version":"2.0NRT","bright_ti5":"286.9","frp":"1.57","daynight":"N","commune":"Barèges","code_insee":"65481","departement":"Hautes-Pyrénées","region":"Occitanie"}},{"type":"Feature","geometry":{"type":"Point","coordinates":[0.09374,42.88447]},"properties":{"latitude":"42.88447","longitude":"0.09374","bright_ti4":"309.35","scan":"0.46","track":"0.64","acq_date":"2026-07-17","acq_time":"300","satellite":"N20","instrument":"VIIRS","confidence":"n","version":"2.0NRT","bright_ti5":"286.96","frp":"1.57","daynight":"N","commune":"Barèges","code_insee":"65481","departement":"Hautes-Pyrénées","region":"Occitanie"}},{"type":"Feature","geometry":{"type":"Point","coordinates":[4.89817,43.44536]},"properties":{"latitude":"43.44536","longitude":"4.89817","bright_ti4":"300.15","scan":"0.73","track":"0.76","acq_date":"2026-07-17","acq_time":"300","satellite":"N20","instrument":"VIIRS","confidence":"n","version":"2.0NRT","bright_ti5":"288.91","frp":"1.88","daynight":"N","commune":"Fos-sur-Mer","code_insee":"13039","departement":"Bouches-du-Rhône","region":"Provence-Alpes-Côte d'Azur"}},{"type":"Feature","geometry":{"type":"Point","coordinates":[4.89378,43.44703]},"properties":{"latitude":"43.44703","longitude":"4.89378","bright_ti4":"299.19","scan":"0.73","track":"0.76","acq_date":"2026-07-17","acq_time":"300","satellite":"N20","instrument":"VIIRS","confidence":"n","version":"2.0NRT","bright_ti5":"288.34","frp":"1.29","daynight":"N","commune":"Fos-sur-Mer","code_insee":"13039","departement":"Bouches-du-Rhône","region":"Provence-Alpes-Côte d'Azur"}},{"type":"Feature","geometry":{"type":"Point","coordinates":[8.97512,41.60297]},"properties":{"latitude":"41.60297","longitude":"8.97512","bright_ti4":"333.71","scan":"0.51","track":"0.41","acq_date":"2026-07-17","acq_time":"1244","satellite":"N20","instrument":"VIIRS","confidence":"n","version":"2.0NRT","bright_ti5":"305.27","frp":"14.54","daynight":"D","commune":"Sartène","code_insee":"2A272","departement":"Corse-du-Sud","region":"Corse"}},{"type":"Feature","geometry":{"type":"Point","coordinates":[9.08497,42.27827]},"properties":{"latitude":"42.27827","longitude":"9.08497","bright_ti4":"338.52","scan":"0.52","track":"0.42","acq_date":"2026-07-17","acq_time":"1244","satellite":"N20","instrument":"VIIRS","confidence":"n","version":"2.0NRT","bright_ti5":"306.21","frp":"5.9","daynight":"D","commune":"Corte","code_insee":"2B096","departement":"Haute-Corse","region":"Corse"}},{"type":"Feature","geometry":{"type":"Point","coordinates":[8.93621,42.32458]},"properties":{"latitude":"42.32458","longitude":"8.93621","bright_ti4":"336.68","scan":"0.52","track":"0.41","acq_date":"2026-07-17","acq_time":"1244","satellite":"N20","instrument":"VIIRS","confidence":"n","version":"2.0NRT","bright_ti5":"304.56","frp":"5.44","daynight":"D","commune":"Albertacce","code_insee":"2B007","departement":"Haute-Corse","region":"Corse"}},{"type":"Feature","geometry":{"type":"Point","coordinates":[8.93446,42.3273]},"properties":{"latitude":"42.3273","longitude":"8.93446","bright_ti4":"330.45","scan":"0.52","track":"0.41","acq_date":"2026-07-17","acq_time":"1244","satellite":"N20","instrument":"VIIRS","confidence":"l","version":"2.0NRT","bright_ti5":"304.52","frp":"6.68","daynight":"D","commune":"Albertacce","code_insee":"2B007","departement":"Haute-Corse","region":"Corse"}},{"type":"Feature","geometry":{"type":"Point","coordinates":[8.94121,42.328]},"properties":{"latitude":"42.328","longitude":"8.94121","bright_ti4":"334.51","scan":"0.52","track":"0.41","acq_date":"2026-07-17","acq_time":"1244","satellite":"N20","instrument":"VIIRS","confidence":"l","version":"2.0NRT","bright_ti5":"305.09","frp":"6.68","daynight":"D","commune":"Albertacce","code_insee":"2B007","departement":"Haute-Corse","region":"Corse"}},{"type":"Feature","geometry":{"type":"Point","coordinates":[8.93601,42.32843]},"properties":{"latitude":"42.32843","longitude":"8.93601","bright_ti4":"334.72","scan":"0.52","track":"0.41","acq_date":"2026-07-17","acq_time":"1244","satellite":"N20","instrument":"VIIRS","confidence":"n","version":"2.0NRT","bright_ti5":"304.18","frp":"5.44","daynight":"D","commune":"Albertacce","code_insee":"2B007","departement":"Haute-Corse","region":"Corse"}},{"type":"Feature","geometry":{"type":"Point","coordinates":[0.08775,42.87865]},"properties":{"latitude":"42.87865","longitude":"0.08775","bright_ti4":"345.64","scan":"0.43","track":"0.38","acq_date":"2026-07-17","acq_time":"1244","satellite":"N20","instrument":"VIIRS","confidence":"n","version":"2.0NRT","bright_ti5":"302.32","frp":"7.08","daynight":"D","commune":"Barèges","code_insee":"65481","departement":"Hautes-Pyrénées","region":"Occitanie"}},{"type":"Feature","geometry":{"type":"Point","coordinates":[0.08638,42.882]},"properties":{"latitude":"42.882","longitude":"0.08638","bright_ti4":"339.55","scan":"0.43","track":"0.38","acq_date":"2026-07-17","acq_time":"1244","satellite":"N20","instrument":"VIIRS","confidence":"n","version":"2.0NRT","bright_ti5":"302.26","frp":"7.08","daynight":"D","commune":"Barèges","code_insee":"65481","departement":"Hautes-Pyrénées","region":"Occitanie"}},{"type":"Feature","geometry":{"type":"Point","coordinates":[3.40203,43.36875]},"properties":{"latitude":"43.36875","longitude":"3.40203","bright_ti4":"340.68","scan":"0.38","track":"0.36","acq_date":"2026-07-17","acq_time":"1244","satellite":"N20","instrument":"VIIRS","confidence":"n","version":"2.0NRT","bright_ti5":"310.57","frp":"1.2","daynight":"D","commune":"Bessan","code_insee":"34031","departement":"Hérault","region":"Occitanie"}},{"type":"Feature","geometry":{"type":"Point","coordinates":[5.1094,43.39132]},"properties":{"latitude":"43.39132","longitude":"5.1094","bright_ti4":"338.59","scan":"0.4","track":"0.37","acq_date":"2026-07-17","acq_time":"1244","satellite":"N20","instrument":"VIIRS","confidence":"n","version":"2.0NRT","bright_ti5":"310.56","frp":"3.34","daynight":"D","commune":"Châteauneuf-les-Martigues","code_insee":"13026","departement":"Bouches-du-Rhône","region":"Provence-Alpes-Côte d'Azur"}},{"type":"Feature","geometry":{"type":"Point","coordinates":[4.89065,43.43418]},"properties":{"latitude":"43.43418","longitude":"4.89065","bright_ti4":"349.33","scan":"0.4","track":"0.37","acq_date":"2026-07-17","acq_time":"1244","satellite":"N20","instrument":"VIIRS","confidence":"n","version":"2.0NRT","bright_ti5":"317.84","frp":"27.64","daynight":"D","commune":"Fos-sur-Mer","code_insee":"13039","departement":"Bouches-du-Rhône","region":"Provence-Alpes-Côte d'Azur"}},{"type":"Feature","geometry":{"type":"Point","coordinates":[4.89782,43.44553]},"properties":{"latitude":"43.44553","longitude":"4.89782","bright_ti4":"345.97","scan":"0.4","track":"0.37","acq_date":"2026-07-17","acq_time":"1244","satellite":"N20","instrument":"VIIRS","confidence":"n","version":"2.0NRT","bright_ti5":"314.92","frp":"5.78","daynight":"D","commune":"Fos-sur-Mer","code_insee":"13039","departement":"Bouches-du-Rhône","region":"Provence-Alpes-Côte d'Azur"}},{"type":"Feature","geometry":{"type":"Point","coordinates":[4.03412,48.31707]},"properties":{"latitude":"48.31707","longitude":"4.03412","bright_ti4":"338.75","scan":"0.41","track":"0.37","acq_date":"2026-07-17","acq_time":"1244","satellite":"N20","instrument":"VIIRS","confidence":"n","version":"2.0NRT","bright_ti5":"298.96","frp":"4.98","daynight":"D","commune":"La Chapelle-Saint-Luc","code_insee":"10081","departement":"Aube","region":"Grand Est"}},{"type":"Feature","geometry":{"type":"Point","coordinates":[2.74276,50.44161]},"properties":{"latitude":"50.44161","longitude":"2.74276","bright_ti4":"332.77","scan":"0.4","track":"0.37","acq_date":"2026-07-17","acq_time":"1246","satellite":"N20","instrument":"VIIRS","confidence":"n","version":"2.0NRT","bright_ti5":"299.88","frp":"2.51","daynight":"D","commune":"Bully-les-Mines","code_insee":"62186","departement":"Pas-de-Calais","region":"Hauts-de-France"}},{"type":"Feature","geometry":{"type":"Point","coordinates":[2.27597,51.03279]},"properties":{"latitude":"51.03279","longitude":"2.27597","bright_ti4":"330.01","scan":"0.4","track":"0.37","acq_date":"2026-07-17","acq_time":"1246","satellite":"N20","instrument":"VIIRS","confidence":"l","version":"2.0NRT","bright_ti5":"300.82","frp":"2.28","daynight":"D","commune":"Grande-Synthe","code_insee":"59271","departement":"Nord","region":"Hauts-de-France"}},{"type":"Feature","geometry":{"type":"Point","coordinates":[2.28729,51.03432]},"properties":{"latitude":"51.03432","longitude":"2.28729","bright_ti4":"337.63","scan":"0.4","track":"0.37","acq_date":"2026-07-17","acq_time":"1246","satellite":"N20","instrument":"VIIRS","confidence":"n","version":"2.0NRT","bright_ti5":"305.32","frp":"5.28","daynight":"D","commune":"Grande-Synthe","code_insee":"59271","departement":"Nord","region":"Hauts-de-France"}},{"type":"Feature","geometry":{"type":"Point","coordinates":[2.29638,51.04252]},"properties":{"latitude":"51.04252","longitude":"2.29638","bright_ti4":"339.35","scan":"0.4","track":"0.37","acq_date":"2026-07-17","acq_time":"1246","satellite":"N20","instrument":"VIIRS","confidence":"n","version":"2.0NRT","bright_ti5":"303.5","frp":"7.09","daynight":"D","commune":"Grande-Synthe","code_insee":"59271","departement":"Nord","region":"Hauts-de-France"}},{"type":"Feature","geometry":{"type":"Point","coordinates":[2.32472,51.04634]},"properties":{"latitude":"51.04634","longitude":"2.32472","bright_ti4":"335.19","scan":"0.4","track":"0.37","acq_date":"2026-07-17","acq_time":"1246","satellite":"N20","instrument":"VIIRS","confidence":"n","version":"2.0NRT","bright_ti5":"302.87","frp":"4.21","daynight":"D","commune":"Dunkerque","code_insee":"59183","departement":"Nord","region":"Hauts-de-France"}},{"type":"Feature","geometry":{"type":"Point","coordinates":[9.08126,42.2784]},"properties":{"latitude":"42.2784","longitude":"9.08126","bright_ti4":"320.92","scan":"0.47","track":"0.64","acq_date":"2026-07-17","acq_time":"24","satellite":"N21","instrument":"VIIRS","confidence":"n","version":"2.0NRT","bright_ti5":"291.64","frp":"3.23","daynight":"N","commune":"Corte","code_insee":"2B096","departement":"Haute-Corse","region":"Corse"}},{"type":"Feature","geometry":{"type":"Point","coordinates":[9.07646,42.27854]},"properties":{"latitude":"42.27854","longitude":"9.07646","bright_ti4":"304.7","scan":"0.48","track":"0.64","acq_date":"2026-07-17","acq_time":"24","satellite":"N21","instrument":"VIIRS","confidence":"n","version":"2.0NRT","bright_ti5":"291","frp":"2.54","daynight":"N","commune":"Corte","code_insee":"2B096","departement":"Haute-Corse","region":"Corse"}},{"type":"Feature","geometry":{"type":"Point","coordinates":[9.0796,42.28033]},"properties":{"latitude":"42.28033","longitude":"9.0796","bright_ti4":"320.46","scan":"0.47","track":"0.64","acq_date":"2026-07-17","acq_time":"24","satellite":"N21","instrument":"VIIRS","confidence":"n","version":"2.0NRT","bright_ti5":"291.56","frp":"3.42","daynight":"N","commune":"Corte","code_insee":"2B096","departement":"Haute-Corse","region":"Corse"}},{"type":"Feature","geometry":{"type":"Point","coordinates":[4.88157,43.43501]},"properties":{"latitude":"43.43501","longitude":"4.88157","bright_ti4":"306.81","scan":"0.79","track":"0.78","acq_date":"2026-07-17","acq_time":"24","satellite":"N21","instrument":"VIIRS","confidence":"n","version":"2.0NRT","bright_ti5":"290.26","frp":"4.03","daynight":"N","commune":"Fos-sur-Mer","code_insee":"13039","departement":"Bouches-du-Rhône","region":"Provence-Alpes-Côte d'Azur"}},{"type":"Feature","geometry":{"type":"Point","coordinates":[4.89138,43.4351]},"properties":{"latitude":"43.4351","longitude":"4.89138","bright_ti4":"311.04","scan":"0.79","track":"0.78","acq_date":"2026-07-17","acq_time":"24","satellite":"N21","instrument":"VIIRS","confidence":"n","version":"2.0NRT","bright_ti5":"290.09","frp":"4.03","daynight":"N","commune":"Fos-sur-Mer","code_insee":"13039","departement":"Bouches-du-Rhône","region":"Provence-Alpes-Côte d'Azur"}},{"type":"Feature","geometry":{"type":"Point","coordinates":[4.85011,43.99854]},"properties":{"latitude":"43.99854","longitude":"4.85011","bright_ti4":"306.65","scan":"0.55","track":"0.42","acq_date":"2026-07-17","acq_time":"204","satellite":"N21","instrument":"VIIRS","confidence":"n","version":"2.0NRT","bright_ti5":"292.43","frp":"0.74","daynight":"N","commune":"Sorgues","code_insee":"84129","departement":"Vaucluse","region":"Provence-Alpes-Côte d'Azur"}},{"type":"Feature","geometry":{"type":"Point","coordinates":[0.50954,47.14932]},"properties":{"latitude":"47.14932","longitude":"0.50954","bright_ti4":"308.1","scan":"0.39","track":"0.36","acq_date":"2026-07-17","acq_time":"204","satellite":"N21","instrument":"VIIRS","confidence":"n","version":"2.0NRT","bright_ti5":"284.91","frp":"0.88","daynight":"N","commune":"Saint-Épain","code_insee":"37216","departement":"Indre-et-Loire","region":"Centre-Val de Loire"}},{"type":"Feature","geometry":{"type":"Point","coordinates":[-1.03851,48.10663]},"properties":{"latitude":"48.10663","longitude":"-1.03851","bright_ti4":"306.22","scan":"0.39","track":"0.36","acq_date":"2026-07-17","acq_time":"204","satellite":"N21","instrument":"VIIRS","confidence":"n","version":"2.0NRT","bright_ti5":"289.5","frp":"1.08","daynight":"N","commune":"Saint-Pierre-la-Cour","code_insee":"53247","departement":"Mayenne","region":"Pays de la Loire"}},{"type":"Feature","geometry":{"type":"Point","coordinates":[2.98219,48.38581]},"properties":{"latitude":"48.38581","longitude":"2.98219","bright_ti4":"310.78","scan":"0.41","track":"0.37","acq_date":"2026-07-17","acq_time":"204","satellite":"N21","instrument":"VIIRS","confidence":"n","version":"2.0NRT","bright_ti5":"276.65","frp":"1.35","daynight":"N","commune":"Montereau-Fault-Yonne","code_insee":"77305","departement":"Seine-et-Marne","region":"Île-de-France"}},{"type":"Feature","geometry":{"type":"Point","coordinates":[1.76161,48.98341]},"properties":{"latitude":"48.98341","longitude":"1.76161","bright_ti4":"327.53","scan":"0.39","track":"0.36","acq_date":"2026-07-17","acq_time":"204","satellite":"N21","instrument":"VIIRS","confidence":"n","version":"2.0NRT","bright_ti5":"290.37","frp":"3","daynight":"N","commune":"Porcheville","code_insee":"78501","departement":"Yvelines","region":"Île-de-France"}},{"type":"Feature","geometry":{"type":"Point","coordinates":[3.49593,50.33855]},"properties":{"latitude":"50.33855","longitude":"3.49593","bright_ti4":"307.03","scan":"0.4","track":"0.37","acq_date":"2026-07-17","acq_time":"204","satellite":"N21","instrument":"VIIRS","confidence":"n","version":"2.0NRT","bright_ti5":"285.47","frp":"1.02","daynight":"N","commune":"Valenciennes","code_insee":"59606","departement":"Nord","region":"Hauts-de-France"}},{"type":"Feature","geometry":{"type":"Point","coordinates":[3.56454,50.40047]},"properties":{"latitude":"50.40047","longitude":"3.56454","bright_ti4":"301.54","scan":"0.4","track":"0.37","acq_date":"2026-07-17","acq_time":"204","satellite":"N21","instrument":"VIIRS","confidence":"n","version":"2.0NRT","bright_ti5":"278.99","frp":"1.16","daynight":"N","commune":"Saint-Saulve","code_insee":"59544","departement":"Nord","region":"Hauts-de-France"}},{"type":"Feature","geometry":{"type":"Point","coordinates":[2.27357,51.02778]},"properties":{"latitude":"51.02778","longitude":"2.27357","bright_ti4":"310.68","scan":"0.39","track":"0.36","acq_date":"2026-07-17","acq_time":"204","satellite":"N21","instrument":"VIIRS","confidence":"n","version":"2.0NRT","bright_ti5":"289.56","frp":"1.16","daynight":"N","commune":"Grande-Synthe","code_insee":"59271","departement":"Nord","region":"Hauts-de-France"}},{"type":"Feature","geometry":{"type":"Point","coordinates":[2.2682,51.02867]},"properties":{"latitude":"51.02867","longitude":"2.2682","bright_ti4":"307.74","scan":"0.39","track":"0.36","acq_date":"2026-07-17","acq_time":"204","satellite":"N21","instrument":"VIIRS","confidence":"n","version":"2.0NRT","bright_ti5":"289.14","frp":"1.32","daynight":"N","commune":"Grande-Synthe","code_insee":"59271","departement":"Nord","region":"Hauts-de-France"}},{"type":"Feature","geometry":{"type":"Point","coordinates":[2.32191,51.04743]},"properties":{"latitude":"51.04743","longitude":"2.32191","bright_ti4":"299.77","scan":"0.39","track":"0.36","acq_date":"2026-07-17","acq_time":"204","satellite":"N21","instrument":"VIIRS","confidence":"n","version":"2.0NRT","bright_ti5":"288.01","frp":"0.81","daynight":"N","commune":"Dunkerque","code_insee":"59183","departement":"Nord","region":"Hauts-de-France"}},{"type":"Feature","geometry":{"type":"Point","coordinates":[9.08325,42.27434]},"properties":{"latitude":"42.27434","longitude":"9.08325","bright_ti4":"306.83","scan":"0.63","track":"0.54","acq_date":"2026-07-17","acq_time":"206","satellite":"N21","instrument":"VIIRS","confidence":"n","version":"2.0NRT","bright_ti5":"292.73","frp":"1.93","daynight":"N","commune":"Corte","code_insee":"2B096","departement":"Haute-Corse","region":"Corse"}},{"type":"Feature","geometry":{"type":"Point","coordinates":[9.08419,42.27939]},"properties":{"latitude":"42.27939","longitude":"9.08419","bright_ti4":"304.08","scan":"0.63","track":"0.54","acq_date":"2026-07-17","acq_time":"206","satellite":"N21","instrument":"VIIRS","confidence":"n","version":"2.0NRT","bright_ti5":"292.19","frp":"1.04","daynight":"N","commune":"Corte","code_insee":"2B096","departement":"Haute-Corse","region":"Corse"}},{"type":"Feature","geometry":{"type":"Point","coordinates":[9.08754,42.28381]},"properties":{"latitude":"42.28381","longitude":"9.08754","bright_ti4":"304.06","scan":"0.63","track":"0.54","acq_date":"2026-07-17","acq_time":"206","satellite":"N21","instrument":"VIIRS","confidence":"n","version":"2.0NRT","bright_ti5":"292.01","frp":"1.04","daynight":"N","commune":"Corte","code_insee":"2B096","departement":"Haute-Corse","region":"Corse"}},{"type":"Feature","geometry":{"type":"Point","coordinates":[0.09216,42.87592]},"properties":{"latitude":"42.87592","longitude":"0.09216","bright_ti4":"297.45","scan":"0.4","track":"0.37","acq_date":"2026-07-17","acq_time":"206","satellite":"N21","instrument":"VIIRS","confidence":"n","version":"2.0NRT","bright_ti5":"285.94","frp":"0.61","daynight":"N","commune":"Barèges","code_insee":"65481","departement":"Hautes-Pyrénées","region":"Occitanie"}},{"type":"Feature","geometry":{"type":"Point","coordinates":[0.0941,42.88255]},"properties":{"latitude":"42.88255","longitude":"0.0941","bright_ti4":"308.94","scan":"0.4","track":"0.37","acq_date":"2026-07-17","acq_time":"206","satellite":"N21","instrument":"VIIRS","confidence":"n","version":"2.0NRT","bright_ti5":"289.32","frp":"2.09","daynight":"N","commune":"Barèges","code_insee":"65481","departement":"Hautes-Pyrénées","region":"Occitanie"}},{"type":"Feature","geometry":{"type":"Point","coordinates":[0.09522,42.88583]},"properties":{"latitude":"42.88583","longitude":"0.09522","bright_ti4":"298.15","scan":"0.4","track":"0.37","acq_date":"2026-07-17","acq_time":"206","satellite":"N21","instrument":"VIIRS","confidence":"n","version":"2.0NRT","bright_ti5":"285.06","frp":"0.63","daynight":"N","commune":"Barèges","code_insee":"65481","departement":"Hautes-Pyrénées","region":"Occitanie"}},{"type":"Feature","geometry":{"type":"Point","coordinates":[4.89152,43.4346]},"properties":{"latitude":"43.4346","longitude":"4.89152","bright_ti4":"305.19","scan":"0.56","track":"0.43","acq_date":"2026-07-17","acq_time":"206","satellite":"N21","instrument":"VIIRS","confidence":"n","version":"2.0NRT","bright_ti5":"293.49","frp":"2.34","daynight":"N","commune":"Fos-sur-Mer","code_insee":"13039","departement":"Bouches-du-Rhône","region":"Provence-Alpes-Côte d'Azur"}},{"type":"Feature","geometry":{"type":"Point","coordinates":[4.88482,43.43605]},"properties":{"latitude":"43.43605","longitude":"4.88482","bright_ti4":"311.7","scan":"0.56","track":"0.43","acq_date":"2026-07-17","acq_time":"206","satellite":"N21","instrument":"VIIRS","confidence":"n","version":"2.0NRT","bright_ti5":"293.24","frp":"2.34","daynight":"N","commune":"Fos-sur-Mer","code_insee":"13039","departement":"Bouches-du-Rhône","region":"Provence-Alpes-Côte d'Azur"}},{"type":"Feature","geometry":{"type":"Point","coordinates":[4.89625,43.44602]},"properties":{"latitude":"43.44602","longitude":"4.89625","bright_ti4":"334.21","scan":"0.56","track":"0.43","acq_date":"2026-07-17","acq_time":"206","satellite":"N21","instrument":"VIIRS","confidence":"n","version":"2.0NRT","bright_ti5":"294.52","frp":"6.65","daynight":"N","commune":"Fos-sur-Mer","code_insee":"13039","departement":"Bouches-du-Rhône","region":"Provence-Alpes-Côte d'Azur"}},{"type":"Feature","geometry":{"type":"Point","coordinates":[9.08486,42.27702]},"properties":{"latitude":"42.27702","longitude":"9.08486","bright_ti4":"337.8","scan":"0.41","track":"0.45","acq_date":"2026-07-17","acq_time":"1147","satellite":"N21","instrument":"VIIRS","confidence":"n","version":"2.0NRT","bright_ti5":"305.08","frp":"5.47","daynight":"D","commune":"Corte","code_insee":"2B096","departement":"Haute-Corse","region":"Corse"}},{"type":"Feature","geometry":{"type":"Point","coordinates":[4.89349,43.43261]},"properties":{"latitude":"43.43261","longitude":"4.89349","bright_ti4":"345.45","scan":"0.6","track":"0.53","acq_date":"2026-07-17","acq_time":"1149","satellite":"N21","instrument":"VIIRS","confidence":"n","version":"2.0NRT","bright_ti5":"311.79","frp":"14.64","daynight":"D","commune":"Fos-sur-Mer","code_insee":"13039","departement":"Bouches-du-Rhône","region":"Provence-Alpes-Côte d'Azur"}},{"type":"Feature","geometry":{"type":"Point","coordinates":[4.89128,43.43725]},"properties":{"latitude":"43.43725","longitude":"4.89128","bright_ti4":"337.29","scan":"0.6","track":"0.53","acq_date":"2026-07-17","acq_time":"1149","satellite":"N21","instrument":"VIIRS","confidence":"l","version":"2.0NRT","bright_ti5":"309.96","frp":"13.26","daynight":"D","commune":"Fos-sur-Mer","code_insee":"13039","departement":"Bouches-du-Rhône","region":"Provence-Alpes-Côte d'Azur"}},{"type":"Feature","geometry":{"type":"Point","coordinates":[8.9742,41.60492]},"properties":{"latitude":"41.60492","longitude":"8.9742","bright_ti4":"344.39","scan":"0.74","track":"0.76","acq_date":"2026-07-17","acq_time":"1329","satellite":"N21","instrument":"VIIRS","confidence":"n","version":"2.0NRT","bright_ti5":"297.47","frp":"10.49","daynight":"D","commune":"Sartène","code_insee":"2A272","departement":"Corse-du-Sud","region":"Corse"}},{"type":"Feature","geometry":{"type":"Point","coordinates":[0.09018,42.87425]},"properties":{"latitude":"42.87425","longitude":"0.09018","bright_ti4":"335.72","scan":"0.52","track":"0.5","acq_date":"2026-07-17","acq_time":"1329","satellite":"N21","instrument":"VIIRS","confidence":"n","version":"2.0NRT","bright_ti5":"299.44","frp":"11.25","daynight":"D","commune":"Barèges","code_insee":"65481","departement":"Hautes-Pyrénées","region":"Occitanie"}},{"type":"Feature","geometry":{"type":"Point","coordinates":[0.0846,42.87846]},"properties":{"latitude":"42.87846","longitude":"0.0846","bright_ti4":"352.67","scan":"0.52","track":"0.5","acq_date":"2026-07-17","acq_time":"1329","satellite":"N21","instrument":"VIIRS","confidence":"n","version":"2.0NRT","bright_ti5":"303.1","frp":"11.25","daynight":"D","commune":"Barèges","code_insee":"65481","departement":"Hautes-Pyrénées","region":"Occitanie"}},{"type":"Feature","geometry":{"type":"Point","coordinates":[0.08457,42.88307]},"properties":{"latitude":"42.88307","longitude":"0.08457","bright_ti4":"344.64","scan":"0.52","track":"0.5","acq_date":"2026-07-17","acq_time":"1329","satellite":"N21","instrument":"VIIRS","confidence":"n","version":"2.0NRT","bright_ti5":"305.15","frp":"29.65","daynight":"D","commune":"Barèges","code_insee":"65481","departement":"Hautes-Pyrénées","region":"Occitanie"}},{"type":"Feature","geometry":{"type":"Point","coordinates":[0.09366,42.88374]},"properties":{"latitude":"42.88374","longitude":"0.09366","bright_ti4":"342.16","scan":"0.52","track":"0.5","acq_date":"2026-07-17","acq_time":"1329","satellite":"N21","instrument":"VIIRS","confidence":"n","version":"2.0NRT","bright_ti5":"307.29","frp":"8.46","daynight":"D","commune":"Barèges","code_insee":"65481","departement":"Hautes-Pyrénées","region":"Occitanie"}},{"type":"Feature","geometry":{"type":"Point","coordinates":[4.88842,43.43576]},"properties":{"latitude":"43.43576","longitude":"4.88842","bright_ti4":"335.22","scan":"0.46","track":"0.64","acq_date":"2026-07-17","acq_time":"1329","satellite":"N21","instrument":"VIIRS","confidence":"l","version":"2.0NRT","bright_ti5":"307.08","frp":"11.78","daynight":"D","commune":"Fos-sur-Mer","code_insee":"13039","departement":"Bouches-du-Rhône","region":"Provence-Alpes-Côte d'Azur"}},{"type":"Feature","geometry":{"type":"Point","coordinates":[2.2962,51.04583]},"properties":{"latitude":"51.04583","longitude":"2.2962","bright_ti4":"340.6","scan":"0.39","track":"0.59","acq_date":"2026-07-17","acq_time":"1331","satellite":"N21","instrument":"VIIRS","confidence":"n","version":"2.0NRT","bright_ti5":"296.35","frp":"4.02","daynight":"D","commune":"Grande-Synthe","code_insee":"59271","departement":"Nord","region":"Hauts-de-France"}},{"type":"Feature","geometry":{"type":"Point","coordinates":[2.29439,51.04645]},"properties":{"latitude":"51.04645","longitude":"2.29439","bright_ti4":"330.02","scan":"0.39","track":"0.59","acq_date":"2026-07-17","acq_time":"1331","satellite":"N21","instrument":"VIIRS","confidence":"n","version":"2.0NRT","bright_ti5":"293.99","frp":"6.17","daynight":"D","commune":"Grande-Synthe","code_insee":"59271","departement":"Nord","region":"Hauts-de-France"}}]}