{"type":"FeatureCollection","features":[{"type":"Feature","geometry":{"type":"Point","coordinates":[5.66603,45.23004]},"properties":{"latitude":"45.23004","longitude":"5.66603","bright_ti4":"305.03","scan":"0.4","track":"0.37","acq_date":"2026-07-30","acq_time":"156","satellite":"N","instrument":"VIIRS","confidence":"n","version":"2.0NRT","bright_ti5":"293.77","frp":"0.48","daynight":"N","commune":"Saint-Égrève","code_insee":"38382","departement":"Isère","region":"Auvergne-Rhône-Alpes"}},{"type":"Feature","geometry":{"type":"Point","coordinates":[5.81901,45.91193]},"properties":{"latitude":"45.91193","longitude":"5.81901","bright_ti4":"303.21","scan":"0.4","track":"0.37","acq_date":"2026-07-30","acq_time":"156","satellite":"N","instrument":"VIIRS","confidence":"n","version":"2.0NRT","bright_ti5":"293.01","frp":"0.87","daynight":"N","commune":"Anglefort","code_insee":"01010","departement":"Ain","region":"Auvergne-Rhône-Alpes"}},{"type":"Feature","geometry":{"type":"Point","coordinates":[0.15468,46.80614]},"properties":{"latitude":"46.80614","longitude":"0.15468","bright_ti4":"316.56","scan":"0.45","track":"0.39","acq_date":"2026-07-30","acq_time":"156","satellite":"N","instrument":"VIIRS","confidence":"n","version":"2.0NRT","bright_ti5":"290.41","frp":"1.98","daynight":"N","commune":"Chouppes","code_insee":"86075","departement":"Vienne","region":"Nouvelle-Aquitaine"}},{"type":"Feature","geometry":{"type":"Point","coordinates":[-0.13849,46.80676]},"properties":{"latitude":"46.80676","longitude":"-0.13849","bright_ti4":"301.92","scan":"0.45","track":"0.39","acq_date":"2026-07-30","acq_time":"156","satellite":"N","instrument":"VIIRS","confidence":"n","version":"2.0NRT","bright_ti5":"288.29","frp":"1.26","daynight":"N","commune":"Airvault","code_insee":"79005","departement":"Deux-Sèvres","region":"Nouvelle-Aquitaine"}},{"type":"Feature","geometry":{"type":"Point","coordinates":[0.15332,46.80788]},"properties":{"latitude":"46.80788","longitude":"0.15332","bright_ti4":"328.1","scan":"0.45","track":"0.39","acq_date":"2026-07-30","acq_time":"156","satellite":"N","instrument":"VIIRS","confidence":"n","version":"2.0NRT","bright_ti5":"292.25","frp":"3.46","daynight":"N","commune":"Chouppes","code_insee":"86075","departement":"Vienne","region":"Nouvelle-Aquitaine"}},{"type":"Feature","geometry":{"type":"Point","coordinates":[0.1556,46.80968]},"properties":{"latitude":"46.80968","longitude":"0.1556","bright_ti4":"313.36","scan":"0.45","track":"0.39","acq_date":"2026-07-30","acq_time":"156","satellite":"N","instrument":"VIIRS","confidence":"n","version":"2.0NRT","bright_ti5":"290.7","frp":"1.37","daynight":"N","commune":"Chouppes","code_insee":"86075","departement":"Vienne","region":"Nouvelle-Aquitaine"}},{"type":"Feature","geometry":{"type":"Point","coordinates":[4.95886,47.27233]},"properties":{"latitude":"47.27233","longitude":"4.95886","bright_ti4":"305.37","scan":"0.38","track":"0.36","acq_date":"2026-07-30","acq_time":"156","satellite":"N","instrument":"VIIRS","confidence":"n","version":"2.0NRT","bright_ti5":"294.68","frp":"1.23","daynight":"N","commune":"Couchey","code_insee":"21200","departement":"Côte-d'Or","region":"Bourgogne-Franche-Comté"}},{"type":"Feature","geometry":{"type":"Point","coordinates":[4.95384,47.27315]},"properties":{"latitude":"47.27315","longitude":"4.95384","bright_ti4":"305.11","scan":"0.38","track":"0.36","acq_date":"2026-07-30","acq_time":"156","satellite":"N","instrument":"VIIRS","confidence":"n","version":"2.0NRT","bright_ti5":"293.78","frp":"0.62","daynight":"N","commune":"Couchey","code_insee":"21200","departement":"Côte-d'Or","region":"Bourgogne-Franche-Comté"}},{"type":"Feature","geometry":{"type":"Point","coordinates":[4.96505,47.27477]},"properties":{"latitude":"47.27477","longitude":"4.96505","bright_ti4":"309.56","scan":"0.39","track":"0.36","acq_date":"2026-07-30","acq_time":"156","satellite":"N","instrument":"VIIRS","confidence":"n","version":"2.0NRT","bright_ti5":"294.51","frp":"1.58","daynight":"N","commune":"Marsannay-la-Côte","code_insee":"21390","departement":"Côte-d'Or","region":"Bourgogne-Franche-Comté"}},{"type":"Feature","geometry":{"type":"Point","coordinates":[4.97629,47.27638]},"properties":{"latitude":"47.27638","longitude":"4.97629","bright_ti4":"304.54","scan":"0.39","track":"0.36","acq_date":"2026-07-30","acq_time":"156","satellite":"N","instrument":"VIIRS","confidence":"n","version":"2.0NRT","bright_ti5":"293.96","frp":"1.32","daynight":"N","commune":"Marsannay-la-Côte","code_insee":"21390","departement":"Côte-d'Or","region":"Bourgogne-Franche-Comté"}},{"type":"Feature","geometry":{"type":"Point","coordinates":[3.68355,47.83813]},"properties":{"latitude":"47.83813","longitude":"3.68355","bright_ti4":"333.22","scan":"0.39","track":"0.36","acq_date":"2026-07-30","acq_time":"156","satellite":"N","instrument":"VIIRS","confidence":"n","version":"2.0NRT","bright_ti5":"294.58","frp":"3.65","daynight":"N","commune":"Bleigny-le-Carreau","code_insee":"89045","departement":"Yonne","region":"Bourgogne-Franche-Comté"}},{"type":"Feature","geometry":{"type":"Point","coordinates":[2.58266,48.37294]},"properties":{"latitude":"48.37294","longitude":"2.58266","bright_ti4":"329.19","scan":"0.4","track":"0.37","acq_date":"2026-07-30","acq_time":"156","satellite":"N","instrument":"VIIRS","confidence":"n","version":"2.0NRT","bright_ti5":"297.24","frp":"3.56","daynight":"N","commune":"Fontainebleau","code_insee":"77186","departement":"Seine-et-Marne","region":"Île-de-France"}},{"type":"Feature","geometry":{"type":"Point","coordinates":[2.58371,48.37629]},"properties":{"latitude":"48.37629","longitude":"2.58371","bright_ti4":"307.81","scan":"0.4","track":"0.37","acq_date":"2026-07-30","acq_time":"156","satellite":"N","instrument":"VIIRS","confidence":"n","version":"2.0NRT","bright_ti5":"294.56","frp":"0.88","daynight":"N","commune":"Fontainebleau","code_insee":"77186","departement":"Seine-et-Marne","region":"Île-de-France"}},{"type":"Feature","geometry":{"type":"Point","coordinates":[2.98515,48.38723]},"properties":{"latitude":"48.38723","longitude":"2.98515","bright_ti4":"312.15","scan":"0.4","track":"0.37","acq_date":"2026-07-30","acq_time":"156","satellite":"N","instrument":"VIIRS","confidence":"n","version":"2.0NRT","bright_ti5":"292.63","frp":"1.46","daynight":"N","commune":"Montereau-Fault-Yonne","code_insee":"77305","departement":"Seine-et-Marne","region":"Île-de-France"}},{"type":"Feature","geometry":{"type":"Point","coordinates":[2.97984,48.38797]},"properties":{"latitude":"48.38797","longitude":"2.97984","bright_ti4":"327.57","scan":"0.4","track":"0.37","acq_date":"2026-07-30","acq_time":"156","satellite":"N","instrument":"VIIRS","confidence":"n","version":"2.0NRT","bright_ti5":"295.21","frp":"1.46","daynight":"N","commune":"Montereau-Fault-Yonne","code_insee":"77305","departement":"Seine-et-Marne","region":"Île-de-France"}},{"type":"Feature","geometry":{"type":"Point","coordinates":[2.65451,48.40498]},"properties":{"latitude":"48.40498","longitude":"2.65451","bright_ti4":"343.17","scan":"0.4","track":"0.37","acq_date":"2026-07-30","acq_time":"156","satellite":"N","instrument":"VIIRS","confidence":"n","version":"2.0NRT","bright_ti5":"301.41","frp":"7.02","daynight":"N","commune":"Fontainebleau","code_insee":"77186","departement":"Seine-et-Marne","region":"Île-de-France"}},{"type":"Feature","geometry":{"type":"Point","coordinates":[6.1123,48.60958]},"properties":{"latitude":"48.60958","longitude":"6.1123","bright_ti4":"309.43","scan":"0.39","track":"0.36","acq_date":"2026-07-30","acq_time":"156","satellite":"N","instrument":"VIIRS","confidence":"n","version":"2.0NRT","bright_ti5":"292.28","frp":"0.7","daynight":"N","commune":"Neuves-Maisons","code_insee":"54397","departement":"Meurthe-et-Moselle","region":"Grand Est"}},{"type":"Feature","geometry":{"type":"Point","coordinates":[6.96808,48.69223]},"properties":{"latitude":"48.69223","longitude":"6.96808","bright_ti4":"303.63","scan":"0.4","track":"0.37","acq_date":"2026-07-30","acq_time":"156","satellite":"N","instrument":"VIIRS","confidence":"n","version":"2.0NRT","bright_ti5":"290.08","frp":"0.8","daynight":"N","commune":"Héming","code_insee":"57314","departement":"Moselle","region":"Grand Est"}},{"type":"Feature","geometry":{"type":"Point","coordinates":[5.68068,48.7163]},"properties":{"latitude":"48.7163","longitude":"5.68068","bright_ti4":"302.21","scan":"0.39","track":"0.36","acq_date":"2026-07-30","acq_time":"156","satellite":"N","instrument":"VIIRS","confidence":"n","version":"2.0NRT","bright_ti5":"289.83","frp":"0.61","daynight":"N","commune":"Sorcy-Saint-Martin","code_insee":"55496","departement":"Meuse","region":"Grand Est"}},{"type":"Feature","geometry":{"type":"Point","coordinates":[6.10092,49.32492]},"properties":{"latitude":"49.32492","longitude":"6.10092","bright_ti4":"306.73","scan":"0.39","track":"0.36","acq_date":"2026-07-30","acq_time":"156","satellite":"N","instrument":"VIIRS","confidence":"n","version":"2.0NRT","bright_ti5":"290.94","frp":"0.84","daynight":"N","commune":"Serémange-Erzange","code_insee":"57647","departement":"Moselle","region":"Grand Est"}},{"type":"Feature","geometry":{"type":"Point","coordinates":[2.11476,50.69835]},"properties":{"latitude":"50.69835","longitude":"2.11476","bright_ti4":"302.28","scan":"0.43","track":"0.38","acq_date":"2026-07-30","acq_time":"156","satellite":"N","instrument":"VIIRS","confidence":"n","version":"2.0NRT","bright_ti5":"290.15","frp":"0.58","daynight":"N","commune":"Lumbres","code_insee":"62534","departement":"Pas-de-Calais","region":"Hauts-de-France"}},{"type":"Feature","geometry":{"type":"Point","coordinates":[2.27002,51.02829]},"properties":{"latitude":"51.02829","longitude":"2.27002","bright_ti4":"322.46","scan":"0.43","track":"0.38","acq_date":"2026-07-30","acq_time":"156","satellite":"N","instrument":"VIIRS","confidence":"n","version":"2.0NRT","bright_ti5":"291.93","frp":"2.49","daynight":"N","commune":"Grande-Synthe","code_insee":"59271","departement":"Nord","region":"Hauts-de-France"}},{"type":"Feature","geometry":{"type":"Point","coordinates":[2.29047,51.03292]},"properties":{"latitude":"51.03292","longitude":"2.29047","bright_ti4":"313.37","scan":"0.43","track":"0.38","acq_date":"2026-07-30","acq_time":"156","satellite":"N","instrument":"VIIRS","confidence":"n","version":"2.0NRT","bright_ti5":"291","frp":"1.78","daynight":"N","commune":"Grande-Synthe","code_insee":"59271","departement":"Nord","region":"Hauts-de-France"}},{"type":"Feature","geometry":{"type":"Point","coordinates":[2.28439,51.03368]},"properties":{"latitude":"51.03368","longitude":"2.28439","bright_ti4":"328.43","scan":"0.43","track":"0.38","acq_date":"2026-07-30","acq_time":"156","satellite":"N","instrument":"VIIRS","confidence":"n","version":"2.0NRT","bright_ti5":"292.27","frp":"2.06","daynight":"N","commune":"Grande-Synthe","code_insee":"59271","departement":"Nord","region":"Hauts-de-France"}},{"type":"Feature","geometry":{"type":"Point","coordinates":[2.2783,51.03445]},"properties":{"latitude":"51.03445","longitude":"2.2783","bright_ti4":"305.24","scan":"0.43","track":"0.38","acq_date":"2026-07-30","acq_time":"156","satellite":"N","instrument":"VIIRS","confidence":"n","version":"2.0NRT","bright_ti5":"291.32","frp":"2.06","daynight":"N","commune":"Grande-Synthe","code_insee":"59271","departement":"Nord","region":"Hauts-de-France"}},{"type":"Feature","geometry":{"type":"Point","coordinates":[2.29156,51.03638]},"properties":{"latitude":"51.03638","longitude":"2.29156","bright_ti4":"303.87","scan":"0.43","track":"0.38","acq_date":"2026-07-30","acq_time":"156","satellite":"N","instrument":"VIIRS","confidence":"n","version":"2.0NRT","bright_ti5":"291.61","frp":"1.34","daynight":"N","commune":"Grande-Synthe","code_insee":"59271","departement":"Nord","region":"Hauts-de-France"}},{"type":"Feature","geometry":{"type":"Point","coordinates":[2.28548,51.03715]},"properties":{"latitude":"51.03715","longitude":"2.28548","bright_ti4":"311.92","scan":"0.43","track":"0.38","acq_date":"2026-07-30","acq_time":"156","satellite":"N","instrument":"VIIRS","confidence":"n","version":"2.0NRT","bright_ti5":"291.53","frp":"1.3","daynight":"N","commune":"Grande-Synthe","code_insee":"59271","departement":"Nord","region":"Hauts-de-France"}},{"type":"Feature","geometry":{"type":"Point","coordinates":[2.29984,51.04254]},"properties":{"latitude":"51.04254","longitude":"2.29984","bright_ti4":"304.46","scan":"0.43","track":"0.38","acq_date":"2026-07-30","acq_time":"156","satellite":"N","instrument":"VIIRS","confidence":"n","version":"2.0NRT","bright_ti5":"292.54","frp":"1.91","daynight":"N","commune":"Grande-Synthe","code_insee":"59271","departement":"Nord","region":"Hauts-de-France"}},{"type":"Feature","geometry":{"type":"Point","coordinates":[2.29376,51.04331]},"properties":{"latitude":"51.04331","longitude":"2.29376","bright_ti4":"324.44","scan":"0.43","track":"0.38","acq_date":"2026-07-30","acq_time":"156","satellite":"N","instrument":"VIIRS","confidence":"n","version":"2.0NRT","bright_ti5":"292.77","frp":"1.91","daynight":"N","commune":"Grande-Synthe","code_insee":"59271","departement":"Nord","region":"Hauts-de-France"}},{"type":"Feature","geometry":{"type":"Point","coordinates":[2.30093,51.04601]},"properties":{"latitude":"51.04601","longitude":"2.30093","bright_ti4":"301.23","scan":"0.43","track":"0.38","acq_date":"2026-07-30","acq_time":"156","satellite":"N","instrument":"VIIRS","confidence":"n","version":"2.0NRT","bright_ti5":"291.16","frp":"1.91","daynight":"N","commune":"Grande-Synthe","code_insee":"59271","departement":"Nord","region":"Hauts-de-France"}},{"type":"Feature","geometry":{"type":"Point","coordinates":[2.29484,51.04677]},"properties":{"latitude":"51.04677","longitude":"2.29484","bright_ti4":"329.45","scan":"0.43","track":"0.38","acq_date":"2026-07-30","acq_time":"156","satellite":"N","instrument":"VIIRS","confidence":"n","version":"2.0NRT","bright_ti5":"294.21","frp":"1.91","daynight":"N","commune":"Grande-Synthe","code_insee":"59271","departement":"Nord","region":"Hauts-de-France"}},{"type":"Feature","geometry":{"type":"Point","coordinates":[2.32026,51.04716]},"properties":{"latitude":"51.04716","longitude":"2.32026","bright_ti4":"346.28","scan":"0.43","track":"0.38","acq_date":"2026-07-30","acq_time":"156","satellite":"N","instrument":"VIIRS","confidence":"n","version":"2.0NRT","bright_ti5":"294.63","frp":"8.34","daynight":"N","commune":"Dunkerque","code_insee":"59183","departement":"Nord","region":"Hauts-de-France"}},{"type":"Feature","geometry":{"type":"Point","coordinates":[0.09413,42.86807]},"properties":{"latitude":"42.86807","longitude":"0.09413","bright_ti4":"302.96","scan":"0.41","track":"0.37","acq_date":"2026-07-30","acq_time":"158","satellite":"N","instrument":"VIIRS","confidence":"n","version":"2.0NRT","bright_ti5":"291.07","frp":"0.97","daynight":"N","commune":"Barèges","code_insee":"65481","departement":"Hautes-Pyrénées","region":"Occitanie"}},{"type":"Feature","geometry":{"type":"Point","coordinates":[6.0862,43.39203]},"properties":{"latitude":"43.39203","longitude":"6.0862","bright_ti4":"305.36","scan":"0.42","track":"0.38","acq_date":"2026-07-30","acq_time":"158","satellite":"N","instrument":"VIIRS","confidence":"n","version":"2.0NRT","bright_ti5":"294.23","frp":"1.56","daynight":"N","commune":"Brignoles","code_insee":"83023","departement":"Var","region":"Provence-Alpes-Côte d'Azur"}},{"type":"Feature","geometry":{"type":"Point","coordinates":[6.08742,43.39543]},"properties":{"latitude":"43.39543","longitude":"6.08742","bright_ti4":"304.86","scan":"0.42","track":"0.38","acq_date":"2026-07-30","acq_time":"158","satellite":"N","instrument":"VIIRS","confidence":"n","version":"2.0NRT","bright_ti5":"294.03","frp":"1.39","daynight":"N","commune":"Brignoles","code_insee":"83023","departement":"Var","region":"Provence-Alpes-Côte d'Azur"}},{"type":"Feature","geometry":{"type":"Point","coordinates":[4.89235,43.43983]},"properties":{"latitude":"43.43983","longitude":"4.89235","bright_ti4":"309.13","scan":"0.4","track":"0.37","acq_date":"2026-07-30","acq_time":"158","satellite":"N","instrument":"VIIRS","confidence":"n","version":"2.0NRT","bright_ti5":"295.39","frp":"1.88","daynight":"N","commune":"Fos-sur-Mer","code_insee":"13039","departement":"Bouches-du-Rhône","region":"Provence-Alpes-Côte d'Azur"}},{"type":"Feature","geometry":{"type":"Point","coordinates":[4.8886,43.444]},"properties":{"latitude":"43.444","longitude":"4.8886","bright_ti4":"305.82","scan":"0.4","track":"0.37","acq_date":"2026-07-30","acq_time":"158","satellite":"N","instrument":"VIIRS","confidence":"n","version":"2.0NRT","bright_ti5":"295.24","frp":"1.19","daynight":"N","commune":"Fos-sur-Mer","code_insee":"13039","departement":"Bouches-du-Rhône","region":"Provence-Alpes-Côte d'Azur"}},{"type":"Feature","geometry":{"type":"Point","coordinates":[-0.89513,43.98092]},"properties":{"latitude":"43.98092","longitude":"-0.89513","bright_ti4":"309.31","scan":"0.45","track":"0.39","acq_date":"2026-07-30","acq_time":"158","satellite":"N","instrument":"VIIRS","confidence":"n","version":"2.0NRT","bright_ti5":"291.71","frp":"1.96","daynight":"N","commune":"Morcenx-la-Nouvelle","code_insee":"40197","departement":"Landes","region":"Nouvelle-Aquitaine"}},{"type":"Feature","geometry":{"type":"Point","coordinates":[-1.02528,44.75315]},"properties":{"latitude":"44.75315","longitude":"-1.02528","bright_ti4":"309.07","scan":"0.46","track":"0.39","acq_date":"2026-07-30","acq_time":"158","satellite":"N","instrument":"VIIRS","confidence":"n","version":"2.0NRT","bright_ti5":"292.34","frp":"2.03","daynight":"N","commune":"Lanton","code_insee":"33229","departement":"Gironde","region":"Nouvelle-Aquitaine"}},{"type":"Feature","geometry":{"type":"Point","coordinates":[-1.03113,44.75385]},"properties":{"latitude":"44.75385","longitude":"-1.03113","bright_ti4":"311.84","scan":"0.46","track":"0.39","acq_date":"2026-07-30","acq_time":"158","satellite":"N","instrument":"VIIRS","confidence":"n","version":"2.0NRT","bright_ti5":"292.41","frp":"2.03","daynight":"N","commune":"Lanton","code_insee":"33229","departement":"Gironde","region":"Nouvelle-Aquitaine"}},{"type":"Feature","geometry":{"type":"Point","coordinates":[-1.20914,44.77111]},"properties":{"latitude":"44.77111","longitude":"-1.20914","bright_ti4":"320.23","scan":"0.47","track":"0.4","acq_date":"2026-07-30","acq_time":"158","satellite":"N","instrument":"VIIRS","confidence":"n","version":"2.0NRT","bright_ti5":"291.78","frp":"1.95","daynight":"N","commune":"Lège-Cap-Ferret","code_insee":"33236","departement":"Gironde","region":"Nouvelle-Aquitaine"}},{"type":"Feature","geometry":{"type":"Point","coordinates":[-1.21508,44.77181]},"properties":{"latitude":"44.77181","longitude":"-1.21508","bright_ti4":"303.45","scan":"0.47","track":"0.4","acq_date":"2026-07-30","acq_time":"158","satellite":"N","instrument":"VIIRS","confidence":"n","version":"2.0NRT","bright_ti5":"289.63","frp":"1.24","daynight":"N","commune":"Lège-Cap-Ferret","code_insee":"33236","departement":"Gironde","region":"Nouvelle-Aquitaine"}},{"type":"Feature","geometry":{"type":"Point","coordinates":[-1.20828,44.77475]},"properties":{"latitude":"44.77475","longitude":"-1.20828","bright_ti4":"309.81","scan":"0.47","track":"0.4","acq_date":"2026-07-30","acq_time":"158","satellite":"N","instrument":"VIIRS","confidence":"n","version":"2.0NRT","bright_ti5":"290.98","frp":"1.95","daynight":"N","commune":"Lège-Cap-Ferret","code_insee":"33236","departement":"Gironde","region":"Nouvelle-Aquitaine"}},{"type":"Feature","geometry":{"type":"Point","coordinates":[-1.22246,44.81676]},"properties":{"latitude":"44.81676","longitude":"-1.22246","bright_ti4":"301.87","scan":"0.47","track":"0.4","acq_date":"2026-07-30","acq_time":"158","satellite":"N","instrument":"VIIRS","confidence":"n","version":"2.0NRT","bright_ti5":"291.36","frp":"1","daynight":"N","commune":"Le Porge","code_insee":"33333","departement":"Gironde","region":"Nouvelle-Aquitaine"}},{"type":"Feature","geometry":{"type":"Point","coordinates":[-1.2229,44.81761]},"properties":{"latitude":"44.81761","longitude":"-1.2229","bright_ti4":"303.54","scan":"0.47","track":"0.4","acq_date":"2026-07-30","acq_time":"158","satellite":"N","instrument":"VIIRS","confidence":"n","version":"2.0NRT","bright_ti5":"291.27","frp":"2.02","daynight":"N","commune":"Le Porge","code_insee":"33333","departement":"Gironde","region":"Nouvelle-Aquitaine"}},{"type":"Feature","geometry":{"type":"Point","coordinates":[-1.20963,44.81903]},"properties":{"latitude":"44.81903","longitude":"-1.20963","bright_ti4":"312.5","scan":"0.47","track":"0.4","acq_date":"2026-07-30","acq_time":"158","satellite":"N","instrument":"VIIRS","confidence":"n","version":"2.0NRT","bright_ti5":"290.88","frp":"1.57","daynight":"N","commune":"Le Porge","code_insee":"33333","departement":"Gironde","region":"Nouvelle-Aquitaine"}},{"type":"Feature","geometry":{"type":"Point","coordinates":[-1.2101,44.81983]},"properties":{"latitude":"44.81983","longitude":"-1.2101","bright_ti4":"310.48","scan":"0.47","track":"0.4","acq_date":"2026-07-30","acq_time":"158","satellite":"N","instrument":"VIIRS","confidence":"n","version":"2.0NRT","bright_ti5":"290.92","frp":"2.1","daynight":"N","commune":"Le Porge","code_insee":"33333","departement":"Gironde","region":"Nouvelle-Aquitaine"}},{"type":"Feature","geometry":{"type":"Point","coordinates":[-1.16703,44.84401]},"properties":{"latitude":"44.84401","longitude":"-1.16703","bright_ti4":"316.87","scan":"0.47","track":"0.4","acq_date":"2026-07-30","acq_time":"158","satellite":"N","instrument":"VIIRS","confidence":"n","version":"2.0NRT","bright_ti5":"290.8","frp":"1.42","daynight":"N","commune":"Le Porge","code_insee":"33333","departement":"Gironde","region":"Nouvelle-Aquitaine"}},{"type":"Feature","geometry":{"type":"Point","coordinates":[-1.16619,44.84765]},"properties":{"latitude":"44.84765","longitude":"-1.16619","bright_ti4":"302.58","scan":"0.47","track":"0.4","acq_date":"2026-07-30","acq_time":"158","satellite":"N","instrument":"VIIRS","confidence":"n","version":"2.0NRT","bright_ti5":"290.52","frp":"1.42","daynight":"N","commune":"Le Porge","code_insee":"33333","departement":"Gironde","region":"Nouvelle-Aquitaine"}},{"type":"Feature","geometry":{"type":"Point","coordinates":[-0.69877,44.96598]},"properties":{"latitude":"44.96598","longitude":"-0.69877","bright_ti4":"331.96","scan":"0.45","track":"0.39","acq_date":"2026-07-30","acq_time":"158","satellite":"N","instrument":"VIIRS","confidence":"n","version":"2.0NRT","bright_ti5":"289.86","frp":"4.8","daynight":"N","commune":"Le Pian-Médoc","code_insee":"33322","departement":"Gironde","region":"Nouvelle-Aquitaine"}},{"type":"Feature","geometry":{"type":"Point","coordinates":[-0.69673,44.96693]},"properties":{"latitude":"44.96693","longitude":"-0.69673","bright_ti4":"331.16","scan":"0.45","track":"0.39","acq_date":"2026-07-30","acq_time":"158","satellite":"N","instrument":"VIIRS","confidence":"n","version":"2.0NRT","bright_ti5":"287.28","frp":"2.89","daynight":"N","commune":"Le Pian-Médoc","code_insee":"33322","departement":"Gironde","region":"Nouvelle-Aquitaine"}},{"type":"Feature","geometry":{"type":"Point","coordinates":[6.10868,48.61173]},"properties":{"latitude":"48.61173","longitude":"6.10868","bright_ti4":"302.75","scan":"0.58","track":"0.7","acq_date":"2026-07-30","acq_time":"35","satellite":"N20","instrument":"VIIRS","confidence":"n","version":"2.0NRT","bright_ti5":"290.32","frp":"0.59","daynight":"N","commune":"Neuves-Maisons","code_insee":"54397","departement":"Meurthe-et-Moselle","region":"Grand Est"}},{"type":"Feature","geometry":{"type":"Point","coordinates":[2.58173,48.3729]},"properties":{"latitude":"48.3729","longitude":"2.58173","bright_ti4":"312.92","scan":"0.44","track":"0.38","acq_date":"2026-07-30","acq_time":"213","satellite":"N20","instrument":"VIIRS","confidence":"n","version":"2.0NRT","bright_ti5":"294.48","frp":"1.64","daynight":"N","commune":"Fontainebleau","code_insee":"77186","departement":"Seine-et-Marne","region":"Île-de-France"}},{"type":"Feature","geometry":{"type":"Point","coordinates":[2.58324,48.37631]},"properties":{"latitude":"48.37631","longitude":"2.58324","bright_ti4":"319.12","scan":"0.44","track":"0.38","acq_date":"2026-07-30","acq_time":"213","satellite":"N20","instrument":"VIIRS","confidence":"n","version":"2.0NRT","bright_ti5":"295.77","frp":"1.84","daynight":"N","commune":"Fontainebleau","code_insee":"77186","departement":"Seine-et-Marne","region":"Île-de-France"}},{"type":"Feature","geometry":{"type":"Point","coordinates":[2.98017,48.38742]},"properties":{"latitude":"48.38742","longitude":"2.98017","bright_ti4":"314.38","scan":"0.45","track":"0.39","acq_date":"2026-07-30","acq_time":"213","satellite":"N20","instrument":"VIIRS","confidence":"n","version":"2.0NRT","bright_ti5":"294.69","frp":"1.73","daynight":"N","commune":"Montereau-Fault-Yonne","code_insee":"77305","departement":"Seine-et-Marne","region":"Île-de-France"}},{"type":"Feature","geometry":{"type":"Point","coordinates":[2.65882,48.40625]},"properties":{"latitude":"48.40625","longitude":"2.65882","bright_ti4":"322.68","scan":"0.44","track":"0.38","acq_date":"2026-07-30","acq_time":"213","satellite":"N20","instrument":"VIIRS","confidence":"n","version":"2.0NRT","bright_ti5":"297.02","frp":"2.94","daynight":"N","commune":"Fontainebleau","code_insee":"77186","departement":"Seine-et-Marne","region":"Île-de-France"}},{"type":"Feature","geometry":{"type":"Point","coordinates":[2.65302,48.40739]},"properties":{"latitude":"48.40739","longitude":"2.65302","bright_ti4":"326.57","scan":"0.44","track":"0.38","acq_date":"2026-07-30","acq_time":"213","satellite":"N20","instrument":"VIIRS","confidence":"n","version":"2.0NRT","bright_ti5":"294.72","frp":"3.01","daynight":"N","commune":"Fontainebleau","code_insee":"77186","departement":"Seine-et-Marne","region":"Île-de-France"}},{"type":"Feature","geometry":{"type":"Point","coordinates":[6.9686,48.69156]},"properties":{"latitude":"48.69156","longitude":"6.9686","bright_ti4":"305.24","scan":"0.41","track":"0.45","acq_date":"2026-07-30","acq_time":"213","satellite":"N20","instrument":"VIIRS","confidence":"n","version":"2.0NRT","bright_ti5":"290.57","frp":"1.18","daynight":"N","commune":"Héming","code_insee":"57314","departement":"Moselle","region":"Grand Est"}},{"type":"Feature","geometry":{"type":"Point","coordinates":[2.40682,49.02785]},"properties":{"latitude":"49.02785","longitude":"2.40682","bright_ti4":"301.1","scan":"0.43","track":"0.38","acq_date":"2026-07-30","acq_time":"213","satellite":"N20","instrument":"VIIRS","confidence":"n","version":"2.0NRT","bright_ti5":"290.73","frp":"0.46","daynight":"N","commune":"Le Plessis-Gassot","code_insee":"95492","departement":"Val-d'Oise","region":"Île-de-France"}},{"type":"Feature","geometry":{"type":"Point","coordinates":[6.15023,49.31911]},"properties":{"latitude":"49.31911","longitude":"6.15023","bright_ti4":"303.88","scan":"0.55","track":"0.43","acq_date":"2026-07-30","acq_time":"213","satellite":"N20","instrument":"VIIRS","confidence":"n","version":"2.0NRT","bright_ti5":"288.8","frp":"0.87","daynight":"N","commune":"Florange","code_insee":"57221","departement":"Moselle","region":"Grand Est"}},{"type":"Feature","geometry":{"type":"Point","coordinates":[6.15022,49.31959]},"properties":{"latitude":"49.31959","longitude":"6.15022","bright_ti4":"302.85","scan":"0.55","track":"0.43","acq_date":"2026-07-30","acq_time":"213","satellite":"N20","instrument":"VIIRS","confidence":"n","version":"2.0NRT","bright_ti5":"288.65","frp":"0.61","daynight":"N","commune":"Florange","code_insee":"57221","departement":"Moselle","region":"Grand Est"}},{"type":"Feature","geometry":{"type":"Point","coordinates":[0.53393,49.47653]},"properties":{"latitude":"49.47653","longitude":"0.53393","bright_ti4":"306.17","scan":"0.39","track":"0.36","acq_date":"2026-07-30","acq_time":"213","satellite":"N20","instrument":"VIIRS","confidence":"n","version":"2.0NRT","bright_ti5":"289.21","frp":"1.4","daynight":"N","commune":"Lillebonne","code_insee":"76384","departement":"Seine-Maritime","region":"Normandie"}},{"type":"Feature","geometry":{"type":"Point","coordinates":[2.16432,51.01258]},"properties":{"latitude":"51.01258","longitude":"2.16432","bright_ti4":"304.94","scan":"0.4","track":"0.37","acq_date":"2026-07-30","acq_time":"213","satellite":"N20","instrument":"VIIRS","confidence":"n","version":"2.0NRT","bright_ti5":"290.07","frp":"0.45","daynight":"N","commune":"Gravelines","code_insee":"59273","departement":"Nord","region":"Hauts-de-France"}},{"type":"Feature","geometry":{"type":"Point","coordinates":[2.27055,51.03008]},"properties":{"latitude":"51.03008","longitude":"2.27055","bright_ti4":"323.02","scan":"0.4","track":"0.37","acq_date":"2026-07-30","acq_time":"213","satellite":"N20","instrument":"VIIRS","confidence":"n","version":"2.0NRT","bright_ti5":"292.6","frp":"2.04","daynight":"N","commune":"Grande-Synthe","code_insee":"59271","departement":"Nord","region":"Hauts-de-France"}},{"type":"Feature","geometry":{"type":"Point","coordinates":[2.2903,51.03359]},"properties":{"latitude":"51.03359","longitude":"2.2903","bright_ti4":"327.76","scan":"0.4","track":"0.37","acq_date":"2026-07-30","acq_time":"213","satellite":"N20","instrument":"VIIRS","confidence":"n","version":"2.0NRT","bright_ti5":"293.27","frp":"3.28","daynight":"N","commune":"Grande-Synthe","code_insee":"59271","departement":"Nord","region":"Hauts-de-France"}},{"type":"Feature","geometry":{"type":"Point","coordinates":[2.28471,51.03461]},"properties":{"latitude":"51.03461","longitude":"2.28471","bright_ti4":"318.87","scan":"0.4","track":"0.37","acq_date":"2026-07-30","acq_time":"213","satellite":"N20","instrument":"VIIRS","confidence":"n","version":"2.0NRT","bright_ti5":"291.14","frp":"1.52","daynight":"N","commune":"Grande-Synthe","code_insee":"59271","departement":"Nord","region":"Hauts-de-France"}},{"type":"Feature","geometry":{"type":"Point","coordinates":[2.27913,51.03563]},"properties":{"latitude":"51.03563","longitude":"2.27913","bright_ti4":"302.33","scan":"0.4","track":"0.37","acq_date":"2026-07-30","acq_time":"213","satellite":"N20","instrument":"VIIRS","confidence":"n","version":"2.0NRT","bright_ti5":"290.6","frp":"1.52","daynight":"N","commune":"Grande-Synthe","code_insee":"59271","departement":"Nord","region":"Hauts-de-France"}},{"type":"Feature","geometry":{"type":"Point","coordinates":[2.3004,51.04242]},"properties":{"latitude":"51.04242","longitude":"2.3004","bright_ti4":"323","scan":"0.4","track":"0.37","acq_date":"2026-07-30","acq_time":"213","satellite":"N20","instrument":"VIIRS","confidence":"n","version":"2.0NRT","bright_ti5":"294.06","frp":"1.59","daynight":"N","commune":"Grande-Synthe","code_insee":"59271","departement":"Nord","region":"Hauts-de-France"}},{"type":"Feature","geometry":{"type":"Point","coordinates":[2.29481,51.04344]},"properties":{"latitude":"51.04344","longitude":"2.29481","bright_ti4":"304.86","scan":"0.4","track":"0.37","acq_date":"2026-07-30","acq_time":"213","satellite":"N20","instrument":"VIIRS","confidence":"n","version":"2.0NRT","bright_ti5":"292.52","frp":"1.59","daynight":"N","commune":"Grande-Synthe","code_insee":"59271","departement":"Nord","region":"Hauts-de-France"}},{"type":"Feature","geometry":{"type":"Point","coordinates":[2.32018,51.04592]},"properties":{"latitude":"51.04592","longitude":"2.32018","bright_ti4":"342.71","scan":"0.4","track":"0.37","acq_date":"2026-07-30","acq_time":"213","satellite":"N20","instrument":"VIIRS","confidence":"n","version":"2.0NRT","bright_ti5":"293.26","frp":"8.85","daynight":"N","commune":"Dunkerque","code_insee":"59183","departement":"Nord","region":"Hauts-de-France"}},{"type":"Feature","geometry":{"type":"Point","coordinates":[2.29632,51.04672]},"properties":{"latitude":"51.04672","longitude":"2.29632","bright_ti4":"343.74","scan":"0.4","track":"0.37","acq_date":"2026-07-30","acq_time":"213","satellite":"N20","instrument":"VIIRS","confidence":"n","version":"2.0NRT","bright_ti5":"293.72","frp":"6.31","daynight":"N","commune":"Grande-Synthe","code_insee":"59271","departement":"Nord","region":"Hauts-de-France"}},{"type":"Feature","geometry":{"type":"Point","coordinates":[2.3217,51.04921]},"properties":{"latitude":"51.04921","longitude":"2.3217","bright_ti4":"312.67","scan":"0.4","track":"0.37","acq_date":"2026-07-30","acq_time":"213","satellite":"N20","instrument":"VIIRS","confidence":"n","version":"2.0NRT","bright_ti5":"292.1","frp":"1.27","daynight":"N","commune":"Dunkerque","code_insee":"59183","departement":"Nord","region":"Hauts-de-France"}},{"type":"Feature","geometry":{"type":"Point","coordinates":[0.0945,42.86682]},"properties":{"latitude":"42.86682","longitude":"0.0945","bright_ti4":"307.3","scan":"0.44","track":"0.39","acq_date":"2026-07-30","acq_time":"215","satellite":"N20","instrument":"VIIRS","confidence":"n","version":"2.0NRT","bright_ti5":"290.8","frp":"1.14","daynight":"N","commune":"Barèges","code_insee":"65481","departement":"Hautes-Pyrénées","region":"Occitanie"}},{"type":"Feature","geometry":{"type":"Point","coordinates":[0.09596,42.86705]},"properties":{"latitude":"42.86705","longitude":"0.09596","bright_ti4":"314.27","scan":"0.44","track":"0.38","acq_date":"2026-07-30","acq_time":"215","satellite":"N20","instrument":"VIIRS","confidence":"n","version":"2.0NRT","bright_ti5":"292.81","frp":"1.99","daynight":"N","commune":"Barèges","code_insee":"65481","departement":"Hautes-Pyrénées","region":"Occitanie"}},{"type":"Feature","geometry":{"type":"Point","coordinates":[0.10031,42.86937]},"properties":{"latitude":"42.86937","longitude":"0.10031","bright_ti4":"298.84","scan":"0.44","track":"0.39","acq_date":"2026-07-30","acq_time":"215","satellite":"N20","instrument":"VIIRS","confidence":"n","version":"2.0NRT","bright_ti5":"288.39","frp":"1.14","daynight":"N","commune":"Barèges","code_insee":"65481","departement":"Hautes-Pyrénées","region":"Occitanie"}},{"type":"Feature","geometry":{"type":"Point","coordinates":[4.89354,43.44084]},"properties":{"latitude":"43.44084","longitude":"4.89354","bright_ti4":"312.68","scan":"0.45","track":"0.47","acq_date":"2026-07-30","acq_time":"215","satellite":"N20","instrument":"VIIRS","confidence":"n","version":"2.0NRT","bright_ti5":"295.37","frp":"1.7","daynight":"N","commune":"Fos-sur-Mer","code_insee":"13039","departement":"Bouches-du-Rhône","region":"Provence-Alpes-Côte d'Azur"}},{"type":"Feature","geometry":{"type":"Point","coordinates":[4.90066,43.44368]},"properties":{"latitude":"43.44368","longitude":"4.90066","bright_ti4":"305","scan":"0.45","track":"0.47","acq_date":"2026-07-30","acq_time":"215","satellite":"N20","instrument":"VIIRS","confidence":"n","version":"2.0NRT","bright_ti5":"293.72","frp":"4.22","daynight":"N","commune":"Fos-sur-Mer","code_insee":"13039","departement":"Bouches-du-Rhône","region":"Provence-Alpes-Côte d'Azur"}},{"type":"Feature","geometry":{"type":"Point","coordinates":[4.89536,43.44494]},"properties":{"latitude":"43.44494","longitude":"4.89536","bright_ti4":"311.41","scan":"0.45","track":"0.47","acq_date":"2026-07-30","acq_time":"215","satellite":"N20","instrument":"VIIRS","confidence":"n","version":"2.0NRT","bright_ti5":"294.85","frp":"4.22","daynight":"N","commune":"Fos-sur-Mer","code_insee":"13039","departement":"Bouches-du-Rhône","region":"Provence-Alpes-Côte d'Azur"}},{"type":"Feature","geometry":{"type":"Point","coordinates":[4.90249,43.44778]},"properties":{"latitude":"43.44778","longitude":"4.90249","bright_ti4":"304.69","scan":"0.45","track":"0.47","acq_date":"2026-07-30","acq_time":"215","satellite":"N20","instrument":"VIIRS","confidence":"n","version":"2.0NRT","bright_ti5":"293.66","frp":"4.22","daynight":"N","commune":"Fos-sur-Mer","code_insee":"13039","departement":"Bouches-du-Rhône","region":"Provence-Alpes-Côte d'Azur"}},{"type":"Feature","geometry":{"type":"Point","coordinates":[4.89719,43.44904]},"properties":{"latitude":"43.44904","longitude":"4.89719","bright_ti4":"353.64","scan":"0.45","track":"0.47","acq_date":"2026-07-30","acq_time":"215","satellite":"N20","instrument":"VIIRS","confidence":"n","version":"2.0NRT","bright_ti5":"296.03","frp":"4.22","daynight":"N","commune":"Fos-sur-Mer","code_insee":"13039","departement":"Bouches-du-Rhône","region":"Provence-Alpes-Côte d'Azur"}},{"type":"Feature","geometry":{"type":"Point","coordinates":[-0.8818,44.73576]},"properties":{"latitude":"44.73576","longitude":"-0.8818","bright_ti4":"302.42","scan":"0.4","track":"0.37","acq_date":"2026-07-30","acq_time":"215","satellite":"N20","instrument":"VIIRS","confidence":"n","version":"2.0NRT","bright_ti5":"291.34","frp":"0.43","daynight":"N","commune":"Audenge","code_insee":"33019","departement":"Gironde","region":"Nouvelle-Aquitaine"}},{"type":"Feature","geometry":{"type":"Point","coordinates":[-1.02826,44.75117]},"properties":{"latitude":"44.75117","longitude":"-1.02826","bright_ti4":"305.77","scan":"0.4","track":"0.37","acq_date":"2026-07-30","acq_time":"215","satellite":"N20","instrument":"VIIRS","confidence":"n","version":"2.0NRT","bright_ti5":"291.45","frp":"1.05","daynight":"N","commune":"Lanton","code_insee":"33229","departement":"Gironde","region":"Nouvelle-Aquitaine"}},{"type":"Feature","geometry":{"type":"Point","coordinates":[-1.03318,44.75204]},"properties":{"latitude":"44.75204","longitude":"-1.03318","bright_ti4":"302.88","scan":"0.4","track":"0.37","acq_date":"2026-07-30","acq_time":"215","satellite":"N20","instrument":"VIIRS","confidence":"n","version":"2.0NRT","bright_ti5":"290.03","frp":"0.75","daynight":"N","commune":"Lanton","code_insee":"33229","departement":"Gironde","region":"Nouvelle-Aquitaine"}},{"type":"Feature","geometry":{"type":"Point","coordinates":[-1.0222,44.7536]},"properties":{"latitude":"44.7536","longitude":"-1.0222","bright_ti4":"303.79","scan":"0.4","track":"0.37","acq_date":"2026-07-30","acq_time":"215","satellite":"N20","instrument":"VIIRS","confidence":"n","version":"2.0NRT","bright_ti5":"291.7","frp":"1.31","daynight":"N","commune":"Lanton","code_insee":"33229","departement":"Gironde","region":"Nouvelle-Aquitaine"}},{"type":"Feature","geometry":{"type":"Point","coordinates":[-1.02712,44.75447]},"properties":{"latitude":"44.75447","longitude":"-1.02712","bright_ti4":"314.63","scan":"0.4","track":"0.37","acq_date":"2026-07-30","acq_time":"215","satellite":"N20","instrument":"VIIRS","confidence":"n","version":"2.0NRT","bright_ti5":"293.93","frp":"1.31","daynight":"N","commune":"Lanton","code_insee":"33229","departement":"Gironde","region":"Nouvelle-Aquitaine"}},{"type":"Feature","geometry":{"type":"Point","coordinates":[-1.03204,44.75533]},"properties":{"latitude":"44.75533","longitude":"-1.03204","bright_ti4":"312.43","scan":"0.4","track":"0.37","acq_date":"2026-07-30","acq_time":"215","satellite":"N20","instrument":"VIIRS","confidence":"n","version":"2.0NRT","bright_ti5":"291.96","frp":"1.64","daynight":"N","commune":"Lanton","code_insee":"33229","departement":"Gironde","region":"Nouvelle-Aquitaine"}},{"type":"Feature","geometry":{"type":"Point","coordinates":[-0.94752,44.75791]},"properties":{"latitude":"44.75791","longitude":"-0.94752","bright_ti4":"311.61","scan":"0.4","track":"0.37","acq_date":"2026-07-30","acq_time":"215","satellite":"N20","instrument":"VIIRS","confidence":"n","version":"2.0NRT","bright_ti5":"292.03","frp":"2.29","daynight":"N","commune":"Lanton","code_insee":"33229","departement":"Gironde","region":"Nouvelle-Aquitaine"}},{"type":"Feature","geometry":{"type":"Point","coordinates":[-1.2121,44.8217]},"properties":{"latitude":"44.8217","longitude":"-1.2121","bright_ti4":"297.24","scan":"0.4","track":"0.37","acq_date":"2026-07-30","acq_time":"215","satellite":"N20","instrument":"VIIRS","confidence":"n","version":"2.0NRT","bright_ti5":"286.6","frp":"0.83","daynight":"N","commune":"Le Porge","code_insee":"33333","departement":"Gironde","region":"Nouvelle-Aquitaine"}},{"type":"Feature","geometry":{"type":"Point","coordinates":[-1.16279,44.84447]},"properties":{"latitude":"44.84447","longitude":"-1.16279","bright_ti4":"302.9","scan":"0.4","track":"0.37","acq_date":"2026-07-30","acq_time":"215","satellite":"N20","instrument":"VIIRS","confidence":"n","version":"2.0NRT","bright_ti5":"289.31","frp":"0.66","daynight":"N","commune":"Le Porge","code_insee":"33333","departement":"Gironde","region":"Nouvelle-Aquitaine"}},{"type":"Feature","geometry":{"type":"Point","coordinates":[-1.1677,44.84532]},"properties":{"latitude":"44.84532","longitude":"-1.1677","bright_ti4":"304.13","scan":"0.4","track":"0.37","acq_date":"2026-07-30","acq_time":"215","satellite":"N20","instrument":"VIIRS","confidence":"n","version":"2.0NRT","bright_ti5":"287.2","frp":"0.37","daynight":"N","commune":"Le Porge","code_insee":"33333","departement":"Gironde","region":"Nouvelle-Aquitaine"}},{"type":"Feature","geometry":{"type":"Point","coordinates":[-1.16656,44.84861]},"properties":{"latitude":"44.84861","longitude":"-1.16656","bright_ti4":"298.3","scan":"0.4","track":"0.37","acq_date":"2026-07-30","acq_time":"215","satellite":"N20","instrument":"VIIRS","confidence":"n","version":"2.0NRT","bright_ti5":"287.84","frp":"0.31","daynight":"N","commune":"Le Porge","code_insee":"33333","departement":"Gironde","region":"Nouvelle-Aquitaine"}},{"type":"Feature","geometry":{"type":"Point","coordinates":[-0.96897,44.87189]},"properties":{"latitude":"44.87189","longitude":"-0.96897","bright_ti4":"304.57","scan":"0.4","track":"0.37","acq_date":"2026-07-30","acq_time":"215","satellite":"N20","instrument":"VIIRS","confidence":"n","version":"2.0NRT","bright_ti5":"289.93","frp":"0.99","daynight":"N","commune":"Le Temple","code_insee":"33528","departement":"Gironde","region":"Nouvelle-Aquitaine"}},{"type":"Feature","geometry":{"type":"Point","coordinates":[-0.69688,44.96572]},"properties":{"latitude":"44.96572","longitude":"-0.69688","bright_ti4":"309.8","scan":"0.4","track":"0.37","acq_date":"2026-07-30","acq_time":"215","satellite":"N20","instrument":"VIIRS","confidence":"n","version":"2.0NRT","bright_ti5":"284.72","frp":"1.21","daynight":"N","commune":"Le Pian-Médoc","code_insee":"33322","departement":"Gironde","region":"Nouvelle-Aquitaine"}},{"type":"Feature","geometry":{"type":"Point","coordinates":[5.66891,45.23091]},"properties":{"latitude":"45.23091","longitude":"5.66891","bright_ti4":"307.25","scan":"0.44","track":"0.46","acq_date":"2026-07-30","acq_time":"215","satellite":"N20","instrument":"VIIRS","confidence":"n","version":"2.0NRT","bright_ti5":"293.42","frp":"0.91","daynight":"N","commune":"Saint-Égrève","code_insee":"38382","departement":"Isère","region":"Auvergne-Rhône-Alpes"}},{"type":"Feature","geometry":{"type":"Point","coordinates":[3.29757,45.77168]},"properties":{"latitude":"45.77168","longitude":"3.29757","bright_ti4":"304.31","scan":"0.51","track":"0.41","acq_date":"2026-07-30","acq_time":"215","satellite":"N20","instrument":"VIIRS","confidence":"n","version":"2.0NRT","bright_ti5":"293.13","frp":"1.2","daynight":"N","commune":"Vertaizon","code_insee":"63453","departement":"Puy-de-Dôme","region":"Auvergne-Rhône-Alpes"}},{"type":"Feature","geometry":{"type":"Point","coordinates":[5.82286,45.91273]},"properties":{"latitude":"45.91273","longitude":"5.82286","bright_ti4":"302.94","scan":"0.43","track":"0.46","acq_date":"2026-07-30","acq_time":"215","satellite":"N20","instrument":"VIIRS","confidence":"n","version":"2.0NRT","bright_ti5":"292.81","frp":"0.82","daynight":"N","commune":"Anglefort","code_insee":"01010","departement":"Ain","region":"Auvergne-Rhône-Alpes"}},{"type":"Feature","geometry":{"type":"Point","coordinates":[-0.14075,46.80927]},"properties":{"latitude":"46.80927","longitude":"-0.14075","bright_ti4":"303.43","scan":"0.4","track":"0.37","acq_date":"2026-07-30","acq_time":"215","satellite":"N20","instrument":"VIIRS","confidence":"n","version":"2.0NRT","bright_ti5":"291.37","frp":"0.51","daynight":"N","commune":"Airvault","code_insee":"79005","departement":"Deux-Sèvres","region":"Nouvelle-Aquitaine"}},{"type":"Feature","geometry":{"type":"Point","coordinates":[0.15456,46.80943]},"properties":{"latitude":"46.80943","longitude":"0.15456","bright_ti4":"331.21","scan":"0.4","track":"0.37","acq_date":"2026-07-30","acq_time":"215","satellite":"N20","instrument":"VIIRS","confidence":"n","version":"2.0NRT","bright_ti5":"292.71","frp":"2.8","daynight":"N","commune":"Chouppes","code_insee":"86075","departement":"Vienne","region":"Nouvelle-Aquitaine"}},{"type":"Feature","geometry":{"type":"Point","coordinates":[-0.32604,47.10112]},"properties":{"latitude":"47.10112","longitude":"-0.32604","bright_ti4":"302.77","scan":"0.39","track":"0.36","acq_date":"2026-07-30","acq_time":"215","satellite":"N20","instrument":"VIIRS","confidence":"n","version":"2.0NRT","bright_ti5":"289.79","frp":"0.8","daynight":"N","commune":"Lys-Haut-Layon","code_insee":"49373","departement":"Maine-et-Loire","region":"Pays de la Loire"}},{"type":"Feature","geometry":{"type":"Point","coordinates":[-0.32482,47.10439]},"properties":{"latitude":"47.10439","longitude":"-0.32482","bright_ti4":"313.97","scan":"0.39","track":"0.36","acq_date":"2026-07-30","acq_time":"215","satellite":"N20","instrument":"VIIRS","confidence":"n","version":"2.0NRT","bright_ti5":"290.76","frp":"0.8","daynight":"N","commune":"Lys-Haut-Layon","code_insee":"49373","departement":"Maine-et-Loire","region":"Pays de la Loire"}},{"type":"Feature","geometry":{"type":"Point","coordinates":[4.95425,47.27113]},"properties":{"latitude":"47.27113","longitude":"4.95425","bright_ti4":"301.77","scan":"0.55","track":"0.43","acq_date":"2026-07-30","acq_time":"215","satellite":"N20","instrument":"VIIRS","confidence":"n","version":"2.0NRT","bright_ti5":"291.69","frp":"0.43","daynight":"N","commune":"Couchey","code_insee":"21200","departement":"Côte-d'Or","region":"Bourgogne-Franche-Comté"}},{"type":"Feature","geometry":{"type":"Point","coordinates":[4.96523,47.27699]},"properties":{"latitude":"47.27699","longitude":"4.96523","bright_ti4":"303.52","scan":"0.55","track":"0.43","acq_date":"2026-07-30","acq_time":"215","satellite":"N20","instrument":"VIIRS","confidence":"n","version":"2.0NRT","bright_ti5":"293.51","frp":"2.36","daynight":"N","commune":"Marsannay-la-Côte","code_insee":"21390","departement":"Côte-d'Or","region":"Bourgogne-Franche-Comté"}},{"type":"Feature","geometry":{"type":"Point","coordinates":[3.68616,47.83876]},"properties":{"latitude":"47.83876","longitude":"3.68616","bright_ti4":"332.79","scan":"0.48","track":"0.4","acq_date":"2026-07-30","acq_time":"215","satellite":"N20","instrument":"VIIRS","confidence":"n","version":"2.0NRT","bright_ti5":"294.16","frp":"3.52","daynight":"N","commune":"Bleigny-le-Carreau","code_insee":"89045","departement":"Yonne","region":"Bourgogne-Franche-Comté"}},{"type":"Feature","geometry":{"type":"Point","coordinates":[-1.03348,48.10913]},"properties":{"latitude":"48.10913","longitude":"-1.03348","bright_ti4":"303.59","scan":"0.39","track":"0.36","acq_date":"2026-07-30","acq_time":"215","satellite":"N20","instrument":"VIIRS","confidence":"n","version":"2.0NRT","bright_ti5":"290.29","frp":"0.76","daynight":"N","commune":"Saint-Pierre-la-Cour","code_insee":"53247","departement":"Mayenne","region":"Pays de la Loire"}},{"type":"Feature","geometry":{"type":"Point","coordinates":[2.26867,51.0286]},"properties":{"latitude":"51.0286","longitude":"2.26867","bright_ti4":"303.51","scan":"0.62","track":"0.72","acq_date":"2026-07-30","acq_time":"334","satellite":"N","instrument":"VIIRS","confidence":"n","version":"2.0NRT","bright_ti5":"288.26","frp":"2.23","daynight":"N","commune":"Grande-Synthe","code_insee":"59271","departement":"Nord","region":"Hauts-de-France"}},{"type":"Feature","geometry":{"type":"Point","coordinates":[2.28909,51.03224]},"properties":{"latitude":"51.03224","longitude":"2.28909","bright_ti4":"317.48","scan":"0.63","track":"0.72","acq_date":"2026-07-30","acq_time":"334","satellite":"N","instrument":"VIIRS","confidence":"n","version":"2.0NRT","bright_ti5":"288.56","frp":"2.85","daynight":"N","commune":"Grande-Synthe","code_insee":"59271","departement":"Nord","region":"Hauts-de-France"}},{"type":"Feature","geometry":{"type":"Point","coordinates":[2.28112,51.03527]},"properties":{"latitude":"51.03527","longitude":"2.28112","bright_ti4":"305.5","scan":"0.62","track":"0.72","acq_date":"2026-07-30","acq_time":"334","satellite":"N","instrument":"VIIRS","confidence":"n","version":"2.0NRT","bright_ti5":"288.25","frp":"2.85","daynight":"N","commune":"Grande-Synthe","code_insee":"59271","departement":"Nord","region":"Hauts-de-France"}},{"type":"Feature","geometry":{"type":"Point","coordinates":[2.28772,51.03706]},"properties":{"latitude":"51.03706","longitude":"2.28772","bright_ti4":"326.75","scan":"0.62","track":"0.72","acq_date":"2026-07-30","acq_time":"334","satellite":"N","instrument":"VIIRS","confidence":"n","version":"2.0NRT","bright_ti5":"289.52","frp":"4.6","daynight":"N","commune":"Grande-Synthe","code_insee":"59271","departement":"Nord","region":"Hauts-de-France"}},{"type":"Feature","geometry":{"type":"Point","coordinates":[2.29329,51.04282]},"properties":{"latitude":"51.04282","longitude":"2.29329","bright_ti4":"310.96","scan":"0.62","track":"0.72","acq_date":"2026-07-30","acq_time":"334","satellite":"N","instrument":"VIIRS","confidence":"n","version":"2.0NRT","bright_ti5":"289.31","frp":"4.14","daynight":"N","commune":"Grande-Synthe","code_insee":"59271","departement":"Nord","region":"Hauts-de-France"}},{"type":"Feature","geometry":{"type":"Point","coordinates":[2.30032,51.04373]},"properties":{"latitude":"51.04373","longitude":"2.30032","bright_ti4":"313.66","scan":"0.63","track":"0.72","acq_date":"2026-07-30","acq_time":"334","satellite":"N","instrument":"VIIRS","confidence":"n","version":"2.0NRT","bright_ti5":"289.51","frp":"2.17","daynight":"N","commune":"Grande-Synthe","code_insee":"59271","departement":"Nord","region":"Hauts-de-France"}},{"type":"Feature","geometry":{"type":"Point","coordinates":[2.2924,51.04673]},"properties":{"latitude":"51.04673","longitude":"2.2924","bright_ti4":"308.22","scan":"0.62","track":"0.72","acq_date":"2026-07-30","acq_time":"334","satellite":"N","instrument":"VIIRS","confidence":"n","version":"2.0NRT","bright_ti5":"288.7","frp":"2.17","daynight":"N","commune":"Grande-Synthe","code_insee":"59271","departement":"Nord","region":"Hauts-de-France"}},{"type":"Feature","geometry":{"type":"Point","coordinates":[5.6655,45.23108]},"properties":{"latitude":"45.23108","longitude":"5.6655","bright_ti4":"306.66","scan":"0.46","track":"0.39","acq_date":"2026-07-30","acq_time":"120","satellite":"N21","instrument":"VIIRS","confidence":"n","version":"2.0NRT","bright_ti5":"294.4","frp":"1.13","daynight":"N","commune":"Saint-Égrève","code_insee":"38382","departement":"Isère","region":"Auvergne-Rhône-Alpes"}},{"type":"Feature","geometry":{"type":"Point","coordinates":[1.91251,46.31376]},"properties":{"latitude":"46.31376","longitude":"1.91251","bright_ti4":"303.52","scan":"0.45","track":"0.47","acq_date":"2026-07-30","acq_time":"120","satellite":"N21","instrument":"VIIRS","confidence":"n","version":"2.0NRT","bright_ti5":"292.59","frp":"0.88","daynight":"N","commune":"Bonnat","code_insee":"23025","departement":"Creuse","region":"Nouvelle-Aquitaine"}},{"type":"Feature","geometry":{"type":"Point","coordinates":[1.90667,46.31423]},"properties":{"latitude":"46.31423","longitude":"1.90667","bright_ti4":"303.37","scan":"0.45","track":"0.47","acq_date":"2026-07-30","acq_time":"120","satellite":"N21","instrument":"VIIRS","confidence":"n","version":"2.0NRT","bright_ti5":"293.35","frp":"1.3","daynight":"N","commune":"Bonnat","code_insee":"23025","departement":"Creuse","region":"Nouvelle-Aquitaine"}},{"type":"Feature","geometry":{"type":"Point","coordinates":[0.03215,46.33929]},"properties":{"latitude":"46.33929","longitude":"0.03215","bright_ti4":"311.34","scan":"0.55","track":"0.51","acq_date":"2026-07-30","acq_time":"120","satellite":"N21","instrument":"VIIRS","confidence":"n","version":"2.0NRT","bright_ti5":"288.97","frp":"2.09","daynight":"N","commune":"Saint-Sauvant","code_insee":"86244","departement":"Vienne","region":"Nouvelle-Aquitaine"}},{"type":"Feature","geometry":{"type":"Point","coordinates":[-0.32967,47.10326]},"properties":{"latitude":"47.10326","longitude":"-0.32967","bright_ti4":"302.86","scan":"0.58","track":"0.52","acq_date":"2026-07-30","acq_time":"120","satellite":"N21","instrument":"VIIRS","confidence":"n","version":"2.0NRT","bright_ti5":"289.98","frp":"1.48","daynight":"N","commune":"Lys-Haut-Layon","code_insee":"49373","departement":"Maine-et-Loire","region":"Pays de la Loire"}},{"type":"Feature","geometry":{"type":"Point","coordinates":[4.95366,47.27275]},"properties":{"latitude":"47.27275","longitude":"4.95366","bright_ti4":"303.97","scan":"0.51","track":"0.41","acq_date":"2026-07-30","acq_time":"120","satellite":"N21","instrument":"VIIRS","confidence":"n","version":"2.0NRT","bright_ti5":"293.74","frp":"0.95","daynight":"N","commune":"Couchey","code_insee":"21200","departement":"Côte-d'Or","region":"Bourgogne-Franche-Comté"}},{"type":"Feature","geometry":{"type":"Point","coordinates":[3.68481,47.83603]},"properties":{"latitude":"47.83603","longitude":"3.68481","bright_ti4":"311.49","scan":"0.39","track":"0.44","acq_date":"2026-07-30","acq_time":"120","satellite":"N21","instrument":"VIIRS","confidence":"n","version":"2.0NRT","bright_ti5":"293.44","frp":"1.29","daynight":"N","commune":"Bleigny-le-Carreau","code_insee":"89045","departement":"Yonne","region":"Bourgogne-Franche-Comté"}},{"type":"Feature","geometry":{"type":"Point","coordinates":[3.6797,47.83648]},"properties":{"latitude":"47.83648","longitude":"3.6797","bright_ti4":"305.03","scan":"0.39","track":"0.44","acq_date":"2026-07-30","acq_time":"120","satellite":"N21","instrument":"VIIRS","confidence":"n","version":"2.0NRT","bright_ti5":"293.53","frp":"1.65","daynight":"N","commune":"Bleigny-le-Carreau","code_insee":"89045","departement":"Yonne","region":"Bourgogne-Franche-Comté"}},{"type":"Feature","geometry":{"type":"Point","coordinates":[2.58057,48.37354]},"properties":{"latitude":"48.37354","longitude":"2.58057","bright_ti4":"317.9","scan":"0.44","track":"0.46","acq_date":"2026-07-30","acq_time":"120","satellite":"N21","instrument":"VIIRS","confidence":"n","version":"2.0NRT","bright_ti5":"296.32","frp":"2.44","daynight":"N","commune":"Fontainebleau","code_insee":"77186","departement":"Seine-et-Marne","region":"Île-de-France"}},{"type":"Feature","geometry":{"type":"Point","coordinates":[2.9838,48.38752]},"properties":{"latitude":"48.38752","longitude":"2.9838","bright_ti4":"309.43","scan":"0.42","track":"0.45","acq_date":"2026-07-30","acq_time":"120","satellite":"N21","instrument":"VIIRS","confidence":"n","version":"2.0NRT","bright_ti5":"292.86","frp":"1.6","daynight":"N","commune":"Montereau-Fault-Yonne","code_insee":"77305","departement":"Seine-et-Marne","region":"Île-de-France"}},{"type":"Feature","geometry":{"type":"Point","coordinates":[2.65825,48.40599]},"properties":{"latitude":"48.40599","longitude":"2.65825","bright_ti4":"322.2","scan":"0.44","track":"0.46","acq_date":"2026-07-30","acq_time":"120","satellite":"N21","instrument":"VIIRS","confidence":"n","version":"2.0NRT","bright_ti5":"295.62","frp":"2.97","daynight":"N","commune":"Fontainebleau","code_insee":"77186","departement":"Seine-et-Marne","region":"Île-de-France"}},{"type":"Feature","geometry":{"type":"Point","coordinates":[2.65242,48.40646]},"properties":{"latitude":"48.40646","longitude":"2.65242","bright_ti4":"317.58","scan":"0.44","track":"0.46","acq_date":"2026-07-30","acq_time":"120","satellite":"N21","instrument":"VIIRS","confidence":"n","version":"2.0NRT","bright_ti5":"294.87","frp":"2.97","daynight":"N","commune":"Fontainebleau","code_insee":"77186","departement":"Seine-et-Marne","region":"Île-de-France"}},{"type":"Feature","geometry":{"type":"Point","coordinates":[6.11056,48.60838]},"properties":{"latitude":"48.60838","longitude":"6.11056","bright_ti4":"304.11","scan":"0.48","track":"0.4","acq_date":"2026-07-30","acq_time":"120","satellite":"N21","instrument":"VIIRS","confidence":"n","version":"2.0NRT","bright_ti5":"292.38","frp":"0.96","daynight":"N","commune":"Neuves-Maisons","code_insee":"54397","departement":"Meurthe-et-Moselle","region":"Grand Est"}},{"type":"Feature","geometry":{"type":"Point","coordinates":[6.11148,48.61203]},"properties":{"latitude":"48.61203","longitude":"6.11148","bright_ti4":"328.03","scan":"0.48","track":"0.4","acq_date":"2026-07-30","acq_time":"120","satellite":"N21","instrument":"VIIRS","confidence":"n","version":"2.0NRT","bright_ti5":"292.75","frp":"3.05","daynight":"N","commune":"Neuves-Maisons","code_insee":"54397","departement":"Meurthe-et-Moselle","region":"Grand Est"}},{"type":"Feature","geometry":{"type":"Point","coordinates":[6.96756,48.69056]},"properties":{"latitude":"48.69056","longitude":"6.96756","bright_ti4":"306.29","scan":"0.45","track":"0.39","acq_date":"2026-07-30","acq_time":"120","satellite":"N21","instrument":"VIIRS","confidence":"n","version":"2.0NRT","bright_ti5":"291.34","frp":"1.78","daynight":"N","commune":"Héming","code_insee":"57314","departement":"Moselle","region":"Grand Est"}},{"type":"Feature","geometry":{"type":"Point","coordinates":[2.73541,48.94662]},"properties":{"latitude":"48.94662","longitude":"2.73541","bright_ti4":"300.88","scan":"0.44","track":"0.46","acq_date":"2026-07-30","acq_time":"120","satellite":"N21","instrument":"VIIRS","confidence":"n","version":"2.0NRT","bright_ti5":"290.27","frp":"0.57","daynight":"N","commune":"Fresnes-sur-Marne","code_insee":"77196","departement":"Seine-et-Marne","region":"Île-de-France"}},{"type":"Feature","geometry":{"type":"Point","coordinates":[6.1028,49.32336]},"properties":{"latitude":"49.32336","longitude":"6.1028","bright_ti4":"301.86","scan":"0.49","track":"0.4","acq_date":"2026-07-30","acq_time":"120","satellite":"N21","instrument":"VIIRS","confidence":"n","version":"2.0NRT","bright_ti5":"291.19","frp":"1.22","daynight":"N","commune":"Serémange-Erzange","code_insee":"57647","departement":"Moselle","region":"Grand Est"}},{"type":"Feature","geometry":{"type":"Point","coordinates":[6.03903,49.3945]},"properties":{"latitude":"49.3945","longitude":"6.03903","bright_ti4":"302.01","scan":"0.49","track":"0.4","acq_date":"2026-07-30","acq_time":"120","satellite":"N21","instrument":"VIIRS","confidence":"n","version":"2.0NRT","bright_ti5":"287.46","frp":"0.49","daynight":"N","commune":"Angevillers","code_insee":"57022","departement":"Moselle","region":"Grand Est"}},{"type":"Feature","geometry":{"type":"Point","coordinates":[2.28799,51.03583]},"properties":{"latitude":"51.03583","longitude":"2.28799","bright_ti4":"300.78","scan":"0.48","track":"0.48","acq_date":"2026-07-30","acq_time":"120","satellite":"N21","instrument":"VIIRS","confidence":"n","version":"2.0NRT","bright_ti5":"287.78","frp":"1.08","daynight":"N","commune":"Grande-Synthe","code_insee":"59271","departement":"Nord","region":"Hauts-de-France"}},{"type":"Feature","geometry":{"type":"Point","coordinates":[2.29639,51.04423]},"properties":{"latitude":"51.04423","longitude":"2.29639","bright_ti4":"343.81","scan":"0.48","track":"0.48","acq_date":"2026-07-30","acq_time":"120","satellite":"N21","instrument":"VIIRS","confidence":"n","version":"2.0NRT","bright_ti5":"291.07","frp":"8.94","daynight":"N","commune":"Grande-Synthe","code_insee":"59271","departement":"Nord","region":"Hauts-de-France"}},{"type":"Feature","geometry":{"type":"Point","coordinates":[2.32473,51.04681]},"properties":{"latitude":"51.04681","longitude":"2.32473","bright_ti4":"302.6","scan":"0.48","track":"0.48","acq_date":"2026-07-30","acq_time":"120","satellite":"N21","instrument":"VIIRS","confidence":"n","version":"2.0NRT","bright_ti5":"290.43","frp":"0.97","daynight":"N","commune":"Dunkerque","code_insee":"59183","departement":"Nord","region":"Hauts-de-France"}},{"type":"Feature","geometry":{"type":"Point","coordinates":[2.31783,51.04727]},"properties":{"latitude":"51.04727","longitude":"2.31783","bright_ti4":"308.46","scan":"0.48","track":"0.48","acq_date":"2026-07-30","acq_time":"120","satellite":"N21","instrument":"VIIRS","confidence":"n","version":"2.0NRT","bright_ti5":"288.21","frp":"1.58","daynight":"N","commune":"Dunkerque","code_insee":"59183","departement":"Nord","region":"Hauts-de-France"}},{"type":"Feature","geometry":{"type":"Point","coordinates":[6.08933,43.39296]},"properties":{"latitude":"43.39296","longitude":"6.08933","bright_ti4":"304.32","scan":"0.43","track":"0.38","acq_date":"2026-07-30","acq_time":"122","satellite":"N21","instrument":"VIIRS","confidence":"n","version":"2.0NRT","bright_ti5":"294.06","frp":"1.42","daynight":"N","commune":"Brignoles","code_insee":"83023","departement":"Var","region":"Provence-Alpes-Côte d'Azur"}},{"type":"Feature","geometry":{"type":"Point","coordinates":[6.0841,43.39363]},"properties":{"latitude":"43.39363","longitude":"6.0841","bright_ti4":"311.45","scan":"0.43","track":"0.38","acq_date":"2026-07-30","acq_time":"122","satellite":"N21","instrument":"VIIRS","confidence":"n","version":"2.0NRT","bright_ti5":"295.92","frp":"1.42","daynight":"N","commune":"Brignoles","code_insee":"83023","departement":"Var","region":"Provence-Alpes-Côte d'Azur"}},{"type":"Feature","geometry":{"type":"Point","coordinates":[4.89123,43.43412]},"properties":{"latitude":"43.43412","longitude":"4.89123","bright_ti4":"309.75","scan":"0.47","track":"0.4","acq_date":"2026-07-30","acq_time":"122","satellite":"N21","instrument":"VIIRS","confidence":"n","version":"2.0NRT","bright_ti5":"296.35","frp":"1.95","daynight":"N","commune":"Fos-sur-Mer","code_insee":"13039","departement":"Bouches-du-Rhône","region":"Provence-Alpes-Côte d'Azur"}},{"type":"Feature","geometry":{"type":"Point","coordinates":[4.89202,43.43773]},"properties":{"latitude":"43.43773","longitude":"4.89202","bright_ti4":"319.1","scan":"0.47","track":"0.4","acq_date":"2026-07-30","acq_time":"122","satellite":"N21","instrument":"VIIRS","confidence":"n","version":"2.0NRT","bright_ti5":"295.25","frp":"1.95","daynight":"N","commune":"Fos-sur-Mer","code_insee":"13039","departement":"Bouches-du-Rhône","region":"Provence-Alpes-Côte d'Azur"}},{"type":"Feature","geometry":{"type":"Point","coordinates":[-0.947,44.75663]},"properties":{"latitude":"44.75663","longitude":"-0.947","bright_ti4":"306.52","scan":"0.59","track":"0.53","acq_date":"2026-07-30","acq_time":"122","satellite":"N21","instrument":"VIIRS","confidence":"n","version":"2.0NRT","bright_ti5":"290.8","frp":"4.01","daynight":"N","commune":"Lanton","code_insee":"33229","departement":"Gironde","region":"Nouvelle-Aquitaine"}},{"type":"Feature","geometry":{"type":"Point","coordinates":[-0.94604,44.75836]},"properties":{"latitude":"44.75836","longitude":"-0.94604","bright_ti4":"301.58","scan":"0.59","track":"0.53","acq_date":"2026-07-30","acq_time":"122","satellite":"N21","instrument":"VIIRS","confidence":"n","version":"2.0NRT","bright_ti5":"289.97","frp":"2.67","daynight":"N","commune":"Lanton","code_insee":"33229","departement":"Gironde","region":"Nouvelle-Aquitaine"}},{"type":"Feature","geometry":{"type":"Point","coordinates":[3.68129,47.8353]},"properties":{"latitude":"47.8353","longitude":"3.68129","bright_ti4":"305.93","scan":"0.54","track":"0.68","acq_date":"2026-07-30","acq_time":"300","satellite":"N21","instrument":"VIIRS","confidence":"n","version":"2.0NRT","bright_ti5":"292.96","frp":"1.56","daynight":"N","commune":"Bleigny-le-Carreau","code_insee":"89045","departement":"Yonne","region":"Bourgogne-Franche-Comté"}},{"type":"Feature","geometry":{"type":"Point","coordinates":[-1.03585,48.10696]},"properties":{"latitude":"48.10696","longitude":"-1.03585","bright_ti4":"302.59","scan":"0.33","track":"0.56","acq_date":"2026-07-30","acq_time":"300","satellite":"N21","instrument":"VIIRS","confidence":"n","version":"2.0NRT","bright_ti5":"288.3","frp":"1.1","daynight":"N","commune":"Saint-Pierre-la-Cour","code_insee":"53247","departement":"Mayenne","region":"Pays de la Loire"}},{"type":"Feature","geometry":{"type":"Point","coordinates":[2.65577,48.40501]},"properties":{"latitude":"48.40501","longitude":"2.65577","bright_ti4":"304.82","scan":"0.47","track":"0.64","acq_date":"2026-07-30","acq_time":"300","satellite":"N21","instrument":"VIIRS","confidence":"n","version":"2.0NRT","bright_ti5":"292.45","frp":"1.61","daynight":"N","commune":"Fontainebleau","code_insee":"77186","departement":"Seine-et-Marne","region":"Île-de-France"}},{"type":"Feature","geometry":{"type":"Point","coordinates":[2.11191,50.69579]},"properties":{"latitude":"50.69579","longitude":"2.11191","bright_ti4":"298.16","scan":"0.37","track":"0.58","acq_date":"2026-07-30","acq_time":"300","satellite":"N21","instrument":"VIIRS","confidence":"n","version":"2.0NRT","bright_ti5":"284.88","frp":"0.5","daynight":"N","commune":"Lumbres","code_insee":"62534","departement":"Pas-de-Calais","region":"Hauts-de-France"}},{"type":"Feature","geometry":{"type":"Point","coordinates":[2.11046,50.69722]},"properties":{"latitude":"50.69722","longitude":"2.11046","bright_ti4":"297.52","scan":"0.37","track":"0.58","acq_date":"2026-07-30","acq_time":"300","satellite":"N21","instrument":"VIIRS","confidence":"n","version":"2.0NRT","bright_ti5":"285.87","frp":"0.53","daynight":"N","commune":"Lumbres","code_insee":"62534","departement":"Pas-de-Calais","region":"Hauts-de-France"}},{"type":"Feature","geometry":{"type":"Point","coordinates":[2.27105,51.02651]},"properties":{"latitude":"51.02651","longitude":"2.27105","bright_ti4":"317.68","scan":"0.37","track":"0.58","acq_date":"2026-07-30","acq_time":"300","satellite":"N21","instrument":"VIIRS","confidence":"n","version":"2.0NRT","bright_ti5":"290.54","frp":"2.1","daynight":"N","commune":"Grande-Synthe","code_insee":"59271","departement":"Nord","region":"Hauts-de-France"}},{"type":"Feature","geometry":{"type":"Point","coordinates":[2.28806,51.03321]},"properties":{"latitude":"51.03321","longitude":"2.28806","bright_ti4":"346.57","scan":"0.37","track":"0.58","acq_date":"2026-07-30","acq_time":"300","satellite":"N21","instrument":"VIIRS","confidence":"n","version":"2.0NRT","bright_ti5":"292.37","frp":"7.52","daynight":"N","commune":"Grande-Synthe","code_insee":"59271","departement":"Nord","region":"Hauts-de-France"}},{"type":"Feature","geometry":{"type":"Point","coordinates":[2.30036,51.04136]},"properties":{"latitude":"51.04136","longitude":"2.30036","bright_ti4":"312.78","scan":"0.37","track":"0.58","acq_date":"2026-07-30","acq_time":"300","satellite":"N21","instrument":"VIIRS","confidence":"n","version":"2.0NRT","bright_ti5":"291.3","frp":"2.3","daynight":"N","commune":"Grande-Synthe","code_insee":"59271","departement":"Nord","region":"Hauts-de-France"}},{"type":"Feature","geometry":{"type":"Point","coordinates":[2.29559,51.04281]},"properties":{"latitude":"51.04281","longitude":"2.29559","bright_ti4":"338.27","scan":"0.37","track":"0.58","acq_date":"2026-07-30","acq_time":"300","satellite":"N21","instrument":"VIIRS","confidence":"n","version":"2.0NRT","bright_ti5":"292.61","frp":"5.87","daynight":"N","commune":"Grande-Synthe","code_insee":"59271","departement":"Nord","region":"Hauts-de-France"}},{"type":"Feature","geometry":{"type":"Point","coordinates":[2.3222,51.0466]},"properties":{"latitude":"51.0466","longitude":"2.3222","bright_ti4":"309.29","scan":"0.37","track":"0.58","acq_date":"2026-07-30","acq_time":"300","satellite":"N21","instrument":"VIIRS","confidence":"n","version":"2.0NRT","bright_ti5":"291.73","frp":"1.41","daynight":"N","commune":"Dunkerque","code_insee":"59183","departement":"Nord","region":"Hauts-de-France"}},{"type":"Feature","geometry":{"type":"Point","coordinates":[0.09625,42.86468]},"properties":{"latitude":"42.86468","longitude":"0.09625","bright_ti4":"303.65","scan":"0.55","track":"0.68","acq_date":"2026-07-30","acq_time":"302","satellite":"N21","instrument":"VIIRS","confidence":"n","version":"2.0NRT","bright_ti5":"288.21","frp":"2.16","daynight":"N","commune":"Barèges","code_insee":"65481","departement":"Hautes-Pyrénées","region":"Occitanie"}},{"type":"Feature","geometry":{"type":"Point","coordinates":[6.55106,44.7698]},"properties":{"latitude":"44.7698","longitude":"6.55106","bright_ti4":"330.68","scan":"0.75","track":"0.77","acq_date":"2026-07-30","acq_time":"1106","satellite":"N21","instrument":"VIIRS","confidence":"n","version":"2.0NRT","bright_ti5":"299.36","frp":"6.05","daynight":"D","commune":"L'Argentière-la-Bessée","code_insee":"05006","departement":"Hautes-Alpes","region":"Provence-Alpes-Côte d'Azur"}}]}