{"type":"FeatureCollection","features":[{"type":"Feature","geometry":{"type":"Point","coordinates":[-0.1391,46.8068]},"properties":{"latitude":"46.8068","longitude":"-0.1391","bright_ti4":"301.98","scan":"0.4","track":"0.44","acq_date":"2026-06-18","acq_time":"141","satellite":"N","instrument":"VIIRS","confidence":"n","version":"2.0NRT","bright_ti5":"290.42","frp":"0.93","daynight":"N","commune":"Airvault","code_insee":"79005","departement":"Deux-Sèvres","region":"Nouvelle-Aquitaine"}},{"type":"Feature","geometry":{"type":"Point","coordinates":[-0.14002,46.80841]},"properties":{"latitude":"46.80841","longitude":"-0.14002","bright_ti4":"301.48","scan":"0.4","track":"0.44","acq_date":"2026-06-18","acq_time":"141","satellite":"N","instrument":"VIIRS","confidence":"n","version":"2.0NRT","bright_ti5":"290.63","frp":"0.68","daynight":"N","commune":"Airvault","code_insee":"79005","departement":"Deux-Sèvres","region":"Nouvelle-Aquitaine"}},{"type":"Feature","geometry":{"type":"Point","coordinates":[7.23372,47.62955]},"properties":{"latitude":"47.62955","longitude":"7.23372","bright_ti4":"304.8","scan":"0.38","track":"0.36","acq_date":"2026-06-18","acq_time":"141","satellite":"N","instrument":"VIIRS","confidence":"n","version":"2.0NRT","bright_ti5":"289.71","frp":"0.94","daynight":"N","commune":"Altkirch","code_insee":"68004","departement":"Haut-Rhin","region":"Grand Est"}},{"type":"Feature","geometry":{"type":"Point","coordinates":[7.52879,47.81241]},"properties":{"latitude":"47.81241","longitude":"7.52879","bright_ti4":"301.48","scan":"0.38","track":"0.36","acq_date":"2026-06-18","acq_time":"141","satellite":"N","instrument":"VIIRS","confidence":"n","version":"2.0NRT","bright_ti5":"290.18","frp":"0.65","daynight":"N","commune":"Chalampé","code_insee":"68064","departement":"Haut-Rhin","region":"Grand Est"}},{"type":"Feature","geometry":{"type":"Point","coordinates":[2.97956,48.38901]},"properties":{"latitude":"48.38901","longitude":"2.97956","bright_ti4":"310.29","scan":"0.47","track":"0.4","acq_date":"2026-06-18","acq_time":"141","satellite":"N","instrument":"VIIRS","confidence":"n","version":"2.0NRT","bright_ti5":"292.52","frp":"1.14","daynight":"N","commune":"Montereau-Fault-Yonne","code_insee":"77305","departement":"Seine-et-Marne","region":"Île-de-France"}},{"type":"Feature","geometry":{"type":"Point","coordinates":[6.11205,48.61231]},"properties":{"latitude":"48.61231","longitude":"6.11205","bright_ti4":"300.48","scan":"0.4","track":"0.37","acq_date":"2026-06-18","acq_time":"141","satellite":"N","instrument":"VIIRS","confidence":"n","version":"2.0NRT","bright_ti5":"290.43","frp":"1.14","daynight":"N","commune":"Neuves-Maisons","code_insee":"54397","departement":"Meurthe-et-Moselle","region":"Grand Est"}},{"type":"Feature","geometry":{"type":"Point","coordinates":[6.96833,48.69223]},"properties":{"latitude":"48.69223","longitude":"6.96833","bright_ti4":"300.52","scan":"0.39","track":"0.36","acq_date":"2026-06-18","acq_time":"141","satellite":"N","instrument":"VIIRS","confidence":"n","version":"2.0NRT","bright_ti5":"287.94","frp":"0.75","daynight":"N","commune":"Héming","code_insee":"57314","departement":"Moselle","region":"Grand Est"}},{"type":"Feature","geometry":{"type":"Point","coordinates":[5.68163,48.71778]},"properties":{"latitude":"48.71778","longitude":"5.68163","bright_ti4":"301.25","scan":"0.4","track":"0.37","acq_date":"2026-06-18","acq_time":"141","satellite":"N","instrument":"VIIRS","confidence":"n","version":"2.0NRT","bright_ti5":"288.02","frp":"0.86","daynight":"N","commune":"Sorcy-Saint-Martin","code_insee":"55496","departement":"Meuse","region":"Grand Est"}},{"type":"Feature","geometry":{"type":"Point","coordinates":[4.56467,48.76851]},"properties":{"latitude":"48.76851","longitude":"4.56467","bright_ti4":"301.57","scan":"0.43","track":"0.38","acq_date":"2026-06-18","acq_time":"141","satellite":"N","instrument":"VIIRS","confidence":"n","version":"2.0NRT","bright_ti5":"287.31","frp":"0.96","daynight":"N","commune":"Couvrot","code_insee":"51195","departement":"Marne","region":"Grand Est"}},{"type":"Feature","geometry":{"type":"Point","coordinates":[1.76035,48.98245]},"properties":{"latitude":"48.98245","longitude":"1.76035","bright_ti4":"312.3","scan":"0.53","track":"0.42","acq_date":"2026-06-18","acq_time":"141","satellite":"N","instrument":"VIIRS","confidence":"n","version":"2.0NRT","bright_ti5":"288.86","frp":"1.33","daynight":"N","commune":"Porcheville","code_insee":"78501","departement":"Yvelines","region":"Île-de-France"}},{"type":"Feature","geometry":{"type":"Point","coordinates":[1.76135,48.9863]},"properties":{"latitude":"48.9863","longitude":"1.76135","bright_ti4":"300.41","scan":"0.53","track":"0.42","acq_date":"2026-06-18","acq_time":"141","satellite":"N","instrument":"VIIRS","confidence":"n","version":"2.0NRT","bright_ti5":"288.95","frp":"0.6","daynight":"N","commune":"Porcheville","code_insee":"78501","departement":"Yvelines","region":"Île-de-France"}},{"type":"Feature","geometry":{"type":"Point","coordinates":[0.53615,49.47787]},"properties":{"latitude":"49.47787","longitude":"0.53615","bright_ti4":"300.17","scan":"0.4","track":"0.44","acq_date":"2026-06-18","acq_time":"141","satellite":"N","instrument":"VIIRS","confidence":"n","version":"2.0NRT","bright_ti5":"287.73","frp":"0.67","daynight":"N","commune":"Port-Jérôme-sur-Seine","code_insee":"76476","departement":"Seine-Maritime","region":"Normandie"}},{"type":"Feature","geometry":{"type":"Point","coordinates":[4.89416,43.42955]},"properties":{"latitude":"43.42955","longitude":"4.89416","bright_ti4":"302.54","scan":"0.39","track":"0.36","acq_date":"2026-06-18","acq_time":"143","satellite":"N","instrument":"VIIRS","confidence":"n","version":"2.0NRT","bright_ti5":"291.69","frp":"0.73","daynight":"N","commune":"Fos-sur-Mer","code_insee":"13039","departement":"Bouches-du-Rhône","region":"Provence-Alpes-Côte d'Azur"}},{"type":"Feature","geometry":{"type":"Point","coordinates":[4.89508,43.43287]},"properties":{"latitude":"43.43287","longitude":"4.89508","bright_ti4":"302.32","scan":"0.39","track":"0.36","acq_date":"2026-06-18","acq_time":"143","satellite":"N","instrument":"VIIRS","confidence":"n","version":"2.0NRT","bright_ti5":"291.65","frp":"0.73","daynight":"N","commune":"Fos-sur-Mer","code_insee":"13039","departement":"Bouches-du-Rhône","region":"Provence-Alpes-Côte d'Azur"}},{"type":"Feature","geometry":{"type":"Point","coordinates":[4.89122,43.43689]},"properties":{"latitude":"43.43689","longitude":"4.89122","bright_ti4":"305.15","scan":"0.39","track":"0.36","acq_date":"2026-06-18","acq_time":"143","satellite":"N","instrument":"VIIRS","confidence":"n","version":"2.0NRT","bright_ti5":"291.88","frp":"1.2","daynight":"N","commune":"Fos-sur-Mer","code_insee":"13039","departement":"Bouches-du-Rhône","region":"Provence-Alpes-Côte d'Azur"}},{"type":"Feature","geometry":{"type":"Point","coordinates":[4.88163,43.4383]},"properties":{"latitude":"43.4383","longitude":"4.88163","bright_ti4":"305.34","scan":"0.39","track":"0.36","acq_date":"2026-06-18","acq_time":"143","satellite":"N","instrument":"VIIRS","confidence":"n","version":"2.0NRT","bright_ti5":"292.64","frp":"1.27","daynight":"N","commune":"Fos-sur-Mer","code_insee":"13039","departement":"Bouches-du-Rhône","region":"Provence-Alpes-Côte d'Azur"}},{"type":"Feature","geometry":{"type":"Point","coordinates":[4.89786,43.44281]},"properties":{"latitude":"43.44281","longitude":"4.89786","bright_ti4":"308.57","scan":"0.39","track":"0.36","acq_date":"2026-06-18","acq_time":"143","satellite":"N","instrument":"VIIRS","confidence":"n","version":"2.0NRT","bright_ti5":"290.29","frp":"2.11","daynight":"N","commune":"Fos-sur-Mer","code_insee":"13039","departement":"Bouches-du-Rhône","region":"Provence-Alpes-Côte d'Azur"}},{"type":"Feature","geometry":{"type":"Point","coordinates":[4.88827,43.44423]},"properties":{"latitude":"43.44423","longitude":"4.88827","bright_ti4":"304.26","scan":"0.39","track":"0.36","acq_date":"2026-06-18","acq_time":"143","satellite":"N","instrument":"VIIRS","confidence":"n","version":"2.0NRT","bright_ti5":"290.83","frp":"0.97","daynight":"N","commune":"Fos-sur-Mer","code_insee":"13039","departement":"Bouches-du-Rhône","region":"Provence-Alpes-Côte d'Azur"}},{"type":"Feature","geometry":{"type":"Point","coordinates":[4.89878,43.44613]},"properties":{"latitude":"43.44613","longitude":"4.89878","bright_ti4":"334.17","scan":"0.39","track":"0.36","acq_date":"2026-06-18","acq_time":"143","satellite":"N","instrument":"VIIRS","confidence":"n","version":"2.0NRT","bright_ti5":"293.15","frp":"2.11","daynight":"N","commune":"Fos-sur-Mer","code_insee":"13039","departement":"Bouches-du-Rhône","region":"Provence-Alpes-Côte d'Azur"}},{"type":"Feature","geometry":{"type":"Point","coordinates":[4.89399,43.44684]},"properties":{"latitude":"43.44684","longitude":"4.89399","bright_ti4":"317.81","scan":"0.39","track":"0.36","acq_date":"2026-06-18","acq_time":"143","satellite":"N","instrument":"VIIRS","confidence":"n","version":"2.0NRT","bright_ti5":"291.98","frp":"2.11","daynight":"N","commune":"Fos-sur-Mer","code_insee":"13039","departement":"Bouches-du-Rhône","region":"Provence-Alpes-Côte d'Azur"}},{"type":"Feature","geometry":{"type":"Point","coordinates":[4.8997,43.44945]},"properties":{"latitude":"43.44945","longitude":"4.8997","bright_ti4":"302.97","scan":"0.39","track":"0.36","acq_date":"2026-06-18","acq_time":"143","satellite":"N","instrument":"VIIRS","confidence":"n","version":"2.0NRT","bright_ti5":"290.47","frp":"1.39","daynight":"N","commune":"Fos-sur-Mer","code_insee":"13039","departement":"Bouches-du-Rhône","region":"Provence-Alpes-Côte d'Azur"}},{"type":"Feature","geometry":{"type":"Point","coordinates":[4.89491,43.45015]},"properties":{"latitude":"43.45015","longitude":"4.89491","bright_ti4":"327.84","scan":"0.39","track":"0.36","acq_date":"2026-06-18","acq_time":"143","satellite":"N","instrument":"VIIRS","confidence":"n","version":"2.0NRT","bright_ti5":"289.71","frp":"1.39","daynight":"N","commune":"Fos-sur-Mer","code_insee":"13039","departement":"Bouches-du-Rhône","region":"Provence-Alpes-Côte d'Azur"}},{"type":"Feature","geometry":{"type":"Point","coordinates":[5.46332,43.4526]},"properties":{"latitude":"43.4526","longitude":"5.46332","bright_ti4":"299.94","scan":"0.39","track":"0.36","acq_date":"2026-06-18","acq_time":"143","satellite":"N","instrument":"VIIRS","confidence":"n","version":"2.0NRT","bright_ti5":"289.69","frp":"0.73","daynight":"N","commune":"Gardanne","code_insee":"13041","departement":"Bouches-du-Rhône","region":"Provence-Alpes-Côte d'Azur"}},{"type":"Feature","geometry":{"type":"Point","coordinates":[6.30386,43.69968]},"properties":{"latitude":"43.69968","longitude":"6.30386","bright_ti4":"296.28","scan":"0.38","track":"0.36","acq_date":"2026-06-18","acq_time":"143","satellite":"N","instrument":"VIIRS","confidence":"n","version":"2.0NRT","bright_ti5":"283.37","frp":"0.12","daynight":"N","commune":"Aiguines","code_insee":"83002","departement":"Var","region":"Provence-Alpes-Côte d'Azur"}},{"type":"Feature","geometry":{"type":"Point","coordinates":[7.37308,43.79593]},"properties":{"latitude":"43.79593","longitude":"7.37308","bright_ti4":"305.93","scan":"0.39","track":"0.36","acq_date":"2026-06-18","acq_time":"143","satellite":"N","instrument":"VIIRS","confidence":"n","version":"2.0NRT","bright_ti5":"291.01","frp":"1.12","daynight":"N","commune":"Blausasc","code_insee":"06019","departement":"Alpes-Maritimes","region":"Provence-Alpes-Côte d'Azur"}},{"type":"Feature","geometry":{"type":"Point","coordinates":[4.62189,43.8049]},"properties":{"latitude":"43.8049","longitude":"4.62189","bright_ti4":"302","scan":"0.39","track":"0.36","acq_date":"2026-06-18","acq_time":"143","satellite":"N","instrument":"VIIRS","confidence":"n","version":"2.0NRT","bright_ti5":"291.26","frp":"0.34","daynight":"N","commune":"Beaucaire","code_insee":"30032","departement":"Gard","region":"Occitanie"}},{"type":"Feature","geometry":{"type":"Point","coordinates":[5.6691,45.23043]},"properties":{"latitude":"45.23043","longitude":"5.6691","bright_ti4":"302.64","scan":"0.39","track":"0.36","acq_date":"2026-06-18","acq_time":"143","satellite":"N","instrument":"VIIRS","confidence":"n","version":"2.0NRT","bright_ti5":"291.35","frp":"0.43","daynight":"N","commune":"Saint-Égrève","code_insee":"38382","departement":"Isère","region":"Auvergne-Rhône-Alpes"}},{"type":"Feature","geometry":{"type":"Point","coordinates":[3.56111,50.40109]},"properties":{"latitude":"50.40109","longitude":"3.56111","bright_ti4":"302.15","scan":"0.47","track":"0.4","acq_date":"2026-06-18","acq_time":"143","satellite":"N","instrument":"VIIRS","confidence":"n","version":"2.0NRT","bright_ti5":"287.14","frp":"1.04","daynight":"N","commune":"Saint-Saulve","code_insee":"59544","departement":"Nord","region":"Hauts-de-France"}},{"type":"Feature","geometry":{"type":"Point","coordinates":[2.27223,51.02583]},"properties":{"latitude":"51.02583","longitude":"2.27223","bright_ti4":"303.73","scan":"0.53","track":"0.42","acq_date":"2026-06-18","acq_time":"143","satellite":"N","instrument":"VIIRS","confidence":"n","version":"2.0NRT","bright_ti5":"286.48","frp":"0.81","daynight":"N","commune":"Grande-Synthe","code_insee":"59271","departement":"Nord","region":"Hauts-de-France"}},{"type":"Feature","geometry":{"type":"Point","coordinates":[2.2732,51.02971]},"properties":{"latitude":"51.02971","longitude":"2.2732","bright_ti4":"306.44","scan":"0.53","track":"0.42","acq_date":"2026-06-18","acq_time":"143","satellite":"N","instrument":"VIIRS","confidence":"n","version":"2.0NRT","bright_ti5":"287.3","frp":"2.12","daynight":"N","commune":"Grande-Synthe","code_insee":"59271","departement":"Nord","region":"Hauts-de-France"}},{"type":"Feature","geometry":{"type":"Point","coordinates":[2.28952,51.03206]},"properties":{"latitude":"51.03206","longitude":"2.28952","bright_ti4":"307.8","scan":"0.53","track":"0.42","acq_date":"2026-06-18","acq_time":"143","satellite":"N","instrument":"VIIRS","confidence":"n","version":"2.0NRT","bright_ti5":"287.01","frp":"0.92","daynight":"N","commune":"Grande-Synthe","code_insee":"59271","departement":"Nord","region":"Hauts-de-France"}},{"type":"Feature","geometry":{"type":"Point","coordinates":[2.25109,51.03587]},"properties":{"latitude":"51.03587","longitude":"2.25109","bright_ti4":"298.65","scan":"0.53","track":"0.42","acq_date":"2026-06-18","acq_time":"143","satellite":"N","instrument":"VIIRS","confidence":"n","version":"2.0NRT","bright_ti5":"286.91","frp":"0.87","daynight":"N","commune":"Dunkerque","code_insee":"59183","departement":"Nord","region":"Hauts-de-France"}},{"type":"Feature","geometry":{"type":"Point","coordinates":[2.29047,51.03594]},"properties":{"latitude":"51.03594","longitude":"2.29047","bright_ti4":"328.78","scan":"0.53","track":"0.42","acq_date":"2026-06-18","acq_time":"143","satellite":"N","instrument":"VIIRS","confidence":"n","version":"2.0NRT","bright_ti5":"288.63","frp":"3.54","daynight":"N","commune":"Grande-Synthe","code_insee":"59271","departement":"Nord","region":"Hauts-de-France"}},{"type":"Feature","geometry":{"type":"Point","coordinates":[2.2828,51.0367]},"properties":{"latitude":"51.0367","longitude":"2.2828","bright_ti4":"329.21","scan":"0.53","track":"0.42","acq_date":"2026-06-18","acq_time":"143","satellite":"N","instrument":"VIIRS","confidence":"n","version":"2.0NRT","bright_ti5":"287.74","frp":"5.26","daynight":"N","commune":"Grande-Synthe","code_insee":"59271","departement":"Nord","region":"Hauts-de-France"}},{"type":"Feature","geometry":{"type":"Point","coordinates":[2.30006,51.04292]},"properties":{"latitude":"51.04292","longitude":"2.30006","bright_ti4":"305.83","scan":"0.53","track":"0.42","acq_date":"2026-06-18","acq_time":"143","satellite":"N","instrument":"VIIRS","confidence":"n","version":"2.0NRT","bright_ti5":"287.66","frp":"1.95","daynight":"N","commune":"Grande-Synthe","code_insee":"59271","departement":"Nord","region":"Hauts-de-France"}},{"type":"Feature","geometry":{"type":"Point","coordinates":[2.29239,51.04368]},"properties":{"latitude":"51.04368","longitude":"2.29239","bright_ti4":"309.57","scan":"0.53","track":"0.42","acq_date":"2026-06-18","acq_time":"143","satellite":"N","instrument":"VIIRS","confidence":"n","version":"2.0NRT","bright_ti5":"288.02","frp":"1.95","daynight":"N","commune":"Grande-Synthe","code_insee":"59271","departement":"Nord","region":"Hauts-de-France"}},{"type":"Feature","geometry":{"type":"Point","coordinates":[2.30101,51.04679]},"properties":{"latitude":"51.04679","longitude":"2.30101","bright_ti4":"300.96","scan":"0.53","track":"0.42","acq_date":"2026-06-18","acq_time":"143","satellite":"N","instrument":"VIIRS","confidence":"n","version":"2.0NRT","bright_ti5":"286.66","frp":"1.95","daynight":"N","commune":"Grande-Synthe","code_insee":"59271","departement":"Nord","region":"Hauts-de-France"}},{"type":"Feature","geometry":{"type":"Point","coordinates":[2.29974,51.04688]},"properties":{"latitude":"51.04688","longitude":"2.29974","bright_ti4":"326.14","scan":"0.53","track":"0.42","acq_date":"2026-06-18","acq_time":"143","satellite":"N","instrument":"VIIRS","confidence":"n","version":"2.0NRT","bright_ti5":"287.08","frp":"2.78","daynight":"N","commune":"Grande-Synthe","code_insee":"59271","departement":"Nord","region":"Hauts-de-France"}},{"type":"Feature","geometry":{"type":"Point","coordinates":[2.29334,51.04756]},"properties":{"latitude":"51.04756","longitude":"2.29334","bright_ti4":"328.13","scan":"0.53","track":"0.42","acq_date":"2026-06-18","acq_time":"143","satellite":"N","instrument":"VIIRS","confidence":"n","version":"2.0NRT","bright_ti5":"288.23","frp":"1.95","daynight":"N","commune":"Grande-Synthe","code_insee":"59271","departement":"Nord","region":"Hauts-de-France"}},{"type":"Feature","geometry":{"type":"Point","coordinates":[2.29205,51.04762]},"properties":{"latitude":"51.04762","longitude":"2.29205","bright_ti4":"309.05","scan":"0.53","track":"0.42","acq_date":"2026-06-18","acq_time":"143","satellite":"N","instrument":"VIIRS","confidence":"n","version":"2.0NRT","bright_ti5":"287.41","frp":"2.87","daynight":"N","commune":"Grande-Synthe","code_insee":"59271","departement":"Nord","region":"Hauts-de-France"}},{"type":"Feature","geometry":{"type":"Point","coordinates":[2.32371,51.04856]},"properties":{"latitude":"51.04856","longitude":"2.32371","bright_ti4":"299","scan":"0.53","track":"0.42","acq_date":"2026-06-18","acq_time":"143","satellite":"N","instrument":"VIIRS","confidence":"n","version":"2.0NRT","bright_ti5":"287.86","frp":"1.63","daynight":"N","commune":"Dunkerque","code_insee":"59183","departement":"Nord","region":"Hauts-de-France"}},{"type":"Feature","geometry":{"type":"Point","coordinates":[2.31729,51.04913]},"properties":{"latitude":"51.04913","longitude":"2.31729","bright_ti4":"299.28","scan":"0.53","track":"0.42","acq_date":"2026-06-18","acq_time":"143","satellite":"N","instrument":"VIIRS","confidence":"n","version":"2.0NRT","bright_ti5":"288.28","frp":"1.35","daynight":"N","commune":"Dunkerque","code_insee":"59183","departement":"Nord","region":"Hauts-de-France"}},{"type":"Feature","geometry":{"type":"Point","coordinates":[1.76315,48.98549]},"properties":{"latitude":"48.98549","longitude":"1.76315","bright_ti4":"306.14","scan":"0.54","track":"0.68","acq_date":"2026-06-18","acq_time":"321","satellite":"N","instrument":"VIIRS","confidence":"n","version":"2.0NRT","bright_ti5":"286.17","frp":"0.84","daynight":"N","commune":"Porcheville","code_insee":"78501","departement":"Yvelines","region":"Île-de-France"}},{"type":"Feature","geometry":{"type":"Point","coordinates":[9.27893,42.48824]},"properties":{"latitude":"42.48824","longitude":"9.27893","bright_ti4":"328.14","scan":"0.45","track":"0.63","acq_date":"2026-06-18","acq_time":"1128","satellite":"N","instrument":"VIIRS","confidence":"n","version":"2.0NRT","bright_ti5":"296.95","frp":"46.79","daynight":"D","commune":"Castello-di-Rostino","code_insee":"2B079","departement":"Haute-Corse","region":"Corse"}},{"type":"Feature","geometry":{"type":"Point","coordinates":[9.28377,42.48955]},"properties":{"latitude":"42.48955","longitude":"9.28377","bright_ti4":"341.18","scan":"0.45","track":"0.63","acq_date":"2026-06-18","acq_time":"1128","satellite":"N","instrument":"VIIRS","confidence":"n","version":"2.0NRT","bright_ti5":"311.29","frp":"49.36","daynight":"D","commune":"Castello-di-Rostino","code_insee":"2B079","departement":"Haute-Corse","region":"Corse"}},{"type":"Feature","geometry":{"type":"Point","coordinates":[9.28355,42.48963]},"properties":{"latitude":"42.48963","longitude":"9.28355","bright_ti4":"340.07","scan":"0.45","track":"0.63","acq_date":"2026-06-18","acq_time":"1128","satellite":"N","instrument":"VIIRS","confidence":"n","version":"2.0NRT","bright_ti5":"312.92","frp":"46.79","daynight":"D","commune":"Castello-di-Rostino","code_insee":"2B079","departement":"Haute-Corse","region":"Corse"}},{"type":"Feature","geometry":{"type":"Point","coordinates":[9.28875,42.49101]},"properties":{"latitude":"42.49101","longitude":"9.28875","bright_ti4":"367","scan":"0.45","track":"0.63","acq_date":"2026-06-18","acq_time":"1128","satellite":"N","instrument":"VIIRS","confidence":"h","version":"2.0NRT","bright_ti5":"301.37","frp":"49.36","daynight":"D","commune":"Bisinchi","code_insee":"2B039","departement":"Haute-Corse","region":"Corse"}},{"type":"Feature","geometry":{"type":"Point","coordinates":[9.28851,42.49112]},"properties":{"latitude":"42.49112","longitude":"9.28851","bright_ti4":"367","scan":"0.45","track":"0.63","acq_date":"2026-06-18","acq_time":"1128","satellite":"N","instrument":"VIIRS","confidence":"h","version":"2.0NRT","bright_ti5":"300.56","frp":"49.89","daynight":"D","commune":"Bisinchi","code_insee":"2B039","departement":"Haute-Corse","region":"Corse"}},{"type":"Feature","geometry":{"type":"Point","coordinates":[9.28255,42.49552]},"properties":{"latitude":"42.49552","longitude":"9.28255","bright_ti4":"367","scan":"0.45","track":"0.63","acq_date":"2026-06-18","acq_time":"1128","satellite":"N","instrument":"VIIRS","confidence":"h","version":"2.0NRT","bright_ti5":"296.46","frp":"14.58","daynight":"D","commune":"Castello-di-Rostino","code_insee":"2B079","departement":"Haute-Corse","region":"Corse"}},{"type":"Feature","geometry":{"type":"Point","coordinates":[9.28236,42.49563]},"properties":{"latitude":"42.49563","longitude":"9.28236","bright_ti4":"367","scan":"0.45","track":"0.63","acq_date":"2026-06-18","acq_time":"1128","satellite":"N","instrument":"VIIRS","confidence":"h","version":"2.0NRT","bright_ti5":"296.14","frp":"11.98","daynight":"D","commune":"Castello-di-Rostino","code_insee":"2B079","departement":"Haute-Corse","region":"Corse"}},{"type":"Feature","geometry":{"type":"Point","coordinates":[9.28727,42.49691]},"properties":{"latitude":"42.49691","longitude":"9.28727","bright_ti4":"329.51","scan":"0.45","track":"0.63","acq_date":"2026-06-18","acq_time":"1128","satellite":"N","instrument":"VIIRS","confidence":"n","version":"2.0NRT","bright_ti5":"296.42","frp":"14.58","daynight":"D","commune":"Castello-di-Rostino","code_insee":"2B079","departement":"Haute-Corse","region":"Corse"}},{"type":"Feature","geometry":{"type":"Point","coordinates":[9.47148,42.50073]},"properties":{"latitude":"42.50073","longitude":"9.47148","bright_ti4":"331.74","scan":"0.44","track":"0.62","acq_date":"2026-06-18","acq_time":"1128","satellite":"N","instrument":"VIIRS","confidence":"n","version":"2.0NRT","bright_ti5":"298.99","frp":"3.65","daynight":"D","commune":"Venzolasca","code_insee":"2B343","departement":"Haute-Corse","region":"Corse"}},{"type":"Feature","geometry":{"type":"Point","coordinates":[4.9004,43.4454]},"properties":{"latitude":"43.4454","longitude":"4.9004","bright_ti4":"342.82","scan":"0.66","track":"0.73","acq_date":"2026-06-18","acq_time":"1128","satellite":"N","instrument":"VIIRS","confidence":"n","version":"2.0NRT","bright_ti5":"304.38","frp":"8.41","daynight":"D","commune":"Fos-sur-Mer","code_insee":"13039","departement":"Bouches-du-Rhône","region":"Provence-Alpes-Côte d'Azur"}},{"type":"Feature","geometry":{"type":"Point","coordinates":[1.21597,46.444]},"properties":{"latitude":"46.444","longitude":"1.21597","bright_ti4":"367","scan":"0.75","track":"0.77","acq_date":"2026-06-18","acq_time":"1128","satellite":"N","instrument":"VIIRS","confidence":"h","version":"2.0NRT","bright_ti5":"297.44","frp":"24.53","daynight":"D","commune":"Lignac","code_insee":"36094","departement":"Indre","region":"Centre-Val de Loire"}},{"type":"Feature","geometry":{"type":"Point","coordinates":[1.21327,46.44736]},"properties":{"latitude":"46.44736","longitude":"1.21327","bright_ti4":"367","scan":"0.75","track":"0.77","acq_date":"2026-06-18","acq_time":"1128","satellite":"N","instrument":"VIIRS","confidence":"h","version":"2.0NRT","bright_ti5":"298.49","frp":"37.45","daynight":"D","commune":"Lignac","code_insee":"36094","departement":"Indre","region":"Centre-Val de Loire"}},{"type":"Feature","geometry":{"type":"Point","coordinates":[1.211,46.45035]},"properties":{"latitude":"46.45035","longitude":"1.211","bright_ti4":"367","scan":"0.75","track":"0.77","acq_date":"2026-06-18","acq_time":"1128","satellite":"N","instrument":"VIIRS","confidence":"h","version":"2.0NRT","bright_ti5":"295.87","frp":"24.53","daynight":"D","commune":"Lignac","code_insee":"36094","departement":"Indre","region":"Centre-Val de Loire"}},{"type":"Feature","geometry":{"type":"Point","coordinates":[1.2223,46.45072]},"properties":{"latitude":"46.45072","longitude":"1.2223","bright_ti4":"335.24","scan":"0.75","track":"0.77","acq_date":"2026-06-18","acq_time":"1128","satellite":"N","instrument":"VIIRS","confidence":"n","version":"2.0NRT","bright_ti5":"295.96","frp":"28.94","daynight":"D","commune":"Lignac","code_insee":"36094","departement":"Indre","region":"Centre-Val de Loire"}},{"type":"Feature","geometry":{"type":"Point","coordinates":[2.99044,47.96698]},"properties":{"latitude":"47.96698","longitude":"2.99044","bright_ti4":"338.24","scan":"0.56","track":"0.69","acq_date":"2026-06-18","acq_time":"1128","satellite":"N","instrument":"VIIRS","confidence":"n","version":"2.0NRT","bright_ti5":"295.55","frp":"3.77","daynight":"D","commune":"Triguères","code_insee":"45329","departement":"Loiret","region":"Centre-Val de Loire"}},{"type":"Feature","geometry":{"type":"Point","coordinates":[2.28357,51.03828]},"properties":{"latitude":"51.03828","longitude":"2.28357","bright_ti4":"326.73","scan":"0.47","track":"0.64","acq_date":"2026-06-18","acq_time":"1130","satellite":"N","instrument":"VIIRS","confidence":"n","version":"2.0NRT","bright_ti5":"292.31","frp":"1.73","daynight":"D","commune":"Grande-Synthe","code_insee":"59271","departement":"Nord","region":"Hauts-de-France"}},{"type":"Feature","geometry":{"type":"Point","coordinates":[2.30185,51.04449]},"properties":{"latitude":"51.04449","longitude":"2.30185","bright_ti4":"339.53","scan":"0.47","track":"0.64","acq_date":"2026-06-18","acq_time":"1130","satellite":"N","instrument":"VIIRS","confidence":"n","version":"2.0NRT","bright_ti5":"291.99","frp":"3.43","daynight":"D","commune":"Grande-Synthe","code_insee":"59271","departement":"Nord","region":"Hauts-de-France"}},{"type":"Feature","geometry":{"type":"Point","coordinates":[9.26925,42.48825]},"properties":{"latitude":"42.48825","longitude":"9.26925","bright_ti4":"356.66","scan":"0.61","track":"0.54","acq_date":"2026-06-18","acq_time":"1308","satellite":"N","instrument":"VIIRS","confidence":"n","version":"2.0NRT","bright_ti5":"304.43","frp":"49.91","daynight":"D","commune":"Canavaggia","code_insee":"2B059","departement":"Haute-Corse","region":"Corse"}},{"type":"Feature","geometry":{"type":"Point","coordinates":[9.27993,42.48891]},"properties":{"latitude":"42.48891","longitude":"9.27993","bright_ti4":"367","scan":"0.61","track":"0.54","acq_date":"2026-06-18","acq_time":"1308","satellite":"N","instrument":"VIIRS","confidence":"h","version":"2.0NRT","bright_ti5":"304.61","frp":"49.91","daynight":"D","commune":"Castello-di-Rostino","code_insee":"2B079","departement":"Haute-Corse","region":"Corse"}},{"type":"Feature","geometry":{"type":"Point","coordinates":[9.27789,42.4938]},"properties":{"latitude":"42.4938","longitude":"9.27789","bright_ti4":"355.62","scan":"0.61","track":"0.54","acq_date":"2026-06-18","acq_time":"1308","satellite":"N","instrument":"VIIRS","confidence":"n","version":"2.0NRT","bright_ti5":"310.58","frp":"152.39","daynight":"D","commune":"Canavaggia","code_insee":"2B059","departement":"Haute-Corse","region":"Corse"}},{"type":"Feature","geometry":{"type":"Point","coordinates":[2.83901,43.21407]},"properties":{"latitude":"43.21407","longitude":"2.83901","bright_ti4":"344.73","scan":"0.47","track":"0.4","acq_date":"2026-06-18","acq_time":"1308","satellite":"N","instrument":"VIIRS","confidence":"n","version":"2.0NRT","bright_ti5":"313.97","frp":"7.15","daynight":"D","commune":"Canet","code_insee":"11067","departement":"Aude","region":"Occitanie"}},{"type":"Feature","geometry":{"type":"Point","coordinates":[2.84483,43.21474]},"properties":{"latitude":"43.21474","longitude":"2.84483","bright_ti4":"340.83","scan":"0.47","track":"0.4","acq_date":"2026-06-18","acq_time":"1308","satellite":"N","instrument":"VIIRS","confidence":"n","version":"2.0NRT","bright_ti5":"315.14","frp":"7.15","daynight":"D","commune":"Canet","code_insee":"11067","departement":"Aude","region":"Occitanie"}},{"type":"Feature","geometry":{"type":"Point","coordinates":[2.83241,43.21705]},"properties":{"latitude":"43.21705","longitude":"2.83241","bright_ti4":"339.32","scan":"0.47","track":"0.4","acq_date":"2026-06-18","acq_time":"1308","satellite":"N","instrument":"VIIRS","confidence":"n","version":"2.0NRT","bright_ti5":"311.85","frp":"4.66","daynight":"D","commune":"Canet","code_insee":"11067","departement":"Aude","region":"Occitanie"}},{"type":"Feature","geometry":{"type":"Point","coordinates":[2.83824,43.21772]},"properties":{"latitude":"43.21772","longitude":"2.83824","bright_ti4":"337.74","scan":"0.47","track":"0.4","acq_date":"2026-06-18","acq_time":"1308","satellite":"N","instrument":"VIIRS","confidence":"l","version":"2.0NRT","bright_ti5":"311.8","frp":"5.65","daynight":"D","commune":"Canet","code_insee":"11067","departement":"Aude","region":"Occitanie"}},{"type":"Feature","geometry":{"type":"Point","coordinates":[4.90192,43.44446]},"properties":{"latitude":"43.44446","longitude":"4.90192","bright_ti4":"343.91","scan":"0.38","track":"0.43","acq_date":"2026-06-18","acq_time":"1308","satellite":"N","instrument":"VIIRS","confidence":"n","version":"2.0NRT","bright_ti5":"313.87","frp":"4.2","daynight":"D","commune":"Fos-sur-Mer","code_insee":"13039","departement":"Bouches-du-Rhône","region":"Provence-Alpes-Côte d'Azur"}},{"type":"Feature","geometry":{"type":"Point","coordinates":[4.89642,43.44801]},"properties":{"latitude":"43.44801","longitude":"4.89642","bright_ti4":"335.35","scan":"0.38","track":"0.43","acq_date":"2026-06-18","acq_time":"1308","satellite":"N","instrument":"VIIRS","confidence":"l","version":"2.0NRT","bright_ti5":"309.94","frp":"4.2","daynight":"D","commune":"Fos-sur-Mer","code_insee":"13039","departement":"Bouches-du-Rhône","region":"Provence-Alpes-Côte d'Azur"}},{"type":"Feature","geometry":{"type":"Point","coordinates":[5.86906,43.6829]},"properties":{"latitude":"43.6829","longitude":"5.86906","bright_ti4":"351.27","scan":"0.43","track":"0.46","acq_date":"2026-06-18","acq_time":"1308","satellite":"N","instrument":"VIIRS","confidence":"n","version":"2.0NRT","bright_ti5":"308.46","frp":"17.1","daynight":"D","commune":"Ginasservis","code_insee":"83066","departement":"Var","region":"Provence-Alpes-Côte d'Azur"}},{"type":"Feature","geometry":{"type":"Point","coordinates":[2.85213,43.85983]},"properties":{"latitude":"43.85983","longitude":"2.85213","bright_ti4":"348.68","scan":"0.48","track":"0.4","acq_date":"2026-06-18","acq_time":"1308","satellite":"N","instrument":"VIIRS","confidence":"n","version":"2.0NRT","bright_ti5":"316.66","frp":"7.12","daynight":"D","commune":"Montlaur","code_insee":"12154","departement":"Aveyron","region":"Occitanie"}},{"type":"Feature","geometry":{"type":"Point","coordinates":[4.21754,44.62609]},"properties":{"latitude":"44.62609","longitude":"4.21754","bright_ti4":"330.07","scan":"0.55","track":"0.43","acq_date":"2026-06-18","acq_time":"1308","satellite":"N","instrument":"VIIRS","confidence":"n","version":"2.0NRT","bright_ti5":"301.5","frp":"2.08","daynight":"D","commune":"La Souche","code_insee":"07315","departement":"Ardèche","region":"Auvergne-Rhône-Alpes"}},{"type":"Feature","geometry":{"type":"Point","coordinates":[1.21142,46.44934]},"properties":{"latitude":"46.44934","longitude":"1.21142","bright_ti4":"338.6","scan":"0.45","track":"0.39","acq_date":"2026-06-18","acq_time":"1308","satellite":"N","instrument":"VIIRS","confidence":"l","version":"2.0NRT","bright_ti5":"312.58","frp":"4.5","daynight":"D","commune":"Lignac","code_insee":"36094","departement":"Indre","region":"Centre-Val de Loire"}},{"type":"Feature","geometry":{"type":"Point","coordinates":[1.45844,47.7937]},"properties":{"latitude":"47.7937","longitude":"1.45844","bright_ti4":"349.25","scan":"0.47","track":"0.4","acq_date":"2026-06-18","acq_time":"1310","satellite":"N","instrument":"VIIRS","confidence":"n","version":"2.0NRT","bright_ti5":"303.99","frp":"14.63","daynight":"D","commune":"Roches","code_insee":"41191","departement":"Loir-et-Cher","region":"Centre-Val de Loire"}},{"type":"Feature","geometry":{"type":"Point","coordinates":[5.1491,48.28535]},"properties":{"latitude":"48.28535","longitude":"5.1491","bright_ti4":"333.18","scan":"0.45","track":"0.47","acq_date":"2026-06-18","acq_time":"1310","satellite":"N","instrument":"VIIRS","confidence":"l","version":"2.0NRT","bright_ti5":"303.98","frp":"4.12","daynight":"D","commune":"Froncles","code_insee":"52211","departement":"Haute-Marne","region":"Grand Est"}},{"type":"Feature","geometry":{"type":"Point","coordinates":[6.05392,48.8828]},"properties":{"latitude":"48.8828","longitude":"6.05392","bright_ti4":"340.49","scan":"0.5","track":"0.49","acq_date":"2026-06-18","acq_time":"1310","satellite":"N","instrument":"VIIRS","confidence":"n","version":"2.0NRT","bright_ti5":"299.62","frp":"9.03","daynight":"D","commune":"Blénod-lès-Pont-à-Mousson","code_insee":"54079","departement":"Meurthe-et-Moselle","region":"Grand Est"}},{"type":"Feature","geometry":{"type":"Point","coordinates":[2.32804,48.91126]},"properties":{"latitude":"48.91126","longitude":"2.32804","bright_ti4":"338.3","scan":"0.52","track":"0.42","acq_date":"2026-06-18","acq_time":"1310","satellite":"N","instrument":"VIIRS","confidence":"n","version":"2.0NRT","bright_ti5":"307.19","frp":"1.59","daynight":"D","commune":"Saint-Ouen-sur-Seine","code_insee":"93070","departement":"Seine-Saint-Denis","region":"Île-de-France"}},{"type":"Feature","geometry":{"type":"Point","coordinates":[1.7591,48.98337]},"properties":{"latitude":"48.98337","longitude":"1.7591","bright_ti4":"337.59","scan":"0.5","track":"0.41","acq_date":"2026-06-18","acq_time":"1310","satellite":"N","instrument":"VIIRS","confidence":"n","version":"2.0NRT","bright_ti5":"306.7","frp":"7.87","daynight":"D","commune":"Porcheville","code_insee":"78501","departement":"Yvelines","region":"Île-de-France"}},{"type":"Feature","geometry":{"type":"Point","coordinates":[2.29855,51.04471]},"properties":{"latitude":"51.04471","longitude":"2.29855","bright_ti4":"334.43","scan":"0.55","track":"0.43","acq_date":"2026-06-18","acq_time":"1310","satellite":"N","instrument":"VIIRS","confidence":"n","version":"2.0NRT","bright_ti5":"293.31","frp":"7.03","daynight":"D","commune":"Grande-Synthe","code_insee":"59271","departement":"Nord","region":"Hauts-de-France"}},{"type":"Feature","geometry":{"type":"Point","coordinates":[7.52249,47.81166]},"properties":{"latitude":"47.81166","longitude":"7.52249","bright_ti4":"303.26","scan":"0.7","track":"0.75","acq_date":"2026-06-18","acq_time":"20","satellite":"N20","instrument":"VIIRS","confidence":"n","version":"2.0NRT","bright_ti5":"286.15","frp":"0.78","daynight":"N","commune":"Bantzenheim","code_insee":"68020","departement":"Haut-Rhin","region":"Grand Est"}},{"type":"Feature","geometry":{"type":"Point","coordinates":[6.10909,48.56264]},"properties":{"latitude":"48.56264","longitude":"6.10909","bright_ti4":"299.71","scan":"0.44","track":"0.39","acq_date":"2026-06-18","acq_time":"200","satellite":"N20","instrument":"VIIRS","confidence":"n","version":"2.0NRT","bright_ti5":"288.69","frp":"0.59","daynight":"N","commune":"Xeuilley","code_insee":"54596","departement":"Meurthe-et-Moselle","region":"Grand Est"}},{"type":"Feature","geometry":{"type":"Point","coordinates":[6.11818,48.60903]},"properties":{"latitude":"48.60903","longitude":"6.11818","bright_ti4":"300.59","scan":"0.44","track":"0.39","acq_date":"2026-06-18","acq_time":"200","satellite":"N20","instrument":"VIIRS","confidence":"n","version":"2.0NRT","bright_ti5":"289.54","frp":"0.68","daynight":"N","commune":"Neuves-Maisons","code_insee":"54397","departement":"Meurthe-et-Moselle","region":"Grand Est"}},{"type":"Feature","geometry":{"type":"Point","coordinates":[6.11239,48.61018]},"properties":{"latitude":"48.61018","longitude":"6.11239","bright_ti4":"310.92","scan":"0.44","track":"0.39","acq_date":"2026-06-18","acq_time":"200","satellite":"N20","instrument":"VIIRS","confidence":"n","version":"2.0NRT","bright_ti5":"289.94","frp":"1.75","daynight":"N","commune":"Neuves-Maisons","code_insee":"54397","departement":"Meurthe-et-Moselle","region":"Grand Est"}},{"type":"Feature","geometry":{"type":"Point","coordinates":[0.53548,49.47555]},"properties":{"latitude":"49.47555","longitude":"0.53548","bright_ti4":"298.66","scan":"0.39","track":"0.36","acq_date":"2026-06-18","acq_time":"200","satellite":"N20","instrument":"VIIRS","confidence":"n","version":"2.0NRT","bright_ti5":"288.31","frp":"1.03","daynight":"N","commune":"Lillebonne","code_insee":"76384","departement":"Seine-Maritime","region":"Normandie"}},{"type":"Feature","geometry":{"type":"Point","coordinates":[3.56466,50.40348]},"properties":{"latitude":"50.40348","longitude":"3.56466","bright_ti4":"299.7","scan":"0.39","track":"0.36","acq_date":"2026-06-18","acq_time":"200","satellite":"N20","instrument":"VIIRS","confidence":"n","version":"2.0NRT","bright_ti5":"286.4","frp":"0.94","daynight":"N","commune":"Saint-Saulve","code_insee":"59544","departement":"Nord","region":"Hauts-de-France"}},{"type":"Feature","geometry":{"type":"Point","coordinates":[2.27103,51.026]},"properties":{"latitude":"51.026","longitude":"2.27103","bright_ti4":"300.02","scan":"0.39","track":"0.36","acq_date":"2026-06-18","acq_time":"200","satellite":"N20","instrument":"VIIRS","confidence":"n","version":"2.0NRT","bright_ti5":"287.06","frp":"0.71","daynight":"N","commune":"Grande-Synthe","code_insee":"59271","departement":"Nord","region":"Hauts-de-France"}},{"type":"Feature","geometry":{"type":"Point","coordinates":[2.27227,51.02925]},"properties":{"latitude":"51.02925","longitude":"2.27227","bright_ti4":"304.28","scan":"0.39","track":"0.36","acq_date":"2026-06-18","acq_time":"200","satellite":"N20","instrument":"VIIRS","confidence":"n","version":"2.0NRT","bright_ti5":"287.96","frp":"0.71","daynight":"N","commune":"Grande-Synthe","code_insee":"59271","departement":"Nord","region":"Hauts-de-France"}},{"type":"Feature","geometry":{"type":"Point","coordinates":[2.28434,51.03086]},"properties":{"latitude":"51.03086","longitude":"2.28434","bright_ti4":"310.81","scan":"0.39","track":"0.36","acq_date":"2026-06-18","acq_time":"200","satellite":"N20","instrument":"VIIRS","confidence":"n","version":"2.0NRT","bright_ti5":"287.25","frp":"1.14","daynight":"N","commune":"Grande-Synthe","code_insee":"59271","departement":"Nord","region":"Hauts-de-France"}},{"type":"Feature","geometry":{"type":"Point","coordinates":[2.28559,51.03412]},"properties":{"latitude":"51.03412","longitude":"2.28559","bright_ti4":"319.6","scan":"0.39","track":"0.36","acq_date":"2026-06-18","acq_time":"200","satellite":"N20","instrument":"VIIRS","confidence":"n","version":"2.0NRT","bright_ti5":"288.27","frp":"1.14","daynight":"N","commune":"Grande-Synthe","code_insee":"59271","departement":"Nord","region":"Hauts-de-France"}},{"type":"Feature","geometry":{"type":"Point","coordinates":[2.25729,51.03498]},"properties":{"latitude":"51.03498","longitude":"2.25729","bright_ti4":"303.33","scan":"0.39","track":"0.36","acq_date":"2026-06-18","acq_time":"200","satellite":"N20","instrument":"VIIRS","confidence":"n","version":"2.0NRT","bright_ti5":"287.36","frp":"0.56","daynight":"N","commune":"Dunkerque","code_insee":"59183","departement":"Nord","region":"Hauts-de-France"}},{"type":"Feature","geometry":{"type":"Point","coordinates":[2.28684,51.03738]},"properties":{"latitude":"51.03738","longitude":"2.28684","bright_ti4":"303.64","scan":"0.39","track":"0.36","acq_date":"2026-06-18","acq_time":"200","satellite":"N20","instrument":"VIIRS","confidence":"n","version":"2.0NRT","bright_ti5":"287.71","frp":"0.75","daynight":"N","commune":"Grande-Synthe","code_insee":"59271","departement":"Nord","region":"Hauts-de-France"}},{"type":"Feature","geometry":{"type":"Point","coordinates":[2.28143,51.0382]},"properties":{"latitude":"51.0382","longitude":"2.28143","bright_ti4":"317.8","scan":"0.39","track":"0.36","acq_date":"2026-06-18","acq_time":"200","satellite":"N20","instrument":"VIIRS","confidence":"n","version":"2.0NRT","bright_ti5":"287.48","frp":"0.75","daynight":"N","commune":"Grande-Synthe","code_insee":"59271","departement":"Nord","region":"Hauts-de-France"}},{"type":"Feature","geometry":{"type":"Point","coordinates":[2.29474,51.04306]},"properties":{"latitude":"51.04306","longitude":"2.29474","bright_ti4":"334.15","scan":"0.39","track":"0.36","acq_date":"2026-06-18","acq_time":"200","satellite":"N20","instrument":"VIIRS","confidence":"n","version":"2.0NRT","bright_ti5":"290.03","frp":"3.39","daynight":"N","commune":"Grande-Synthe","code_insee":"59271","departement":"Nord","region":"Hauts-de-France"}},{"type":"Feature","geometry":{"type":"Point","coordinates":[2.30681,51.04467]},"properties":{"latitude":"51.04467","longitude":"2.30681","bright_ti4":"299.58","scan":"0.39","track":"0.36","acq_date":"2026-06-18","acq_time":"200","satellite":"N20","instrument":"VIIRS","confidence":"n","version":"2.0NRT","bright_ti5":"286.87","frp":"0.56","daynight":"N","commune":"Dunkerque","code_insee":"59183","departement":"Nord","region":"Hauts-de-France"}},{"type":"Feature","geometry":{"type":"Point","coordinates":[2.3014,51.04549]},"properties":{"latitude":"51.04549","longitude":"2.3014","bright_ti4":"304.22","scan":"0.39","track":"0.36","acq_date":"2026-06-18","acq_time":"200","satellite":"N20","instrument":"VIIRS","confidence":"n","version":"2.0NRT","bright_ti5":"287.31","frp":"3.39","daynight":"N","commune":"Grande-Synthe","code_insee":"59271","departement":"Nord","region":"Hauts-de-France"}},{"type":"Feature","geometry":{"type":"Point","coordinates":[2.29599,51.04632]},"properties":{"latitude":"51.04632","longitude":"2.29599","bright_ti4":"329.23","scan":"0.39","track":"0.36","acq_date":"2026-06-18","acq_time":"200","satellite":"N20","instrument":"VIIRS","confidence":"n","version":"2.0NRT","bright_ti5":"290.18","frp":"3.39","daynight":"N","commune":"Grande-Synthe","code_insee":"59271","departement":"Nord","region":"Hauts-de-France"}},{"type":"Feature","geometry":{"type":"Point","coordinates":[2.32013,51.04953]},"properties":{"latitude":"51.04953","longitude":"2.32013","bright_ti4":"300.94","scan":"0.39","track":"0.36","acq_date":"2026-06-18","acq_time":"200","satellite":"N20","instrument":"VIIRS","confidence":"n","version":"2.0NRT","bright_ti5":"288.68","frp":"1.65","daynight":"N","commune":"Dunkerque","code_insee":"59183","departement":"Nord","region":"Hauts-de-France"}},{"type":"Feature","geometry":{"type":"Point","coordinates":[4.89593,43.4334]},"properties":{"latitude":"43.4334","longitude":"4.89593","bright_ti4":"306.42","scan":"0.49","track":"0.4","acq_date":"2026-06-18","acq_time":"202","satellite":"N20","instrument":"VIIRS","confidence":"n","version":"2.0NRT","bright_ti5":"291.53","frp":"2.06","daynight":"N","commune":"Fos-sur-Mer","code_insee":"13039","departement":"Bouches-du-Rhône","region":"Provence-Alpes-Côte d'Azur"}},{"type":"Feature","geometry":{"type":"Point","coordinates":[4.90008,43.44417]},"properties":{"latitude":"43.44417","longitude":"4.90008","bright_ti4":"330.74","scan":"0.49","track":"0.4","acq_date":"2026-06-18","acq_time":"202","satellite":"N20","instrument":"VIIRS","confidence":"n","version":"2.0NRT","bright_ti5":"292.26","frp":"5.26","daynight":"N","commune":"Fos-sur-Mer","code_insee":"13039","departement":"Bouches-du-Rhône","region":"Provence-Alpes-Côte d'Azur"}},{"type":"Feature","geometry":{"type":"Point","coordinates":[4.89562,43.44895]},"properties":{"latitude":"43.44895","longitude":"4.89562","bright_ti4":"327.13","scan":"0.49","track":"0.4","acq_date":"2026-06-18","acq_time":"202","satellite":"N20","instrument":"VIIRS","confidence":"n","version":"2.0NRT","bright_ti5":"290.56","frp":"3.31","daynight":"N","commune":"Fos-sur-Mer","code_insee":"13039","departement":"Bouches-du-Rhône","region":"Provence-Alpes-Côte d'Azur"}},{"type":"Feature","geometry":{"type":"Point","coordinates":[5.66904,45.22871]},"properties":{"latitude":"45.22871","longitude":"5.66904","bright_ti4":"300.92","scan":"0.48","track":"0.4","acq_date":"2026-06-18","acq_time":"202","satellite":"N20","instrument":"VIIRS","confidence":"n","version":"2.0NRT","bright_ti5":"290.33","frp":"0.4","daynight":"N","commune":"Saint-Égrève","code_insee":"38382","departement":"Isère","region":"Auvergne-Rhône-Alpes"}},{"type":"Feature","geometry":{"type":"Point","coordinates":[7.52574,47.8105]},"properties":{"latitude":"47.8105","longitude":"7.52574","bright_ti4":"306.09","scan":"0.51","track":"0.41","acq_date":"2026-06-18","acq_time":"202","satellite":"N20","instrument":"VIIRS","confidence":"n","version":"2.0NRT","bright_ti5":"285.92","frp":"1.55","daynight":"N","commune":"Bantzenheim","code_insee":"68020","departement":"Haut-Rhin","region":"Grand Est"}},{"type":"Feature","geometry":{"type":"Point","coordinates":[-1.03476,48.10723]},"properties":{"latitude":"48.10723","longitude":"-1.03476","bright_ti4":"302.78","scan":"0.41","track":"0.37","acq_date":"2026-06-18","acq_time":"202","satellite":"N20","instrument":"VIIRS","confidence":"n","version":"2.0NRT","bright_ti5":"289.44","frp":"0.67","daynight":"N","commune":"Saint-Pierre-la-Cour","code_insee":"53247","departement":"Mayenne","region":"Pays de la Loire"}},{"type":"Feature","geometry":{"type":"Point","coordinates":[-0.83651,48.12627]},"properties":{"latitude":"48.12627","longitude":"-0.83651","bright_ti4":"296.72","scan":"0.41","track":"0.37","acq_date":"2026-06-18","acq_time":"202","satellite":"N20","instrument":"VIIRS","confidence":"n","version":"2.0NRT","bright_ti5":"286.4","frp":"0.22","daynight":"N","commune":"Changé","code_insee":"53054","departement":"Mayenne","region":"Pays de la Loire"}},{"type":"Feature","geometry":{"type":"Point","coordinates":[2.9823,48.38699]},"properties":{"latitude":"48.38699","longitude":"2.9823","bright_ti4":"319.02","scan":"0.39","track":"0.36","acq_date":"2026-06-18","acq_time":"202","satellite":"N20","instrument":"VIIRS","confidence":"n","version":"2.0NRT","bright_ti5":"293.53","frp":"1.66","daynight":"N","commune":"Montereau-Fault-Yonne","code_insee":"77305","departement":"Seine-et-Marne","region":"Île-de-France"}},{"type":"Feature","geometry":{"type":"Point","coordinates":[4.56367,48.76862]},"properties":{"latitude":"48.76862","longitude":"4.56367","bright_ti4":"306.02","scan":"0.41","track":"0.37","acq_date":"2026-06-18","acq_time":"202","satellite":"N20","instrument":"VIIRS","confidence":"n","version":"2.0NRT","bright_ti5":"290.1","frp":"1.22","daynight":"N","commune":"Couvrot","code_insee":"51195","departement":"Marne","region":"Grand Est"}},{"type":"Feature","geometry":{"type":"Point","coordinates":[2.73632,48.9486]},"properties":{"latitude":"48.9486","longitude":"2.73632","bright_ti4":"299.33","scan":"0.39","track":"0.36","acq_date":"2026-06-18","acq_time":"202","satellite":"N20","instrument":"VIIRS","confidence":"n","version":"2.0NRT","bright_ti5":"289.05","frp":"0.35","daynight":"N","commune":"Fresnes-sur-Marne","code_insee":"77196","departement":"Seine-et-Marne","region":"Île-de-France"}},{"type":"Feature","geometry":{"type":"Point","coordinates":[1.7646,48.98392]},"properties":{"latitude":"48.98392","longitude":"1.7646","bright_ti4":"315.44","scan":"0.38","track":"0.36","acq_date":"2026-06-18","acq_time":"202","satellite":"N20","instrument":"VIIRS","confidence":"n","version":"2.0NRT","bright_ti5":"290.68","frp":"2.34","daynight":"N","commune":"Porcheville","code_insee":"78501","departement":"Yvelines","region":"Île-de-France"}},{"type":"Feature","geometry":{"type":"Point","coordinates":[1.75943,48.98473]},"properties":{"latitude":"48.98473","longitude":"1.75943","bright_ti4":"328.28","scan":"0.38","track":"0.36","acq_date":"2026-06-18","acq_time":"202","satellite":"N20","instrument":"VIIRS","confidence":"n","version":"2.0NRT","bright_ti5":"291.3","frp":"2.34","daynight":"N","commune":"Porcheville","code_insee":"78501","departement":"Yvelines","region":"Île-de-France"}},{"type":"Feature","geometry":{"type":"Point","coordinates":[9.27765,42.48764]},"properties":{"latitude":"42.48764","longitude":"9.27765","bright_ti4":"334.39","scan":"0.46","track":"0.47","acq_date":"2026-06-18","acq_time":"1147","satellite":"N20","instrument":"VIIRS","confidence":"n","version":"2.0NRT","bright_ti5":"298.75","frp":"6.57","daynight":"D","commune":"Castello-di-Rostino","code_insee":"2B079","departement":"Haute-Corse","region":"Corse"}},{"type":"Feature","geometry":{"type":"Point","coordinates":[9.28258,42.4888]},"properties":{"latitude":"42.4888","longitude":"9.28258","bright_ti4":"354.47","scan":"0.46","track":"0.47","acq_date":"2026-06-18","acq_time":"1147","satellite":"N20","instrument":"VIIRS","confidence":"n","version":"2.0NRT","bright_ti5":"305.72","frp":"6.57","daynight":"D","commune":"Castello-di-Rostino","code_insee":"2B079","departement":"Haute-Corse","region":"Corse"}},{"type":"Feature","geometry":{"type":"Point","coordinates":[9.27225,42.49097]},"properties":{"latitude":"42.49097","longitude":"9.27225","bright_ti4":"339.57","scan":"0.46","track":"0.47","acq_date":"2026-06-18","acq_time":"1147","satellite":"N20","instrument":"VIIRS","confidence":"n","version":"2.0NRT","bright_ti5":"298.87","frp":"79.48","daynight":"D","commune":"Canavaggia","code_insee":"2B059","departement":"Haute-Corse","region":"Corse"}},{"type":"Feature","geometry":{"type":"Point","coordinates":[9.27675,42.49202]},"properties":{"latitude":"42.49202","longitude":"9.27675","bright_ti4":"367","scan":"0.46","track":"0.47","acq_date":"2026-06-18","acq_time":"1147","satellite":"N20","instrument":"VIIRS","confidence":"l","version":"2.0NRT","bright_ti5":"370.77","frp":"730.84","daynight":"D","commune":"Canavaggia","code_insee":"2B059","departement":"Haute-Corse","region":"Corse"}},{"type":"Feature","geometry":{"type":"Point","coordinates":[9.28663,42.49434]},"properties":{"latitude":"42.49434","longitude":"9.28663","bright_ti4":"338.13","scan":"0.46","track":"0.47","acq_date":"2026-06-18","acq_time":"1147","satellite":"N20","instrument":"VIIRS","confidence":"n","version":"2.0NRT","bright_ti5":"299.89","frp":"12.3","daynight":"D","commune":"Castello-di-Rostino","code_insee":"2B079","departement":"Haute-Corse","region":"Corse"}},{"type":"Feature","geometry":{"type":"Point","coordinates":[9.47118,42.49645]},"properties":{"latitude":"42.49645","longitude":"9.47118","bright_ti4":"336.65","scan":"0.45","track":"0.47","acq_date":"2026-06-18","acq_time":"1147","satellite":"N20","instrument":"VIIRS","confidence":"n","version":"2.0NRT","bright_ti5":"304.94","frp":"3.84","daynight":"D","commune":"Venzolasca","code_insee":"2B343","departement":"Haute-Corse","region":"Corse"}},{"type":"Feature","geometry":{"type":"Point","coordinates":[1.18298,43.2976]},"properties":{"latitude":"43.2976","longitude":"1.18298","bright_ti4":"335.12","scan":"0.53","track":"0.67","acq_date":"2026-06-18","acq_time":"1147","satellite":"N20","instrument":"VIIRS","confidence":"n","version":"2.0NRT","bright_ti5":"301.22","frp":"3.03","daynight":"D","commune":"Lafitte-Vigordane","code_insee":"31261","departement":"Haute-Garonne","region":"Occitanie"}},{"type":"Feature","geometry":{"type":"Point","coordinates":[1.18407,43.29809]},"properties":{"latitude":"43.29809","longitude":"1.18407","bright_ti4":"337.65","scan":"0.53","track":"0.67","acq_date":"2026-06-18","acq_time":"1147","satellite":"N20","instrument":"VIIRS","confidence":"n","version":"2.0NRT","bright_ti5":"301.21","frp":"5.9","daynight":"D","commune":"Lafitte-Vigordane","code_insee":"31261","departement":"Haute-Garonne","region":"Occitanie"}},{"type":"Feature","geometry":{"type":"Point","coordinates":[4.90098,43.44544]},"properties":{"latitude":"43.44544","longitude":"4.90098","bright_ti4":"367","scan":"0.35","track":"0.57","acq_date":"2026-06-18","acq_time":"1147","satellite":"N20","instrument":"VIIRS","confidence":"h","version":"2.0NRT","bright_ti5":"310.53","frp":"10.45","daynight":"D","commune":"Fos-sur-Mer","code_insee":"13039","departement":"Bouches-du-Rhône","region":"Provence-Alpes-Côte d'Azur"}},{"type":"Feature","geometry":{"type":"Point","coordinates":[4.91281,43.9678]},"properties":{"latitude":"43.9678","longitude":"4.91281","bright_ti4":"367","scan":"0.34","track":"0.56","acq_date":"2026-06-18","acq_time":"1147","satellite":"N20","instrument":"VIIRS","confidence":"h","version":"2.0NRT","bright_ti5":"303.93","frp":"4.17","daynight":"D","commune":"Vedène","code_insee":"84141","departement":"Vaucluse","region":"Provence-Alpes-Côte d'Azur"}},{"type":"Feature","geometry":{"type":"Point","coordinates":[1.76199,48.9848]},"properties":{"latitude":"48.9848","longitude":"1.76199","bright_ti4":"332.53","scan":"0.33","track":"0.55","acq_date":"2026-06-18","acq_time":"1147","satellite":"N20","instrument":"VIIRS","confidence":"n","version":"2.0NRT","bright_ti5":"300.21","frp":"1.76","daynight":"D","commune":"Porcheville","code_insee":"78501","departement":"Yvelines","region":"Île-de-France"}},{"type":"Feature","geometry":{"type":"Point","coordinates":[2.28476,51.03474]},"properties":{"latitude":"51.03474","longitude":"2.28476","bright_ti4":"337.76","scan":"0.55","track":"0.51","acq_date":"2026-06-18","acq_time":"1147","satellite":"N20","instrument":"VIIRS","confidence":"n","version":"2.0NRT","bright_ti5":"295.35","frp":"9.87","daynight":"D","commune":"Grande-Synthe","code_insee":"59271","departement":"Nord","region":"Hauts-de-France"}},{"type":"Feature","geometry":{"type":"Point","coordinates":[2.28328,51.03722]},"properties":{"latitude":"51.03722","longitude":"2.28328","bright_ti4":"336.56","scan":"0.55","track":"0.51","acq_date":"2026-06-18","acq_time":"1147","satellite":"N20","instrument":"VIIRS","confidence":"n","version":"2.0NRT","bright_ti5":"295.9","frp":"4.07","daynight":"D","commune":"Grande-Synthe","code_insee":"59271","departement":"Nord","region":"Hauts-de-France"}},{"type":"Feature","geometry":{"type":"Point","coordinates":[2.2963,51.04296]},"properties":{"latitude":"51.04296","longitude":"2.2963","bright_ti4":"342","scan":"0.55","track":"0.51","acq_date":"2026-06-18","acq_time":"1147","satellite":"N20","instrument":"VIIRS","confidence":"n","version":"2.0NRT","bright_ti5":"298.02","frp":"5.85","daynight":"D","commune":"Grande-Synthe","code_insee":"59271","departement":"Nord","region":"Hauts-de-France"}},{"type":"Feature","geometry":{"type":"Point","coordinates":[2.30355,51.0449]},"properties":{"latitude":"51.0449","longitude":"2.30355","bright_ti4":"330.74","scan":"0.55","track":"0.51","acq_date":"2026-06-18","acq_time":"1147","satellite":"N20","instrument":"VIIRS","confidence":"n","version":"2.0NRT","bright_ti5":"294.76","frp":"5.85","daynight":"D","commune":"Grande-Synthe","code_insee":"59271","departement":"Nord","region":"Hauts-de-France"}},{"type":"Feature","geometry":{"type":"Point","coordinates":[2.29478,51.04551]},"properties":{"latitude":"51.04551","longitude":"2.29478","bright_ti4":"339.77","scan":"0.55","track":"0.51","acq_date":"2026-06-18","acq_time":"1147","satellite":"N20","instrument":"VIIRS","confidence":"n","version":"2.0NRT","bright_ti5":"292.38","frp":"7.91","daynight":"D","commune":"Grande-Synthe","code_insee":"59271","departement":"Nord","region":"Hauts-de-France"}},{"type":"Feature","geometry":{"type":"Point","coordinates":[1.36739,46.18658]},"properties":{"latitude":"46.18658","longitude":"1.36739","bright_ti4":"337.8","scan":"0.42","track":"0.61","acq_date":"2026-06-18","acq_time":"1149","satellite":"N20","instrument":"VIIRS","confidence":"n","version":"2.0NRT","bright_ti5":"299.93","frp":"3.93","daynight":"D","commune":"Saint-Amand-Magnazeix","code_insee":"87133","departement":"Haute-Vienne","region":"Nouvelle-Aquitaine"}},{"type":"Feature","geometry":{"type":"Point","coordinates":[2.32371,46.22799]},"properties":{"latitude":"46.22799","longitude":"2.32371","bright_ti4":"336.67","scan":"0.38","track":"0.59","acq_date":"2026-06-18","acq_time":"1149","satellite":"N20","instrument":"VIIRS","confidence":"n","version":"2.0NRT","bright_ti5":"303.89","frp":"2.62","daynight":"D","commune":"Auge","code_insee":"23009","departement":"Creuse","region":"Nouvelle-Aquitaine"}},{"type":"Feature","geometry":{"type":"Point","coordinates":[1.21442,46.44507]},"properties":{"latitude":"46.44507","longitude":"1.21442","bright_ti4":"347.81","scan":"0.42","track":"0.61","acq_date":"2026-06-18","acq_time":"1149","satellite":"N20","instrument":"VIIRS","confidence":"n","version":"2.0NRT","bright_ti5":"304.85","frp":"25.74","daynight":"D","commune":"Lignac","code_insee":"36094","departement":"Indre","region":"Centre-Val de Loire"}},{"type":"Feature","geometry":{"type":"Point","coordinates":[1.21432,46.44663]},"properties":{"latitude":"46.44663","longitude":"1.21432","bright_ti4":"367","scan":"0.42","track":"0.61","acq_date":"2026-06-18","acq_time":"1149","satellite":"N20","instrument":"VIIRS","confidence":"h","version":"2.0NRT","bright_ti5":"307.3","frp":"16.91","daynight":"D","commune":"Lignac","code_insee":"36094","departement":"Indre","region":"Centre-Val de Loire"}},{"type":"Feature","geometry":{"type":"Point","coordinates":[1.2196,46.44666]},"properties":{"latitude":"46.44666","longitude":"1.2196","bright_ti4":"342.77","scan":"0.42","track":"0.61","acq_date":"2026-06-18","acq_time":"1149","satellite":"N20","instrument":"VIIRS","confidence":"n","version":"2.0NRT","bright_ti5":"302.53","frp":"25.74","daynight":"D","commune":"Lignac","code_insee":"36094","departement":"Indre","region":"Centre-Val de Loire"}},{"type":"Feature","geometry":{"type":"Point","coordinates":[1.21948,46.44818]},"properties":{"latitude":"46.44818","longitude":"1.21948","bright_ti4":"352.28","scan":"0.42","track":"0.61","acq_date":"2026-06-18","acq_time":"1149","satellite":"N20","instrument":"VIIRS","confidence":"n","version":"2.0NRT","bright_ti5":"301.82","frp":"9.82","daynight":"D","commune":"Lignac","code_insee":"36094","departement":"Indre","region":"Centre-Val de Loire"}},{"type":"Feature","geometry":{"type":"Point","coordinates":[1.20593,46.44869]},"properties":{"latitude":"46.44869","longitude":"1.20593","bright_ti4":"331.48","scan":"0.42","track":"0.61","acq_date":"2026-06-18","acq_time":"1149","satellite":"N20","instrument":"VIIRS","confidence":"n","version":"2.0NRT","bright_ti5":"302.79","frp":"25.78","daynight":"D","commune":"Lignac","code_insee":"36094","departement":"Indre","region":"Centre-Val de Loire"}},{"type":"Feature","geometry":{"type":"Point","coordinates":[1.21111,46.45027]},"properties":{"latitude":"46.45027","longitude":"1.21111","bright_ti4":"345.98","scan":"0.42","track":"0.61","acq_date":"2026-06-18","acq_time":"1149","satellite":"N20","instrument":"VIIRS","confidence":"n","version":"2.0NRT","bright_ti5":"314.71","frp":"25.74","daynight":"D","commune":"Lignac","code_insee":"36094","departement":"Indre","region":"Centre-Val de Loire"}},{"type":"Feature","geometry":{"type":"Point","coordinates":[1.21619,46.45182]},"properties":{"latitude":"46.45182","longitude":"1.21619","bright_ti4":"367","scan":"0.42","track":"0.61","acq_date":"2026-06-18","acq_time":"1149","satellite":"N20","instrument":"VIIRS","confidence":"h","version":"2.0NRT","bright_ti5":"301.73","frp":"25.74","daynight":"D","commune":"Lignac","code_insee":"36094","departement":"Indre","region":"Centre-Val de Loire"}},{"type":"Feature","geometry":{"type":"Point","coordinates":[9.26271,42.48852]},"properties":{"latitude":"42.48852","longitude":"9.26271","bright_ti4":"352.76","scan":"0.64","track":"0.72","acq_date":"2026-06-18","acq_time":"1325","satellite":"N20","instrument":"VIIRS","confidence":"n","version":"2.0NRT","bright_ti5":"297.67","frp":"33.8","daynight":"D","commune":"Canavaggia","code_insee":"2B059","departement":"Haute-Corse","region":"Corse"}},{"type":"Feature","geometry":{"type":"Point","coordinates":[9.27875,42.48867]},"properties":{"latitude":"42.48867","longitude":"9.27875","bright_ti4":"367","scan":"0.64","track":"0.72","acq_date":"2026-06-18","acq_time":"1325","satellite":"N20","instrument":"VIIRS","confidence":"h","version":"2.0NRT","bright_ti5":"297.04","frp":"16.21","daynight":"D","commune":"Castello-di-Rostino","code_insee":"2B079","departement":"Haute-Corse","region":"Corse"}},{"type":"Feature","geometry":{"type":"Point","coordinates":[9.27324,42.49534]},"properties":{"latitude":"42.49534","longitude":"9.27324","bright_ti4":"332.05","scan":"0.64","track":"0.72","acq_date":"2026-06-18","acq_time":"1325","satellite":"N20","instrument":"VIIRS","confidence":"n","version":"2.0NRT","bright_ti5":"292.18","frp":"16.21","daynight":"D","commune":"Canavaggia","code_insee":"2B059","departement":"Haute-Corse","region":"Corse"}},{"type":"Feature","geometry":{"type":"Point","coordinates":[2.83422,43.21373]},"properties":{"latitude":"43.21373","longitude":"2.83422","bright_ti4":"335","scan":"0.6","track":"0.53","acq_date":"2026-06-18","acq_time":"1325","satellite":"N20","instrument":"VIIRS","confidence":"n","version":"2.0NRT","bright_ti5":"308.58","frp":"6.78","daynight":"D","commune":"Canet","code_insee":"11067","departement":"Aude","region":"Occitanie"}},{"type":"Feature","geometry":{"type":"Point","coordinates":[2.84178,43.2142]},"properties":{"latitude":"43.2142","longitude":"2.84178","bright_ti4":"350.92","scan":"0.6","track":"0.53","acq_date":"2026-06-18","acq_time":"1325","satellite":"N20","instrument":"VIIRS","confidence":"n","version":"2.0NRT","bright_ti5":"310.71","frp":"6.78","daynight":"D","commune":"Canet","code_insee":"11067","departement":"Aude","region":"Occitanie"}},{"type":"Feature","geometry":{"type":"Point","coordinates":[4.89924,43.44507]},"properties":{"latitude":"43.44507","longitude":"4.89924","bright_ti4":"337.05","scan":"0.39","track":"0.59","acq_date":"2026-06-18","acq_time":"1325","satellite":"N20","instrument":"VIIRS","confidence":"n","version":"2.0NRT","bright_ti5":"309.01","frp":"4.42","daynight":"D","commune":"Fos-sur-Mer","code_insee":"13039","departement":"Bouches-du-Rhône","region":"Provence-Alpes-Côte d'Azur"}},{"type":"Feature","geometry":{"type":"Point","coordinates":[5.86648,43.68131]},"properties":{"latitude":"43.68131","longitude":"5.86648","bright_ti4":"337.73","scan":"0.44","track":"0.62","acq_date":"2026-06-18","acq_time":"1325","satellite":"N20","instrument":"VIIRS","confidence":"n","version":"2.0NRT","bright_ti5":"301.59","frp":"5.15","daynight":"D","commune":"Ginasservis","code_insee":"83066","departement":"Var","region":"Provence-Alpes-Côte d'Azur"}},{"type":"Feature","geometry":{"type":"Point","coordinates":[-1.31486,43.71355]},"properties":{"latitude":"43.71355","longitude":"-1.31486","bright_ti4":"341.25","scan":"0.38","track":"0.44","acq_date":"2026-06-18","acq_time":"1325","satellite":"N20","instrument":"VIIRS","confidence":"n","version":"2.0NRT","bright_ti5":"305.68","frp":"5.46","daynight":"D","commune":"Soustons","code_insee":"40310","departement":"Landes","region":"Nouvelle-Aquitaine"}},{"type":"Feature","geometry":{"type":"Point","coordinates":[2.84857,43.85855]},"properties":{"latitude":"43.85855","longitude":"2.84857","bright_ti4":"342.49","scan":"0.61","track":"0.54","acq_date":"2026-06-18","acq_time":"1325","satellite":"N20","instrument":"VIIRS","confidence":"n","version":"2.0NRT","bright_ti5":"312.17","frp":"6.07","daynight":"D","commune":"Montlaur","code_insee":"12154","departement":"Aveyron","region":"Occitanie"}},{"type":"Feature","geometry":{"type":"Point","coordinates":[-4.14651,47.86343]},"properties":{"latitude":"47.86343","longitude":"-4.14651","bright_ti4":"332.35","scan":"0.49","track":"0.41","acq_date":"2026-06-18","acq_time":"1327","satellite":"N20","instrument":"VIIRS","confidence":"n","version":"2.0NRT","bright_ti5":"296.79","frp":"5.52","daynight":"D","commune":"Combrit","code_insee":"29037","departement":"Finistère","region":"Bretagne"}},{"type":"Feature","geometry":{"type":"Point","coordinates":[2.27213,51.02555]},"properties":{"latitude":"51.02555","longitude":"2.27213","bright_ti4":"308.63","scan":"0.34","track":"0.56","acq_date":"2026-06-18","acq_time":"105","satellite":"N21","instrument":"VIIRS","confidence":"n","version":"2.0NRT","bright_ti5":"285.26","frp":"1.03","daynight":"N","commune":"Grande-Synthe","code_insee":"59271","departement":"Nord","region":"Hauts-de-France"}},{"type":"Feature","geometry":{"type":"Point","coordinates":[2.26728,51.02574]},"properties":{"latitude":"51.02574","longitude":"2.26728","bright_ti4":"304.36","scan":"0.34","track":"0.56","acq_date":"2026-06-18","acq_time":"105","satellite":"N21","instrument":"VIIRS","confidence":"n","version":"2.0NRT","bright_ti5":"285.57","frp":"1.03","daynight":"N","commune":"Grande-Synthe","code_insee":"59271","departement":"Nord","region":"Hauts-de-France"}},{"type":"Feature","geometry":{"type":"Point","coordinates":[2.28724,51.03013]},"properties":{"latitude":"51.03013","longitude":"2.28724","bright_ti4":"324.51","scan":"0.34","track":"0.56","acq_date":"2026-06-18","acq_time":"105","satellite":"N21","instrument":"VIIRS","confidence":"n","version":"2.0NRT","bright_ti5":"285.9","frp":"2.05","daynight":"N","commune":"Grande-Synthe","code_insee":"59271","departement":"Nord","region":"Hauts-de-France"}},{"type":"Feature","geometry":{"type":"Point","coordinates":[2.27262,51.0307]},"properties":{"latitude":"51.0307","longitude":"2.27262","bright_ti4":"296.62","scan":"0.34","track":"0.56","acq_date":"2026-06-18","acq_time":"105","satellite":"N21","instrument":"VIIRS","confidence":"n","version":"2.0NRT","bright_ti5":"284.88","frp":"1.03","daynight":"N","commune":"Grande-Synthe","code_insee":"59271","departement":"Nord","region":"Hauts-de-France"}},{"type":"Feature","geometry":{"type":"Point","coordinates":[2.25318,51.03146]},"properties":{"latitude":"51.03146","longitude":"2.25318","bright_ti4":"298.92","scan":"0.34","track":"0.56","acq_date":"2026-06-18","acq_time":"105","satellite":"N21","instrument":"VIIRS","confidence":"n","version":"2.0NRT","bright_ti5":"285.44","frp":"0.55","daynight":"N","commune":"Dunkerque","code_insee":"59183","departement":"Nord","region":"Hauts-de-France"}},{"type":"Feature","geometry":{"type":"Point","coordinates":[2.28772,51.03528]},"properties":{"latitude":"51.03528","longitude":"2.28772","bright_ti4":"333.27","scan":"0.34","track":"0.56","acq_date":"2026-06-18","acq_time":"105","satellite":"N21","instrument":"VIIRS","confidence":"n","version":"2.0NRT","bright_ti5":"287.43","frp":"4.03","daynight":"N","commune":"Grande-Synthe","code_insee":"59271","departement":"Nord","region":"Hauts-de-France"}},{"type":"Feature","geometry":{"type":"Point","coordinates":[2.28287,51.03547]},"properties":{"latitude":"51.03547","longitude":"2.28287","bright_ti4":"317.57","scan":"0.34","track":"0.56","acq_date":"2026-06-18","acq_time":"105","satellite":"N21","instrument":"VIIRS","confidence":"n","version":"2.0NRT","bright_ti5":"286.13","frp":"1.65","daynight":"N","commune":"Grande-Synthe","code_insee":"59271","departement":"Nord","region":"Hauts-de-France"}},{"type":"Feature","geometry":{"type":"Point","coordinates":[2.27799,51.03566]},"properties":{"latitude":"51.03566","longitude":"2.27799","bright_ti4":"296.28","scan":"0.34","track":"0.56","acq_date":"2026-06-18","acq_time":"105","satellite":"N21","instrument":"VIIRS","confidence":"n","version":"2.0NRT","bright_ti5":"284.86","frp":"1.65","daynight":"N","commune":"Grande-Synthe","code_insee":"59271","departement":"Nord","region":"Hauts-de-France"}},{"type":"Feature","geometry":{"type":"Point","coordinates":[2.29838,51.0452]},"properties":{"latitude":"51.0452","longitude":"2.29838","bright_ti4":"309.43","scan":"0.34","track":"0.56","acq_date":"2026-06-18","acq_time":"105","satellite":"N21","instrument":"VIIRS","confidence":"n","version":"2.0NRT","bright_ti5":"286.38","frp":"1.83","daynight":"N","commune":"Grande-Synthe","code_insee":"59271","departement":"Nord","region":"Hauts-de-France"}},{"type":"Feature","geometry":{"type":"Point","coordinates":[2.29351,51.04539]},"properties":{"latitude":"51.04539","longitude":"2.29351","bright_ti4":"297.08","scan":"0.34","track":"0.56","acq_date":"2026-06-18","acq_time":"105","satellite":"N21","instrument":"VIIRS","confidence":"n","version":"2.0NRT","bright_ti5":"285.32","frp":"1.4","daynight":"N","commune":"Grande-Synthe","code_insee":"59271","departement":"Nord","region":"Hauts-de-France"}},{"type":"Feature","geometry":{"type":"Point","coordinates":[2.32304,51.04937]},"properties":{"latitude":"51.04937","longitude":"2.32304","bright_ti4":"296.61","scan":"0.34","track":"0.56","acq_date":"2026-06-18","acq_time":"105","satellite":"N21","instrument":"VIIRS","confidence":"n","version":"2.0NRT","bright_ti5":"286.32","frp":"0.81","daynight":"N","commune":"Dunkerque","code_insee":"59183","departement":"Nord","region":"Hauts-de-France"}},{"type":"Feature","geometry":{"type":"Point","coordinates":[2.31821,51.04956]},"properties":{"latitude":"51.04956","longitude":"2.31821","bright_ti4":"301.69","scan":"0.34","track":"0.56","acq_date":"2026-06-18","acq_time":"105","satellite":"N21","instrument":"VIIRS","confidence":"n","version":"2.0NRT","bright_ti5":"287.56","frp":"0.81","daynight":"N","commune":"Dunkerque","code_insee":"59183","departement":"Nord","region":"Hauts-de-France"}},{"type":"Feature","geometry":{"type":"Point","coordinates":[4.89301,43.42904]},"properties":{"latitude":"43.42904","longitude":"4.89301","bright_ti4":"306.66","scan":"0.43","track":"0.46","acq_date":"2026-06-18","acq_time":"107","satellite":"N21","instrument":"VIIRS","confidence":"n","version":"2.0NRT","bright_ti5":"292.03","frp":"1.13","daynight":"N","commune":"Fos-sur-Mer","code_insee":"13039","departement":"Bouches-du-Rhône","region":"Provence-Alpes-Côte d'Azur"}},{"type":"Feature","geometry":{"type":"Point","coordinates":[4.8937,43.43324]},"properties":{"latitude":"43.43324","longitude":"4.8937","bright_ti4":"301.96","scan":"0.43","track":"0.46","acq_date":"2026-06-18","acq_time":"107","satellite":"N21","instrument":"VIIRS","confidence":"n","version":"2.0NRT","bright_ti5":"290.93","frp":"1.13","daynight":"N","commune":"Fos-sur-Mer","code_insee":"13039","departement":"Bouches-du-Rhône","region":"Provence-Alpes-Côte d'Azur"}},{"type":"Feature","geometry":{"type":"Point","coordinates":[4.90038,43.4412]},"properties":{"latitude":"43.4412","longitude":"4.90038","bright_ti4":"309.03","scan":"0.43","track":"0.46","acq_date":"2026-06-18","acq_time":"107","satellite":"N21","instrument":"VIIRS","confidence":"n","version":"2.0NRT","bright_ti5":"289.62","frp":"1.87","daynight":"N","commune":"Fos-sur-Mer","code_insee":"13039","departement":"Bouches-du-Rhône","region":"Provence-Alpes-Côte d'Azur"}},{"type":"Feature","geometry":{"type":"Point","coordinates":[4.90106,43.4454]},"properties":{"latitude":"43.4454","longitude":"4.90106","bright_ti4":"305.67","scan":"0.43","track":"0.46","acq_date":"2026-06-18","acq_time":"107","satellite":"N21","instrument":"VIIRS","confidence":"n","version":"2.0NRT","bright_ti5":"291.01","frp":"1.52","daynight":"N","commune":"Fos-sur-Mer","code_insee":"13039","departement":"Bouches-du-Rhône","region":"Provence-Alpes-Côte d'Azur"}},{"type":"Feature","geometry":{"type":"Point","coordinates":[4.89574,43.44587]},"properties":{"latitude":"43.44587","longitude":"4.89574","bright_ti4":"311.8","scan":"0.43","track":"0.46","acq_date":"2026-06-18","acq_time":"107","satellite":"N21","instrument":"VIIRS","confidence":"n","version":"2.0NRT","bright_ti5":"292.43","frp":"1.52","daynight":"N","commune":"Fos-sur-Mer","code_insee":"13039","departement":"Bouches-du-Rhône","region":"Provence-Alpes-Côte d'Azur"}},{"type":"Feature","geometry":{"type":"Point","coordinates":[7.37536,43.7946]},"properties":{"latitude":"43.7946","longitude":"7.37536","bright_ti4":"304.93","scan":"0.51","track":"0.41","acq_date":"2026-06-18","acq_time":"107","satellite":"N21","instrument":"VIIRS","confidence":"n","version":"2.0NRT","bright_ti5":"290.57","frp":"1","daynight":"N","commune":"Blausasc","code_insee":"06019","departement":"Alpes-Maritimes","region":"Provence-Alpes-Côte d'Azur"}},{"type":"Feature","geometry":{"type":"Point","coordinates":[7.37616,43.79488]},"properties":{"latitude":"43.79488","longitude":"7.37616","bright_ti4":"306.91","scan":"0.51","track":"0.41","acq_date":"2026-06-18","acq_time":"107","satellite":"N21","instrument":"VIIRS","confidence":"n","version":"2.0NRT","bright_ti5":"290.41","frp":"1.38","daynight":"N","commune":"Blausasc","code_insee":"06019","departement":"Alpes-Maritimes","region":"Provence-Alpes-Côte d'Azur"}},{"type":"Feature","geometry":{"type":"Point","coordinates":[5.66511,45.23055]},"properties":{"latitude":"45.23055","longitude":"5.66511","bright_ti4":"301.84","scan":"0.42","track":"0.45","acq_date":"2026-06-18","acq_time":"107","satellite":"N21","instrument":"VIIRS","confidence":"n","version":"2.0NRT","bright_ti5":"290.88","frp":"1.18","daynight":"N","commune":"Saint-Égrève","code_insee":"38382","departement":"Isère","region":"Auvergne-Rhône-Alpes"}},{"type":"Feature","geometry":{"type":"Point","coordinates":[5.81932,45.91137]},"properties":{"latitude":"45.91137","longitude":"5.81932","bright_ti4":"303.04","scan":"0.42","track":"0.45","acq_date":"2026-06-18","acq_time":"107","satellite":"N21","instrument":"VIIRS","confidence":"n","version":"2.0NRT","bright_ti5":"291.4","frp":"0.69","daynight":"N","commune":"Anglefort","code_insee":"01010","departement":"Ain","region":"Auvergne-Rhône-Alpes"}},{"type":"Feature","geometry":{"type":"Point","coordinates":[7.23378,47.63012]},"properties":{"latitude":"47.63012","longitude":"7.23378","bright_ti4":"298.26","scan":"0.57","track":"0.43","acq_date":"2026-06-18","acq_time":"107","satellite":"N21","instrument":"VIIRS","confidence":"n","version":"2.0NRT","bright_ti5":"287.65","frp":"0.79","daynight":"N","commune":"Altkirch","code_insee":"68004","departement":"Haut-Rhin","region":"Grand Est"}},{"type":"Feature","geometry":{"type":"Point","coordinates":[7.52826,47.80887]},"properties":{"latitude":"47.80887","longitude":"7.52826","bright_ti4":"301.74","scan":"0.56","track":"0.43","acq_date":"2026-06-18","acq_time":"107","satellite":"N21","instrument":"VIIRS","confidence":"n","version":"2.0NRT","bright_ti5":"289.88","frp":"0.84","daynight":"N","commune":"Bantzenheim","code_insee":"68020","departement":"Haut-Rhin","region":"Grand Est"}},{"type":"Feature","geometry":{"type":"Point","coordinates":[6.11248,48.61]},"properties":{"latitude":"48.61","longitude":"6.11248","bright_ti4":"316.88","scan":"0.43","track":"0.46","acq_date":"2026-06-18","acq_time":"107","satellite":"N21","instrument":"VIIRS","confidence":"n","version":"2.0NRT","bright_ti5":"290.36","frp":"2","daynight":"N","commune":"Neuves-Maisons","code_insee":"54397","departement":"Meurthe-et-Moselle","region":"Grand Est"}},{"type":"Feature","geometry":{"type":"Point","coordinates":[6.96688,48.68913]},"properties":{"latitude":"48.68913","longitude":"6.96688","bright_ti4":"298.96","scan":"0.4","track":"0.44","acq_date":"2026-06-18","acq_time":"107","satellite":"N21","instrument":"VIIRS","confidence":"n","version":"2.0NRT","bright_ti5":"288.24","frp":"0.63","daynight":"N","commune":"Héming","code_insee":"57314","departement":"Moselle","region":"Grand Est"}},{"type":"Feature","geometry":{"type":"Point","coordinates":[5.68087,48.71622]},"properties":{"latitude":"48.71622","longitude":"5.68087","bright_ti4":"299.83","scan":"0.45","track":"0.47","acq_date":"2026-06-18","acq_time":"107","satellite":"N21","instrument":"VIIRS","confidence":"n","version":"2.0NRT","bright_ti5":"287.45","frp":"0.66","daynight":"N","commune":"Sorcy-Saint-Martin","code_insee":"55496","departement":"Meuse","region":"Grand Est"}},{"type":"Feature","geometry":{"type":"Point","coordinates":[1.75877,48.98286]},"properties":{"latitude":"48.98286","longitude":"1.75877","bright_ti4":"305.7","scan":"0.35","track":"0.56","acq_date":"2026-06-18","acq_time":"107","satellite":"N21","instrument":"VIIRS","confidence":"n","version":"2.0NRT","bright_ti5":"289.44","frp":"1.6","daynight":"N","commune":"Porcheville","code_insee":"78501","departement":"Yvelines","region":"Île-de-France"}},{"type":"Feature","geometry":{"type":"Point","coordinates":[0.53525,49.47604]},"properties":{"latitude":"49.47604","longitude":"0.53525","bright_ti4":"300.96","scan":"0.4","track":"0.6","acq_date":"2026-06-18","acq_time":"107","satellite":"N21","instrument":"VIIRS","confidence":"n","version":"2.0NRT","bright_ti5":"286.87","frp":"1.68","daynight":"N","commune":"Lillebonne","code_insee":"76384","departement":"Seine-Maritime","region":"Normandie"}},{"type":"Feature","geometry":{"type":"Point","coordinates":[0.53382,49.4761]},"properties":{"latitude":"49.4761","longitude":"0.53382","bright_ti4":"303.53","scan":"0.4","track":"0.6","acq_date":"2026-06-18","acq_time":"107","satellite":"N21","instrument":"VIIRS","confidence":"n","version":"2.0NRT","bright_ti5":"287.2","frp":"1.13","daynight":"N","commune":"Lillebonne","code_insee":"76384","departement":"Seine-Maritime","region":"Normandie"}},{"type":"Feature","geometry":{"type":"Point","coordinates":[3.49474,50.33783]},"properties":{"latitude":"50.33783","longitude":"3.49474","bright_ti4":"305.31","scan":"0.32","track":"0.55","acq_date":"2026-06-18","acq_time":"245","satellite":"N21","instrument":"VIIRS","confidence":"n","version":"2.0NRT","bright_ti5":"288.38","frp":"0.85","daynight":"N","commune":"Trith-Saint-Léger","code_insee":"59603","departement":"Nord","region":"Hauts-de-France"}},{"type":"Feature","geometry":{"type":"Point","coordinates":[3.56456,50.40068]},"properties":{"latitude":"50.40068","longitude":"3.56456","bright_ti4":"312.39","scan":"0.32","track":"0.55","acq_date":"2026-06-18","acq_time":"245","satellite":"N21","instrument":"VIIRS","confidence":"n","version":"2.0NRT","bright_ti5":"287.37","frp":"1.71","daynight":"N","commune":"Saint-Saulve","code_insee":"59544","departement":"Nord","region":"Hauts-de-France"}},{"type":"Feature","geometry":{"type":"Point","coordinates":[3.56372,50.40185]},"properties":{"latitude":"50.40185","longitude":"3.56372","bright_ti4":"328.58","scan":"0.32","track":"0.55","acq_date":"2026-06-18","acq_time":"245","satellite":"N21","instrument":"VIIRS","confidence":"n","version":"2.0NRT","bright_ti5":"287.22","frp":"3.53","daynight":"N","commune":"Saint-Saulve","code_insee":"59544","departement":"Nord","region":"Hauts-de-France"}},{"type":"Feature","geometry":{"type":"Point","coordinates":[3.5604,50.40186]},"properties":{"latitude":"50.40186","longitude":"3.5604","bright_ti4":"316.73","scan":"0.32","track":"0.55","acq_date":"2026-06-18","acq_time":"245","satellite":"N21","instrument":"VIIRS","confidence":"n","version":"2.0NRT","bright_ti5":"287.3","frp":"1.71","daynight":"N","commune":"Saint-Saulve","code_insee":"59544","departement":"Nord","region":"Hauts-de-France"}},{"type":"Feature","geometry":{"type":"Point","coordinates":[4.8985,43.43162]},"properties":{"latitude":"43.43162","longitude":"4.8985","bright_ti4":"299.89","scan":"0.61","track":"0.71","acq_date":"2026-06-18","acq_time":"247","satellite":"N21","instrument":"VIIRS","confidence":"n","version":"2.0NRT","bright_ti5":"288.8","frp":"1.86","daynight":"N","commune":"Fos-sur-Mer","code_insee":"13039","departement":"Bouches-du-Rhône","region":"Provence-Alpes-Côte d'Azur"}},{"type":"Feature","geometry":{"type":"Point","coordinates":[4.89367,43.43219]},"properties":{"latitude":"43.43219","longitude":"4.89367","bright_ti4":"305.49","scan":"0.61","track":"0.71","acq_date":"2026-06-18","acq_time":"247","satellite":"N21","instrument":"VIIRS","confidence":"n","version":"2.0NRT","bright_ti5":"289.08","frp":"2.89","daynight":"N","commune":"Fos-sur-Mer","code_insee":"13039","departement":"Bouches-du-Rhône","region":"Provence-Alpes-Côte d'Azur"}},{"type":"Feature","geometry":{"type":"Point","coordinates":[4.89156,43.43394]},"properties":{"latitude":"43.43394","longitude":"4.89156","bright_ti4":"299.63","scan":"0.61","track":"0.71","acq_date":"2026-06-18","acq_time":"247","satellite":"N21","instrument":"VIIRS","confidence":"n","version":"2.0NRT","bright_ti5":"289.2","frp":"2.14","daynight":"N","commune":"Fos-sur-Mer","code_insee":"13039","departement":"Bouches-du-Rhône","region":"Provence-Alpes-Côte d'Azur"}},{"type":"Feature","geometry":{"type":"Point","coordinates":[4.89531,43.4399]},"properties":{"latitude":"43.4399","longitude":"4.89531","bright_ti4":"300.37","scan":"0.61","track":"0.71","acq_date":"2026-06-18","acq_time":"247","satellite":"N21","instrument":"VIIRS","confidence":"n","version":"2.0NRT","bright_ti5":"288.64","frp":"2.14","daynight":"N","commune":"Fos-sur-Mer","code_insee":"13039","departement":"Bouches-du-Rhône","region":"Provence-Alpes-Côte d'Azur"}},{"type":"Feature","geometry":{"type":"Point","coordinates":[4.90131,43.44407]},"properties":{"latitude":"43.44407","longitude":"4.90131","bright_ti4":"300.92","scan":"0.61","track":"0.71","acq_date":"2026-06-18","acq_time":"247","satellite":"N21","instrument":"VIIRS","confidence":"n","version":"2.0NRT","bright_ti5":"288.49","frp":"1.15","daynight":"N","commune":"Fos-sur-Mer","code_insee":"13039","departement":"Bouches-du-Rhône","region":"Provence-Alpes-Côte d'Azur"}},{"type":"Feature","geometry":{"type":"Point","coordinates":[4.89914,43.44584]},"properties":{"latitude":"43.44584","longitude":"4.89914","bright_ti4":"302.61","scan":"0.61","track":"0.71","acq_date":"2026-06-18","acq_time":"247","satellite":"N21","instrument":"VIIRS","confidence":"n","version":"2.0NRT","bright_ti5":"288.82","frp":"2.13","daynight":"N","commune":"Fos-sur-Mer","code_insee":"13039","departement":"Bouches-du-Rhône","region":"Provence-Alpes-Côte d'Azur"}},{"type":"Feature","geometry":{"type":"Point","coordinates":[4.89437,43.44635]},"properties":{"latitude":"43.44635","longitude":"4.89437","bright_ti4":"302.36","scan":"0.61","track":"0.71","acq_date":"2026-06-18","acq_time":"247","satellite":"N21","instrument":"VIIRS","confidence":"n","version":"2.0NRT","bright_ti5":"288.64","frp":"1.86","daynight":"N","commune":"Fos-sur-Mer","code_insee":"13039","departement":"Bouches-du-Rhône","region":"Provence-Alpes-Côte d'Azur"}},{"type":"Feature","geometry":{"type":"Point","coordinates":[5.6669,45.22742]},"properties":{"latitude":"45.22742","longitude":"5.6669","bright_ti4":"299.72","scan":"0.58","track":"0.7","acq_date":"2026-06-18","acq_time":"247","satellite":"N21","instrument":"VIIRS","confidence":"n","version":"2.0NRT","bright_ti5":"287.97","frp":"0.71","daynight":"N","commune":"Saint-Égrève","code_insee":"38382","departement":"Isère","region":"Auvergne-Rhône-Alpes"}},{"type":"Feature","geometry":{"type":"Point","coordinates":[7.52569,47.80963]},"properties":{"latitude":"47.80963","longitude":"7.52569","bright_ti4":"300.42","scan":"0.57","track":"0.69","acq_date":"2026-06-18","acq_time":"247","satellite":"N21","instrument":"VIIRS","confidence":"n","version":"2.0NRT","bright_ti5":"287.65","frp":"1.59","daynight":"N","commune":"Bantzenheim","code_insee":"68020","departement":"Haut-Rhin","region":"Grand Est"}},{"type":"Feature","geometry":{"type":"Point","coordinates":[4.56131,48.76741]},"properties":{"latitude":"48.76741","longitude":"4.56131","bright_ti4":"298.96","scan":"0.4","track":"0.6","acq_date":"2026-06-18","acq_time":"247","satellite":"N21","instrument":"VIIRS","confidence":"n","version":"2.0NRT","bright_ti5":"287.38","frp":"1.13","daynight":"N","commune":"Couvrot","code_insee":"51195","departement":"Marne","region":"Grand Est"}},{"type":"Feature","geometry":{"type":"Point","coordinates":[1.75978,48.98397]},"properties":{"latitude":"48.98397","longitude":"1.75978","bright_ti4":"321.54","scan":"0.6","track":"0.53","acq_date":"2026-06-18","acq_time":"247","satellite":"N21","instrument":"VIIRS","confidence":"n","version":"2.0NRT","bright_ti5":"289.08","frp":"4.85","daynight":"N","commune":"Porcheville","code_insee":"78501","departement":"Yvelines","region":"Île-de-France"}},{"type":"Feature","geometry":{"type":"Point","coordinates":[9.26787,42.48954]},"properties":{"latitude":"42.48954","longitude":"9.26787","bright_ti4":"330.29","scan":"0.45","track":"0.39","acq_date":"2026-06-18","acq_time":"1232","satellite":"N21","instrument":"VIIRS","confidence":"n","version":"2.0NRT","bright_ti5":"300.73","frp":"1.91","daynight":"D","commune":"Canavaggia","code_insee":"2B059","departement":"Haute-Corse","region":"Corse"}},{"type":"Feature","geometry":{"type":"Point","coordinates":[9.28007,42.49097]},"properties":{"latitude":"42.49097","longitude":"9.28007","bright_ti4":"367","scan":"0.45","track":"0.39","acq_date":"2026-06-18","acq_time":"1232","satellite":"N21","instrument":"VIIRS","confidence":"h","version":"2.0NRT","bright_ti5":"350.64","frp":"429.13","daynight":"D","commune":"Castello-di-Rostino","code_insee":"2B079","departement":"Haute-Corse","region":"Corse"}},{"type":"Feature","geometry":{"type":"Point","coordinates":[9.28573,42.49163]},"properties":{"latitude":"42.49163","longitude":"9.28573","bright_ti4":"335.65","scan":"0.45","track":"0.39","acq_date":"2026-06-18","acq_time":"1232","satellite":"N21","instrument":"VIIRS","confidence":"n","version":"2.0NRT","bright_ti5":"306.56","frp":"12.06","daynight":"D","commune":"Castello-di-Rostino","code_insee":"2B079","departement":"Haute-Corse","region":"Corse"}},{"type":"Feature","geometry":{"type":"Point","coordinates":[9.27279,42.49376]},"properties":{"latitude":"42.49376","longitude":"9.27279","bright_ti4":"367","scan":"0.45","track":"0.39","acq_date":"2026-06-18","acq_time":"1232","satellite":"N21","instrument":"VIIRS","confidence":"h","version":"2.0NRT","bright_ti5":"339.09","frp":"109.25","daynight":"D","commune":"Canavaggia","code_insee":"2B059","departement":"Haute-Corse","region":"Corse"}},{"type":"Feature","geometry":{"type":"Point","coordinates":[9.27887,42.49447]},"properties":{"latitude":"42.49447","longitude":"9.27887","bright_ti4":"342.48","scan":"0.45","track":"0.39","acq_date":"2026-06-18","acq_time":"1232","satellite":"N21","instrument":"VIIRS","confidence":"n","version":"2.0NRT","bright_ti5":"308.77","frp":"109.25","daynight":"D","commune":"Canavaggia","code_insee":"2B059","departement":"Haute-Corse","region":"Corse"}},{"type":"Feature","geometry":{"type":"Point","coordinates":[4.89819,43.44645]},"properties":{"latitude":"43.44645","longitude":"4.89819","bright_ti4":"351.27","scan":"0.38","track":"0.36","acq_date":"2026-06-18","acq_time":"1232","satellite":"N21","instrument":"VIIRS","confidence":"n","version":"2.0NRT","bright_ti5":"318.42","frp":"16.15","daynight":"D","commune":"Fos-sur-Mer","code_insee":"13039","departement":"Bouches-du-Rhône","region":"Provence-Alpes-Côte d'Azur"}},{"type":"Feature","geometry":{"type":"Point","coordinates":[1.21118,46.44904]},"properties":{"latitude":"46.44904","longitude":"1.21118","bright_ti4":"345.95","scan":"0.41","track":"0.37","acq_date":"2026-06-18","acq_time":"1234","satellite":"N21","instrument":"VIIRS","confidence":"n","version":"2.0NRT","bright_ti5":"314.94","frp":"4.6","daynight":"D","commune":"Lignac","code_insee":"36094","departement":"Indre","region":"Centre-Val de Loire"}},{"type":"Feature","geometry":{"type":"Point","coordinates":[1.20995,46.45236]},"properties":{"latitude":"46.45236","longitude":"1.20995","bright_ti4":"339.07","scan":"0.41","track":"0.37","acq_date":"2026-06-18","acq_time":"1234","satellite":"N21","instrument":"VIIRS","confidence":"l","version":"2.0NRT","bright_ti5":"312.4","frp":"4.6","daynight":"D","commune":"Lignac","code_insee":"36094","departement":"Indre","region":"Centre-Val de Loire"}},{"type":"Feature","geometry":{"type":"Point","coordinates":[3.33419,48.23794]},"properties":{"latitude":"48.23794","longitude":"3.33419","bright_ti4":"346.2","scan":"0.38","track":"0.36","acq_date":"2026-06-18","acq_time":"1234","satellite":"N21","instrument":"VIIRS","confidence":"n","version":"2.0NRT","bright_ti5":"306.71","frp":"2.73","daynight":"D","commune":"Soucy","code_insee":"89399","departement":"Yonne","region":"Bourgogne-Franche-Comté"}},{"type":"Feature","geometry":{"type":"Point","coordinates":[2.98336,48.38671]},"properties":{"latitude":"48.38671","longitude":"2.98336","bright_ti4":"343.13","scan":"0.38","track":"0.36","acq_date":"2026-06-18","acq_time":"1234","satellite":"N21","instrument":"VIIRS","confidence":"n","version":"2.0NRT","bright_ti5":"313.38","frp":"6.92","daynight":"D","commune":"Montereau-Fault-Yonne","code_insee":"77305","departement":"Seine-et-Marne","region":"Île-de-France"}},{"type":"Feature","geometry":{"type":"Point","coordinates":[3.82199,48.39633]},"properties":{"latitude":"48.39633","longitude":"3.82199","bright_ti4":"336.4","scan":"0.39","track":"0.36","acq_date":"2026-06-18","acq_time":"1234","satellite":"N21","instrument":"VIIRS","confidence":"n","version":"2.0NRT","bright_ti5":"306.17","frp":"6.25","daynight":"D","commune":"Échemines","code_insee":"10134","departement":"Aube","region":"Grand Est"}},{"type":"Feature","geometry":{"type":"Point","coordinates":[3.82713,48.39708]},"properties":{"latitude":"48.39708","longitude":"3.82713","bright_ti4":"335.6","scan":"0.39","track":"0.36","acq_date":"2026-06-18","acq_time":"1234","satellite":"N21","instrument":"VIIRS","confidence":"n","version":"2.0NRT","bright_ti5":"308.39","frp":"6.25","daynight":"D","commune":"Échemines","code_insee":"10134","departement":"Aube","region":"Grand Est"}},{"type":"Feature","geometry":{"type":"Point","coordinates":[1.76162,48.98365]},"properties":{"latitude":"48.98365","longitude":"1.76162","bright_ti4":"348.14","scan":"0.39","track":"0.36","acq_date":"2026-06-18","acq_time":"1234","satellite":"N21","instrument":"VIIRS","confidence":"n","version":"2.0NRT","bright_ti5":"309.61","frp":"5.77","daynight":"D","commune":"Porcheville","code_insee":"78501","departement":"Yvelines","region":"Île-de-France"}},{"type":"Feature","geometry":{"type":"Point","coordinates":[2.88762,49.48738]},"properties":{"latitude":"49.48738","longitude":"2.88762","bright_ti4":"336.5","scan":"0.38","track":"0.36","acq_date":"2026-06-18","acq_time":"1234","satellite":"N21","instrument":"VIIRS","confidence":"l","version":"2.0NRT","bright_ti5":"308.77","frp":"4.46","daynight":"D","commune":"Thourotte","code_insee":"60636","departement":"Oise","region":"Hauts-de-France"}},{"type":"Feature","geometry":{"type":"Point","coordinates":[3.12736,50.06141]},"properties":{"latitude":"50.06141","longitude":"3.12736","bright_ti4":"332.26","scan":"0.39","track":"0.36","acq_date":"2026-06-18","acq_time":"1234","satellite":"N21","instrument":"VIIRS","confidence":"n","version":"2.0NRT","bright_ti5":"301.54","frp":"2.7","daynight":"D","commune":"Gouzeaucourt","code_insee":"59269","departement":"Nord","region":"Hauts-de-France"}},{"type":"Feature","geometry":{"type":"Point","coordinates":[2.29923,51.04649]},"properties":{"latitude":"51.04649","longitude":"2.29923","bright_ti4":"331.54","scan":"0.38","track":"0.36","acq_date":"2026-06-18","acq_time":"1234","satellite":"N21","instrument":"VIIRS","confidence":"n","version":"2.0NRT","bright_ti5":"293.38","frp":"4.01","daynight":"D","commune":"Grande-Synthe","code_insee":"59271","departement":"Nord","region":"Hauts-de-France"}}]}