{"type":"FeatureCollection","features":[{"type":"Feature","geometry":{"type":"Point","coordinates":[4.31393,49.72457]},"properties":{"latitude":"49.72457","longitude":"4.31393","bright_ti4":"315.27","scan":"0.62","track":"0.54","acq_date":"2026-08-16","acq_time":"100","satellite":"N21","instrument":"VIIRS","confidence":"n","version":"2.0NRT","bright_ti5":"288.14","frp":"2.2","daynight":"N","commune":"Saint-Jean-aux-Bois","code_insee":"08382","departement":"Ardennes","region":"Grand Est"}},{"type":"Feature","geometry":{"type":"Point","coordinates":[4.74344,49.90931]},"properties":{"latitude":"49.90931","longitude":"4.74344","bright_ti4":"312.73","scan":"0.59","track":"0.53","acq_date":"2026-08-16","acq_time":"100","satellite":"N21","instrument":"VIIRS","confidence":"n","version":"2.0NRT","bright_ti5":"291.09","frp":"3.06","daynight":"N","commune":"Monthermé","code_insee":"08302","departement":"Ardennes","region":"Grand Est"}},{"type":"Feature","geometry":{"type":"Point","coordinates":[4.74445,49.91415]},"properties":{"latitude":"49.91415","longitude":"4.74445","bright_ti4":"304.45","scan":"0.59","track":"0.53","acq_date":"2026-08-16","acq_time":"100","satellite":"N21","instrument":"VIIRS","confidence":"n","version":"2.0NRT","bright_ti5":"289.61","frp":"3.06","daynight":"N","commune":"Monthermé","code_insee":"08302","departement":"Ardennes","region":"Grand Est"}},{"type":"Feature","geometry":{"type":"Point","coordinates":[4.89831,43.43232]},"properties":{"latitude":"43.43232","longitude":"4.89831","bright_ti4":"306.03","scan":"0.5","track":"0.49","acq_date":"2026-08-16","acq_time":"102","satellite":"N21","instrument":"VIIRS","confidence":"n","version":"2.0NRT","bright_ti5":"293.57","frp":"3.24","daynight":"N","commune":"Fos-sur-Mer","code_insee":"13039","departement":"Bouches-du-Rhône","region":"Provence-Alpes-Côte d'Azur"}},{"type":"Feature","geometry":{"type":"Point","coordinates":[4.88584,43.43324]},"properties":{"latitude":"43.43324","longitude":"4.88584","bright_ti4":"307.81","scan":"0.5","track":"0.49","acq_date":"2026-08-16","acq_time":"102","satellite":"N21","instrument":"VIIRS","confidence":"n","version":"2.0NRT","bright_ti5":"294.18","frp":"3.35","daynight":"N","commune":"Fos-sur-Mer","code_insee":"13039","departement":"Bouches-du-Rhône","region":"Provence-Alpes-Côte d'Azur"}},{"type":"Feature","geometry":{"type":"Point","coordinates":[4.88082,43.44276]},"properties":{"latitude":"43.44276","longitude":"4.88082","bright_ti4":"338.34","scan":"0.5","track":"0.49","acq_date":"2026-08-16","acq_time":"102","satellite":"N21","instrument":"VIIRS","confidence":"n","version":"2.0NRT","bright_ti5":"294.29","frp":"12.43","daynight":"N","commune":"Fos-sur-Mer","code_insee":"13039","departement":"Bouches-du-Rhône","region":"Provence-Alpes-Côte d'Azur"}},{"type":"Feature","geometry":{"type":"Point","coordinates":[6.11163,48.61084]},"properties":{"latitude":"48.61084","longitude":"6.11163","bright_ti4":"318.58","scan":"0.5","track":"0.49","acq_date":"2026-08-16","acq_time":"102","satellite":"N21","instrument":"VIIRS","confidence":"n","version":"2.0NRT","bright_ti5":"281.54","frp":"3.31","daynight":"N","commune":"Neuves-Maisons","code_insee":"54397","departement":"Meurthe-et-Moselle","region":"Grand Est"}}]}