{"type":"FeatureCollection","features":[{"type":"Feature","geometry":{"type":"Point","coordinates":[2.26697,51.02651]},"properties":{"latitude":"51.02651","longitude":"2.26697","bright_ti4":"306.12","scan":"0.62","track":"0.72","acq_date":"2026-08-25","acq_time":"45","satellite":"N20","instrument":"VIIRS","confidence":"n","version":"2.0NRT","bright_ti5":"284.9","frp":"1.5","daynight":"N","commune":"Grande-Synthe","code_insee":"59271","departement":"Nord","region":"Hauts-de-France"}},{"type":"Feature","geometry":{"type":"Point","coordinates":[2.2653,51.02977]},"properties":{"latitude":"51.02977","longitude":"2.2653","bright_ti4":"305.11","scan":"0.62","track":"0.72","acq_date":"2026-08-25","acq_time":"45","satellite":"N20","instrument":"VIIRS","confidence":"n","version":"2.0NRT","bright_ti5":"285.2","frp":"1.4","daynight":"N","commune":"Grande-Synthe","code_insee":"59271","departement":"Nord","region":"Hauts-de-France"}},{"type":"Feature","geometry":{"type":"Point","coordinates":[2.27444,51.02991]},"properties":{"latitude":"51.02991","longitude":"2.27444","bright_ti4":"311.85","scan":"0.62","track":"0.72","acq_date":"2026-08-25","acq_time":"45","satellite":"N20","instrument":"VIIRS","confidence":"n","version":"2.0NRT","bright_ti5":"285.07","frp":"1.4","daynight":"N","commune":"Grande-Synthe","code_insee":"59271","departement":"Nord","region":"Hauts-de-France"}},{"type":"Feature","geometry":{"type":"Point","coordinates":[2.27595,51.03328]},"properties":{"latitude":"51.03328","longitude":"2.27595","bright_ti4":"313.79","scan":"0.62","track":"0.72","acq_date":"2026-08-25","acq_time":"45","satellite":"N20","instrument":"VIIRS","confidence":"n","version":"2.0NRT","bright_ti5":"286","frp":"3.19","daynight":"N","commune":"Grande-Synthe","code_insee":"59271","departement":"Nord","region":"Hauts-de-France"}},{"type":"Feature","geometry":{"type":"Point","coordinates":[2.28513,51.03337]},"properties":{"latitude":"51.03337","longitude":"2.28513","bright_ti4":"299.81","scan":"0.62","track":"0.72","acq_date":"2026-08-25","acq_time":"45","satellite":"N20","instrument":"VIIRS","confidence":"n","version":"2.0NRT","bright_ti5":"285.64","frp":"2.2","daynight":"N","commune":"Grande-Synthe","code_insee":"59271","departement":"Nord","region":"Hauts-de-France"}},{"type":"Feature","geometry":{"type":"Point","coordinates":[2.28348,51.03671]},"properties":{"latitude":"51.03671","longitude":"2.28348","bright_ti4":"301.2","scan":"0.62","track":"0.72","acq_date":"2026-08-25","acq_time":"45","satellite":"N20","instrument":"VIIRS","confidence":"n","version":"2.0NRT","bright_ti5":"285.51","frp":"1.4","daynight":"N","commune":"Grande-Synthe","code_insee":"59271","departement":"Nord","region":"Hauts-de-France"}},{"type":"Feature","geometry":{"type":"Point","coordinates":[2.29251,51.0435]},"properties":{"latitude":"51.0435","longitude":"2.29251","bright_ti4":"312.73","scan":"0.62","track":"0.72","acq_date":"2026-08-25","acq_time":"45","satellite":"N20","instrument":"VIIRS","confidence":"n","version":"2.0NRT","bright_ti5":"286.58","frp":"1.7","daynight":"N","commune":"Grande-Synthe","code_insee":"59271","departement":"Nord","region":"Hauts-de-France"}},{"type":"Feature","geometry":{"type":"Point","coordinates":[4.89227,43.43587]},"properties":{"latitude":"43.43587","longitude":"4.89227","bright_ti4":"299.98","scan":"0.44","track":"0.62","acq_date":"2026-08-25","acq_time":"48","satellite":"N20","instrument":"VIIRS","confidence":"n","version":"2.0NRT","bright_ti5":"288.78","frp":"1.1","daynight":"N","commune":"Fos-sur-Mer","code_insee":"13039","departement":"Bouches-du-Rhône","region":"Provence-Alpes-Côte d'Azur"}},{"type":"Feature","geometry":{"type":"Point","coordinates":[4.89861,43.44722]},"properties":{"latitude":"43.44722","longitude":"4.89861","bright_ti4":"303.27","scan":"0.44","track":"0.62","acq_date":"2026-08-25","acq_time":"48","satellite":"N20","instrument":"VIIRS","confidence":"n","version":"2.0NRT","bright_ti5":"289.29","frp":"1.08","daynight":"N","commune":"Fos-sur-Mer","code_insee":"13039","departement":"Bouches-du-Rhône","region":"Provence-Alpes-Côte d'Azur"}},{"type":"Feature","geometry":{"type":"Point","coordinates":[4.89313,43.4474]},"properties":{"latitude":"43.4474","longitude":"4.89313","bright_ti4":"304.92","scan":"0.44","track":"0.62","acq_date":"2026-08-25","acq_time":"48","satellite":"N20","instrument":"VIIRS","confidence":"n","version":"2.0NRT","bright_ti5":"288.58","frp":"1.08","daynight":"N","commune":"Fos-sur-Mer","code_insee":"13039","departement":"Bouches-du-Rhône","region":"Provence-Alpes-Côte d'Azur"}},{"type":"Feature","geometry":{"type":"Point","coordinates":[4.88761,43.44757]},"properties":{"latitude":"43.44757","longitude":"4.88761","bright_ti4":"298.79","scan":"0.44","track":"0.62","acq_date":"2026-08-25","acq_time":"48","satellite":"N20","instrument":"VIIRS","confidence":"n","version":"2.0NRT","bright_ti5":"288.18","frp":"1.27","daynight":"N","commune":"Fos-sur-Mer","code_insee":"13039","departement":"Bouches-du-Rhône","region":"Provence-Alpes-Côte d'Azur"}},{"type":"Feature","geometry":{"type":"Point","coordinates":[7.3728,43.79675]},"properties":{"latitude":"43.79675","longitude":"7.3728","bright_ti4":"305.76","scan":"0.33","track":"0.55","acq_date":"2026-08-25","acq_time":"48","satellite":"N20","instrument":"VIIRS","confidence":"n","version":"2.0NRT","bright_ti5":"289.31","frp":"0.84","daynight":"N","commune":"Blausasc","code_insee":"06019","departement":"Alpes-Maritimes","region":"Provence-Alpes-Côte d'Azur"}},{"type":"Feature","geometry":{"type":"Point","coordinates":[4.89191,43.43539]},"properties":{"latitude":"43.43539","longitude":"4.89191","bright_ti4":"299.8","scan":"0.44","track":"0.62","acq_date":"2026-08-25","acq_time":"50","satellite":"N20","instrument":"VIIRS","confidence":"n","version":"2.0NRT","bright_ti5":"288.44","frp":"1.51","daynight":"N","commune":"Fos-sur-Mer","code_insee":"13039","departement":"Bouches-du-Rhône","region":"Provence-Alpes-Côte d'Azur"}},{"type":"Feature","geometry":{"type":"Point","coordinates":[4.89821,43.4467]},"properties":{"latitude":"43.4467","longitude":"4.89821","bright_ti4":"308.61","scan":"0.44","track":"0.62","acq_date":"2026-08-25","acq_time":"50","satellite":"N20","instrument":"VIIRS","confidence":"n","version":"2.0NRT","bright_ti5":"288.89","frp":"0.98","daynight":"N","commune":"Fos-sur-Mer","code_insee":"13039","departement":"Bouches-du-Rhône","region":"Provence-Alpes-Côte d'Azur"}}]}