{"type":"FeatureCollection","features":[{"type":"Feature","geometry":{"type":"Point","coordinates":[4.84544,43.99789]},"properties":{"latitude":"43.99789","longitude":"4.84544","bright_ti4":"310.69","scan":"0.61","track":"0.54","acq_date":"2026-08-07","acq_time":"105","satellite":"N","instrument":"VIIRS","confidence":"n","version":"2.0NRT","bright_ti5":"294.28","frp":"1.71","daynight":"N","commune":"Sorgues","code_insee":"84129","departement":"Vaucluse","region":"Provence-Alpes-Côte d'Azur"}},{"type":"Feature","geometry":{"type":"Point","coordinates":[5.48167,44.54498]},"properties":{"latitude":"44.54498","longitude":"5.48167","bright_ti4":"309.43","scan":"0.58","track":"0.52","acq_date":"2026-08-07","acq_time":"105","satellite":"N","instrument":"VIIRS","confidence":"n","version":"2.0NRT","bright_ti5":"290.04","frp":"2.78","daynight":"N","commune":"Beaumont-en-Diois","code_insee":"26036","departement":"Drôme","region":"Auvergne-Rhône-Alpes"}},{"type":"Feature","geometry":{"type":"Point","coordinates":[2.27776,51.02882]},"properties":{"latitude":"51.02882","longitude":"2.27776","bright_ti4":"315.91","scan":"0.45","track":"0.63","acq_date":"2026-08-07","acq_time":"105","satellite":"N","instrument":"VIIRS","confidence":"n","version":"2.0NRT","bright_ti5":"284.21","frp":"1.28","daynight":"N","commune":"Grande-Synthe","code_insee":"59271","departement":"Nord","region":"Hauts-de-France"}},{"type":"Feature","geometry":{"type":"Point","coordinates":[2.27105,51.02892]},"properties":{"latitude":"51.02892","longitude":"2.27105","bright_ti4":"309.4","scan":"0.45","track":"0.63","acq_date":"2026-08-07","acq_time":"105","satellite":"N","instrument":"VIIRS","confidence":"n","version":"2.0NRT","bright_ti5":"284.52","frp":"1.28","daynight":"N","commune":"Grande-Synthe","code_insee":"59271","departement":"Nord","region":"Hauts-de-France"}},{"type":"Feature","geometry":{"type":"Point","coordinates":[2.29133,51.03453]},"properties":{"latitude":"51.03453","longitude":"2.29133","bright_ti4":"307.24","scan":"0.45","track":"0.63","acq_date":"2026-08-07","acq_time":"105","satellite":"N","instrument":"VIIRS","confidence":"n","version":"2.0NRT","bright_ti5":"284.68","frp":"1.34","daynight":"N","commune":"Grande-Synthe","code_insee":"59271","departement":"Nord","region":"Hauts-de-France"}},{"type":"Feature","geometry":{"type":"Point","coordinates":[2.2847,51.03463]},"properties":{"latitude":"51.03463","longitude":"2.2847","bright_ti4":"304.41","scan":"0.45","track":"0.63","acq_date":"2026-08-07","acq_time":"105","satellite":"N","instrument":"VIIRS","confidence":"n","version":"2.0NRT","bright_ti5":"285.04","frp":"1.34","daynight":"N","commune":"Grande-Synthe","code_insee":"59271","departement":"Nord","region":"Hauts-de-France"}},{"type":"Feature","geometry":{"type":"Point","coordinates":[2.27803,51.03473]},"properties":{"latitude":"51.03473","longitude":"2.27803","bright_ti4":"304.88","scan":"0.45","track":"0.63","acq_date":"2026-08-07","acq_time":"105","satellite":"N","instrument":"VIIRS","confidence":"n","version":"2.0NRT","bright_ti5":"284.45","frp":"1.28","daynight":"N","commune":"Grande-Synthe","code_insee":"59271","departement":"Nord","region":"Hauts-de-France"}},{"type":"Feature","geometry":{"type":"Point","coordinates":[2.29826,51.04034]},"properties":{"latitude":"51.04034","longitude":"2.29826","bright_ti4":"299.55","scan":"0.45","track":"0.63","acq_date":"2026-08-07","acq_time":"105","satellite":"N","instrument":"VIIRS","confidence":"n","version":"2.0NRT","bright_ti5":"282.9","frp":"1.42","daynight":"N","commune":"Grande-Synthe","code_insee":"59271","departement":"Nord","region":"Hauts-de-France"}},{"type":"Feature","geometry":{"type":"Point","coordinates":[8.9479,42.48705]},"properties":{"latitude":"42.48705","longitude":"8.9479","bright_ti4":"305.81","scan":"0.56","track":"0.43","acq_date":"2026-08-07","acq_time":"107","satellite":"N","instrument":"VIIRS","confidence":"n","version":"2.0NRT","bright_ti5":"289.49","frp":"1.4","daynight":"N","commune":"Mausoléo","code_insee":"2B156","departement":"Haute-Corse","region":"Corse"}},{"type":"Feature","geometry":{"type":"Point","coordinates":[4.89096,43.42873]},"properties":{"latitude":"43.42873","longitude":"4.89096","bright_ti4":"308.38","scan":"0.6","track":"0.53","acq_date":"2026-08-07","acq_time":"107","satellite":"N","instrument":"VIIRS","confidence":"n","version":"2.0NRT","bright_ti5":"295.32","frp":"3.16","daynight":"N","commune":"Fos-sur-Mer","code_insee":"13039","departement":"Bouches-du-Rhône","region":"Provence-Alpes-Côte d'Azur"}},{"type":"Feature","geometry":{"type":"Point","coordinates":[4.89219,43.43861]},"properties":{"latitude":"43.43861","longitude":"4.89219","bright_ti4":"321.94","scan":"0.6","track":"0.53","acq_date":"2026-08-07","acq_time":"107","satellite":"N","instrument":"VIIRS","confidence":"n","version":"2.0NRT","bright_ti5":"295.78","frp":"5.23","daynight":"N","commune":"Fos-sur-Mer","code_insee":"13039","departement":"Bouches-du-Rhône","region":"Provence-Alpes-Côte d'Azur"}},{"type":"Feature","geometry":{"type":"Point","coordinates":[4.84775,43.45139]},"properties":{"latitude":"43.45139","longitude":"4.84775","bright_ti4":"308.26","scan":"0.6","track":"0.53","acq_date":"2026-08-07","acq_time":"107","satellite":"N","instrument":"VIIRS","confidence":"n","version":"2.0NRT","bright_ti5":"294.35","frp":"1.14","daynight":"N","commune":"Fos-sur-Mer","code_insee":"13039","departement":"Bouches-du-Rhône","region":"Provence-Alpes-Côte d'Azur"}},{"type":"Feature","geometry":{"type":"Point","coordinates":[3.54432,43.65094]},"properties":{"latitude":"43.65094","longitude":"3.54432","bright_ti4":"304.86","scan":"0.35","track":"0.57","acq_date":"2026-08-07","acq_time":"107","satellite":"N","instrument":"VIIRS","confidence":"n","version":"2.0NRT","bright_ti5":"292.95","frp":"0.67","daynight":"N","commune":"Gignac","code_insee":"34114","departement":"Hérault","region":"Occitanie"}},{"type":"Feature","geometry":{"type":"Point","coordinates":[7.37128,43.79364]},"properties":{"latitude":"43.79364","longitude":"7.37128","bright_ti4":"306.16","scan":"0.46","track":"0.47","acq_date":"2026-08-07","acq_time":"107","satellite":"N","instrument":"VIIRS","confidence":"n","version":"2.0NRT","bright_ti5":"293.55","frp":"0.96","daynight":"N","commune":"Blausasc","code_insee":"06019","departement":"Alpes-Maritimes","region":"Provence-Alpes-Côte d'Azur"}},{"type":"Feature","geometry":{"type":"Point","coordinates":[4.84483,43.9979]},"properties":{"latitude":"43.9979","longitude":"4.84483","bright_ti4":"311.58","scan":"0.61","track":"0.54","acq_date":"2026-08-07","acq_time":"107","satellite":"N","instrument":"VIIRS","confidence":"n","version":"2.0NRT","bright_ti5":"294.37","frp":"1.72","daynight":"N","commune":"Villeneuve-lès-Avignon","code_insee":"30351","departement":"Gard","region":"Occitanie"}},{"type":"Feature","geometry":{"type":"Point","coordinates":[6.11201,48.60855]},"properties":{"latitude":"48.60855","longitude":"6.11201","bright_ti4":"301.98","scan":"0.59","track":"0.53","acq_date":"2026-08-07","acq_time":"107","satellite":"N","instrument":"VIIRS","confidence":"n","version":"2.0NRT","bright_ti5":"288.62","frp":"2.1","daynight":"N","commune":"Neuves-Maisons","code_insee":"54397","departement":"Meurthe-et-Moselle","region":"Grand Est"}},{"type":"Feature","geometry":{"type":"Point","coordinates":[6.96695,48.69132]},"properties":{"latitude":"48.69132","longitude":"6.96695","bright_ti4":"297.39","scan":"0.54","track":"0.51","acq_date":"2026-08-07","acq_time":"107","satellite":"N","instrument":"VIIRS","confidence":"n","version":"2.0NRT","bright_ti5":"285.69","frp":"0.76","daynight":"N","commune":"Héming","code_insee":"57314","departement":"Moselle","region":"Grand Est"}},{"type":"Feature","geometry":{"type":"Point","coordinates":[4.37855,48.82805]},"properties":{"latitude":"48.82805","longitude":"4.37855","bright_ti4":"331.83","scan":"0.35","track":"0.57","acq_date":"2026-08-07","acq_time":"107","satellite":"N","instrument":"VIIRS","confidence":"n","version":"2.0NRT","bright_ti5":"282.94","frp":"2.28","daynight":"N","commune":"Coupetz","code_insee":"51178","departement":"Marne","region":"Grand Est"}},{"type":"Feature","geometry":{"type":"Point","coordinates":[4.37351,48.82826]},"properties":{"latitude":"48.82826","longitude":"4.37351","bright_ti4":"298.21","scan":"0.35","track":"0.57","acq_date":"2026-08-07","acq_time":"107","satellite":"N","instrument":"VIIRS","confidence":"n","version":"2.0NRT","bright_ti5":"281.62","frp":"2.21","daynight":"N","commune":"Coupetz","code_insee":"51178","departement":"Marne","region":"Grand Est"}},{"type":"Feature","geometry":{"type":"Point","coordinates":[-2.05307,47.31554]},"properties":{"latitude":"47.31554","longitude":"-2.05307","bright_ti4":"295.76","scan":"0.52","track":"0.41","acq_date":"2026-08-07","acq_time":"245","satellite":"N","instrument":"VIIRS","confidence":"n","version":"2.0NRT","bright_ti5":"284.94","frp":"0.51","daynight":"N","commune":"Donges","code_insee":"44052","departement":"Loire-Atlantique","region":"Pays de la Loire"}},{"type":"Feature","geometry":{"type":"Point","coordinates":[-1.03305,48.10782]},"properties":{"latitude":"48.10782","longitude":"-1.03305","bright_ti4":"297.27","scan":"0.54","track":"0.42","acq_date":"2026-08-07","acq_time":"245","satellite":"N","instrument":"VIIRS","confidence":"n","version":"2.0NRT","bright_ti5":"284.81","frp":"0.52","daynight":"N","commune":"Saint-Pierre-la-Cour","code_insee":"53247","departement":"Mayenne","region":"Pays de la Loire"}},{"type":"Feature","geometry":{"type":"Point","coordinates":[6.11793,48.61123]},"properties":{"latitude":"48.61123","longitude":"6.11793","bright_ti4":"307.84","scan":"0.34","track":"0.56","acq_date":"2026-08-07","acq_time":"245","satellite":"N","instrument":"VIIRS","confidence":"n","version":"2.0NRT","bright_ti5":"287.4","frp":"0.99","daynight":"N","commune":"Neuves-Maisons","code_insee":"54397","departement":"Meurthe-et-Moselle","region":"Grand Est"}},{"type":"Feature","geometry":{"type":"Point","coordinates":[6.96438,48.69088]},"properties":{"latitude":"48.69088","longitude":"6.96438","bright_ti4":"298.4","scan":"0.37","track":"0.58","acq_date":"2026-08-07","acq_time":"245","satellite":"N","instrument":"VIIRS","confidence":"n","version":"2.0NRT","bright_ti5":"284.63","frp":"0.77","daynight":"N","commune":"Héming","code_insee":"57314","departement":"Moselle","region":"Grand Est"}},{"type":"Feature","geometry":{"type":"Point","coordinates":[5.68036,48.71534]},"properties":{"latitude":"48.71534","longitude":"5.68036","bright_ti4":"298.58","scan":"0.33","track":"0.55","acq_date":"2026-08-07","acq_time":"245","satellite":"N","instrument":"VIIRS","confidence":"n","version":"2.0NRT","bright_ti5":"280.65","frp":"0.49","daynight":"N","commune":"Sorcy-Saint-Martin","code_insee":"55496","departement":"Meuse","region":"Grand Est"}},{"type":"Feature","geometry":{"type":"Point","coordinates":[4.5642,48.76715]},"properties":{"latitude":"48.76715","longitude":"4.5642","bright_ti4":"295.52","scan":"0.59","track":"0.53","acq_date":"2026-08-07","acq_time":"245","satellite":"N","instrument":"VIIRS","confidence":"n","version":"2.0NRT","bright_ti5":"284.86","frp":"0.77","daynight":"N","commune":"Couvrot","code_insee":"51195","departement":"Marne","region":"Grand Est"}},{"type":"Feature","geometry":{"type":"Point","coordinates":[4.37273,48.82536]},"properties":{"latitude":"48.82536","longitude":"4.37273","bright_ti4":"309.13","scan":"0.57","track":"0.52","acq_date":"2026-08-07","acq_time":"245","satellite":"N","instrument":"VIIRS","confidence":"n","version":"2.0NRT","bright_ti5":"280.33","frp":"2.11","daynight":"N","commune":"Coupetz","code_insee":"51178","departement":"Marne","region":"Grand Est"}},{"type":"Feature","geometry":{"type":"Point","coordinates":[4.37555,48.82985]},"properties":{"latitude":"48.82985","longitude":"4.37555","bright_ti4":"314.78","scan":"0.57","track":"0.52","acq_date":"2026-08-07","acq_time":"245","satellite":"N","instrument":"VIIRS","confidence":"n","version":"2.0NRT","bright_ti5":"280.87","frp":"2.11","daynight":"N","commune":"Coupetz","code_insee":"51178","departement":"Marne","region":"Grand Est"}},{"type":"Feature","geometry":{"type":"Point","coordinates":[6.10018,49.32362]},"properties":{"latitude":"49.32362","longitude":"6.10018","bright_ti4":"303.78","scan":"0.33","track":"0.55","acq_date":"2026-08-07","acq_time":"245","satellite":"N","instrument":"VIIRS","confidence":"n","version":"2.0NRT","bright_ti5":"285.22","frp":"0.49","daynight":"N","commune":"Serémange-Erzange","code_insee":"57647","departement":"Moselle","region":"Grand Est"}},{"type":"Feature","geometry":{"type":"Point","coordinates":[0.53519,49.47881]},"properties":{"latitude":"49.47881","longitude":"0.53519","bright_ti4":"296.8","scan":"0.39","track":"0.44","acq_date":"2026-08-07","acq_time":"245","satellite":"N","instrument":"VIIRS","confidence":"n","version":"2.0NRT","bright_ti5":"284.19","frp":"1.12","daynight":"N","commune":"Port-Jérôme-sur-Seine","code_insee":"76476","departement":"Seine-Maritime","region":"Normandie"}},{"type":"Feature","geometry":{"type":"Point","coordinates":[2.27194,51.02909]},"properties":{"latitude":"51.02909","longitude":"2.27194","bright_ti4":"322.09","scan":"0.41","track":"0.45","acq_date":"2026-08-07","acq_time":"245","satellite":"N","instrument":"VIIRS","confidence":"n","version":"2.0NRT","bright_ti5":"286.14","frp":"3.05","daynight":"N","commune":"Grande-Synthe","code_insee":"59271","departement":"Nord","region":"Hauts-de-France"}},{"type":"Feature","geometry":{"type":"Point","coordinates":[2.2799,51.03165]},"properties":{"latitude":"51.03165","longitude":"2.2799","bright_ti4":"312.64","scan":"0.41","track":"0.45","acq_date":"2026-08-07","acq_time":"245","satellite":"N","instrument":"VIIRS","confidence":"n","version":"2.0NRT","bright_ti5":"286.01","frp":"1.9","daynight":"N","commune":"Grande-Synthe","code_insee":"59271","departement":"Nord","region":"Hauts-de-France"}},{"type":"Feature","geometry":{"type":"Point","coordinates":[2.28789,51.03421]},"properties":{"latitude":"51.03421","longitude":"2.28789","bright_ti4":"309.42","scan":"0.41","track":"0.45","acq_date":"2026-08-07","acq_time":"245","satellite":"N","instrument":"VIIRS","confidence":"n","version":"2.0NRT","bright_ti5":"285.82","frp":"1.61","daynight":"N","commune":"Grande-Synthe","code_insee":"59271","departement":"Nord","region":"Hauts-de-France"}},{"type":"Feature","geometry":{"type":"Point","coordinates":[2.28229,51.03556]},"properties":{"latitude":"51.03556","longitude":"2.28229","bright_ti4":"317.74","scan":"0.41","track":"0.45","acq_date":"2026-08-07","acq_time":"245","satellite":"N","instrument":"VIIRS","confidence":"n","version":"2.0NRT","bright_ti5":"285.51","frp":"1.61","daynight":"N","commune":"Grande-Synthe","code_insee":"59271","departement":"Nord","region":"Hauts-de-France"}},{"type":"Feature","geometry":{"type":"Point","coordinates":[2.29588,51.03677]},"properties":{"latitude":"51.03677","longitude":"2.29588","bright_ti4":"307.42","scan":"0.41","track":"0.45","acq_date":"2026-08-07","acq_time":"245","satellite":"N","instrument":"VIIRS","confidence":"n","version":"2.0NRT","bright_ti5":"282.96","frp":"0.85","daynight":"N","commune":"Grande-Synthe","code_insee":"59271","departement":"Nord","region":"Hauts-de-France"}},{"type":"Feature","geometry":{"type":"Point","coordinates":[2.29268,51.04202]},"properties":{"latitude":"51.04202","longitude":"2.29268","bright_ti4":"308.03","scan":"0.41","track":"0.45","acq_date":"2026-08-07","acq_time":"245","satellite":"N","instrument":"VIIRS","confidence":"n","version":"2.0NRT","bright_ti5":"287.26","frp":"3.85","daynight":"N","commune":"Grande-Synthe","code_insee":"59271","departement":"Nord","region":"Hauts-de-France"}},{"type":"Feature","geometry":{"type":"Point","coordinates":[2.32072,51.04578]},"properties":{"latitude":"51.04578","longitude":"2.32072","bright_ti4":"299.87","scan":"0.41","track":"0.45","acq_date":"2026-08-07","acq_time":"245","satellite":"N","instrument":"VIIRS","confidence":"n","version":"2.0NRT","bright_ti5":"285.98","frp":"0.57","daynight":"N","commune":"Dunkerque","code_insee":"59183","departement":"Nord","region":"Hauts-de-France"}},{"type":"Feature","geometry":{"type":"Point","coordinates":[2.31426,51.0458]},"properties":{"latitude":"51.0458","longitude":"2.31426","bright_ti4":"305.12","scan":"0.41","track":"0.45","acq_date":"2026-08-07","acq_time":"245","satellite":"N","instrument":"VIIRS","confidence":"n","version":"2.0NRT","bright_ti5":"284.88","frp":"1.13","daynight":"N","commune":"Dunkerque","code_insee":"59183","departement":"Nord","region":"Hauts-de-France"}},{"type":"Feature","geometry":{"type":"Point","coordinates":[2.29509,51.04593]},"properties":{"latitude":"51.04593","longitude":"2.29509","bright_ti4":"338.33","scan":"0.41","track":"0.45","acq_date":"2026-08-07","acq_time":"245","satellite":"N","instrument":"VIIRS","confidence":"n","version":"2.0NRT","bright_ti5":"288.74","frp":"3.85","daynight":"N","commune":"Grande-Synthe","code_insee":"59271","departement":"Nord","region":"Hauts-de-France"}},{"type":"Feature","geometry":{"type":"Point","coordinates":[2.31515,51.04715]},"properties":{"latitude":"51.04715","longitude":"2.31515","bright_ti4":"309.03","scan":"0.41","track":"0.45","acq_date":"2026-08-07","acq_time":"245","satellite":"N","instrument":"VIIRS","confidence":"n","version":"2.0NRT","bright_ti5":"286.34","frp":"1.68","daynight":"N","commune":"Dunkerque","code_insee":"59183","departement":"Nord","region":"Hauts-de-France"}},{"type":"Feature","geometry":{"type":"Point","coordinates":[2.29603,51.04734]},"properties":{"latitude":"51.04734","longitude":"2.29603","bright_ti4":"339.6","scan":"0.41","track":"0.45","acq_date":"2026-08-07","acq_time":"245","satellite":"N","instrument":"VIIRS","confidence":"n","version":"2.0NRT","bright_ti5":"289.4","frp":"6.74","daynight":"N","commune":"Grande-Synthe","code_insee":"59271","departement":"Nord","region":"Hauts-de-France"}},{"type":"Feature","geometry":{"type":"Point","coordinates":[2.32228,51.04837]},"properties":{"latitude":"51.04837","longitude":"2.32228","bright_ti4":"298.55","scan":"0.41","track":"0.45","acq_date":"2026-08-07","acq_time":"245","satellite":"N","instrument":"VIIRS","confidence":"n","version":"2.0NRT","bright_ti5":"287.26","frp":"1.13","daynight":"N","commune":"Dunkerque","code_insee":"59183","departement":"Nord","region":"Hauts-de-France"}},{"type":"Feature","geometry":{"type":"Point","coordinates":[5.01374,43.37672]},"properties":{"latitude":"43.37672","longitude":"5.01374","bright_ti4":"305.38","scan":"0.44","track":"0.63","acq_date":"2026-08-07","acq_time":"247","satellite":"N","instrument":"VIIRS","confidence":"n","version":"2.0NRT","bright_ti5":"293.99","frp":"1.67","daynight":"N","commune":"Martigues","code_insee":"13056","departement":"Bouches-du-Rhône","region":"Provence-Alpes-Côte d'Azur"}},{"type":"Feature","geometry":{"type":"Point","coordinates":[5.01651,43.38223]},"properties":{"latitude":"43.38223","longitude":"5.01651","bright_ti4":"320.76","scan":"0.44","track":"0.63","acq_date":"2026-08-07","acq_time":"247","satellite":"N","instrument":"VIIRS","confidence":"n","version":"2.0NRT","bright_ti5":"294.45","frp":"1.67","daynight":"N","commune":"Martigues","code_insee":"13056","departement":"Bouches-du-Rhône","region":"Provence-Alpes-Côte d'Azur"}},{"type":"Feature","geometry":{"type":"Point","coordinates":[4.88857,43.43333]},"properties":{"latitude":"43.43333","longitude":"4.88857","bright_ti4":"316.53","scan":"0.44","track":"0.62","acq_date":"2026-08-07","acq_time":"247","satellite":"N","instrument":"VIIRS","confidence":"n","version":"2.0NRT","bright_ti5":"294.74","frp":"2.34","daynight":"N","commune":"Fos-sur-Mer","code_insee":"13039","departement":"Bouches-du-Rhône","region":"Provence-Alpes-Côte d'Azur"}},{"type":"Feature","geometry":{"type":"Point","coordinates":[4.89163,43.43871]},"properties":{"latitude":"43.43871","longitude":"4.89163","bright_ti4":"314.9","scan":"0.44","track":"0.62","acq_date":"2026-08-07","acq_time":"247","satellite":"N","instrument":"VIIRS","confidence":"n","version":"2.0NRT","bright_ti5":"295.03","frp":"2.4","daynight":"N","commune":"Fos-sur-Mer","code_insee":"13039","departement":"Bouches-du-Rhône","region":"Provence-Alpes-Côte d'Azur"}},{"type":"Feature","geometry":{"type":"Point","coordinates":[6.12001,48.61055]},"properties":{"latitude":"48.61055","longitude":"6.12001","bright_ti4":"309.97","scan":"0.48","track":"0.4","acq_date":"2026-08-07","acq_time":"124","satellite":"N20","instrument":"VIIRS","confidence":"n","version":"2.0NRT","bright_ti5":"289.64","frp":"1.17","daynight":"N","commune":"Neuves-Maisons","code_insee":"54397","departement":"Meurthe-et-Moselle","region":"Grand Est"}},{"type":"Feature","geometry":{"type":"Point","coordinates":[6.96726,48.69085]},"properties":{"latitude":"48.69085","longitude":"6.96726","bright_ti4":"304.45","scan":"0.45","track":"0.39","acq_date":"2026-08-07","acq_time":"124","satellite":"N20","instrument":"VIIRS","confidence":"n","version":"2.0NRT","bright_ti5":"287.53","frp":"1.37","daynight":"N","commune":"Héming","code_insee":"57314","departement":"Moselle","region":"Grand Est"}},{"type":"Feature","geometry":{"type":"Point","coordinates":[4.37645,48.82507]},"properties":{"latitude":"48.82507","longitude":"4.37645","bright_ti4":"300.03","scan":"0.56","track":"0.43","acq_date":"2026-08-07","acq_time":"124","satellite":"N20","instrument":"VIIRS","confidence":"n","version":"2.0NRT","bright_ti5":"282.4","frp":"1.21","daynight":"N","commune":"Coupetz","code_insee":"51178","departement":"Marne","region":"Grand Est"}},{"type":"Feature","geometry":{"type":"Point","coordinates":[4.37729,48.829]},"properties":{"latitude":"48.829","longitude":"4.37729","bright_ti4":"328.05","scan":"0.56","track":"0.43","acq_date":"2026-08-07","acq_time":"124","satellite":"N20","instrument":"VIIRS","confidence":"n","version":"2.0NRT","bright_ti5":"283.01","frp":"4.06","daynight":"N","commune":"Coupetz","code_insee":"51178","departement":"Marne","region":"Grand Est"}},{"type":"Feature","geometry":{"type":"Point","coordinates":[2.27154,51.02627]},"properties":{"latitude":"51.02627","longitude":"2.27154","bright_ti4":"309.66","scan":"0.48","track":"0.48","acq_date":"2026-08-07","acq_time":"124","satellite":"N20","instrument":"VIIRS","confidence":"n","version":"2.0NRT","bright_ti5":"284.55","frp":"1.51","daynight":"N","commune":"Grande-Synthe","code_insee":"59271","departement":"Nord","region":"Hauts-de-France"}},{"type":"Feature","geometry":{"type":"Point","coordinates":[2.27925,51.03021]},"properties":{"latitude":"51.03021","longitude":"2.27925","bright_ti4":"314.82","scan":"0.48","track":"0.48","acq_date":"2026-08-07","acq_time":"124","satellite":"N20","instrument":"VIIRS","confidence":"n","version":"2.0NRT","bright_ti5":"285.88","frp":"2.29","daynight":"N","commune":"Grande-Synthe","code_insee":"59271","departement":"Nord","region":"Hauts-de-France"}},{"type":"Feature","geometry":{"type":"Point","coordinates":[2.29379,51.03368]},"properties":{"latitude":"51.03368","longitude":"2.29379","bright_ti4":"305.42","scan":"0.48","track":"0.48","acq_date":"2026-08-07","acq_time":"124","satellite":"N20","instrument":"VIIRS","confidence":"n","version":"2.0NRT","bright_ti5":"284.52","frp":"1.37","daynight":"N","commune":"Grande-Synthe","code_insee":"59271","departement":"Nord","region":"Hauts-de-France"}},{"type":"Feature","geometry":{"type":"Point","coordinates":[2.28693,51.03416]},"properties":{"latitude":"51.03416","longitude":"2.28693","bright_ti4":"307.77","scan":"0.48","track":"0.48","acq_date":"2026-08-07","acq_time":"124","satellite":"N20","instrument":"VIIRS","confidence":"n","version":"2.0NRT","bright_ti5":"285.94","frp":"2.29","daynight":"N","commune":"Grande-Synthe","code_insee":"59271","departement":"Nord","region":"Hauts-de-France"}},{"type":"Feature","geometry":{"type":"Point","coordinates":[2.28004,51.03464]},"properties":{"latitude":"51.03464","longitude":"2.28004","bright_ti4":"326.98","scan":"0.48","track":"0.48","acq_date":"2026-08-07","acq_time":"124","satellite":"N20","instrument":"VIIRS","confidence":"n","version":"2.0NRT","bright_ti5":"286.1","frp":"2.29","daynight":"N","commune":"Grande-Synthe","code_insee":"59271","departement":"Nord","region":"Hauts-de-France"}},{"type":"Feature","geometry":{"type":"Point","coordinates":[2.28082,51.03907]},"properties":{"latitude":"51.03907","longitude":"2.28082","bright_ti4":"313.09","scan":"0.48","track":"0.48","acq_date":"2026-08-07","acq_time":"124","satellite":"N20","instrument":"VIIRS","confidence":"n","version":"2.0NRT","bright_ti5":"285.11","frp":"2.44","daynight":"N","commune":"Grande-Synthe","code_insee":"59271","departement":"Nord","region":"Hauts-de-France"}},{"type":"Feature","geometry":{"type":"Point","coordinates":[2.2954,51.04252]},"properties":{"latitude":"51.04252","longitude":"2.2954","bright_ti4":"305.05","scan":"0.48","track":"0.48","acq_date":"2026-08-07","acq_time":"124","satellite":"N20","instrument":"VIIRS","confidence":"n","version":"2.0NRT","bright_ti5":"287.76","frp":"1.61","daynight":"N","commune":"Grande-Synthe","code_insee":"59271","departement":"Nord","region":"Hauts-de-France"}},{"type":"Feature","geometry":{"type":"Point","coordinates":[2.31681,51.04548]},"properties":{"latitude":"51.04548","longitude":"2.31681","bright_ti4":"318.98","scan":"0.48","track":"0.48","acq_date":"2026-08-07","acq_time":"124","satellite":"N20","instrument":"VIIRS","confidence":"n","version":"2.0NRT","bright_ti5":"285.03","frp":"3.14","daynight":"N","commune":"Dunkerque","code_insee":"59183","departement":"Nord","region":"Hauts-de-France"}},{"type":"Feature","geometry":{"type":"Point","coordinates":[2.29618,51.04694]},"properties":{"latitude":"51.04694","longitude":"2.29618","bright_ti4":"306.9","scan":"0.48","track":"0.48","acq_date":"2026-08-07","acq_time":"124","satellite":"N20","instrument":"VIIRS","confidence":"n","version":"2.0NRT","bright_ti5":"288.07","frp":"2.46","daynight":"N","commune":"Grande-Synthe","code_insee":"59271","departement":"Nord","region":"Hauts-de-France"}},{"type":"Feature","geometry":{"type":"Point","coordinates":[8.9476,42.48866]},"properties":{"latitude":"42.48866","longitude":"8.9476","bright_ti4":"307.42","scan":"0.38","track":"0.36","acq_date":"2026-08-07","acq_time":"126","satellite":"N20","instrument":"VIIRS","confidence":"n","version":"2.0NRT","bright_ti5":"289.27","frp":"0.73","daynight":"N","commune":"Mausoléo","code_insee":"2B156","departement":"Haute-Corse","region":"Corse"}},{"type":"Feature","geometry":{"type":"Point","coordinates":[5.01231,43.37975]},"properties":{"latitude":"43.37975","longitude":"5.01231","bright_ti4":"321.46","scan":"0.46","track":"0.39","acq_date":"2026-08-07","acq_time":"126","satellite":"N20","instrument":"VIIRS","confidence":"n","version":"2.0NRT","bright_ti5":"298.06","frp":"2.55","daynight":"N","commune":"Martigues","code_insee":"13056","departement":"Bouches-du-Rhône","region":"Provence-Alpes-Côte d'Azur"}},{"type":"Feature","geometry":{"type":"Point","coordinates":[4.89142,43.43855]},"properties":{"latitude":"43.43855","longitude":"4.89142","bright_ti4":"335.93","scan":"0.46","track":"0.39","acq_date":"2026-08-07","acq_time":"126","satellite":"N20","instrument":"VIIRS","confidence":"n","version":"2.0NRT","bright_ti5":"297.18","frp":"4.76","daynight":"N","commune":"Fos-sur-Mer","code_insee":"13039","departement":"Bouches-du-Rhône","region":"Provence-Alpes-Côte d'Azur"}},{"type":"Feature","geometry":{"type":"Point","coordinates":[3.54203,43.65374]},"properties":{"latitude":"43.65374","longitude":"3.54203","bright_ti4":"305.25","scan":"0.53","track":"0.42","acq_date":"2026-08-07","acq_time":"126","satellite":"N20","instrument":"VIIRS","confidence":"n","version":"2.0NRT","bright_ti5":"294.28","frp":"1.16","daynight":"N","commune":"Gignac","code_insee":"34114","departement":"Hérault","region":"Occitanie"}},{"type":"Feature","geometry":{"type":"Point","coordinates":[7.37523,43.79313]},"properties":{"latitude":"43.79313","longitude":"7.37523","bright_ti4":"316.63","scan":"0.4","track":"0.37","acq_date":"2026-08-07","acq_time":"126","satellite":"N20","instrument":"VIIRS","confidence":"n","version":"2.0NRT","bright_ti5":"295.15","frp":"1.56","daynight":"N","commune":"Blausasc","code_insee":"06019","departement":"Alpes-Maritimes","region":"Provence-Alpes-Côte d'Azur"}},{"type":"Feature","geometry":{"type":"Point","coordinates":[4.84498,43.9988]},"properties":{"latitude":"43.9988","longitude":"4.84498","bright_ti4":"311.97","scan":"0.47","track":"0.4","acq_date":"2026-08-07","acq_time":"126","satellite":"N20","instrument":"VIIRS","confidence":"n","version":"2.0NRT","bright_ti5":"295.53","frp":"0.99","daynight":"N","commune":"Sorgues","code_insee":"84129","departement":"Vaucluse","region":"Provence-Alpes-Côte d'Azur"}},{"type":"Feature","geometry":{"type":"Point","coordinates":[1.93973,44.38869]},"properties":{"latitude":"44.38869","longitude":"1.93973","bright_ti4":"297.8","scan":"0.42","track":"0.45","acq_date":"2026-08-07","acq_time":"126","satellite":"N20","instrument":"VIIRS","confidence":"n","version":"2.0NRT","bright_ti5":"285.98","frp":"0.57","daynight":"N","commune":"Martiel","code_insee":"12140","departement":"Aveyron","region":"Occitanie"}},{"type":"Feature","geometry":{"type":"Point","coordinates":[5.48658,44.54387]},"properties":{"latitude":"44.54387","longitude":"5.48658","bright_ti4":"301.7","scan":"0.45","track":"0.39","acq_date":"2026-08-07","acq_time":"126","satellite":"N20","instrument":"VIIRS","confidence":"n","version":"2.0NRT","bright_ti5":"289.52","frp":"1.16","daynight":"N","commune":"Beaumont-en-Diois","code_insee":"26036","departement":"Drôme","region":"Auvergne-Rhône-Alpes"}},{"type":"Feature","geometry":{"type":"Point","coordinates":[5.48067,44.54459]},"properties":{"latitude":"44.54459","longitude":"5.48067","bright_ti4":"310.64","scan":"0.45","track":"0.39","acq_date":"2026-08-07","acq_time":"126","satellite":"N20","instrument":"VIIRS","confidence":"n","version":"2.0NRT","bright_ti5":"291.32","frp":"1.16","daynight":"N","commune":"Beaumont-en-Diois","code_insee":"26036","departement":"Drôme","region":"Auvergne-Rhône-Alpes"}},{"type":"Feature","geometry":{"type":"Point","coordinates":[-2.05728,47.31614]},"properties":{"latitude":"47.31614","longitude":"-2.05728","bright_ti4":"296.64","scan":"0.35","track":"0.57","acq_date":"2026-08-07","acq_time":"126","satellite":"N20","instrument":"VIIRS","confidence":"n","version":"2.0NRT","bright_ti5":"285.15","frp":"0.35","daynight":"N","commune":"Donges","code_insee":"44052","departement":"Loire-Atlantique","region":"Pays de la Loire"}},{"type":"Feature","geometry":{"type":"Point","coordinates":[6.11373,48.61018]},"properties":{"latitude":"48.61018","longitude":"6.11373","bright_ti4":"295.99","scan":"0.64","track":"0.72","acq_date":"2026-08-07","acq_time":"304","satellite":"N20","instrument":"VIIRS","confidence":"n","version":"2.0NRT","bright_ti5":"285.76","frp":"0.9","daynight":"N","commune":"Neuves-Maisons","code_insee":"54397","departement":"Meurthe-et-Moselle","region":"Grand Est"}},{"type":"Feature","geometry":{"type":"Point","coordinates":[4.56483,48.7704]},"properties":{"latitude":"48.7704","longitude":"4.56483","bright_ti4":"296.34","scan":"0.55","track":"0.68","acq_date":"2026-08-07","acq_time":"304","satellite":"N20","instrument":"VIIRS","confidence":"n","version":"2.0NRT","bright_ti5":"284.17","frp":"0.96","daynight":"N","commune":"Couvrot","code_insee":"51195","departement":"Marne","region":"Grand Est"}},{"type":"Feature","geometry":{"type":"Point","coordinates":[4.37557,48.82847]},"properties":{"latitude":"48.82847","longitude":"4.37557","bright_ti4":"321.26","scan":"0.53","track":"0.67","acq_date":"2026-08-07","acq_time":"304","satellite":"N20","instrument":"VIIRS","confidence":"n","version":"2.0NRT","bright_ti5":"280.51","frp":"2.76","daynight":"N","commune":"Coupetz","code_insee":"51178","departement":"Marne","region":"Grand Est"}},{"type":"Feature","geometry":{"type":"Point","coordinates":[6.10135,49.3251]},"properties":{"latitude":"49.3251","longitude":"6.10135","bright_ti4":"299.93","scan":"0.6","track":"0.71","acq_date":"2026-08-07","acq_time":"304","satellite":"N20","instrument":"VIIRS","confidence":"n","version":"2.0NRT","bright_ti5":"284.66","frp":"1.19","daynight":"N","commune":"Serémange-Erzange","code_insee":"57647","departement":"Moselle","region":"Grand Est"}},{"type":"Feature","geometry":{"type":"Point","coordinates":[0.53617,49.47664]},"properties":{"latitude":"49.47664","longitude":"0.53617","bright_ti4":"297.46","scan":"0.35","track":"0.57","acq_date":"2026-08-07","acq_time":"304","satellite":"N20","instrument":"VIIRS","confidence":"n","version":"2.0NRT","bright_ti5":"285","frp":"1.06","daynight":"N","commune":"Port-Jérôme-sur-Seine","code_insee":"76476","departement":"Seine-Maritime","region":"Normandie"}},{"type":"Feature","geometry":{"type":"Point","coordinates":[0.55299,49.47745]},"properties":{"latitude":"49.47745","longitude":"0.55299","bright_ti4":"296.16","scan":"0.35","track":"0.57","acq_date":"2026-08-07","acq_time":"304","satellite":"N20","instrument":"VIIRS","confidence":"n","version":"2.0NRT","bright_ti5":"286.15","frp":"0.94","daynight":"N","commune":"Port-Jérôme-sur-Seine","code_insee":"76476","departement":"Seine-Maritime","region":"Normandie"}},{"type":"Feature","geometry":{"type":"Point","coordinates":[2.27194,51.03026]},"properties":{"latitude":"51.03026","longitude":"2.27194","bright_ti4":"322.08","scan":"0.37","track":"0.58","acq_date":"2026-08-07","acq_time":"304","satellite":"N20","instrument":"VIIRS","confidence":"n","version":"2.0NRT","bright_ti5":"284.84","frp":"2.07","daynight":"N","commune":"Grande-Synthe","code_insee":"59271","departement":"Nord","region":"Hauts-de-France"}},{"type":"Feature","geometry":{"type":"Point","coordinates":[2.28042,51.03362]},"properties":{"latitude":"51.03362","longitude":"2.28042","bright_ti4":"306.87","scan":"0.37","track":"0.58","acq_date":"2026-08-07","acq_time":"304","satellite":"N20","instrument":"VIIRS","confidence":"n","version":"2.0NRT","bright_ti5":"284.65","frp":"1.26","daynight":"N","commune":"Grande-Synthe","code_insee":"59271","departement":"Nord","region":"Hauts-de-France"}},{"type":"Feature","geometry":{"type":"Point","coordinates":[2.29373,51.03548]},"properties":{"latitude":"51.03548","longitude":"2.29373","bright_ti4":"311.28","scan":"0.37","track":"0.58","acq_date":"2026-08-07","acq_time":"304","satellite":"N20","instrument":"VIIRS","confidence":"n","version":"2.0NRT","bright_ti5":"284.7","frp":"1.36","daynight":"N","commune":"Grande-Synthe","code_insee":"59271","departement":"Nord","region":"Hauts-de-France"}},{"type":"Feature","geometry":{"type":"Point","coordinates":[2.28896,51.03696]},"properties":{"latitude":"51.03696","longitude":"2.28896","bright_ti4":"310.78","scan":"0.37","track":"0.58","acq_date":"2026-08-07","acq_time":"304","satellite":"N20","instrument":"VIIRS","confidence":"n","version":"2.0NRT","bright_ti5":"285.71","frp":"1.26","daynight":"N","commune":"Grande-Synthe","code_insee":"59271","departement":"Nord","region":"Hauts-de-France"}},{"type":"Feature","geometry":{"type":"Point","coordinates":[2.2842,51.03843]},"properties":{"latitude":"51.03843","longitude":"2.2842","bright_ti4":"327.38","scan":"0.37","track":"0.58","acq_date":"2026-08-07","acq_time":"304","satellite":"N20","instrument":"VIIRS","confidence":"n","version":"2.0NRT","bright_ti5":"285.61","frp":"1.26","daynight":"N","commune":"Grande-Synthe","code_insee":"59271","departement":"Nord","region":"Hauts-de-France"}},{"type":"Feature","geometry":{"type":"Point","coordinates":[2.2927,51.04179]},"properties":{"latitude":"51.04179","longitude":"2.2927","bright_ti4":"301","scan":"0.37","track":"0.58","acq_date":"2026-08-07","acq_time":"304","satellite":"N20","instrument":"VIIRS","confidence":"n","version":"2.0NRT","bright_ti5":"286.5","frp":"1.5","daynight":"N","commune":"Grande-Synthe","code_insee":"59271","departement":"Nord","region":"Hauts-de-France"}},{"type":"Feature","geometry":{"type":"Point","coordinates":[2.29646,51.04661]},"properties":{"latitude":"51.04661","longitude":"2.29646","bright_ti4":"325.92","scan":"0.37","track":"0.58","acq_date":"2026-08-07","acq_time":"304","satellite":"N20","instrument":"VIIRS","confidence":"n","version":"2.0NRT","bright_ti5":"286.47","frp":"1.5","daynight":"N","commune":"Grande-Synthe","code_insee":"59271","departement":"Nord","region":"Hauts-de-France"}},{"type":"Feature","geometry":{"type":"Point","coordinates":[2.31455,51.04701]},"properties":{"latitude":"51.04701","longitude":"2.31455","bright_ti4":"301.86","scan":"0.37","track":"0.58","acq_date":"2026-08-07","acq_time":"304","satellite":"N20","instrument":"VIIRS","confidence":"n","version":"2.0NRT","bright_ti5":"284.69","frp":"1.41","daynight":"N","commune":"Dunkerque","code_insee":"59183","departement":"Nord","region":"Hauts-de-France"}},{"type":"Feature","geometry":{"type":"Point","coordinates":[-2.05238,47.31788]},"properties":{"latitude":"47.31788","longitude":"-2.05238","bright_ti4":"295.85","scan":"0.32","track":"0.55","acq_date":"2026-08-07","acq_time":"306","satellite":"N20","instrument":"VIIRS","confidence":"n","version":"2.0NRT","bright_ti5":"283.51","frp":"0.41","daynight":"N","commune":"Donges","code_insee":"44052","departement":"Loire-Atlantique","region":"Pays de la Loire"}},{"type":"Feature","geometry":{"type":"Point","coordinates":[-1.03518,48.11015]},"properties":{"latitude":"48.11015","longitude":"-1.03518","bright_ti4":"299.96","scan":"0.34","track":"0.56","acq_date":"2026-08-07","acq_time":"306","satellite":"N20","instrument":"VIIRS","confidence":"n","version":"2.0NRT","bright_ti5":"284.35","frp":"0.7","daynight":"N","commune":"Saint-Pierre-la-Cour","code_insee":"53247","departement":"Mayenne","region":"Pays de la Loire"}},{"type":"Feature","geometry":{"type":"Point","coordinates":[7.37486,43.7919]},"properties":{"latitude":"43.7919","longitude":"7.37486","bright_ti4":"304.5","scan":"0.48","track":"0.65","acq_date":"2026-08-07","acq_time":"30","satellite":"N21","instrument":"VIIRS","confidence":"n","version":"2.0NRT","bright_ti5":"292.35","frp":"1.33","daynight":"N","commune":"Blausasc","code_insee":"06019","departement":"Alpes-Maritimes","region":"Provence-Alpes-Côte d'Azur"}},{"type":"Feature","geometry":{"type":"Point","coordinates":[5.48355,44.53992]},"properties":{"latitude":"44.53992","longitude":"5.48355","bright_ti4":"298.12","scan":"0.61","track":"0.71","acq_date":"2026-08-07","acq_time":"30","satellite":"N21","instrument":"VIIRS","confidence":"n","version":"2.0NRT","bright_ti5":"287.81","frp":"1.25","daynight":"N","commune":"Beaumont-en-Diois","code_insee":"26036","departement":"Drôme","region":"Auvergne-Rhône-Alpes"}},{"type":"Feature","geometry":{"type":"Point","coordinates":[6.11532,48.60892]},"properties":{"latitude":"48.60892","longitude":"6.11532","bright_ti4":"299.27","scan":"0.59","track":"0.7","acq_date":"2026-08-07","acq_time":"30","satellite":"N21","instrument":"VIIRS","confidence":"n","version":"2.0NRT","bright_ti5":"287.32","frp":"1.31","daynight":"N","commune":"Neuves-Maisons","code_insee":"54397","departement":"Meurthe-et-Moselle","region":"Grand Est"}},{"type":"Feature","geometry":{"type":"Point","coordinates":[4.37753,48.82337]},"properties":{"latitude":"48.82337","longitude":"4.37753","bright_ti4":"318.68","scan":"0.71","track":"0.75","acq_date":"2026-08-07","acq_time":"30","satellite":"N21","instrument":"VIIRS","confidence":"n","version":"2.0NRT","bright_ti5":"283","frp":"7.16","daynight":"N","commune":"Coupetz","code_insee":"51178","departement":"Marne","region":"Grand Est"}},{"type":"Feature","geometry":{"type":"Point","coordinates":[4.36984,48.82402]},"properties":{"latitude":"48.82402","longitude":"4.36984","bright_ti4":"308.58","scan":"0.71","track":"0.75","acq_date":"2026-08-07","acq_time":"30","satellite":"N21","instrument":"VIIRS","confidence":"n","version":"2.0NRT","bright_ti5":"282.84","frp":"4.77","daynight":"N","commune":"Coupetz","code_insee":"51178","departement":"Marne","region":"Grand Est"}},{"type":"Feature","geometry":{"type":"Point","coordinates":[4.38005,48.82417]},"properties":{"latitude":"48.82417","longitude":"4.38005","bright_ti4":"307.02","scan":"0.71","track":"0.75","acq_date":"2026-08-07","acq_time":"30","satellite":"N21","instrument":"VIIRS","confidence":"n","version":"2.0NRT","bright_ti5":"282.7","frp":"4.65","daynight":"N","commune":"Coupetz","code_insee":"51178","departement":"Marne","region":"Grand Est"}},{"type":"Feature","geometry":{"type":"Point","coordinates":[8.94209,42.48911]},"properties":{"latitude":"42.48911","longitude":"8.94209","bright_ti4":"309.24","scan":"0.39","track":"0.6","acq_date":"2026-08-07","acq_time":"33","satellite":"N21","instrument":"VIIRS","confidence":"n","version":"2.0NRT","bright_ti5":"289.39","frp":"1.16","daynight":"N","commune":"Mausoléo","code_insee":"2B156","departement":"Haute-Corse","region":"Corse"}},{"type":"Feature","geometry":{"type":"Point","coordinates":[4.89428,43.43713]},"properties":{"latitude":"43.43713","longitude":"4.89428","bright_ti4":"305.38","scan":"0.65","track":"0.73","acq_date":"2026-08-07","acq_time":"33","satellite":"N21","instrument":"VIIRS","confidence":"n","version":"2.0NRT","bright_ti5":"294.26","frp":"4.56","daynight":"N","commune":"Fos-sur-Mer","code_insee":"13039","departement":"Bouches-du-Rhône","region":"Provence-Alpes-Côte d'Azur"}},{"type":"Feature","geometry":{"type":"Point","coordinates":[4.88619,43.43719]},"properties":{"latitude":"43.43719","longitude":"4.88619","bright_ti4":"311.05","scan":"0.65","track":"0.73","acq_date":"2026-08-07","acq_time":"33","satellite":"N21","instrument":"VIIRS","confidence":"n","version":"2.0NRT","bright_ti5":"294.41","frp":"5.11","daynight":"N","commune":"Fos-sur-Mer","code_insee":"13039","departement":"Bouches-du-Rhône","region":"Provence-Alpes-Côte d'Azur"}},{"type":"Feature","geometry":{"type":"Point","coordinates":[4.89107,43.44006]},"properties":{"latitude":"43.44006","longitude":"4.89107","bright_ti4":"316.23","scan":"0.65","track":"0.73","acq_date":"2026-08-07","acq_time":"33","satellite":"N21","instrument":"VIIRS","confidence":"n","version":"2.0NRT","bright_ti5":"294.78","frp":"5.71","daynight":"N","commune":"Fos-sur-Mer","code_insee":"13039","departement":"Bouches-du-Rhône","region":"Provence-Alpes-Côte d'Azur"}},{"type":"Feature","geometry":{"type":"Point","coordinates":[5.82118,45.90982]},"properties":{"latitude":"45.90982","longitude":"5.82118","bright_ti4":"300.67","scan":"0.43","track":"0.46","acq_date":"2026-08-07","acq_time":"211","satellite":"N21","instrument":"VIIRS","confidence":"n","version":"2.0NRT","bright_ti5":"289.82","frp":"0.76","daynight":"N","commune":"Anglefort","code_insee":"01010","departement":"Ain","region":"Auvergne-Rhône-Alpes"}},{"type":"Feature","geometry":{"type":"Point","coordinates":[-1.03537,48.10876]},"properties":{"latitude":"48.10876","longitude":"-1.03537","bright_ti4":"300.25","scan":"0.38","track":"0.36","acq_date":"2026-08-07","acq_time":"211","satellite":"N21","instrument":"VIIRS","confidence":"n","version":"2.0NRT","bright_ti5":"286.04","frp":"0.61","daynight":"N","commune":"Saint-Pierre-la-Cour","code_insee":"53247","departement":"Mayenne","region":"Pays de la Loire"}},{"type":"Feature","geometry":{"type":"Point","coordinates":[6.11427,48.6086]},"properties":{"latitude":"48.6086","longitude":"6.11427","bright_ti4":"305.03","scan":"0.57","track":"0.43","acq_date":"2026-08-07","acq_time":"211","satellite":"N21","instrument":"VIIRS","confidence":"n","version":"2.0NRT","bright_ti5":"288.78","frp":"2.06","daynight":"N","commune":"Neuves-Maisons","code_insee":"54397","departement":"Meurthe-et-Moselle","region":"Grand Est"}},{"type":"Feature","geometry":{"type":"Point","coordinates":[6.96656,48.69257]},"properties":{"latitude":"48.69257","longitude":"6.96656","bright_ti4":"297.67","scan":"0.41","track":"0.45","acq_date":"2026-08-07","acq_time":"211","satellite":"N21","instrument":"VIIRS","confidence":"n","version":"2.0NRT","bright_ti5":"284.4","frp":"0.84","daynight":"N","commune":"Héming","code_insee":"57314","departement":"Moselle","region":"Grand Est"}},{"type":"Feature","geometry":{"type":"Point","coordinates":[5.68488,48.71654]},"properties":{"latitude":"48.71654","longitude":"5.68488","bright_ti4":"300.62","scan":"0.55","track":"0.42","acq_date":"2026-08-07","acq_time":"211","satellite":"N21","instrument":"VIIRS","confidence":"n","version":"2.0NRT","bright_ti5":"283.34","frp":"0.63","daynight":"N","commune":"Sorcy-Saint-Martin","code_insee":"55496","departement":"Meuse","region":"Grand Est"}},{"type":"Feature","geometry":{"type":"Point","coordinates":[4.56339,48.76931]},"properties":{"latitude":"48.76931","longitude":"4.56339","bright_ti4":"297.78","scan":"0.5","track":"0.41","acq_date":"2026-08-07","acq_time":"211","satellite":"N21","instrument":"VIIRS","confidence":"n","version":"2.0NRT","bright_ti5":"285.97","frp":"1.1","daynight":"N","commune":"Couvrot","code_insee":"51195","departement":"Marne","region":"Grand Est"}},{"type":"Feature","geometry":{"type":"Point","coordinates":[4.37673,48.82436]},"properties":{"latitude":"48.82436","longitude":"4.37673","bright_ti4":"325.91","scan":"0.49","track":"0.4","acq_date":"2026-08-07","acq_time":"211","satellite":"N21","instrument":"VIIRS","confidence":"n","version":"2.0NRT","bright_ti5":"282.98","frp":"2.54","daynight":"N","commune":"Coupetz","code_insee":"51178","departement":"Marne","region":"Grand Est"}},{"type":"Feature","geometry":{"type":"Point","coordinates":[4.37846,48.8279]},"properties":{"latitude":"48.8279","longitude":"4.37846","bright_ti4":"313.23","scan":"0.49","track":"0.4","acq_date":"2026-08-07","acq_time":"211","satellite":"N21","instrument":"VIIRS","confidence":"n","version":"2.0NRT","bright_ti5":"281.16","frp":"2.54","daynight":"N","commune":"Coupetz","code_insee":"51178","departement":"Marne","region":"Grand Est"}},{"type":"Feature","geometry":{"type":"Point","coordinates":[0.53709,49.47681]},"properties":{"latitude":"49.47681","longitude":"0.53709","bright_ti4":"302.45","scan":"0.39","track":"0.36","acq_date":"2026-08-07","acq_time":"211","satellite":"N21","instrument":"VIIRS","confidence":"n","version":"2.0NRT","bright_ti5":"285.55","frp":"0.84","daynight":"N","commune":"Port-Jérôme-sur-Seine","code_insee":"76476","departement":"Seine-Maritime","region":"Normandie"}},{"type":"Feature","geometry":{"type":"Point","coordinates":[2.26894,51.02602]},"properties":{"latitude":"51.02602","longitude":"2.26894","bright_ti4":"329.26","scan":"0.4","track":"0.37","acq_date":"2026-08-07","acq_time":"211","satellite":"N21","instrument":"VIIRS","confidence":"n","version":"2.0NRT","bright_ti5":"286.78","frp":"2.14","daynight":"N","commune":"Grande-Synthe","code_insee":"59271","departement":"Nord","region":"Hauts-de-France"}},{"type":"Feature","geometry":{"type":"Point","coordinates":[2.27043,51.0293]},"properties":{"latitude":"51.0293","longitude":"2.27043","bright_ti4":"307.79","scan":"0.4","track":"0.37","acq_date":"2026-08-07","acq_time":"211","satellite":"N21","instrument":"VIIRS","confidence":"n","version":"2.0NRT","bright_ti5":"286.56","frp":"2.14","daynight":"N","commune":"Grande-Synthe","code_insee":"59271","departement":"Nord","region":"Hauts-de-France"}},{"type":"Feature","geometry":{"type":"Point","coordinates":[2.2775,51.03158]},"properties":{"latitude":"51.03158","longitude":"2.2775","bright_ti4":"314.97","scan":"0.4","track":"0.37","acq_date":"2026-08-07","acq_time":"211","satellite":"N21","instrument":"VIIRS","confidence":"n","version":"2.0NRT","bright_ti5":"286.89","frp":"1.63","daynight":"N","commune":"Grande-Synthe","code_insee":"59271","departement":"Nord","region":"Hauts-de-France"}},{"type":"Feature","geometry":{"type":"Point","coordinates":[2.2537,51.03232]},"properties":{"latitude":"51.03232","longitude":"2.2537","bright_ti4":"302.3","scan":"0.4","track":"0.37","acq_date":"2026-08-07","acq_time":"211","satellite":"N21","instrument":"VIIRS","confidence":"n","version":"2.0NRT","bright_ti5":"286.35","frp":"0.81","daynight":"N","commune":"Dunkerque","code_insee":"59183","departement":"Nord","region":"Hauts-de-France"}},{"type":"Feature","geometry":{"type":"Point","coordinates":[2.28456,51.03385]},"properties":{"latitude":"51.03385","longitude":"2.28456","bright_ti4":"302.93","scan":"0.4","track":"0.37","acq_date":"2026-08-07","acq_time":"211","satellite":"N21","instrument":"VIIRS","confidence":"n","version":"2.0NRT","bright_ti5":"286.69","frp":"1.63","daynight":"N","commune":"Grande-Synthe","code_insee":"59271","departement":"Nord","region":"Hauts-de-France"}},{"type":"Feature","geometry":{"type":"Point","coordinates":[2.29164,51.03613]},"properties":{"latitude":"51.03613","longitude":"2.29164","bright_ti4":"306.81","scan":"0.4","track":"0.37","acq_date":"2026-08-07","acq_time":"211","satellite":"N21","instrument":"VIIRS","confidence":"n","version":"2.0NRT","bright_ti5":"285.95","frp":"1.52","daynight":"N","commune":"Grande-Synthe","code_insee":"59271","departement":"Nord","region":"Hauts-de-France"}},{"type":"Feature","geometry":{"type":"Point","coordinates":[2.28048,51.03814]},"properties":{"latitude":"51.03814","longitude":"2.28048","bright_ti4":"307.82","scan":"0.4","track":"0.37","acq_date":"2026-08-07","acq_time":"211","satellite":"N21","instrument":"VIIRS","confidence":"n","version":"2.0NRT","bright_ti5":"285.08","frp":"1.62","daynight":"N","commune":"Grande-Synthe","code_insee":"59271","departement":"Nord","region":"Hauts-de-France"}},{"type":"Feature","geometry":{"type":"Point","coordinates":[2.29462,51.04269]},"properties":{"latitude":"51.04269","longitude":"2.29462","bright_ti4":"303.99","scan":"0.4","track":"0.37","acq_date":"2026-08-07","acq_time":"211","satellite":"N21","instrument":"VIIRS","confidence":"n","version":"2.0NRT","bright_ti5":"288.61","frp":"7.74","daynight":"N","commune":"Grande-Synthe","code_insee":"59271","departement":"Nord","region":"Hauts-de-France"}},{"type":"Feature","geometry":{"type":"Point","coordinates":[2.29612,51.04597]},"properties":{"latitude":"51.04597","longitude":"2.29612","bright_ti4":"338.2","scan":"0.4","track":"0.37","acq_date":"2026-08-07","acq_time":"211","satellite":"N21","instrument":"VIIRS","confidence":"n","version":"2.0NRT","bright_ti5":"289.73","frp":"7.74","daynight":"N","commune":"Grande-Synthe","code_insee":"59271","departement":"Nord","region":"Hauts-de-France"}},{"type":"Feature","geometry":{"type":"Point","coordinates":[2.31436,51.04623]},"properties":{"latitude":"51.04623","longitude":"2.31436","bright_ti4":"332.46","scan":"0.4","track":"0.37","acq_date":"2026-08-07","acq_time":"211","satellite":"N21","instrument":"VIIRS","confidence":"n","version":"2.0NRT","bright_ti5":"287.93","frp":"4.51","daynight":"N","commune":"Dunkerque","code_insee":"59183","departement":"Nord","region":"Hauts-de-France"}},{"type":"Feature","geometry":{"type":"Point","coordinates":[5.00984,43.37967]},"properties":{"latitude":"43.37967","longitude":"5.00984","bright_ti4":"338.38","scan":"0.45","track":"0.47","acq_date":"2026-08-07","acq_time":"213","satellite":"N21","instrument":"VIIRS","confidence":"n","version":"2.0NRT","bright_ti5":"297.71","frp":"5.68","daynight":"N","commune":"Martigues","code_insee":"13056","departement":"Bouches-du-Rhône","region":"Provence-Alpes-Côte d'Azur"}},{"type":"Feature","geometry":{"type":"Point","coordinates":[4.88817,43.43542]},"properties":{"latitude":"43.43542","longitude":"4.88817","bright_ti4":"319.96","scan":"0.45","track":"0.47","acq_date":"2026-08-07","acq_time":"213","satellite":"N21","instrument":"VIIRS","confidence":"n","version":"2.0NRT","bright_ti5":"295.68","frp":"2.95","daynight":"N","commune":"Fos-sur-Mer","code_insee":"13039","departement":"Bouches-du-Rhône","region":"Provence-Alpes-Côte d'Azur"}},{"type":"Feature","geometry":{"type":"Point","coordinates":[4.88999,43.43951]},"properties":{"latitude":"43.43951","longitude":"4.88999","bright_ti4":"328.03","scan":"0.45","track":"0.47","acq_date":"2026-08-07","acq_time":"213","satellite":"N21","instrument":"VIIRS","confidence":"n","version":"2.0NRT","bright_ti5":"297.04","frp":"3.61","daynight":"N","commune":"Fos-sur-Mer","code_insee":"13039","departement":"Bouches-du-Rhône","region":"Provence-Alpes-Côte d'Azur"}},{"type":"Feature","geometry":{"type":"Point","coordinates":[1.22853,43.98719]},"properties":{"latitude":"43.98719","longitude":"1.22853","bright_ti4":"299.15","scan":"0.46","track":"0.39","acq_date":"2026-08-07","acq_time":"213","satellite":"N21","instrument":"VIIRS","confidence":"n","version":"2.0NRT","bright_ti5":"289.02","frp":"0.78","daynight":"N","commune":"Montech","code_insee":"82125","departement":"Tarn-et-Garonne","region":"Occitanie"}}]}