{"type":"FeatureCollection","features":[{"type":"Feature","geometry":{"type":"Point","coordinates":[6.108,48.61272]},"properties":{"latitude":"48.61272","longitude":"6.108","bright_ti4":"300.57","scan":"0.41","track":"0.6","acq_date":"2026-06-26","acq_time":"52","satellite":"N","instrument":"VIIRS","confidence":"n","version":"2.0NRT","bright_ti5":"271.06","frp":"0.54","daynight":"N","commune":"Neuves-Maisons","code_insee":"54397","departement":"Meurthe-et-Moselle","region":"Grand Est"}},{"type":"Feature","geometry":{"type":"Point","coordinates":[2.24965,51.03224]},"properties":{"latitude":"51.03224","longitude":"2.24965","bright_ti4":"301.82","scan":"0.61","track":"0.71","acq_date":"2026-06-26","acq_time":"52","satellite":"N","instrument":"VIIRS","confidence":"n","version":"2.0NRT","bright_ti5":"291.39","frp":"2.77","daynight":"N","commune":"Dunkerque","code_insee":"59183","departement":"Nord","region":"Hauts-de-France"}},{"type":"Feature","geometry":{"type":"Point","coordinates":[2.27717,51.03263]},"properties":{"latitude":"51.03263","longitude":"2.27717","bright_ti4":"303.32","scan":"0.61","track":"0.71","acq_date":"2026-06-26","acq_time":"52","satellite":"N","instrument":"VIIRS","confidence":"n","version":"2.0NRT","bright_ti5":"291.79","frp":"5.36","daynight":"N","commune":"Grande-Synthe","code_insee":"59271","departement":"Nord","region":"Hauts-de-France"}},{"type":"Feature","geometry":{"type":"Point","coordinates":[2.28634,51.03276]},"properties":{"latitude":"51.03276","longitude":"2.28634","bright_ti4":"306.12","scan":"0.61","track":"0.71","acq_date":"2026-06-26","acq_time":"52","satellite":"N","instrument":"VIIRS","confidence":"n","version":"2.0NRT","bright_ti5":"291.82","frp":"2.2","daynight":"N","commune":"Grande-Synthe","code_insee":"59271","departement":"Nord","region":"Hauts-de-France"}},{"type":"Feature","geometry":{"type":"Point","coordinates":[2.28117,51.03679]},"properties":{"latitude":"51.03679","longitude":"2.28117","bright_ti4":"318.55","scan":"0.61","track":"0.71","acq_date":"2026-06-26","acq_time":"52","satellite":"N","instrument":"VIIRS","confidence":"n","version":"2.0NRT","bright_ti5":"292.01","frp":"2.51","daynight":"N","commune":"Grande-Synthe","code_insee":"59271","departement":"Nord","region":"Hauts-de-France"}},{"type":"Feature","geometry":{"type":"Point","coordinates":[2.28618,51.03946]},"properties":{"latitude":"51.03946","longitude":"2.28618","bright_ti4":"307.12","scan":"0.61","track":"0.71","acq_date":"2026-06-26","acq_time":"52","satellite":"N","instrument":"VIIRS","confidence":"n","version":"2.0NRT","bright_ti5":"292.09","frp":"2.2","daynight":"N","commune":"Grande-Synthe","code_insee":"59271","departement":"Nord","region":"Hauts-de-France"}},{"type":"Feature","geometry":{"type":"Point","coordinates":[2.29015,51.04358]},"properties":{"latitude":"51.04358","longitude":"2.29015","bright_ti4":"309.35","scan":"0.61","track":"0.71","acq_date":"2026-06-26","acq_time":"52","satellite":"N","instrument":"VIIRS","confidence":"n","version":"2.0NRT","bright_ti5":"291.81","frp":"2.51","daynight":"N","commune":"Grande-Synthe","code_insee":"59271","departement":"Nord","region":"Hauts-de-France"}},{"type":"Feature","geometry":{"type":"Point","coordinates":[2.29522,51.04628]},"properties":{"latitude":"51.04628","longitude":"2.29522","bright_ti4":"315.98","scan":"0.61","track":"0.71","acq_date":"2026-06-26","acq_time":"52","satellite":"N","instrument":"VIIRS","confidence":"n","version":"2.0NRT","bright_ti5":"291.71","frp":"3.79","daynight":"N","commune":"Grande-Synthe","code_insee":"59271","departement":"Nord","region":"Hauts-de-France"}},{"type":"Feature","geometry":{"type":"Point","coordinates":[2.31353,51.04652]},"properties":{"latitude":"51.04652","longitude":"2.31353","bright_ti4":"304.96","scan":"0.61","track":"0.71","acq_date":"2026-06-26","acq_time":"52","satellite":"N","instrument":"VIIRS","confidence":"n","version":"2.0NRT","bright_ti5":"291.32","frp":"1.34","daynight":"N","commune":"Dunkerque","code_insee":"59183","departement":"Nord","region":"Hauts-de-France"}},{"type":"Feature","geometry":{"type":"Point","coordinates":[4.87573,43.44177]},"properties":{"latitude":"43.44177","longitude":"4.87573","bright_ti4":"306.59","scan":"0.43","track":"0.62","acq_date":"2026-06-26","acq_time":"54","satellite":"N","instrument":"VIIRS","confidence":"n","version":"2.0NRT","bright_ti5":"289.09","frp":"1.04","daynight":"N","commune":"Fos-sur-Mer","code_insee":"13039","departement":"Bouches-du-Rhône","region":"Provence-Alpes-Côte d'Azur"}},{"type":"Feature","geometry":{"type":"Point","coordinates":[4.89267,43.44695]},"properties":{"latitude":"43.44695","longitude":"4.89267","bright_ti4":"304.94","scan":"0.43","track":"0.62","acq_date":"2026-06-26","acq_time":"54","satellite":"N","instrument":"VIIRS","confidence":"n","version":"2.0NRT","bright_ti5":"291.05","frp":"1.62","daynight":"N","commune":"Fos-sur-Mer","code_insee":"13039","departement":"Bouches-du-Rhône","region":"Provence-Alpes-Côte d'Azur"}},{"type":"Feature","geometry":{"type":"Point","coordinates":[4.84581,43.9977]},"properties":{"latitude":"43.9977","longitude":"4.84581","bright_ti4":"319.18","scan":"0.44","track":"0.62","acq_date":"2026-06-26","acq_time":"54","satellite":"N","instrument":"VIIRS","confidence":"n","version":"2.0NRT","bright_ti5":"291.17","frp":"1.14","daynight":"N","commune":"Sorgues","code_insee":"84129","departement":"Vaucluse","region":"Provence-Alpes-Côte d'Azur"}},{"type":"Feature","geometry":{"type":"Point","coordinates":[4.84536,43.99839]},"properties":{"latitude":"43.99839","longitude":"4.84536","bright_ti4":"325.3","scan":"0.44","track":"0.62","acq_date":"2026-06-26","acq_time":"54","satellite":"N","instrument":"VIIRS","confidence":"n","version":"2.0NRT","bright_ti5":"291.55","frp":"2.01","daynight":"N","commune":"Sorgues","code_insee":"84129","departement":"Vaucluse","region":"Provence-Alpes-Côte d'Azur"}},{"type":"Feature","geometry":{"type":"Point","coordinates":[1.75796,48.98256]},"properties":{"latitude":"48.98256","longitude":"1.75796","bright_ti4":"321.43","scan":"0.51","track":"0.41","acq_date":"2026-06-26","acq_time":"232","satellite":"N","instrument":"VIIRS","confidence":"n","version":"2.0NRT","bright_ti5":"294.05","frp":"3.34","daynight":"N","commune":"Porcheville","code_insee":"78501","departement":"Yvelines","region":"Île-de-France"}},{"type":"Feature","geometry":{"type":"Point","coordinates":[1.75876,48.98545]},"properties":{"latitude":"48.98545","longitude":"1.75876","bright_ti4":"330","scan":"0.51","track":"0.41","acq_date":"2026-06-26","acq_time":"232","satellite":"N","instrument":"VIIRS","confidence":"n","version":"2.0NRT","bright_ti5":"296.07","frp":"4.58","daynight":"N","commune":"Limay","code_insee":"78335","departement":"Yvelines","region":"Île-de-France"}},{"type":"Feature","geometry":{"type":"Point","coordinates":[1.7597,48.98621]},"properties":{"latitude":"48.98621","longitude":"1.7597","bright_ti4":"316.9","scan":"0.51","track":"0.41","acq_date":"2026-06-26","acq_time":"232","satellite":"N","instrument":"VIIRS","confidence":"n","version":"2.0NRT","bright_ti5":"295.52","frp":"2.98","daynight":"N","commune":"Limay","code_insee":"78335","departement":"Yvelines","region":"Île-de-France"}},{"type":"Feature","geometry":{"type":"Point","coordinates":[3.56425,50.40039]},"properties":{"latitude":"50.40039","longitude":"3.56425","bright_ti4":"305.77","scan":"0.55","track":"0.42","acq_date":"2026-06-26","acq_time":"232","satellite":"N","instrument":"VIIRS","confidence":"n","version":"2.0NRT","bright_ti5":"295.19","frp":"1.56","daynight":"N","commune":"Saint-Saulve","code_insee":"59544","departement":"Nord","region":"Hauts-de-France"}},{"type":"Feature","geometry":{"type":"Point","coordinates":[3.55883,50.40254]},"properties":{"latitude":"50.40254","longitude":"3.55883","bright_ti4":"311.17","scan":"0.55","track":"0.42","acq_date":"2026-06-26","acq_time":"232","satellite":"N","instrument":"VIIRS","confidence":"n","version":"2.0NRT","bright_ti5":"295.52","frp":"1.63","daynight":"N","commune":"Saint-Saulve","code_insee":"59544","departement":"Nord","region":"Hauts-de-France"}},{"type":"Feature","geometry":{"type":"Point","coordinates":[2.27976,51.03183]},"properties":{"latitude":"51.03183","longitude":"2.27976","bright_ti4":"304.55","scan":"0.48","track":"0.4","acq_date":"2026-06-26","acq_time":"232","satellite":"N","instrument":"VIIRS","confidence":"n","version":"2.0NRT","bright_ti5":"294.09","frp":"1.77","daynight":"N","commune":"Grande-Synthe","code_insee":"59271","departement":"Nord","region":"Hauts-de-France"}},{"type":"Feature","geometry":{"type":"Point","coordinates":[2.28828,51.03397]},"properties":{"latitude":"51.03397","longitude":"2.28828","bright_ti4":"321.37","scan":"0.48","track":"0.4","acq_date":"2026-06-26","acq_time":"232","satellite":"N","instrument":"VIIRS","confidence":"n","version":"2.0NRT","bright_ti5":"294.29","frp":"1.77","daynight":"N","commune":"Grande-Synthe","code_insee":"59271","departement":"Nord","region":"Hauts-de-France"}},{"type":"Feature","geometry":{"type":"Point","coordinates":[2.29208,51.04105]},"properties":{"latitude":"51.04105","longitude":"2.29208","bright_ti4":"304.27","scan":"0.48","track":"0.4","acq_date":"2026-06-26","acq_time":"232","satellite":"N","instrument":"VIIRS","confidence":"n","version":"2.0NRT","bright_ti5":"293.85","frp":"1.27","daynight":"N","commune":"Grande-Synthe","code_insee":"59271","departement":"Nord","region":"Hauts-de-France"}},{"type":"Feature","geometry":{"type":"Point","coordinates":[2.29397,51.04459]},"properties":{"latitude":"51.04459","longitude":"2.29397","bright_ti4":"343.66","scan":"0.48","track":"0.4","acq_date":"2026-06-26","acq_time":"232","satellite":"N","instrument":"VIIRS","confidence":"n","version":"2.0NRT","bright_ti5":"294.44","frp":"30.18","daynight":"N","commune":"Grande-Synthe","code_insee":"59271","departement":"Nord","region":"Hauts-de-France"}},{"type":"Feature","geometry":{"type":"Point","coordinates":[2.30251,51.04672]},"properties":{"latitude":"51.04672","longitude":"2.30251","bright_ti4":"308.61","scan":"0.48","track":"0.4","acq_date":"2026-06-26","acq_time":"232","satellite":"N","instrument":"VIIRS","confidence":"n","version":"2.0NRT","bright_ti5":"292.86","frp":"2.25","daynight":"N","commune":"Grande-Synthe","code_insee":"59271","departement":"Nord","region":"Hauts-de-France"}},{"type":"Feature","geometry":{"type":"Point","coordinates":[2.31768,51.04744]},"properties":{"latitude":"51.04744","longitude":"2.31768","bright_ti4":"321.01","scan":"0.48","track":"0.4","acq_date":"2026-06-26","acq_time":"232","satellite":"N","instrument":"VIIRS","confidence":"n","version":"2.0NRT","bright_ti5":"295.02","frp":"3.06","daynight":"N","commune":"Dunkerque","code_insee":"59183","departement":"Nord","region":"Hauts-de-France"}},{"type":"Feature","geometry":{"type":"Point","coordinates":[0.98919,43.18782]},"properties":{"latitude":"43.18782","longitude":"0.98919","bright_ti4":"302.22","scan":"0.42","track":"0.45","acq_date":"2026-06-26","acq_time":"234","satellite":"N","instrument":"VIIRS","confidence":"n","version":"2.0NRT","bright_ti5":"291.49","frp":"0.62","daynight":"N","commune":"Martres-Tolosane","code_insee":"31324","departement":"Haute-Garonne","region":"Occitanie"}},{"type":"Feature","geometry":{"type":"Point","coordinates":[4.89725,43.43367]},"properties":{"latitude":"43.43367","longitude":"4.89725","bright_ti4":"305.41","scan":"0.62","track":"0.54","acq_date":"2026-06-26","acq_time":"234","satellite":"N","instrument":"VIIRS","confidence":"n","version":"2.0NRT","bright_ti5":"293.86","frp":"1.5","daynight":"N","commune":"Fos-sur-Mer","code_insee":"13039","departement":"Bouches-du-Rhône","region":"Provence-Alpes-Côte d'Azur"}},{"type":"Feature","geometry":{"type":"Point","coordinates":[4.89224,43.4404]},"properties":{"latitude":"43.4404","longitude":"4.89224","bright_ti4":"307.76","scan":"0.62","track":"0.54","acq_date":"2026-06-26","acq_time":"234","satellite":"N","instrument":"VIIRS","confidence":"n","version":"2.0NRT","bright_ti5":"294.26","frp":"1.5","daynight":"N","commune":"Fos-sur-Mer","code_insee":"13039","departement":"Bouches-du-Rhône","region":"Provence-Alpes-Côte d'Azur"}},{"type":"Feature","geometry":{"type":"Point","coordinates":[4.89464,43.44514]},"properties":{"latitude":"43.44514","longitude":"4.89464","bright_ti4":"316.68","scan":"0.62","track":"0.54","acq_date":"2026-06-26","acq_time":"234","satellite":"N","instrument":"VIIRS","confidence":"n","version":"2.0NRT","bright_ti5":"293.78","frp":"1.92","daynight":"N","commune":"Fos-sur-Mer","code_insee":"13039","departement":"Bouches-du-Rhône","region":"Provence-Alpes-Côte d'Azur"}},{"type":"Feature","geometry":{"type":"Point","coordinates":[4.89706,43.44987]},"properties":{"latitude":"43.44987","longitude":"4.89706","bright_ti4":"306.46","scan":"0.62","track":"0.54","acq_date":"2026-06-26","acq_time":"234","satellite":"N","instrument":"VIIRS","confidence":"n","version":"2.0NRT","bright_ti5":"293.5","frp":"1.92","daynight":"N","commune":"Fos-sur-Mer","code_insee":"13039","departement":"Bouches-du-Rhône","region":"Provence-Alpes-Côte d'Azur"}},{"type":"Feature","geometry":{"type":"Point","coordinates":[2.05231,43.77927]},"properties":{"latitude":"43.77927","longitude":"2.05231","bright_ti4":"315.89","scan":"0.45","track":"0.47","acq_date":"2026-06-26","acq_time":"234","satellite":"N","instrument":"VIIRS","confidence":"n","version":"2.0NRT","bright_ti5":"286.02","frp":"2.09","daynight":"N","commune":"Labessière-Candeil","code_insee":"81117","departement":"Tarn","region":"Occitanie"}},{"type":"Feature","geometry":{"type":"Point","coordinates":[-0.75051,44.07913]},"properties":{"latitude":"44.07913","longitude":"-0.75051","bright_ti4":"295.97","scan":"0.51","track":"0.41","acq_date":"2026-06-26","acq_time":"234","satellite":"N","instrument":"VIIRS","confidence":"n","version":"2.0NRT","bright_ti5":"284.93","frp":"0.7","daynight":"N","commune":"Luglon","code_insee":"40165","departement":"Landes","region":"Nouvelle-Aquitaine"}},{"type":"Feature","geometry":{"type":"Point","coordinates":[-0.97496,44.62949]},"properties":{"latitude":"44.62949","longitude":"-0.97496","bright_ti4":"330.8","scan":"0.49","track":"0.4","acq_date":"2026-06-26","acq_time":"234","satellite":"N","instrument":"VIIRS","confidence":"n","version":"2.0NRT","bright_ti5":"294.06","frp":"7.6","daynight":"N","commune":"Biganos","code_insee":"33051","departement":"Gironde","region":"Nouvelle-Aquitaine"}},{"type":"Feature","geometry":{"type":"Point","coordinates":[-2.70464,48.02877]},"properties":{"latitude":"48.02877","longitude":"-2.70464","bright_ti4":"303.54","scan":"0.4","track":"0.37","acq_date":"2026-06-26","acq_time":"234","satellite":"N","instrument":"VIIRS","confidence":"n","version":"2.0NRT","bright_ti5":"289.43","frp":"0.58","daynight":"N","commune":"Bréhan","code_insee":"56024","departement":"Morbihan","region":"Bretagne"}},{"type":"Feature","geometry":{"type":"Point","coordinates":[4.90143,43.44452]},"properties":{"latitude":"43.44452","longitude":"4.90143","bright_ti4":"340.08","scan":"0.53","track":"0.42","acq_date":"2026-06-26","acq_time":"1217","satellite":"N","instrument":"VIIRS","confidence":"l","version":"2.0NRT","bright_ti5":"312.54","frp":"7.71","daynight":"D","commune":"Fos-sur-Mer","code_insee":"13039","departement":"Bouches-du-Rhône","region":"Provence-Alpes-Côte d'Azur"}},{"type":"Feature","geometry":{"type":"Point","coordinates":[2.05749,43.77841]},"properties":{"latitude":"43.77841","longitude":"2.05749","bright_ti4":"336.99","scan":"0.46","track":"0.47","acq_date":"2026-06-26","acq_time":"1217","satellite":"N","instrument":"VIIRS","confidence":"n","version":"2.0NRT","bright_ti5":"308.48","frp":"4.24","daynight":"D","commune":"Montdragon","code_insee":"81174","departement":"Tarn","region":"Occitanie"}},{"type":"Feature","geometry":{"type":"Point","coordinates":[0.22172,44.47546]},"properties":{"latitude":"44.47546","longitude":"0.22172","bright_ti4":"356.91","scan":"0.54","track":"0.5","acq_date":"2026-06-26","acq_time":"1217","satellite":"N","instrument":"VIIRS","confidence":"l","version":"2.0NRT","bright_ti5":"298.67","frp":"9.18","daynight":"D","commune":"Saint-Pardoux-du-Breuil","code_insee":"47263","departement":"Lot-et-Garonne","region":"Nouvelle-Aquitaine"}},{"type":"Feature","geometry":{"type":"Point","coordinates":[0.21955,44.47991]},"properties":{"latitude":"44.47991","longitude":"0.21955","bright_ti4":"336.53","scan":"0.54","track":"0.5","acq_date":"2026-06-26","acq_time":"1217","satellite":"N","instrument":"VIIRS","confidence":"n","version":"2.0NRT","bright_ti5":"299.51","frp":"4.35","daynight":"D","commune":"Saint-Pardoux-du-Breuil","code_insee":"47263","departement":"Lot-et-Garonne","region":"Nouvelle-Aquitaine"}},{"type":"Feature","geometry":{"type":"Point","coordinates":[3.99708,46.80928]},"properties":{"latitude":"46.80928","longitude":"3.99708","bright_ti4":"342.2","scan":"0.49","track":"0.41","acq_date":"2026-06-26","acq_time":"1217","satellite":"N","instrument":"VIIRS","confidence":"n","version":"2.0NRT","bright_ti5":"311.83","frp":"16.55","daynight":"D","commune":"Luzy","code_insee":"58149","departement":"Nièvre","region":"Bourgogne-Franche-Comté"}},{"type":"Feature","geometry":{"type":"Point","coordinates":[6.08687,43.23866]},"properties":{"latitude":"43.23866","longitude":"6.08687","bright_ti4":"338.51","scan":"0.48","track":"0.4","acq_date":"2026-06-26","acq_time":"1219","satellite":"N","instrument":"VIIRS","confidence":"n","version":"2.0NRT","bright_ti5":"307.86","frp":"3.22","daynight":"D","commune":"Cuers","code_insee":"83049","departement":"Var","region":"Provence-Alpes-Côte d'Azur"}},{"type":"Feature","geometry":{"type":"Point","coordinates":[3.64737,47.67913]},"properties":{"latitude":"47.67913","longitude":"3.64737","bright_ti4":"340.25","scan":"0.49","track":"0.4","acq_date":"2026-06-26","acq_time":"1219","satellite":"N","instrument":"VIIRS","confidence":"l","version":"2.0NRT","bright_ti5":"310.59","frp":"8.86","daynight":"D","commune":"Vincelles","code_insee":"89478","departement":"Yonne","region":"Bourgogne-Franche-Comté"}},{"type":"Feature","geometry":{"type":"Point","coordinates":[6.11263,48.60998]},"properties":{"latitude":"48.60998","longitude":"6.11263","bright_ti4":"341.41","scan":"0.41","track":"0.37","acq_date":"2026-06-26","acq_time":"1219","satellite":"N","instrument":"VIIRS","confidence":"l","version":"2.0NRT","bright_ti5":"313.22","frp":"8.77","daynight":"D","commune":"Neuves-Maisons","code_insee":"54397","departement":"Meurthe-et-Moselle","region":"Grand Est"}},{"type":"Feature","geometry":{"type":"Point","coordinates":[3.0902,49.24155]},"properties":{"latitude":"49.24155","longitude":"3.0902","bright_ti4":"330.98","scan":"0.48","track":"0.4","acq_date":"2026-06-26","acq_time":"1219","satellite":"N","instrument":"VIIRS","confidence":"l","version":"2.0NRT","bright_ti5":"305.41","frp":"6.02","daynight":"D","commune":"Villers-Cotterêts","code_insee":"02810","departement":"Aisne","region":"Hauts-de-France"}},{"type":"Feature","geometry":{"type":"Point","coordinates":[2.27354,51.0283]},"properties":{"latitude":"51.0283","longitude":"2.27354","bright_ti4":"333.25","scan":"0.47","track":"0.4","acq_date":"2026-06-26","acq_time":"1219","satellite":"N","instrument":"VIIRS","confidence":"l","version":"2.0NRT","bright_ti5":"303.57","frp":"4.49","daynight":"D","commune":"Grande-Synthe","code_insee":"59271","departement":"Nord","region":"Hauts-de-France"}},{"type":"Feature","geometry":{"type":"Point","coordinates":[2.29124,51.03587]},"properties":{"latitude":"51.03587","longitude":"2.29124","bright_ti4":"331.95","scan":"0.47","track":"0.4","acq_date":"2026-06-26","acq_time":"1219","satellite":"N","instrument":"VIIRS","confidence":"l","version":"2.0NRT","bright_ti5":"302.85","frp":"5.43","daynight":"D","commune":"Grande-Synthe","code_insee":"59271","departement":"Nord","region":"Hauts-de-France"}},{"type":"Feature","geometry":{"type":"Point","coordinates":[2.3006,51.0456]},"properties":{"latitude":"51.0456","longitude":"2.3006","bright_ti4":"336.39","scan":"0.47","track":"0.4","acq_date":"2026-06-26","acq_time":"1219","satellite":"N","instrument":"VIIRS","confidence":"n","version":"2.0NRT","bright_ti5":"300.13","frp":"5.69","daynight":"D","commune":"Grande-Synthe","code_insee":"59271","departement":"Nord","region":"Hauts-de-France"}},{"type":"Feature","geometry":{"type":"Point","coordinates":[0.22465,49.48765]},"properties":{"latitude":"49.48765","longitude":"0.22465","bright_ti4":"335.32","scan":"0.51","track":"0.66","acq_date":"2026-06-26","acq_time":"1359","satellite":"N","instrument":"VIIRS","confidence":"n","version":"2.0NRT","bright_ti5":"296.09","frp":"4.42","daynight":"D","commune":"Gonfreville-l'Orcher","code_insee":"76305","departement":"Seine-Maritime","region":"Normandie"}},{"type":"Feature","geometry":{"type":"Point","coordinates":[0.22564,49.48974]},"properties":{"latitude":"49.48974","longitude":"0.22564","bright_ti4":"331.29","scan":"0.51","track":"0.66","acq_date":"2026-06-26","acq_time":"1359","satellite":"N","instrument":"VIIRS","confidence":"n","version":"2.0NRT","bright_ti5":"295.95","frp":"1.42","daynight":"D","commune":"Gonfreville-l'Orcher","code_insee":"76305","departement":"Seine-Maritime","region":"Normandie"}},{"type":"Feature","geometry":{"type":"Point","coordinates":[1.76141,48.98423]},"properties":{"latitude":"48.98423","longitude":"1.76141","bright_ti4":"299.57","scan":"0.34","track":"0.56","acq_date":"2026-06-26","acq_time":"109","satellite":"N20","instrument":"VIIRS","confidence":"n","version":"2.0NRT","bright_ti5":"279.67","frp":"0.45","daynight":"N","commune":"Porcheville","code_insee":"78501","departement":"Yvelines","region":"Île-de-France"}},{"type":"Feature","geometry":{"type":"Point","coordinates":[2.28802,51.03116]},"properties":{"latitude":"51.03116","longitude":"2.28802","bright_ti4":"305.77","scan":"0.33","track":"0.55","acq_date":"2026-06-26","acq_time":"109","satellite":"N20","instrument":"VIIRS","confidence":"n","version":"2.0NRT","bright_ti5":"293.27","frp":"0.63","daynight":"N","commune":"Grande-Synthe","code_insee":"59271","departement":"Nord","region":"Hauts-de-France"}},{"type":"Feature","geometry":{"type":"Point","coordinates":[2.25433,51.03261]},"properties":{"latitude":"51.03261","longitude":"2.25433","bright_ti4":"308.89","scan":"0.33","track":"0.55","acq_date":"2026-06-26","acq_time":"109","satellite":"N20","instrument":"VIIRS","confidence":"n","version":"2.0NRT","bright_ti5":"292.88","frp":"0.78","daynight":"N","commune":"Dunkerque","code_insee":"59183","departement":"Nord","region":"Hauts-de-France"}},{"type":"Feature","geometry":{"type":"Point","coordinates":[2.28857,51.0363]},"properties":{"latitude":"51.0363","longitude":"2.28857","bright_ti4":"331.25","scan":"0.33","track":"0.55","acq_date":"2026-06-26","acq_time":"109","satellite":"N20","instrument":"VIIRS","confidence":"n","version":"2.0NRT","bright_ti5":"294.09","frp":"3.16","daynight":"N","commune":"Grande-Synthe","code_insee":"59271","departement":"Nord","region":"Hauts-de-France"}},{"type":"Feature","geometry":{"type":"Point","coordinates":[2.29875,51.04101]},"properties":{"latitude":"51.04101","longitude":"2.29875","bright_ti4":"306.24","scan":"0.33","track":"0.55","acq_date":"2026-06-26","acq_time":"109","satellite":"N20","instrument":"VIIRS","confidence":"n","version":"2.0NRT","bright_ti5":"293.63","frp":"0.62","daynight":"N","commune":"Grande-Synthe","code_insee":"59271","departement":"Nord","region":"Hauts-de-France"}},{"type":"Feature","geometry":{"type":"Point","coordinates":[2.32329,51.04509]},"properties":{"latitude":"51.04509","longitude":"2.32329","bright_ti4":"306.45","scan":"0.33","track":"0.55","acq_date":"2026-06-26","acq_time":"109","satellite":"N20","instrument":"VIIRS","confidence":"n","version":"2.0NRT","bright_ti5":"293.23","frp":"1.15","daynight":"N","commune":"Dunkerque","code_insee":"59183","departement":"Nord","region":"Hauts-de-France"}},{"type":"Feature","geometry":{"type":"Point","coordinates":[2.29931,51.04614]},"properties":{"latitude":"51.04614","longitude":"2.29931","bright_ti4":"329.58","scan":"0.33","track":"0.55","acq_date":"2026-06-26","acq_time":"109","satellite":"N20","instrument":"VIIRS","confidence":"n","version":"2.0NRT","bright_ti5":"295.16","frp":"3.33","daynight":"N","commune":"Grande-Synthe","code_insee":"59271","departement":"Nord","region":"Hauts-de-France"}},{"type":"Feature","geometry":{"type":"Point","coordinates":[2.2945,51.04636]},"properties":{"latitude":"51.04636","longitude":"2.2945","bright_ti4":"322.65","scan":"0.33","track":"0.55","acq_date":"2026-06-26","acq_time":"109","satellite":"N20","instrument":"VIIRS","confidence":"n","version":"2.0NRT","bright_ti5":"292.95","frp":"2.55","daynight":"N","commune":"Grande-Synthe","code_insee":"59271","departement":"Nord","region":"Hauts-de-France"}},{"type":"Feature","geometry":{"type":"Point","coordinates":[2.32111,51.04736]},"properties":{"latitude":"51.04736","longitude":"2.32111","bright_ti4":"339.11","scan":"0.33","track":"0.55","acq_date":"2026-06-26","acq_time":"109","satellite":"N20","instrument":"VIIRS","confidence":"n","version":"2.0NRT","bright_ti5":"294.02","frp":"3.88","daynight":"N","commune":"Dunkerque","code_insee":"59183","departement":"Nord","region":"Hauts-de-France"}},{"type":"Feature","geometry":{"type":"Point","coordinates":[2.29706,51.04831]},"properties":{"latitude":"51.04831","longitude":"2.29706","bright_ti4":"342.7","scan":"0.33","track":"0.55","acq_date":"2026-06-26","acq_time":"109","satellite":"N20","instrument":"VIIRS","confidence":"n","version":"2.0NRT","bright_ti5":"293.29","frp":"3.42","daynight":"N","commune":"Grande-Synthe","code_insee":"59271","departement":"Nord","region":"Hauts-de-France"}},{"type":"Feature","geometry":{"type":"Point","coordinates":[2.3238,51.05021]},"properties":{"latitude":"51.05021","longitude":"2.3238","bright_ti4":"327.07","scan":"0.33","track":"0.55","acq_date":"2026-06-26","acq_time":"109","satellite":"N20","instrument":"VIIRS","confidence":"n","version":"2.0NRT","bright_ti5":"293.49","frp":"1.15","daynight":"N","commune":"Dunkerque","code_insee":"59183","departement":"Nord","region":"Hauts-de-France"}},{"type":"Feature","geometry":{"type":"Point","coordinates":[2.31903,51.05043]},"properties":{"latitude":"51.05043","longitude":"2.31903","bright_ti4":"307.21","scan":"0.33","track":"0.55","acq_date":"2026-06-26","acq_time":"109","satellite":"N20","instrument":"VIIRS","confidence":"n","version":"2.0NRT","bright_ti5":"292.95","frp":"1.15","daynight":"N","commune":"Dunkerque","code_insee":"59183","departement":"Nord","region":"Hauts-de-France"}},{"type":"Feature","geometry":{"type":"Point","coordinates":[4.89739,43.43125]},"properties":{"latitude":"43.43125","longitude":"4.89739","bright_ti4":"308.17","scan":"0.42","track":"0.45","acq_date":"2026-06-26","acq_time":"111","satellite":"N20","instrument":"VIIRS","confidence":"n","version":"2.0NRT","bright_ti5":"293.61","frp":"1.42","daynight":"N","commune":"Fos-sur-Mer","code_insee":"13039","departement":"Bouches-du-Rhône","region":"Provence-Alpes-Côte d'Azur"}},{"type":"Feature","geometry":{"type":"Point","coordinates":[4.89814,43.43544]},"properties":{"latitude":"43.43544","longitude":"4.89814","bright_ti4":"306.29","scan":"0.42","track":"0.45","acq_date":"2026-06-26","acq_time":"111","satellite":"N20","instrument":"VIIRS","confidence":"n","version":"2.0NRT","bright_ti5":"293.68","frp":"0.69","daynight":"N","commune":"Fos-sur-Mer","code_insee":"13039","departement":"Bouches-du-Rhône","region":"Provence-Alpes-Côte d'Azur"}},{"type":"Feature","geometry":{"type":"Point","coordinates":[4.87776,43.44154]},"properties":{"latitude":"43.44154","longitude":"4.87776","bright_ti4":"303.97","scan":"0.42","track":"0.46","acq_date":"2026-06-26","acq_time":"111","satellite":"N20","instrument":"VIIRS","confidence":"n","version":"2.0NRT","bright_ti5":"291.56","frp":"1.86","daynight":"N","commune":"Fos-sur-Mer","code_insee":"13039","departement":"Bouches-du-Rhône","region":"Provence-Alpes-Côte d'Azur"}},{"type":"Feature","geometry":{"type":"Point","coordinates":[4.89958,43.44381]},"properties":{"latitude":"43.44381","longitude":"4.89958","bright_ti4":"317.43","scan":"0.42","track":"0.45","acq_date":"2026-06-26","acq_time":"111","satellite":"N20","instrument":"VIIRS","confidence":"n","version":"2.0NRT","bright_ti5":"294.43","frp":"2.49","daynight":"N","commune":"Fos-sur-Mer","code_insee":"13039","departement":"Bouches-du-Rhône","region":"Provence-Alpes-Côte d'Azur"}},{"type":"Feature","geometry":{"type":"Point","coordinates":[4.88902,43.44477]},"properties":{"latitude":"43.44477","longitude":"4.88902","bright_ti4":"304.27","scan":"0.42","track":"0.46","acq_date":"2026-06-26","acq_time":"111","satellite":"N20","instrument":"VIIRS","confidence":"n","version":"2.0NRT","bright_ti5":"293.37","frp":"1.53","daynight":"N","commune":"Fos-sur-Mer","code_insee":"13039","departement":"Bouches-du-Rhône","region":"Provence-Alpes-Côte d'Azur"}},{"type":"Feature","geometry":{"type":"Point","coordinates":[4.87847,43.44573]},"properties":{"latitude":"43.44573","longitude":"4.87847","bright_ti4":"305.11","scan":"0.42","track":"0.46","acq_date":"2026-06-26","acq_time":"111","satellite":"N20","instrument":"VIIRS","confidence":"n","version":"2.0NRT","bright_ti5":"291.02","frp":"1.14","daynight":"N","commune":"Fos-sur-Mer","code_insee":"13039","departement":"Bouches-du-Rhône","region":"Provence-Alpes-Côte d'Azur"}},{"type":"Feature","geometry":{"type":"Point","coordinates":[4.89503,43.44847]},"properties":{"latitude":"43.44847","longitude":"4.89503","bright_ti4":"318.96","scan":"0.42","track":"0.45","acq_date":"2026-06-26","acq_time":"111","satellite":"N20","instrument":"VIIRS","confidence":"n","version":"2.0NRT","bright_ti5":"294.28","frp":"1.53","daynight":"N","commune":"Fos-sur-Mer","code_insee":"13039","departement":"Bouches-du-Rhône","region":"Provence-Alpes-Côte d'Azur"}},{"type":"Feature","geometry":{"type":"Point","coordinates":[2.05396,43.77779]},"properties":{"latitude":"43.77779","longitude":"2.05396","bright_ti4":"310.19","scan":"0.59","track":"0.53","acq_date":"2026-06-26","acq_time":"111","satellite":"N20","instrument":"VIIRS","confidence":"n","version":"2.0NRT","bright_ti5":"291.63","frp":"2.3","daynight":"N","commune":"Labessière-Candeil","code_insee":"81117","departement":"Tarn","region":"Occitanie"}},{"type":"Feature","geometry":{"type":"Point","coordinates":[2.05304,43.78046]},"properties":{"latitude":"43.78046","longitude":"2.05304","bright_ti4":"309.24","scan":"0.59","track":"0.53","acq_date":"2026-06-26","acq_time":"111","satellite":"N20","instrument":"VIIRS","confidence":"n","version":"2.0NRT","bright_ti5":"291.49","frp":"2","daynight":"N","commune":"Labessière-Candeil","code_insee":"81117","departement":"Tarn","region":"Occitanie"}},{"type":"Feature","geometry":{"type":"Point","coordinates":[7.37353,43.79441]},"properties":{"latitude":"43.79441","longitude":"7.37353","bright_ti4":"303.63","scan":"0.5","track":"0.41","acq_date":"2026-06-26","acq_time":"111","satellite":"N20","instrument":"VIIRS","confidence":"n","version":"2.0NRT","bright_ti5":"292.71","frp":"0.89","daynight":"N","commune":"Blausasc","code_insee":"06019","departement":"Alpes-Maritimes","region":"Provence-Alpes-Côte d'Azur"}},{"type":"Feature","geometry":{"type":"Point","coordinates":[4.85006,43.99947]},"properties":{"latitude":"43.99947","longitude":"4.85006","bright_ti4":"303.71","scan":"0.43","track":"0.46","acq_date":"2026-06-26","acq_time":"111","satellite":"N20","instrument":"VIIRS","confidence":"n","version":"2.0NRT","bright_ti5":"291.83","frp":"0.71","daynight":"N","commune":"Sorgues","code_insee":"84129","departement":"Vaucluse","region":"Provence-Alpes-Côte d'Azur"}},{"type":"Feature","geometry":{"type":"Point","coordinates":[4.84464,43.99996]},"properties":{"latitude":"43.99996","longitude":"4.84464","bright_ti4":"303.75","scan":"0.43","track":"0.46","acq_date":"2026-06-26","acq_time":"111","satellite":"N20","instrument":"VIIRS","confidence":"n","version":"2.0NRT","bright_ti5":"292.54","frp":"0.71","daynight":"N","commune":"Sorgues","code_insee":"84129","departement":"Vaucluse","region":"Provence-Alpes-Côte d'Azur"}},{"type":"Feature","geometry":{"type":"Point","coordinates":[3.56227,50.40108]},"properties":{"latitude":"50.40108","longitude":"3.56227","bright_ti4":"305.89","scan":"0.32","track":"0.55","acq_date":"2026-06-26","acq_time":"249","satellite":"N20","instrument":"VIIRS","confidence":"n","version":"2.0NRT","bright_ti5":"294.74","frp":"0.75","daynight":"N","commune":"Saint-Saulve","code_insee":"59544","departement":"Nord","region":"Hauts-de-France"}},{"type":"Feature","geometry":{"type":"Point","coordinates":[2.28456,51.03597]},"properties":{"latitude":"51.03597","longitude":"2.28456","bright_ti4":"312.39","scan":"0.55","track":"0.51","acq_date":"2026-06-26","acq_time":"249","satellite":"N20","instrument":"VIIRS","confidence":"n","version":"2.0NRT","bright_ti5":"292.58","frp":"2.71","daynight":"N","commune":"Grande-Synthe","code_insee":"59271","departement":"Nord","region":"Hauts-de-France"}},{"type":"Feature","geometry":{"type":"Point","coordinates":[2.32545,51.04536]},"properties":{"latitude":"51.04536","longitude":"2.32545","bright_ti4":"304.3","scan":"0.55","track":"0.51","acq_date":"2026-06-26","acq_time":"249","satellite":"N20","instrument":"VIIRS","confidence":"n","version":"2.0NRT","bright_ti5":"291.49","frp":"1.89","daynight":"N","commune":"Dunkerque","code_insee":"59183","departement":"Nord","region":"Hauts-de-France"}},{"type":"Feature","geometry":{"type":"Point","coordinates":[2.30076,51.04698]},"properties":{"latitude":"51.04698","longitude":"2.30076","bright_ti4":"333.88","scan":"0.55","track":"0.51","acq_date":"2026-06-26","acq_time":"249","satellite":"N20","instrument":"VIIRS","confidence":"n","version":"2.0NRT","bright_ti5":"291.68","frp":"3.67","daynight":"N","commune":"Grande-Synthe","code_insee":"59271","departement":"Nord","region":"Hauts-de-France"}},{"type":"Feature","geometry":{"type":"Point","coordinates":[2.3182,51.04735]},"properties":{"latitude":"51.04735","longitude":"2.3182","bright_ti4":"317.74","scan":"0.55","track":"0.51","acq_date":"2026-06-26","acq_time":"249","satellite":"N20","instrument":"VIIRS","confidence":"n","version":"2.0NRT","bright_ti5":"292.4","frp":"1.89","daynight":"N","commune":"Dunkerque","code_insee":"59183","departement":"Nord","region":"Hauts-de-France"}},{"type":"Feature","geometry":{"type":"Point","coordinates":[2.32125,51.05167]},"properties":{"latitude":"51.05167","longitude":"2.32125","bright_ti4":"308.43","scan":"0.55","track":"0.51","acq_date":"2026-06-26","acq_time":"249","satellite":"N20","instrument":"VIIRS","confidence":"n","version":"2.0NRT","bright_ti5":"290.36","frp":"1.14","daynight":"N","commune":"Dunkerque","code_insee":"59183","departement":"Nord","region":"Hauts-de-France"}},{"type":"Feature","geometry":{"type":"Point","coordinates":[0.98905,43.18716]},"properties":{"latitude":"43.18716","longitude":"0.98905","bright_ti4":"302.74","scan":"0.41","track":"0.61","acq_date":"2026-06-26","acq_time":"251","satellite":"N20","instrument":"VIIRS","confidence":"n","version":"2.0NRT","bright_ti5":"289.68","frp":"0.97","daynight":"N","commune":"Martres-Tolosane","code_insee":"31324","departement":"Haute-Garonne","region":"Occitanie"}},{"type":"Feature","geometry":{"type":"Point","coordinates":[4.89783,43.43309]},"properties":{"latitude":"43.43309","longitude":"4.89783","bright_ti4":"305.19","scan":"0.62","track":"0.71","acq_date":"2026-06-26","acq_time":"251","satellite":"N20","instrument":"VIIRS","confidence":"n","version":"2.0NRT","bright_ti5":"292.24","frp":"1.38","daynight":"N","commune":"Fos-sur-Mer","code_insee":"13039","departement":"Bouches-du-Rhône","region":"Provence-Alpes-Côte d'Azur"}},{"type":"Feature","geometry":{"type":"Point","coordinates":[4.89459,43.44143]},"properties":{"latitude":"43.44143","longitude":"4.89459","bright_ti4":"303.92","scan":"0.62","track":"0.71","acq_date":"2026-06-26","acq_time":"251","satellite":"N20","instrument":"VIIRS","confidence":"n","version":"2.0NRT","bright_ti5":"292.52","frp":"1.38","daynight":"N","commune":"Fos-sur-Mer","code_insee":"13039","departement":"Bouches-du-Rhône","region":"Provence-Alpes-Côte d'Azur"}},{"type":"Feature","geometry":{"type":"Point","coordinates":[4.89978,43.4473]},"properties":{"latitude":"43.4473","longitude":"4.89978","bright_ti4":"305.29","scan":"0.62","track":"0.71","acq_date":"2026-06-26","acq_time":"251","satellite":"N20","instrument":"VIIRS","confidence":"n","version":"2.0NRT","bright_ti5":"292.65","frp":"1.52","daynight":"N","commune":"Fos-sur-Mer","code_insee":"13039","departement":"Bouches-du-Rhône","region":"Provence-Alpes-Côte d'Azur"}},{"type":"Feature","geometry":{"type":"Point","coordinates":[4.89843,43.44741]},"properties":{"latitude":"43.44741","longitude":"4.89843","bright_ti4":"305.92","scan":"0.62","track":"0.71","acq_date":"2026-06-26","acq_time":"251","satellite":"N20","instrument":"VIIRS","confidence":"n","version":"2.0NRT","bright_ti5":"292.42","frp":"1.13","daynight":"N","commune":"Fos-sur-Mer","code_insee":"13039","departement":"Bouches-du-Rhône","region":"Provence-Alpes-Côte d'Azur"}},{"type":"Feature","geometry":{"type":"Point","coordinates":[2.05254,43.7802]},"properties":{"latitude":"43.7802","longitude":"2.05254","bright_ti4":"304.09","scan":"0.45","track":"0.63","acq_date":"2026-06-26","acq_time":"251","satellite":"N20","instrument":"VIIRS","confidence":"n","version":"2.0NRT","bright_ti5":"282.47","frp":"0.9","daynight":"N","commune":"Labessière-Candeil","code_insee":"81117","departement":"Tarn","region":"Occitanie"}},{"type":"Feature","geometry":{"type":"Point","coordinates":[2.05473,43.78126]},"properties":{"latitude":"43.78126","longitude":"2.05473","bright_ti4":"307.48","scan":"0.45","track":"0.63","acq_date":"2026-06-26","acq_time":"251","satellite":"N20","instrument":"VIIRS","confidence":"n","version":"2.0NRT","bright_ti5":"278.66","frp":"1.65","daynight":"N","commune":"Labessière-Candeil","code_insee":"81117","departement":"Tarn","region":"Occitanie"}},{"type":"Feature","geometry":{"type":"Point","coordinates":[-0.97154,44.62955]},"properties":{"latitude":"44.62955","longitude":"-0.97154","bright_ti4":"321.14","scan":"0.61","track":"0.53","acq_date":"2026-06-26","acq_time":"251","satellite":"N20","instrument":"VIIRS","confidence":"n","version":"2.0NRT","bright_ti5":"291.28","frp":"4.36","daynight":"N","commune":"Biganos","code_insee":"33051","departement":"Gironde","region":"Nouvelle-Aquitaine"}},{"type":"Feature","geometry":{"type":"Point","coordinates":[-0.96981,44.63147]},"properties":{"latitude":"44.63147","longitude":"-0.96981","bright_ti4":"320.43","scan":"0.61","track":"0.53","acq_date":"2026-06-26","acq_time":"251","satellite":"N20","instrument":"VIIRS","confidence":"n","version":"2.0NRT","bright_ti5":"290.83","frp":"3.24","daynight":"N","commune":"Biganos","code_insee":"33051","departement":"Gironde","region":"Nouvelle-Aquitaine"}},{"type":"Feature","geometry":{"type":"Point","coordinates":[2.73875,48.94979]},"properties":{"latitude":"48.94979","longitude":"2.73875","bright_ti4":"306.19","scan":"0.33","track":"0.55","acq_date":"2026-06-26","acq_time":"251","satellite":"N20","instrument":"VIIRS","confidence":"n","version":"2.0NRT","bright_ti5":"293.85","frp":"0.58","daynight":"N","commune":"Fresnes-sur-Marne","code_insee":"77196","departement":"Seine-et-Marne","region":"Île-de-France"}},{"type":"Feature","geometry":{"type":"Point","coordinates":[1.76254,48.9839]},"properties":{"latitude":"48.9839","longitude":"1.76254","bright_ti4":"315.33","scan":"0.6","track":"0.53","acq_date":"2026-06-26","acq_time":"251","satellite":"N20","instrument":"VIIRS","confidence":"n","version":"2.0NRT","bright_ti5":"291.48","frp":"3.87","daynight":"N","commune":"Porcheville","code_insee":"78501","departement":"Yvelines","region":"Île-de-France"}},{"type":"Feature","geometry":{"type":"Point","coordinates":[6.08282,43.23866]},"properties":{"latitude":"43.23866","longitude":"6.08282","bright_ti4":"334.46","scan":"0.39","track":"0.36","acq_date":"2026-06-26","acq_time":"1236","satellite":"N20","instrument":"VIIRS","confidence":"n","version":"2.0NRT","bright_ti5":"301.27","frp":"2.25","daynight":"D","commune":"Cuers","code_insee":"83049","departement":"Var","region":"Provence-Alpes-Côte d'Azur"}},{"type":"Feature","geometry":{"type":"Point","coordinates":[4.89877,43.44234]},"properties":{"latitude":"43.44234","longitude":"4.89877","bright_ti4":"340.37","scan":"0.38","track":"0.36","acq_date":"2026-06-26","acq_time":"1236","satellite":"N20","instrument":"VIIRS","confidence":"l","version":"2.0NRT","bright_ti5":"313.68","frp":"6.62","daynight":"D","commune":"Fos-sur-Mer","code_insee":"13039","departement":"Bouches-du-Rhône","region":"Provence-Alpes-Côte d'Azur"}},{"type":"Feature","geometry":{"type":"Point","coordinates":[4.89783,43.44561]},"properties":{"latitude":"43.44561","longitude":"4.89783","bright_ti4":"342.68","scan":"0.38","track":"0.36","acq_date":"2026-06-26","acq_time":"1236","satellite":"N20","instrument":"VIIRS","confidence":"l","version":"2.0NRT","bright_ti5":"315.36","frp":"5.92","daynight":"D","commune":"Fos-sur-Mer","code_insee":"13039","departement":"Bouches-du-Rhône","region":"Provence-Alpes-Côte d'Azur"}},{"type":"Feature","geometry":{"type":"Point","coordinates":[4.73581,44.31526]},"properties":{"latitude":"44.31526","longitude":"4.73581","bright_ti4":"338.31","scan":"0.38","track":"0.36","acq_date":"2026-06-26","acq_time":"1236","satellite":"N20","instrument":"VIIRS","confidence":"l","version":"2.0NRT","bright_ti5":"312.76","frp":"21.48","daynight":"D","commune":"Bollène","code_insee":"84019","departement":"Vaucluse","region":"Provence-Alpes-Côte d'Azur"}},{"type":"Feature","geometry":{"type":"Point","coordinates":[-0.75235,44.71022]},"properties":{"latitude":"44.71022","longitude":"-0.75235","bright_ti4":"332.68","scan":"0.48","track":"0.4","acq_date":"2026-06-26","acq_time":"1238","satellite":"N20","instrument":"VIIRS","confidence":"l","version":"2.0NRT","bright_ti5":"304.85","frp":"7.45","daynight":"D","commune":"Cestas","code_insee":"33122","departement":"Gironde","region":"Nouvelle-Aquitaine"}},{"type":"Feature","geometry":{"type":"Point","coordinates":[3.99295,46.80552]},"properties":{"latitude":"46.80552","longitude":"3.99295","bright_ti4":"348.7","scan":"0.39","track":"0.36","acq_date":"2026-06-26","acq_time":"1238","satellite":"N20","instrument":"VIIRS","confidence":"n","version":"2.0NRT","bright_ti5":"320.07","frp":"12.45","daynight":"D","commune":"Luzy","code_insee":"58149","departement":"Nièvre","region":"Bourgogne-Franche-Comté"}},{"type":"Feature","geometry":{"type":"Point","coordinates":[3.99192,46.80878]},"properties":{"latitude":"46.80878","longitude":"3.99192","bright_ti4":"346.62","scan":"0.39","track":"0.36","acq_date":"2026-06-26","acq_time":"1238","satellite":"N20","instrument":"VIIRS","confidence":"n","version":"2.0NRT","bright_ti5":"314.73","frp":"12.45","daynight":"D","commune":"Luzy","code_insee":"58149","departement":"Nièvre","region":"Bourgogne-Franche-Comté"}},{"type":"Feature","geometry":{"type":"Point","coordinates":[3.65048,47.67711]},"properties":{"latitude":"47.67711","longitude":"3.65048","bright_ti4":"343.76","scan":"0.39","track":"0.36","acq_date":"2026-06-26","acq_time":"1238","satellite":"N20","instrument":"VIIRS","confidence":"l","version":"2.0NRT","bright_ti5":"314.21","frp":"7.26","daynight":"D","commune":"Vincelles","code_insee":"89478","departement":"Yonne","region":"Bourgogne-Franche-Comté"}},{"type":"Feature","geometry":{"type":"Point","coordinates":[-0.10359,47.71188]},"properties":{"latitude":"47.71188","longitude":"-0.10359","bright_ti4":"338.49","scan":"0.42","track":"0.38","acq_date":"2026-06-26","acq_time":"1238","satellite":"N20","instrument":"VIIRS","confidence":"n","version":"2.0NRT","bright_ti5":"306.83","frp":"3.71","daynight":"D","commune":"La Flèche","code_insee":"72154","departement":"Sarthe","region":"Pays de la Loire"}},{"type":"Feature","geometry":{"type":"Point","coordinates":[4.0349,48.31675]},"properties":{"latitude":"48.31675","longitude":"4.0349","bright_ti4":"335.53","scan":"0.39","track":"0.36","acq_date":"2026-06-26","acq_time":"1238","satellite":"N20","instrument":"VIIRS","confidence":"l","version":"2.0NRT","bright_ti5":"308.62","frp":"3.96","daynight":"D","commune":"La Chapelle-Saint-Luc","code_insee":"10081","departement":"Aube","region":"Grand Est"}},{"type":"Feature","geometry":{"type":"Point","coordinates":[2.27358,51.02744]},"properties":{"latitude":"51.02744","longitude":"2.27358","bright_ti4":"336.09","scan":"0.39","track":"0.36","acq_date":"2026-06-26","acq_time":"1238","satellite":"N20","instrument":"VIIRS","confidence":"l","version":"2.0NRT","bright_ti5":"308.43","frp":"4.19","daynight":"D","commune":"Grande-Synthe","code_insee":"59271","departement":"Nord","region":"Hauts-de-France"}},{"type":"Feature","geometry":{"type":"Point","coordinates":[2.28861,51.03312]},"properties":{"latitude":"51.03312","longitude":"2.28861","bright_ti4":"333.37","scan":"0.39","track":"0.36","acq_date":"2026-06-26","acq_time":"1238","satellite":"N20","instrument":"VIIRS","confidence":"l","version":"2.0NRT","bright_ti5":"306.36","frp":"3.72","daynight":"D","commune":"Grande-Synthe","code_insee":"59271","departement":"Nord","region":"Hauts-de-France"}},{"type":"Feature","geometry":{"type":"Point","coordinates":[2.29701,51.04124]},"properties":{"latitude":"51.04124","longitude":"2.29701","bright_ti4":"343.61","scan":"0.39","track":"0.36","acq_date":"2026-06-26","acq_time":"1238","satellite":"N20","instrument":"VIIRS","confidence":"n","version":"2.0NRT","bright_ti5":"302.5","frp":"9.99","daynight":"D","commune":"Grande-Synthe","code_insee":"59271","departement":"Nord","region":"Hauts-de-France"}},{"type":"Feature","geometry":{"type":"Point","coordinates":[1.89249,50.97]},"properties":{"latitude":"50.97","longitude":"1.89249","bright_ti4":"308.36","scan":"0.39","track":"0.36","acq_date":"2026-06-26","acq_time":"156","satellite":"N21","instrument":"VIIRS","confidence":"n","version":"2.0NRT","bright_ti5":"289.04","frp":"1.01","daynight":"N","commune":"Calais","code_insee":"62193","departement":"Pas-de-Calais","region":"Hauts-de-France"}},{"type":"Feature","geometry":{"type":"Point","coordinates":[2.25444,51.03322]},"properties":{"latitude":"51.03322","longitude":"2.25444","bright_ti4":"312.32","scan":"0.39","track":"0.36","acq_date":"2026-06-26","acq_time":"156","satellite":"N21","instrument":"VIIRS","confidence":"n","version":"2.0NRT","bright_ti5":"295.97","frp":"1.74","daynight":"N","commune":"Dunkerque","code_insee":"59183","departement":"Nord","region":"Hauts-de-France"}},{"type":"Feature","geometry":{"type":"Point","coordinates":[2.28929,51.03488]},"properties":{"latitude":"51.03488","longitude":"2.28929","bright_ti4":"323.07","scan":"0.39","track":"0.36","acq_date":"2026-06-26","acq_time":"156","satellite":"N21","instrument":"VIIRS","confidence":"n","version":"2.0NRT","bright_ti5":"296.43","frp":"3.28","daynight":"N","commune":"Grande-Synthe","code_insee":"59271","departement":"Nord","region":"Hauts-de-France"}},{"type":"Feature","geometry":{"type":"Point","coordinates":[2.29174,51.04138]},"properties":{"latitude":"51.04138","longitude":"2.29174","bright_ti4":"310.1","scan":"0.39","track":"0.36","acq_date":"2026-06-26","acq_time":"156","satellite":"N21","instrument":"VIIRS","confidence":"n","version":"2.0NRT","bright_ti5":"296.75","frp":"2.89","daynight":"N","commune":"Grande-Synthe","code_insee":"59271","departement":"Nord","region":"Hauts-de-France"}},{"type":"Feature","geometry":{"type":"Point","coordinates":[2.29836,51.04382]},"properties":{"latitude":"51.04382","longitude":"2.29836","bright_ti4":"325.91","scan":"0.39","track":"0.36","acq_date":"2026-06-26","acq_time":"156","satellite":"N21","instrument":"VIIRS","confidence":"n","version":"2.0NRT","bright_ti5":"298.44","frp":"7.97","daynight":"N","commune":"Grande-Synthe","code_insee":"59271","departement":"Nord","region":"Hauts-de-France"}},{"type":"Feature","geometry":{"type":"Point","coordinates":[2.29296,51.04463]},"properties":{"latitude":"51.04463","longitude":"2.29296","bright_ti4":"312.3","scan":"0.39","track":"0.36","acq_date":"2026-06-26","acq_time":"156","satellite":"N21","instrument":"VIIRS","confidence":"n","version":"2.0NRT","bright_ti5":"295.16","frp":"2.89","daynight":"N","commune":"Grande-Synthe","code_insee":"59271","departement":"Nord","region":"Hauts-de-France"}},{"type":"Feature","geometry":{"type":"Point","coordinates":[2.32241,51.04708]},"properties":{"latitude":"51.04708","longitude":"2.32241","bright_ti4":"332.85","scan":"0.39","track":"0.36","acq_date":"2026-06-26","acq_time":"156","satellite":"N21","instrument":"VIIRS","confidence":"n","version":"2.0NRT","bright_ti5":"297.23","frp":"4.53","daynight":"N","commune":"Dunkerque","code_insee":"59183","departement":"Nord","region":"Hauts-de-France"}},{"type":"Feature","geometry":{"type":"Point","coordinates":[0.98923,43.18606]},"properties":{"latitude":"43.18606","longitude":"0.98923","bright_ti4":"305.21","scan":"0.39","track":"0.36","acq_date":"2026-06-26","acq_time":"158","satellite":"N21","instrument":"VIIRS","confidence":"n","version":"2.0NRT","bright_ti5":"293.02","frp":"1.03","daynight":"N","commune":"Martres-Tolosane","code_insee":"31324","departement":"Haute-Garonne","region":"Occitanie"}},{"type":"Feature","geometry":{"type":"Point","coordinates":[4.88001,43.4421]},"properties":{"latitude":"43.4421","longitude":"4.88001","bright_ti4":"312.21","scan":"0.48","track":"0.4","acq_date":"2026-06-26","acq_time":"158","satellite":"N21","instrument":"VIIRS","confidence":"n","version":"2.0NRT","bright_ti5":"295.85","frp":"1.86","daynight":"N","commune":"Fos-sur-Mer","code_insee":"13039","departement":"Bouches-du-Rhône","region":"Provence-Alpes-Côte d'Azur"}},{"type":"Feature","geometry":{"type":"Point","coordinates":[4.8987,43.44221]},"properties":{"latitude":"43.44221","longitude":"4.8987","bright_ti4":"310.65","scan":"0.48","track":"0.4","acq_date":"2026-06-26","acq_time":"158","satellite":"N21","instrument":"VIIRS","confidence":"n","version":"2.0NRT","bright_ti5":"294.77","frp":"1.15","daynight":"N","commune":"Fos-sur-Mer","code_insee":"13039","departement":"Bouches-du-Rhône","region":"Provence-Alpes-Côte d'Azur"}},{"type":"Feature","geometry":{"type":"Point","coordinates":[4.90007,43.44577]},"properties":{"latitude":"43.44577","longitude":"4.90007","bright_ti4":"323.56","scan":"0.48","track":"0.4","acq_date":"2026-06-26","acq_time":"158","satellite":"N21","instrument":"VIIRS","confidence":"n","version":"2.0NRT","bright_ti5":"295.92","frp":"3.71","daynight":"N","commune":"Fos-sur-Mer","code_insee":"13039","departement":"Bouches-du-Rhône","region":"Provence-Alpes-Côte d'Azur"}},{"type":"Feature","geometry":{"type":"Point","coordinates":[4.89429,43.44693]},"properties":{"latitude":"43.44693","longitude":"4.89429","bright_ti4":"324.92","scan":"0.48","track":"0.4","acq_date":"2026-06-26","acq_time":"158","satellite":"N21","instrument":"VIIRS","confidence":"n","version":"2.0NRT","bright_ti5":"296.01","frp":"2.79","daynight":"N","commune":"Fos-sur-Mer","code_insee":"13039","departement":"Bouches-du-Rhône","region":"Provence-Alpes-Côte d'Azur"}},{"type":"Feature","geometry":{"type":"Point","coordinates":[2.57418,43.9637]},"properties":{"latitude":"43.9637","longitude":"2.57418","bright_ti4":"324.86","scan":"0.41","track":"0.37","acq_date":"2026-06-26","acq_time":"158","satellite":"N21","instrument":"VIIRS","confidence":"n","version":"2.0NRT","bright_ti5":"291.47","frp":"1.58","daynight":"N","commune":"Coupiac","code_insee":"12080","departement":"Aveyron","region":"Occitanie"}},{"type":"Feature","geometry":{"type":"Point","coordinates":[-0.75265,44.07941]},"properties":{"latitude":"44.07941","longitude":"-0.75265","bright_ti4":"308.7","scan":"0.39","track":"0.36","acq_date":"2026-06-26","acq_time":"158","satellite":"N21","instrument":"VIIRS","confidence":"n","version":"2.0NRT","bright_ti5":"290.31","frp":"1.75","daynight":"N","commune":"Luglon","code_insee":"40165","departement":"Landes","region":"Nouvelle-Aquitaine"}},{"type":"Feature","geometry":{"type":"Point","coordinates":[5.21325,45.61741]},"properties":{"latitude":"45.61741","longitude":"5.21325","bright_ti4":"299.82","scan":"0.46","track":"0.39","acq_date":"2026-06-26","acq_time":"158","satellite":"N21","instrument":"VIIRS","confidence":"n","version":"2.0NRT","bright_ti5":"281.14","frp":"0.73","daynight":"N","commune":"L'Isle-d'Abeau","code_insee":"38193","departement":"Isère","region":"Auvergne-Rhône-Alpes"}},{"type":"Feature","geometry":{"type":"Point","coordinates":[0.01834,47.76265]},"properties":{"latitude":"47.76265","longitude":"0.01834","bright_ti4":"329.95","scan":"0.39","track":"0.36","acq_date":"2026-06-26","acq_time":"158","satellite":"N21","instrument":"VIIRS","confidence":"n","version":"2.0NRT","bright_ti5":"286.25","frp":"6.05","daynight":"N","commune":"Saint-Jean-de-la-Motte","code_insee":"72291","departement":"Sarthe","region":"Pays de la Loire"}},{"type":"Feature","geometry":{"type":"Point","coordinates":[-2.70035,48.02859]},"properties":{"latitude":"48.02859","longitude":"-2.70035","bright_ti4":"302.35","scan":"0.45","track":"0.39","acq_date":"2026-06-26","acq_time":"158","satellite":"N21","instrument":"VIIRS","confidence":"n","version":"2.0NRT","bright_ti5":"288.39","frp":"1.64","daynight":"N","commune":"Bréhan","code_insee":"56024","departement":"Morbihan","region":"Bretagne"}},{"type":"Feature","geometry":{"type":"Point","coordinates":[-1.0371,48.10661]},"properties":{"latitude":"48.10661","longitude":"-1.0371","bright_ti4":"305","scan":"0.41","track":"0.37","acq_date":"2026-06-26","acq_time":"158","satellite":"N21","instrument":"VIIRS","confidence":"n","version":"2.0NRT","bright_ti5":"289.46","frp":"1.19","daynight":"N","commune":"Saint-Pierre-la-Cour","code_insee":"53247","departement":"Mayenne","region":"Pays de la Loire"}},{"type":"Feature","geometry":{"type":"Point","coordinates":[-0.83889,48.12607]},"properties":{"latitude":"48.12607","longitude":"-0.83889","bright_ti4":"301.56","scan":"0.41","track":"0.37","acq_date":"2026-06-26","acq_time":"158","satellite":"N21","instrument":"VIIRS","confidence":"n","version":"2.0NRT","bright_ti5":"290.39","frp":"0.34","daynight":"N","commune":"Changé","code_insee":"53054","departement":"Mayenne","region":"Pays de la Loire"}},{"type":"Feature","geometry":{"type":"Point","coordinates":[2.85011,48.37847]},"properties":{"latitude":"48.37847","longitude":"2.85011","bright_ti4":"309.11","scan":"0.39","track":"0.36","acq_date":"2026-06-26","acq_time":"158","satellite":"N21","instrument":"VIIRS","confidence":"n","version":"2.0NRT","bright_ti5":"295.73","frp":"1.62","daynight":"N","commune":"La Grande-Paroisse","code_insee":"77210","departement":"Seine-et-Marne","region":"Île-de-France"}},{"type":"Feature","geometry":{"type":"Point","coordinates":[2.98009,48.38811]},"properties":{"latitude":"48.38811","longitude":"2.98009","bright_ti4":"311.35","scan":"0.39","track":"0.36","acq_date":"2026-06-26","acq_time":"158","satellite":"N21","instrument":"VIIRS","confidence":"n","version":"2.0NRT","bright_ti5":"296.83","frp":"1.78","daynight":"N","commune":"Montereau-Fault-Yonne","code_insee":"77305","departement":"Seine-et-Marne","region":"Île-de-France"}},{"type":"Feature","geometry":{"type":"Point","coordinates":[6.11041,48.56115]},"properties":{"latitude":"48.56115","longitude":"6.11041","bright_ti4":"303.51","scan":"0.44","track":"0.38","acq_date":"2026-06-26","acq_time":"158","satellite":"N21","instrument":"VIIRS","confidence":"n","version":"2.0NRT","bright_ti5":"293.23","frp":"0.84","daynight":"N","commune":"Xeuilley","code_insee":"54596","departement":"Meurthe-et-Moselle","region":"Grand Est"}},{"type":"Feature","geometry":{"type":"Point","coordinates":[2.73889,48.94821]},"properties":{"latitude":"48.94821","longitude":"2.73889","bright_ti4":"305.88","scan":"0.39","track":"0.36","acq_date":"2026-06-26","acq_time":"158","satellite":"N21","instrument":"VIIRS","confidence":"n","version":"2.0NRT","bright_ti5":"295.48","frp":"1.21","daynight":"N","commune":"Fresnes-sur-Marne","code_insee":"77196","departement":"Seine-et-Marne","region":"Île-de-France"}},{"type":"Feature","geometry":{"type":"Point","coordinates":[1.75983,48.98195]},"properties":{"latitude":"48.98195","longitude":"1.75983","bright_ti4":"334.82","scan":"0.38","track":"0.36","acq_date":"2026-06-26","acq_time":"158","satellite":"N21","instrument":"VIIRS","confidence":"n","version":"2.0NRT","bright_ti5":"297.8","frp":"5.79","daynight":"N","commune":"Porcheville","code_insee":"78501","departement":"Yvelines","region":"Île-de-France"}},{"type":"Feature","geometry":{"type":"Point","coordinates":[1.76097,48.9852]},"properties":{"latitude":"48.9852","longitude":"1.76097","bright_ti4":"307.96","scan":"0.38","track":"0.36","acq_date":"2026-06-26","acq_time":"158","satellite":"N21","instrument":"VIIRS","confidence":"n","version":"2.0NRT","bright_ti5":"296.99","frp":"1.54","daynight":"N","commune":"Porcheville","code_insee":"78501","departement":"Yvelines","region":"Île-de-France"}},{"type":"Feature","geometry":{"type":"Point","coordinates":[0.53287,49.47712]},"properties":{"latitude":"49.47712","longitude":"0.53287","bright_ti4":"307.95","scan":"0.4","track":"0.37","acq_date":"2026-06-26","acq_time":"158","satellite":"N21","instrument":"VIIRS","confidence":"n","version":"2.0NRT","bright_ti5":"294.54","frp":"1.17","daynight":"N","commune":"Lillebonne","code_insee":"76384","departement":"Seine-Maritime","region":"Normandie"}},{"type":"Feature","geometry":{"type":"Point","coordinates":[6.08426,43.24117]},"properties":{"latitude":"43.24117","longitude":"6.08426","bright_ti4":"334.89","scan":"0.32","track":"0.55","acq_date":"2026-06-26","acq_time":"1142","satellite":"N21","instrument":"VIIRS","confidence":"n","version":"2.0NRT","bright_ti5":"303.43","frp":"1.18","daynight":"D","commune":"Cuers","code_insee":"83049","departement":"Var","region":"Provence-Alpes-Côte d'Azur"}},{"type":"Feature","geometry":{"type":"Point","coordinates":[4.89896,43.4441]},"properties":{"latitude":"43.4441","longitude":"4.89896","bright_ti4":"347.11","scan":"0.36","track":"0.58","acq_date":"2026-06-26","acq_time":"1142","satellite":"N21","instrument":"VIIRS","confidence":"n","version":"2.0NRT","bright_ti5":"308.68","frp":"7.9","daynight":"D","commune":"Fos-sur-Mer","code_insee":"13039","departement":"Bouches-du-Rhône","region":"Provence-Alpes-Côte d'Azur"}},{"type":"Feature","geometry":{"type":"Point","coordinates":[4.31248,43.5984]},"properties":{"latitude":"43.5984","longitude":"4.31248","bright_ti4":"335.24","scan":"0.38","track":"0.59","acq_date":"2026-06-26","acq_time":"1145","satellite":"N21","instrument":"VIIRS","confidence":"l","version":"2.0NRT","bright_ti5":"308.43","frp":"6.07","daynight":"D","commune":"Vauvert","code_insee":"30341","departement":"Gard","region":"Occitanie"}},{"type":"Feature","geometry":{"type":"Point","coordinates":[2.30013,51.0455]},"properties":{"latitude":"51.0455","longitude":"2.30013","bright_ti4":"339.52","scan":"0.56","track":"0.52","acq_date":"2026-06-26","acq_time":"1145","satellite":"N21","instrument":"VIIRS","confidence":"n","version":"2.0NRT","bright_ti5":"299.65","frp":"11.58","daynight":"D","commune":"Grande-Synthe","code_insee":"59271","departement":"Nord","region":"Hauts-de-France"}},{"type":"Feature","geometry":{"type":"Point","coordinates":[-0.23619,45.8513]},"properties":{"latitude":"45.8513","longitude":"-0.23619","bright_ti4":"341.18","scan":"0.44","track":"0.46","acq_date":"2026-06-26","acq_time":"1323","satellite":"N21","instrument":"VIIRS","confidence":"n","version":"2.0NRT","bright_ti5":"301.41","frp":"4.05","daynight":"D","commune":"Haimps","code_insee":"17188","departement":"Charente-Maritime","region":"Nouvelle-Aquitaine"}},{"type":"Feature","geometry":{"type":"Point","coordinates":[3.99266,46.80425]},"properties":{"latitude":"46.80425","longitude":"3.99266","bright_ti4":"367","scan":"0.36","track":"0.58","acq_date":"2026-06-26","acq_time":"1323","satellite":"N21","instrument":"VIIRS","confidence":"h","version":"2.0NRT","bright_ti5":"311.03","frp":"13.77","daynight":"D","commune":"Luzy","code_insee":"58149","departement":"Nièvre","region":"Bourgogne-Franche-Comté"}},{"type":"Feature","geometry":{"type":"Point","coordinates":[2.98305,48.1304]},"properties":{"latitude":"48.1304","longitude":"2.98305","bright_ti4":"336.4","scan":"0.33","track":"0.55","acq_date":"2026-06-26","acq_time":"1323","satellite":"N21","instrument":"VIIRS","confidence":"n","version":"2.0NRT","bright_ti5":"300.75","frp":"3.56","daynight":"D","commune":"Bazoches-sur-le-Betz","code_insee":"45026","departement":"Loiret","region":"Centre-Val de Loire"}},{"type":"Feature","geometry":{"type":"Point","coordinates":[4.89853,43.44205]},"properties":{"latitude":"43.44205","longitude":"4.89853","bright_ti4":"332.38","scan":"0.38","track":"0.59","acq_date":"2026-06-26","acq_time":"1325","satellite":"N21","instrument":"VIIRS","confidence":"l","version":"2.0NRT","bright_ti5":"306.15","frp":"6.89","daynight":"D","commune":"Fos-sur-Mer","code_insee":"13039","departement":"Bouches-du-Rhône","region":"Provence-Alpes-Côte d'Azur"}},{"type":"Feature","geometry":{"type":"Point","coordinates":[4.8977,43.44401]},"properties":{"latitude":"43.44401","longitude":"4.8977","bright_ti4":"335.58","scan":"0.38","track":"0.59","acq_date":"2026-06-26","acq_time":"1325","satellite":"N21","instrument":"VIIRS","confidence":"l","version":"2.0NRT","bright_ti5":"307.54","frp":"7.25","daynight":"D","commune":"Fos-sur-Mer","code_insee":"13039","departement":"Bouches-du-Rhône","region":"Provence-Alpes-Côte d'Azur"}},{"type":"Feature","geometry":{"type":"Point","coordinates":[2.05156,43.77773]},"properties":{"latitude":"43.77773","longitude":"2.05156","bright_ti4":"334.74","scan":"0.55","track":"0.51","acq_date":"2026-06-26","acq_time":"1325","satellite":"N21","instrument":"VIIRS","confidence":"l","version":"2.0NRT","bright_ti5":"307.24","frp":"3.46","daynight":"D","commune":"Graulhet","code_insee":"81105","departement":"Tarn","region":"Occitanie"}},{"type":"Feature","geometry":{"type":"Point","coordinates":[4.72758,44.31607]},"properties":{"latitude":"44.31607","longitude":"4.72758","bright_ti4":"330.66","scan":"0.38","track":"0.59","acq_date":"2026-06-26","acq_time":"1325","satellite":"N21","instrument":"VIIRS","confidence":"n","version":"2.0NRT","bright_ti5":"303.38","frp":"33.76","daynight":"D","commune":"Bollène","code_insee":"84019","departement":"Vaucluse","region":"Provence-Alpes-Côte d'Azur"}},{"type":"Feature","geometry":{"type":"Point","coordinates":[4.73233,44.31626]},"properties":{"latitude":"44.31626","longitude":"4.73233","bright_ti4":"367","scan":"0.38","track":"0.59","acq_date":"2026-06-26","acq_time":"1325","satellite":"N21","instrument":"VIIRS","confidence":"h","version":"2.0NRT","bright_ti5":"323.38","frp":"79.82","daynight":"D","commune":"Bollène","code_insee":"84019","departement":"Vaucluse","region":"Provence-Alpes-Côte d'Azur"}},{"type":"Feature","geometry":{"type":"Point","coordinates":[0.24736,49.48724]},"properties":{"latitude":"49.48724","longitude":"0.24736","bright_ti4":"338.41","scan":"0.51","track":"0.49","acq_date":"2026-06-26","acq_time":"1325","satellite":"N21","instrument":"VIIRS","confidence":"n","version":"2.0NRT","bright_ti5":"298.33","frp":"4.15","daynight":"D","commune":"Gonfreville-l'Orcher","code_insee":"76305","departement":"Seine-Maritime","region":"Normandie"}},{"type":"Feature","geometry":{"type":"Point","coordinates":[0.21841,49.48997]},"properties":{"latitude":"49.48997","longitude":"0.21841","bright_ti4":"337.49","scan":"0.51","track":"0.49","acq_date":"2026-06-26","acq_time":"1325","satellite":"N21","instrument":"VIIRS","confidence":"n","version":"2.0NRT","bright_ti5":"299.87","frp":"10.11","daynight":"D","commune":"Gonfreville-l'Orcher","code_insee":"76305","departement":"Seine-Maritime","region":"Normandie"}},{"type":"Feature","geometry":{"type":"Point","coordinates":[0.22546,49.49043]},"properties":{"latitude":"49.49043","longitude":"0.22546","bright_ti4":"340.99","scan":"0.51","track":"0.49","acq_date":"2026-06-26","acq_time":"1325","satellite":"N21","instrument":"VIIRS","confidence":"n","version":"2.0NRT","bright_ti5":"300.77","frp":"11.82","daynight":"D","commune":"Gonfreville-l'Orcher","code_insee":"76305","departement":"Seine-Maritime","region":"Normandie"}},{"type":"Feature","geometry":{"type":"Point","coordinates":[2.26952,51.02899]},"properties":{"latitude":"51.02899","longitude":"2.26952","bright_ti4":"335.25","scan":"0.32","track":"0.55","acq_date":"2026-06-26","acq_time":"1325","satellite":"N21","instrument":"VIIRS","confidence":"n","version":"2.0NRT","bright_ti5":"297.21","frp":"3.48","daynight":"D","commune":"Grande-Synthe","code_insee":"59271","departement":"Nord","region":"Hauts-de-France"}},{"type":"Feature","geometry":{"type":"Point","coordinates":[2.27418,51.02917]},"properties":{"latitude":"51.02917","longitude":"2.27418","bright_ti4":"331.49","scan":"0.32","track":"0.55","acq_date":"2026-06-26","acq_time":"1325","satellite":"N21","instrument":"VIIRS","confidence":"n","version":"2.0NRT","bright_ti5":"300.62","frp":"3.48","daynight":"D","commune":"Grande-Synthe","code_insee":"59271","departement":"Nord","region":"Hauts-de-France"}},{"type":"Feature","geometry":{"type":"Point","coordinates":[2.2876,51.03481]},"properties":{"latitude":"51.03481","longitude":"2.2876","bright_ti4":"334.42","scan":"0.33","track":"0.55","acq_date":"2026-06-26","acq_time":"1325","satellite":"N21","instrument":"VIIRS","confidence":"n","version":"2.0NRT","bright_ti5":"301.31","frp":"4.02","daynight":"D","commune":"Grande-Synthe","code_insee":"59271","departement":"Nord","region":"Hauts-de-France"}},{"type":"Feature","geometry":{"type":"Point","coordinates":[2.29586,51.04533]},"properties":{"latitude":"51.04533","longitude":"2.29586","bright_ti4":"353.48","scan":"0.33","track":"0.55","acq_date":"2026-06-26","acq_time":"1325","satellite":"N21","instrument":"VIIRS","confidence":"n","version":"2.0NRT","bright_ti5":"298.46","frp":"7.77","daynight":"D","commune":"Grande-Synthe","code_insee":"59271","departement":"Nord","region":"Hauts-de-France"}},{"type":"Feature","geometry":{"type":"Point","coordinates":[2.30053,51.04551]},"properties":{"latitude":"51.04551","longitude":"2.30053","bright_ti4":"329.28","scan":"0.33","track":"0.55","acq_date":"2026-06-26","acq_time":"1325","satellite":"N21","instrument":"VIIRS","confidence":"n","version":"2.0NRT","bright_ti5":"298.11","frp":"7.77","daynight":"D","commune":"Grande-Synthe","code_insee":"59271","departement":"Nord","region":"Hauts-de-France"}}]}