{"type":"FeatureCollection","features":[{"type":"Feature","geometry":{"type":"Point","coordinates":[9.08248,42.27283]},"properties":{"latitude":"42.27283","longitude":"9.08248","bright_ti4":"302.3","scan":"0.66","track":"0.73","acq_date":"2026-07-19","acq_time":"22","satellite":"N","instrument":"VIIRS","confidence":"n","version":"2.0NRT","bright_ti5":"290.42","frp":"5.73","daynight":"N","commune":"Corte","code_insee":"2B096","departement":"Haute-Corse","region":"Corse"}},{"type":"Feature","geometry":{"type":"Point","coordinates":[9.07094,42.27291]},"properties":{"latitude":"42.27291","longitude":"9.07094","bright_ti4":"330.44","scan":"0.66","track":"0.73","acq_date":"2026-07-19","acq_time":"22","satellite":"N","instrument":"VIIRS","confidence":"n","version":"2.0NRT","bright_ti5":"290.21","frp":"3.35","daynight":"N","commune":"Corte","code_insee":"2B096","departement":"Haute-Corse","region":"Corse"}},{"type":"Feature","geometry":{"type":"Point","coordinates":[9.0646,42.27295]},"properties":{"latitude":"42.27295","longitude":"9.0646","bright_ti4":"317.66","scan":"0.66","track":"0.73","acq_date":"2026-07-19","acq_time":"22","satellite":"N","instrument":"VIIRS","confidence":"n","version":"2.0NRT","bright_ti5":"289.08","frp":"3.35","daynight":"N","commune":"Corte","code_insee":"2B096","departement":"Haute-Corse","region":"Corse"}},{"type":"Feature","geometry":{"type":"Point","coordinates":[9.0904,42.27965]},"properties":{"latitude":"42.27965","longitude":"9.0904","bright_ti4":"305.67","scan":"0.66","track":"0.73","acq_date":"2026-07-19","acq_time":"22","satellite":"N","instrument":"VIIRS","confidence":"n","version":"2.0NRT","bright_ti5":"291.13","frp":"5.39","daynight":"N","commune":"Corte","code_insee":"2B096","departement":"Haute-Corse","region":"Corse"}},{"type":"Feature","geometry":{"type":"Point","coordinates":[9.08547,42.27968]},"properties":{"latitude":"42.27968","longitude":"9.08547","bright_ti4":"343.83","scan":"0.66","track":"0.73","acq_date":"2026-07-19","acq_time":"22","satellite":"N","instrument":"VIIRS","confidence":"n","version":"2.0NRT","bright_ti5":"293.74","frp":"5.73","daynight":"N","commune":"Corte","code_insee":"2B096","departement":"Haute-Corse","region":"Corse"}},{"type":"Feature","geometry":{"type":"Point","coordinates":[9.07993,42.27972]},"properties":{"latitude":"42.27972","longitude":"9.07993","bright_ti4":"315.66","scan":"0.66","track":"0.73","acq_date":"2026-07-19","acq_time":"22","satellite":"N","instrument":"VIIRS","confidence":"n","version":"2.0NRT","bright_ti5":"289.95","frp":"5.73","daynight":"N","commune":"Corte","code_insee":"2B096","departement":"Haute-Corse","region":"Corse"}},{"type":"Feature","geometry":{"type":"Point","coordinates":[9.07179,42.27977]},"properties":{"latitude":"42.27977","longitude":"9.07179","bright_ti4":"302.77","scan":"0.66","track":"0.73","acq_date":"2026-07-19","acq_time":"22","satellite":"N","instrument":"VIIRS","confidence":"n","version":"2.0NRT","bright_ti5":"288.7","frp":"3.35","daynight":"N","commune":"Corte","code_insee":"2B096","departement":"Haute-Corse","region":"Corse"}},{"type":"Feature","geometry":{"type":"Point","coordinates":[9.06329,42.27983]},"properties":{"latitude":"42.27983","longitude":"9.06329","bright_ti4":"311.46","scan":"0.66","track":"0.73","acq_date":"2026-07-19","acq_time":"22","satellite":"N","instrument":"VIIRS","confidence":"n","version":"2.0NRT","bright_ti5":"288.82","frp":"3.35","daynight":"N","commune":"Corte","code_insee":"2B096","departement":"Haute-Corse","region":"Corse"}},{"type":"Feature","geometry":{"type":"Point","coordinates":[5.66554,45.23073]},"properties":{"latitude":"45.23073","longitude":"5.66554","bright_ti4":"298.44","scan":"0.43","track":"0.38","acq_date":"2026-07-19","acq_time":"202","satellite":"N","instrument":"VIIRS","confidence":"n","version":"2.0NRT","bright_ti5":"281.08","frp":"0.75","daynight":"N","commune":"Saint-Égrève","code_insee":"38382","departement":"Isère","region":"Auvergne-Rhône-Alpes"}},{"type":"Feature","geometry":{"type":"Point","coordinates":[4.65688,45.86724]},"properties":{"latitude":"45.86724","longitude":"4.65688","bright_ti4":"300","scan":"0.41","track":"0.37","acq_date":"2026-07-19","acq_time":"202","satellite":"N","instrument":"VIIRS","confidence":"n","version":"2.0NRT","bright_ti5":"289.16","frp":"0.37","daynight":"N","commune":"Châtillon","code_insee":"69050","departement":"Rhône","region":"Auvergne-Rhône-Alpes"}},{"type":"Feature","geometry":{"type":"Point","coordinates":[0.13121,46.83364]},"properties":{"latitude":"46.83364","longitude":"0.13121","bright_ti4":"299.83","scan":"0.41","track":"0.37","acq_date":"2026-07-19","acq_time":"202","satellite":"N","instrument":"VIIRS","confidence":"n","version":"2.0NRT","bright_ti5":"288.23","frp":"1.34","daynight":"N","commune":"Saint-Jean-de-Sauves","code_insee":"86225","departement":"Vienne","region":"Nouvelle-Aquitaine"}},{"type":"Feature","geometry":{"type":"Point","coordinates":[0.1259,46.83437]},"properties":{"latitude":"46.83437","longitude":"0.1259","bright_ti4":"328.38","scan":"0.41","track":"0.37","acq_date":"2026-07-19","acq_time":"202","satellite":"N","instrument":"VIIRS","confidence":"n","version":"2.0NRT","bright_ti5":"290.5","frp":"2.96","daynight":"N","commune":"Saint-Jean-de-Sauves","code_insee":"86225","departement":"Vienne","region":"Nouvelle-Aquitaine"}},{"type":"Feature","geometry":{"type":"Point","coordinates":[6.23897,47.22172]},"properties":{"latitude":"47.22172","longitude":"6.23897","bright_ti4":"309.86","scan":"0.43","track":"0.38","acq_date":"2026-07-19","acq_time":"202","satellite":"N","instrument":"VIIRS","confidence":"n","version":"2.0NRT","bright_ti5":"285.28","frp":"1.15","daynight":"N","commune":"Naisey-les-Granges","code_insee":"25417","departement":"Doubs","region":"Bourgogne-Franche-Comté"}},{"type":"Feature","geometry":{"type":"Point","coordinates":[-2.0535,47.31816]},"properties":{"latitude":"47.31816","longitude":"-2.0535","bright_ti4":"299.63","scan":"0.47","track":"0.4","acq_date":"2026-07-19","acq_time":"202","satellite":"N","instrument":"VIIRS","confidence":"n","version":"2.0NRT","bright_ti5":"288.87","frp":"0.6","daynight":"N","commune":"Donges","code_insee":"44052","departement":"Loire-Atlantique","region":"Pays de la Loire"}},{"type":"Feature","geometry":{"type":"Point","coordinates":[-1.03733,48.10735]},"properties":{"latitude":"48.10735","longitude":"-1.03733","bright_ti4":"301.75","scan":"0.45","track":"0.39","acq_date":"2026-07-19","acq_time":"202","satellite":"N","instrument":"VIIRS","confidence":"n","version":"2.0NRT","bright_ti5":"287.58","frp":"0.99","daynight":"N","commune":"Saint-Pierre-la-Cour","code_insee":"53247","departement":"Mayenne","region":"Pays de la Loire"}},{"type":"Feature","geometry":{"type":"Point","coordinates":[0.47591,48.33762]},"properties":{"latitude":"48.33762","longitude":"0.47591","bright_ti4":"308.92","scan":"0.41","track":"0.37","acq_date":"2026-07-19","acq_time":"202","satellite":"N","instrument":"VIIRS","confidence":"n","version":"2.0NRT","bright_ti5":"285.48","frp":"0.41","daynight":"N","commune":"Vaunoise","code_insee":"61498","departement":"Orne","region":"Normandie"}},{"type":"Feature","geometry":{"type":"Point","coordinates":[0.47694,48.34101]},"properties":{"latitude":"48.34101","longitude":"0.47694","bright_ti4":"304.56","scan":"0.41","track":"0.37","acq_date":"2026-07-19","acq_time":"202","satellite":"N","instrument":"VIIRS","confidence":"n","version":"2.0NRT","bright_ti5":"285.54","frp":"0.41","daynight":"N","commune":"Vaunoise","code_insee":"61498","departement":"Orne","region":"Normandie"}},{"type":"Feature","geometry":{"type":"Point","coordinates":[2.98247,48.38828]},"properties":{"latitude":"48.38828","longitude":"2.98247","bright_ti4":"314.41","scan":"0.38","track":"0.36","acq_date":"2026-07-19","acq_time":"202","satellite":"N","instrument":"VIIRS","confidence":"n","version":"2.0NRT","bright_ti5":"289.75","frp":"2","daynight":"N","commune":"Montereau-Fault-Yonne","code_insee":"77305","departement":"Seine-et-Marne","region":"Île-de-France"}},{"type":"Feature","geometry":{"type":"Point","coordinates":[4.56223,48.76834]},"properties":{"latitude":"48.76834","longitude":"4.56223","bright_ti4":"302.64","scan":"0.39","track":"0.36","acq_date":"2026-07-19","acq_time":"202","satellite":"N","instrument":"VIIRS","confidence":"n","version":"2.0NRT","bright_ti5":"288.03","frp":"1.01","daynight":"N","commune":"Couvrot","code_insee":"51195","departement":"Marne","region":"Grand Est"}},{"type":"Feature","geometry":{"type":"Point","coordinates":[2.73499,48.94818]},"properties":{"latitude":"48.94818","longitude":"2.73499","bright_ti4":"296.78","scan":"0.39","track":"0.36","acq_date":"2026-07-19","acq_time":"202","satellite":"N","instrument":"VIIRS","confidence":"n","version":"2.0NRT","bright_ti5":"285.89","frp":"0.41","daynight":"N","commune":"Fresnes-sur-Marne","code_insee":"77196","departement":"Seine-et-Marne","region":"Île-de-France"}},{"type":"Feature","geometry":{"type":"Point","coordinates":[2.16338,48.9711]},"properties":{"latitude":"48.9711","longitude":"2.16338","bright_ti4":"299.84","scan":"0.39","track":"0.36","acq_date":"2026-07-19","acq_time":"202","satellite":"N","instrument":"VIIRS","confidence":"n","version":"2.0NRT","bright_ti5":"286.4","frp":"0.55","daynight":"N","commune":"Saint-Germain-en-Laye","code_insee":"78551","departement":"Yvelines","region":"Île-de-France"}},{"type":"Feature","geometry":{"type":"Point","coordinates":[-0.25423,49.10133]},"properties":{"latitude":"49.10133","longitude":"-0.25423","bright_ti4":"298.29","scan":"0.43","track":"0.38","acq_date":"2026-07-19","acq_time":"202","satellite":"N","instrument":"VIIRS","confidence":"n","version":"2.0NRT","bright_ti5":"283.73","frp":"0.48","daynight":"N","commune":"Bellengreville","code_insee":"14057","departement":"Calvados","region":"Normandie"}},{"type":"Feature","geometry":{"type":"Point","coordinates":[6.14773,49.31912]},"properties":{"latitude":"49.31912","longitude":"6.14773","bright_ti4":"297.22","scan":"0.4","track":"0.37","acq_date":"2026-07-19","acq_time":"202","satellite":"N","instrument":"VIIRS","confidence":"n","version":"2.0NRT","bright_ti5":"286.88","frp":"0.4","daynight":"N","commune":"Florange","code_insee":"57221","departement":"Moselle","region":"Grand Est"}},{"type":"Feature","geometry":{"type":"Point","coordinates":[2.87114,49.9842]},"properties":{"latitude":"49.9842","longitude":"2.87114","bright_ti4":"343.14","scan":"0.39","track":"0.36","acq_date":"2026-07-19","acq_time":"202","satellite":"N","instrument":"VIIRS","confidence":"n","version":"2.0NRT","bright_ti5":"284.49","frp":"7.41","daynight":"N","commune":"Maurepas","code_insee":"80521","departement":"Somme","region":"Hauts-de-France"}},{"type":"Feature","geometry":{"type":"Point","coordinates":[3.48893,50.3312]},"properties":{"latitude":"50.3312","longitude":"3.48893","bright_ti4":"304.67","scan":"0.39","track":"0.36","acq_date":"2026-07-19","acq_time":"202","satellite":"N","instrument":"VIIRS","confidence":"n","version":"2.0NRT","bright_ti5":"286.12","frp":"1","daynight":"N","commune":"Trith-Saint-Léger","code_insee":"59603","departement":"Nord","region":"Hauts-de-France"}},{"type":"Feature","geometry":{"type":"Point","coordinates":[3.49137,50.33774]},"properties":{"latitude":"50.33774","longitude":"3.49137","bright_ti4":"304.29","scan":"0.39","track":"0.36","acq_date":"2026-07-19","acq_time":"202","satellite":"N","instrument":"VIIRS","confidence":"n","version":"2.0NRT","bright_ti5":"285.88","frp":"0.99","daynight":"N","commune":"Trith-Saint-Léger","code_insee":"59603","departement":"Nord","region":"Hauts-de-France"}},{"type":"Feature","geometry":{"type":"Point","coordinates":[2.28399,51.03202]},"properties":{"latitude":"51.03202","longitude":"2.28399","bright_ti4":"324.96","scan":"0.4","track":"0.37","acq_date":"2026-07-19","acq_time":"202","satellite":"N","instrument":"VIIRS","confidence":"n","version":"2.0NRT","bright_ti5":"288.54","frp":"2.85","daynight":"N","commune":"Grande-Synthe","code_insee":"59271","departement":"Nord","region":"Hauts-de-France"}},{"type":"Feature","geometry":{"type":"Point","coordinates":[2.27835,51.03281]},"properties":{"latitude":"51.03281","longitude":"2.27835","bright_ti4":"308.49","scan":"0.4","track":"0.37","acq_date":"2026-07-19","acq_time":"202","satellite":"N","instrument":"VIIRS","confidence":"n","version":"2.0NRT","bright_ti5":"287.13","frp":"1.45","daynight":"N","commune":"Grande-Synthe","code_insee":"59271","departement":"Nord","region":"Hauts-de-France"}},{"type":"Feature","geometry":{"type":"Point","coordinates":[2.28517,51.03536]},"properties":{"latitude":"51.03536","longitude":"2.28517","bright_ti4":"314.43","scan":"0.4","track":"0.37","acq_date":"2026-07-19","acq_time":"202","satellite":"N","instrument":"VIIRS","confidence":"n","version":"2.0NRT","bright_ti5":"288.44","frp":"2.4","daynight":"N","commune":"Grande-Synthe","code_insee":"59271","departement":"Nord","region":"Hauts-de-France"}},{"type":"Feature","geometry":{"type":"Point","coordinates":[2.29316,51.04125]},"properties":{"latitude":"51.04125","longitude":"2.29316","bright_ti4":"301.41","scan":"0.4","track":"0.37","acq_date":"2026-07-19","acq_time":"202","satellite":"N","instrument":"VIIRS","confidence":"n","version":"2.0NRT","bright_ti5":"287.28","frp":"5.89","daynight":"N","commune":"Grande-Synthe","code_insee":"59271","departement":"Nord","region":"Hauts-de-France"}},{"type":"Feature","geometry":{"type":"Point","coordinates":[2.29997,51.0438]},"properties":{"latitude":"51.0438","longitude":"2.29997","bright_ti4":"321.37","scan":"0.4","track":"0.37","acq_date":"2026-07-19","acq_time":"202","satellite":"N","instrument":"VIIRS","confidence":"n","version":"2.0NRT","bright_ti5":"287.21","frp":"3.01","daynight":"N","commune":"Grande-Synthe","code_insee":"59271","departement":"Nord","region":"Hauts-de-France"}},{"type":"Feature","geometry":{"type":"Point","coordinates":[2.29433,51.04459]},"properties":{"latitude":"51.04459","longitude":"2.29433","bright_ti4":"342.92","scan":"0.4","track":"0.37","acq_date":"2026-07-19","acq_time":"202","satellite":"N","instrument":"VIIRS","confidence":"n","version":"2.0NRT","bright_ti5":"286.72","frp":"5.89","daynight":"N","commune":"Grande-Synthe","code_insee":"59271","departement":"Nord","region":"Hauts-de-France"}},{"type":"Feature","geometry":{"type":"Point","coordinates":[2.2955,51.04792]},"properties":{"latitude":"51.04792","longitude":"2.2955","bright_ti4":"342.05","scan":"0.4","track":"0.37","acq_date":"2026-07-19","acq_time":"202","satellite":"N","instrument":"VIIRS","confidence":"n","version":"2.0NRT","bright_ti5":"288.76","frp":"4.91","daynight":"N","commune":"Grande-Synthe","code_insee":"59271","departement":"Nord","region":"Hauts-de-France"}},{"type":"Feature","geometry":{"type":"Point","coordinates":[9.07716,42.27528]},"properties":{"latitude":"42.27528","longitude":"9.07716","bright_ti4":"331.49","scan":"0.45","track":"0.47","acq_date":"2026-07-19","acq_time":"204","satellite":"N","instrument":"VIIRS","confidence":"n","version":"2.0NRT","bright_ti5":"292.65","frp":"3.23","daynight":"N","commune":"Corte","code_insee":"2B096","departement":"Haute-Corse","region":"Corse"}},{"type":"Feature","geometry":{"type":"Point","coordinates":[9.09336,42.27603]},"properties":{"latitude":"42.27603","longitude":"9.09336","bright_ti4":"320.28","scan":"0.45","track":"0.47","acq_date":"2026-07-19","acq_time":"204","satellite":"N","instrument":"VIIRS","confidence":"n","version":"2.0NRT","bright_ti5":"292.74","frp":"2.71","daynight":"N","commune":"Corte","code_insee":"2B096","departement":"Haute-Corse","region":"Corse"}},{"type":"Feature","geometry":{"type":"Point","coordinates":[9.07146,42.27662]},"properties":{"latitude":"42.27662","longitude":"9.07146","bright_ti4":"310.66","scan":"0.45","track":"0.47","acq_date":"2026-07-19","acq_time":"204","satellite":"N","instrument":"VIIRS","confidence":"n","version":"2.0NRT","bright_ti5":"290.22","frp":"3.23","daynight":"N","commune":"Corte","code_insee":"2B096","departement":"Haute-Corse","region":"Corse"}},{"type":"Feature","geometry":{"type":"Point","coordinates":[9.08487,42.27802]},"properties":{"latitude":"42.27802","longitude":"9.08487","bright_ti4":"332.59","scan":"0.45","track":"0.47","acq_date":"2026-07-19","acq_time":"204","satellite":"N","instrument":"VIIRS","confidence":"n","version":"2.0NRT","bright_ti5":"293.44","frp":"2.71","daynight":"N","commune":"Corte","code_insee":"2B096","departement":"Haute-Corse","region":"Corse"}},{"type":"Feature","geometry":{"type":"Point","coordinates":[9.09426,42.28037]},"properties":{"latitude":"42.28037","longitude":"9.09426","bright_ti4":"313.61","scan":"0.45","track":"0.47","acq_date":"2026-07-19","acq_time":"204","satellite":"N","instrument":"VIIRS","confidence":"n","version":"2.0NRT","bright_ti5":"293.24","frp":"2.71","daynight":"N","commune":"Corte","code_insee":"2B096","departement":"Haute-Corse","region":"Corse"}},{"type":"Feature","geometry":{"type":"Point","coordinates":[9.08943,42.28605]},"properties":{"latitude":"42.28605","longitude":"9.08943","bright_ti4":"316.98","scan":"0.45","track":"0.47","acq_date":"2026-07-19","acq_time":"204","satellite":"N","instrument":"VIIRS","confidence":"n","version":"2.0NRT","bright_ti5":"292.49","frp":"2.39","daynight":"N","commune":"Corte","code_insee":"2B096","departement":"Haute-Corse","region":"Corse"}},{"type":"Feature","geometry":{"type":"Point","coordinates":[0.09373,42.87116]},"properties":{"latitude":"42.87116","longitude":"0.09373","bright_ti4":"310.84","scan":"0.39","track":"0.36","acq_date":"2026-07-19","acq_time":"204","satellite":"N","instrument":"VIIRS","confidence":"n","version":"2.0NRT","bright_ti5":"286.29","frp":"1.32","daynight":"N","commune":"Barèges","code_insee":"65481","departement":"Hautes-Pyrénées","region":"Occitanie"}},{"type":"Feature","geometry":{"type":"Point","coordinates":[0.08876,42.87189]},"properties":{"latitude":"42.87189","longitude":"0.08876","bright_ti4":"312","scan":"0.39","track":"0.36","acq_date":"2026-07-19","acq_time":"204","satellite":"N","instrument":"VIIRS","confidence":"n","version":"2.0NRT","bright_ti5":"284.55","frp":"1.39","daynight":"N","commune":"Barèges","code_insee":"65481","departement":"Hautes-Pyrénées","region":"Occitanie"}},{"type":"Feature","geometry":{"type":"Point","coordinates":[0.09469,42.87446]},"properties":{"latitude":"42.87446","longitude":"0.09469","bright_ti4":"316.08","scan":"0.39","track":"0.36","acq_date":"2026-07-19","acq_time":"204","satellite":"N","instrument":"VIIRS","confidence":"n","version":"2.0NRT","bright_ti5":"286.15","frp":"0.8","daynight":"N","commune":"Barèges","code_insee":"65481","departement":"Hautes-Pyrénées","region":"Occitanie"}},{"type":"Feature","geometry":{"type":"Point","coordinates":[0.08972,42.87519]},"properties":{"latitude":"42.87519","longitude":"0.08972","bright_ti4":"300.69","scan":"0.39","track":"0.36","acq_date":"2026-07-19","acq_time":"204","satellite":"N","instrument":"VIIRS","confidence":"n","version":"2.0NRT","bright_ti5":"286.8","frp":"1.04","daynight":"N","commune":"Barèges","code_insee":"65481","departement":"Hautes-Pyrénées","region":"Occitanie"}},{"type":"Feature","geometry":{"type":"Point","coordinates":[4.88751,43.43737]},"properties":{"latitude":"43.43737","longitude":"4.88751","bright_ti4":"330.71","scan":"0.43","track":"0.38","acq_date":"2026-07-19","acq_time":"204","satellite":"N","instrument":"VIIRS","confidence":"n","version":"2.0NRT","bright_ti5":"296.72","frp":"3.41","daynight":"N","commune":"Fos-sur-Mer","code_insee":"13039","departement":"Bouches-du-Rhône","region":"Provence-Alpes-Côte d'Azur"}},{"type":"Feature","geometry":{"type":"Point","coordinates":[4.89402,43.43982]},"properties":{"latitude":"43.43982","longitude":"4.89402","bright_ti4":"312.34","scan":"0.44","track":"0.38","acq_date":"2026-07-19","acq_time":"204","satellite":"N","instrument":"VIIRS","confidence":"n","version":"2.0NRT","bright_ti5":"295.5","frp":"3.41","daynight":"N","commune":"Fos-sur-Mer","code_insee":"13039","departement":"Bouches-du-Rhône","region":"Provence-Alpes-Côte d'Azur"}},{"type":"Feature","geometry":{"type":"Point","coordinates":[4.88348,43.44181]},"properties":{"latitude":"43.44181","longitude":"4.88348","bright_ti4":"324.26","scan":"0.43","track":"0.38","acq_date":"2026-07-19","acq_time":"204","satellite":"N","instrument":"VIIRS","confidence":"n","version":"2.0NRT","bright_ti5":"293.89","frp":"2.82","daynight":"N","commune":"Fos-sur-Mer","code_insee":"13039","departement":"Bouches-du-Rhône","region":"Provence-Alpes-Côte d'Azur"}},{"type":"Feature","geometry":{"type":"Point","coordinates":[4.8965,43.4467]},"properties":{"latitude":"43.4467","longitude":"4.8965","bright_ti4":"338.57","scan":"0.44","track":"0.38","acq_date":"2026-07-19","acq_time":"204","satellite":"N","instrument":"VIIRS","confidence":"n","version":"2.0NRT","bright_ti5":"296.85","frp":"5.15","daynight":"N","commune":"Fos-sur-Mer","code_insee":"13039","departement":"Bouches-du-Rhône","region":"Provence-Alpes-Côte d'Azur"}},{"type":"Feature","geometry":{"type":"Point","coordinates":[4.89873,43.4496]},"properties":{"latitude":"43.4496","longitude":"4.89873","bright_ti4":"312.98","scan":"0.43","track":"0.38","acq_date":"2026-07-19","acq_time":"204","satellite":"N","instrument":"VIIRS","confidence":"n","version":"2.0NRT","bright_ti5":"293.93","frp":"0.63","daynight":"N","commune":"Fos-sur-Mer","code_insee":"13039","departement":"Bouches-du-Rhône","region":"Provence-Alpes-Côte d'Azur"}},{"type":"Feature","geometry":{"type":"Point","coordinates":[2.29607,51.04345]},"properties":{"latitude":"51.04345","longitude":"2.29607","bright_ti4":"305.84","scan":"0.71","track":"0.75","acq_date":"2026-07-19","acq_time":"340","satellite":"N","instrument":"VIIRS","confidence":"n","version":"2.0NRT","bright_ti5":"277.92","frp":"1.2","daynight":"N","commune":"Grande-Synthe","code_insee":"59271","departement":"Nord","region":"Hauts-de-France"}},{"type":"Feature","geometry":{"type":"Point","coordinates":[2.28724,51.04704]},"properties":{"latitude":"51.04704","longitude":"2.28724","bright_ti4":"299.92","scan":"0.71","track":"0.75","acq_date":"2026-07-19","acq_time":"340","satellite":"N","instrument":"VIIRS","confidence":"n","version":"2.0NRT","bright_ti5":"280.3","frp":"1.2","daynight":"N","commune":"Grande-Synthe","code_insee":"59271","departement":"Nord","region":"Hauts-de-France"}},{"type":"Feature","geometry":{"type":"Point","coordinates":[8.94029,42.31537]},"properties":{"latitude":"42.31537","longitude":"8.94029","bright_ti4":"347.37","scan":"0.56","track":"0.52","acq_date":"2026-07-19","acq_time":"1147","satellite":"N","instrument":"VIIRS","confidence":"n","version":"2.0NRT","bright_ti5":"303.16","frp":"37.22","daynight":"D","commune":"Albertacce","code_insee":"2B007","departement":"Haute-Corse","region":"Corse"}},{"type":"Feature","geometry":{"type":"Point","coordinates":[8.93948,42.32025]},"properties":{"latitude":"42.32025","longitude":"8.93948","bright_ti4":"367","scan":"0.56","track":"0.52","acq_date":"2026-07-19","acq_time":"1147","satellite":"N","instrument":"VIIRS","confidence":"h","version":"2.0NRT","bright_ti5":"303.35","frp":"37.22","daynight":"D","commune":"Albertacce","code_insee":"2B007","departement":"Haute-Corse","region":"Corse"}},{"type":"Feature","geometry":{"type":"Point","coordinates":[4.89108,43.4341]},"properties":{"latitude":"43.4341","longitude":"4.89108","bright_ti4":"350.33","scan":"0.4","track":"0.6","acq_date":"2026-07-19","acq_time":"1149","satellite":"N","instrument":"VIIRS","confidence":"n","version":"2.0NRT","bright_ti5":"308.35","frp":"8.29","daynight":"D","commune":"Fos-sur-Mer","code_insee":"13039","departement":"Bouches-du-Rhône","region":"Provence-Alpes-Côte d'Azur"}},{"type":"Feature","geometry":{"type":"Point","coordinates":[4.88859,43.43444]},"properties":{"latitude":"43.43444","longitude":"4.88859","bright_ti4":"342.08","scan":"0.4","track":"0.6","acq_date":"2026-07-19","acq_time":"1149","satellite":"N","instrument":"VIIRS","confidence":"n","version":"2.0NRT","bright_ti5":"307.03","frp":"8.37","daynight":"D","commune":"Fos-sur-Mer","code_insee":"13039","departement":"Bouches-du-Rhône","region":"Provence-Alpes-Côte d'Azur"}},{"type":"Feature","geometry":{"type":"Point","coordinates":[4.89341,43.43583]},"properties":{"latitude":"43.43583","longitude":"4.89341","bright_ti4":"336.24","scan":"0.4","track":"0.6","acq_date":"2026-07-19","acq_time":"1149","satellite":"N","instrument":"VIIRS","confidence":"l","version":"2.0NRT","bright_ti5":"308.89","frp":"10.58","daynight":"D","commune":"Fos-sur-Mer","code_insee":"13039","departement":"Bouches-du-Rhône","region":"Provence-Alpes-Côte d'Azur"}},{"type":"Feature","geometry":{"type":"Point","coordinates":[4.88974,43.43348]},"properties":{"latitude":"43.43348","longitude":"4.88974","bright_ti4":"367","scan":"0.32","track":"0.55","acq_date":"2026-07-19","acq_time":"1327","satellite":"N","instrument":"VIIRS","confidence":"h","version":"2.0NRT","bright_ti5":"312.78","frp":"12","daynight":"D","commune":"Fos-sur-Mer","code_insee":"13039","departement":"Bouches-du-Rhône","region":"Provence-Alpes-Côte d'Azur"}},{"type":"Feature","geometry":{"type":"Point","coordinates":[4.89009,43.43557]},"properties":{"latitude":"43.43557","longitude":"4.89009","bright_ti4":"356.25","scan":"0.32","track":"0.55","acq_date":"2026-07-19","acq_time":"1327","satellite":"N","instrument":"VIIRS","confidence":"n","version":"2.0NRT","bright_ti5":"313.1","frp":"6.76","daynight":"D","commune":"Fos-sur-Mer","code_insee":"13039","departement":"Bouches-du-Rhône","region":"Provence-Alpes-Côte d'Azur"}},{"type":"Feature","geometry":{"type":"Point","coordinates":[4.89419,43.43579]},"properties":{"latitude":"43.43579","longitude":"4.89419","bright_ti4":"339.69","scan":"0.32","track":"0.55","acq_date":"2026-07-19","acq_time":"1327","satellite":"N","instrument":"VIIRS","confidence":"l","version":"2.0NRT","bright_ti5":"313.38","frp":"6.76","daynight":"D","commune":"Fos-sur-Mer","code_insee":"13039","departement":"Bouches-du-Rhône","region":"Provence-Alpes-Côte d'Azur"}},{"type":"Feature","geometry":{"type":"Point","coordinates":[4.89334,43.43885]},"properties":{"latitude":"43.43885","longitude":"4.89334","bright_ti4":"341.91","scan":"0.32","track":"0.55","acq_date":"2026-07-19","acq_time":"1327","satellite":"N","instrument":"VIIRS","confidence":"n","version":"2.0NRT","bright_ti5":"312.91","frp":"6.53","daynight":"D","commune":"Fos-sur-Mer","code_insee":"13039","departement":"Bouches-du-Rhône","region":"Provence-Alpes-Côte d'Azur"}},{"type":"Feature","geometry":{"type":"Point","coordinates":[6.43125,43.45078]},"properties":{"latitude":"43.45078","longitude":"6.43125","bright_ti4":"355.79","scan":"0.39","track":"0.59","acq_date":"2026-07-19","acq_time":"1327","satellite":"N","instrument":"VIIRS","confidence":"n","version":"2.0NRT","bright_ti5":"309.39","frp":"8.31","daynight":"D","commune":"Taradeau","code_insee":"83134","departement":"Var","region":"Provence-Alpes-Côte d'Azur"}},{"type":"Feature","geometry":{"type":"Point","coordinates":[6.43585,43.45097]},"properties":{"latitude":"43.45097","longitude":"6.43585","bright_ti4":"367","scan":"0.39","track":"0.59","acq_date":"2026-07-19","acq_time":"1327","satellite":"N","instrument":"VIIRS","confidence":"h","version":"2.0NRT","bright_ti5":"308.97","frp":"8.31","daynight":"D","commune":"Taradeau","code_insee":"83134","departement":"Var","region":"Provence-Alpes-Côte d'Azur"}},{"type":"Feature","geometry":{"type":"Point","coordinates":[-0.444,44.67924]},"properties":{"latitude":"44.67924","longitude":"-0.444","bright_ti4":"342.73","scan":"0.56","track":"0.43","acq_date":"2026-07-19","acq_time":"1327","satellite":"N","instrument":"VIIRS","confidence":"n","version":"2.0NRT","bright_ti5":"304.76","frp":"10.96","daynight":"D","commune":"Portets","code_insee":"33334","departement":"Gironde","region":"Nouvelle-Aquitaine"}},{"type":"Feature","geometry":{"type":"Point","coordinates":[1.90649,45.45293]},"properties":{"latitude":"45.45293","longitude":"1.90649","bright_ti4":"336.73","scan":"0.49","track":"0.48","acq_date":"2026-07-19","acq_time":"1327","satellite":"N","instrument":"VIIRS","confidence":"n","version":"2.0NRT","bright_ti5":"296.25","frp":"7.89","daynight":"D","commune":"Chaumeil","code_insee":"19051","departement":"Corrèze","region":"Nouvelle-Aquitaine"}},{"type":"Feature","geometry":{"type":"Point","coordinates":[1.91319,45.45345]},"properties":{"latitude":"45.45345","longitude":"1.91319","bright_ti4":"340.44","scan":"0.49","track":"0.48","acq_date":"2026-07-19","acq_time":"1327","satellite":"N","instrument":"VIIRS","confidence":"n","version":"2.0NRT","bright_ti5":"302.3","frp":"12.35","daynight":"D","commune":"Chaumeil","code_insee":"19051","departement":"Corrèze","region":"Nouvelle-Aquitaine"}},{"type":"Feature","geometry":{"type":"Point","coordinates":[1.90568,45.45394]},"properties":{"latitude":"45.45394","longitude":"1.90568","bright_ti4":"335.39","scan":"0.49","track":"0.48","acq_date":"2026-07-19","acq_time":"1327","satellite":"N","instrument":"VIIRS","confidence":"n","version":"2.0NRT","bright_ti5":"296.51","frp":"19.52","daynight":"D","commune":"Chaumeil","code_insee":"19051","departement":"Corrèze","region":"Nouvelle-Aquitaine"}},{"type":"Feature","geometry":{"type":"Point","coordinates":[1.91232,45.45441]},"properties":{"latitude":"45.45441","longitude":"1.91232","bright_ti4":"342.1","scan":"0.49","track":"0.48","acq_date":"2026-07-19","acq_time":"1327","satellite":"N","instrument":"VIIRS","confidence":"n","version":"2.0NRT","bright_ti5":"306.04","frp":"19.52","daynight":"D","commune":"Chaumeil","code_insee":"19051","departement":"Corrèze","region":"Nouvelle-Aquitaine"}},{"type":"Feature","geometry":{"type":"Point","coordinates":[1.90568,45.45741]},"properties":{"latitude":"45.45741","longitude":"1.90568","bright_ti4":"332.53","scan":"0.49","track":"0.48","acq_date":"2026-07-19","acq_time":"1327","satellite":"N","instrument":"VIIRS","confidence":"n","version":"2.0NRT","bright_ti5":"296.46","frp":"7.89","daynight":"D","commune":"Chaumeil","code_insee":"19051","departement":"Corrèze","region":"Nouvelle-Aquitaine"}},{"type":"Feature","geometry":{"type":"Point","coordinates":[1.91247,45.45793]},"properties":{"latitude":"45.45793","longitude":"1.91247","bright_ti4":"339.82","scan":"0.49","track":"0.48","acq_date":"2026-07-19","acq_time":"1327","satellite":"N","instrument":"VIIRS","confidence":"n","version":"2.0NRT","bright_ti5":"298.09","frp":"12.35","daynight":"D","commune":"Chaumeil","code_insee":"19051","departement":"Corrèze","region":"Nouvelle-Aquitaine"}},{"type":"Feature","geometry":{"type":"Point","coordinates":[2.2962,51.04404]},"properties":{"latitude":"51.04404","longitude":"2.2962","bright_ti4":"328.15","scan":"0.57","track":"0.52","acq_date":"2026-07-19","acq_time":"1329","satellite":"N","instrument":"VIIRS","confidence":"n","version":"2.0NRT","bright_ti5":"289.22","frp":"2.97","daynight":"D","commune":"Grande-Synthe","code_insee":"59271","departement":"Nord","region":"Hauts-de-France"}},{"type":"Feature","geometry":{"type":"Point","coordinates":[6.23699,47.22091]},"properties":{"latitude":"47.22091","longitude":"6.23699","bright_ti4":"295.22","scan":"0.48","track":"0.64","acq_date":"2026-07-19","acq_time":"39","satellite":"N20","instrument":"VIIRS","confidence":"n","version":"2.0NRT","bright_ti5":"282.94","frp":"0.72","daynight":"N","commune":"Naisey-les-Granges","code_insee":"25417","departement":"Doubs","region":"Bourgogne-Franche-Comté"}},{"type":"Feature","geometry":{"type":"Point","coordinates":[2.27999,51.03543]},"properties":{"latitude":"51.03543","longitude":"2.27999","bright_ti4":"300.77","scan":"0.73","track":"0.76","acq_date":"2026-07-19","acq_time":"39","satellite":"N20","instrument":"VIIRS","confidence":"n","version":"2.0NRT","bright_ti5":"282.84","frp":"3.73","daynight":"N","commune":"Grande-Synthe","code_insee":"59271","departement":"Nord","region":"Hauts-de-France"}},{"type":"Feature","geometry":{"type":"Point","coordinates":[2.29076,51.03569]},"properties":{"latitude":"51.03569","longitude":"2.29076","bright_ti4":"301.25","scan":"0.73","track":"0.76","acq_date":"2026-07-19","acq_time":"39","satellite":"N20","instrument":"VIIRS","confidence":"n","version":"2.0NRT","bright_ti5":"283.9","frp":"2.7","daynight":"N","commune":"Grande-Synthe","code_insee":"59271","departement":"Nord","region":"Hauts-de-France"}},{"type":"Feature","geometry":{"type":"Point","coordinates":[2.28732,51.0392]},"properties":{"latitude":"51.0392","longitude":"2.28732","bright_ti4":"309.81","scan":"0.73","track":"0.76","acq_date":"2026-07-19","acq_time":"39","satellite":"N20","instrument":"VIIRS","confidence":"n","version":"2.0NRT","bright_ti5":"284.98","frp":"4.64","daynight":"N","commune":"Grande-Synthe","code_insee":"59271","departement":"Nord","region":"Hauts-de-France"}},{"type":"Feature","geometry":{"type":"Point","coordinates":[9.07516,42.27456]},"properties":{"latitude":"42.27456","longitude":"9.07516","bright_ti4":"342.21","scan":"0.63","track":"0.54","acq_date":"2026-07-19","acq_time":"41","satellite":"N20","instrument":"VIIRS","confidence":"n","version":"2.0NRT","bright_ti5":"293.67","frp":"8.32","daynight":"N","commune":"Corte","code_insee":"2B096","departement":"Haute-Corse","region":"Corse"}},{"type":"Feature","geometry":{"type":"Point","coordinates":[9.07677,42.27482]},"properties":{"latitude":"42.27482","longitude":"9.07677","bright_ti4":"342.26","scan":"0.63","track":"0.54","acq_date":"2026-07-19","acq_time":"41","satellite":"N20","instrument":"VIIRS","confidence":"n","version":"2.0NRT","bright_ti5":"293.84","frp":"6.58","daynight":"N","commune":"Corte","code_insee":"2B096","departement":"Haute-Corse","region":"Corse"}},{"type":"Feature","geometry":{"type":"Point","coordinates":[9.06814,42.27497]},"properties":{"latitude":"42.27497","longitude":"9.06814","bright_ti4":"317.44","scan":"0.63","track":"0.54","acq_date":"2026-07-19","acq_time":"41","satellite":"N20","instrument":"VIIRS","confidence":"n","version":"2.0NRT","bright_ti5":"290.5","frp":"2.69","daynight":"N","commune":"Corte","code_insee":"2B096","departement":"Haute-Corse","region":"Corse"}},{"type":"Feature","geometry":{"type":"Point","coordinates":[9.06973,42.27527]},"properties":{"latitude":"42.27527","longitude":"9.06973","bright_ti4":"322.95","scan":"0.63","track":"0.54","acq_date":"2026-07-19","acq_time":"41","satellite":"N20","instrument":"VIIRS","confidence":"n","version":"2.0NRT","bright_ti5":"291.05","frp":"6.58","daynight":"N","commune":"Corte","code_insee":"2B096","departement":"Haute-Corse","region":"Corse"}},{"type":"Feature","geometry":{"type":"Point","coordinates":[9.0888,42.27879]},"properties":{"latitude":"42.27879","longitude":"9.0888","bright_ti4":"354.72","scan":"0.63","track":"0.54","acq_date":"2026-07-19","acq_time":"41","satellite":"N20","instrument":"VIIRS","confidence":"n","version":"2.0NRT","bright_ti5":"298.08","frp":"17.71","daynight":"N","commune":"Corte","code_insee":"2B096","departement":"Haute-Corse","region":"Corse"}},{"type":"Feature","geometry":{"type":"Point","coordinates":[9.08991,42.27902]},"properties":{"latitude":"42.27902","longitude":"9.08991","bright_ti4":"349.04","scan":"0.63","track":"0.54","acq_date":"2026-07-19","acq_time":"41","satellite":"N20","instrument":"VIIRS","confidence":"n","version":"2.0NRT","bright_ti5":"296.31","frp":"11","daynight":"N","commune":"Corte","code_insee":"2B096","departement":"Haute-Corse","region":"Corse"}},{"type":"Feature","geometry":{"type":"Point","coordinates":[9.08306,42.27913]},"properties":{"latitude":"42.27913","longitude":"9.08306","bright_ti4":"324.45","scan":"0.63","track":"0.54","acq_date":"2026-07-19","acq_time":"41","satellite":"N20","instrument":"VIIRS","confidence":"n","version":"2.0NRT","bright_ti5":"291.37","frp":"8.32","daynight":"N","commune":"Corte","code_insee":"2B096","departement":"Haute-Corse","region":"Corse"}},{"type":"Feature","geometry":{"type":"Point","coordinates":[9.08434,42.27938]},"properties":{"latitude":"42.27938","longitude":"9.08434","bright_ti4":"333.76","scan":"0.63","track":"0.54","acq_date":"2026-07-19","acq_time":"41","satellite":"N20","instrument":"VIIRS","confidence":"n","version":"2.0NRT","bright_ti5":"292.31","frp":"11","daynight":"N","commune":"Corte","code_insee":"2B096","departement":"Haute-Corse","region":"Corse"}},{"type":"Feature","geometry":{"type":"Point","coordinates":[9.06828,42.28]},"properties":{"latitude":"42.28","longitude":"9.06828","bright_ti4":"310.84","scan":"0.63","track":"0.54","acq_date":"2026-07-19","acq_time":"41","satellite":"N20","instrument":"VIIRS","confidence":"n","version":"2.0NRT","bright_ti5":"290.35","frp":"2.69","daynight":"N","commune":"Corte","code_insee":"2B096","departement":"Haute-Corse","region":"Corse"}},{"type":"Feature","geometry":{"type":"Point","coordinates":[9.06993,42.2803]},"properties":{"latitude":"42.2803","longitude":"9.06993","bright_ti4":"312.72","scan":"0.63","track":"0.54","acq_date":"2026-07-19","acq_time":"41","satellite":"N20","instrument":"VIIRS","confidence":"n","version":"2.0NRT","bright_ti5":"290.78","frp":"3.04","daynight":"N","commune":"Corte","code_insee":"2B096","departement":"Haute-Corse","region":"Corse"}},{"type":"Feature","geometry":{"type":"Point","coordinates":[9.08903,42.28886]},"properties":{"latitude":"42.28886","longitude":"9.08903","bright_ti4":"305.16","scan":"0.63","track":"0.54","acq_date":"2026-07-19","acq_time":"41","satellite":"N20","instrument":"VIIRS","confidence":"n","version":"2.0NRT","bright_ti5":"291.88","frp":"1.61","daynight":"N","commune":"Corte","code_insee":"2B096","departement":"Haute-Corse","region":"Corse"}},{"type":"Feature","geometry":{"type":"Point","coordinates":[8.92396,42.3239]},"properties":{"latitude":"42.3239","longitude":"8.92396","bright_ti4":"306.83","scan":"0.32","track":"0.55","acq_date":"2026-07-19","acq_time":"41","satellite":"N20","instrument":"VIIRS","confidence":"n","version":"2.0NRT","bright_ti5":"290.62","frp":"1.04","daynight":"N","commune":"Albertacce","code_insee":"2B007","departement":"Haute-Corse","region":"Corse"}},{"type":"Feature","geometry":{"type":"Point","coordinates":[4.88728,43.43787]},"properties":{"latitude":"43.43787","longitude":"4.88728","bright_ti4":"314.59","scan":"0.53","track":"0.67","acq_date":"2026-07-19","acq_time":"41","satellite":"N20","instrument":"VIIRS","confidence":"n","version":"2.0NRT","bright_ti5":"292.85","frp":"3.39","daynight":"N","commune":"Fos-sur-Mer","code_insee":"13039","departement":"Bouches-du-Rhône","region":"Provence-Alpes-Côte d'Azur"}},{"type":"Feature","geometry":{"type":"Point","coordinates":[6.23957,47.22003]},"properties":{"latitude":"47.22003","longitude":"6.23957","bright_ti4":"300.49","scan":"0.48","track":"0.48","acq_date":"2026-07-19","acq_time":"219","satellite":"N20","instrument":"VIIRS","confidence":"n","version":"2.0NRT","bright_ti5":"283.82","frp":"0.79","daynight":"N","commune":"Naisey-les-Granges","code_insee":"25417","departement":"Doubs","region":"Bourgogne-Franche-Comté"}},{"type":"Feature","geometry":{"type":"Point","coordinates":[6.23941,47.22054]},"properties":{"latitude":"47.22054","longitude":"6.23941","bright_ti4":"300.48","scan":"0.48","track":"0.48","acq_date":"2026-07-19","acq_time":"219","satellite":"N20","instrument":"VIIRS","confidence":"n","version":"2.0NRT","bright_ti5":"284.32","frp":"1","daynight":"N","commune":"Naisey-les-Granges","code_insee":"25417","departement":"Doubs","region":"Bourgogne-Franche-Comté"}},{"type":"Feature","geometry":{"type":"Point","coordinates":[2.98144,48.38681]},"properties":{"latitude":"48.38681","longitude":"2.98144","bright_ti4":"315.28","scan":"0.51","track":"0.41","acq_date":"2026-07-19","acq_time":"219","satellite":"N20","instrument":"VIIRS","confidence":"n","version":"2.0NRT","bright_ti5":"289.48","frp":"1.65","daynight":"N","commune":"Montereau-Fault-Yonne","code_insee":"77305","departement":"Seine-et-Marne","region":"Île-de-France"}},{"type":"Feature","geometry":{"type":"Point","coordinates":[4.56482,48.76735]},"properties":{"latitude":"48.76735","longitude":"4.56482","bright_ti4":"297.48","scan":"0.57","track":"0.43","acq_date":"2026-07-19","acq_time":"219","satellite":"N20","instrument":"VIIRS","confidence":"n","version":"2.0NRT","bright_ti5":"286.82","frp":"1.18","daynight":"N","commune":"Couvrot","code_insee":"51195","departement":"Marne","region":"Grand Est"}},{"type":"Feature","geometry":{"type":"Point","coordinates":[4.56622,48.76818]},"properties":{"latitude":"48.76818","longitude":"4.56622","bright_ti4":"299.39","scan":"0.57","track":"0.43","acq_date":"2026-07-19","acq_time":"219","satellite":"N20","instrument":"VIIRS","confidence":"n","version":"2.0NRT","bright_ti5":"287.08","frp":"0.8","daynight":"N","commune":"Couvrot","code_insee":"51195","departement":"Marne","region":"Grand Est"}},{"type":"Feature","geometry":{"type":"Point","coordinates":[2.16313,48.97234]},"properties":{"latitude":"48.97234","longitude":"2.16313","bright_ti4":"302.74","scan":"0.46","track":"0.39","acq_date":"2026-07-19","acq_time":"219","satellite":"N20","instrument":"VIIRS","confidence":"n","version":"2.0NRT","bright_ti5":"285.85","frp":"0.78","daynight":"N","commune":"Saint-Germain-en-Laye","code_insee":"78551","departement":"Yvelines","region":"Île-de-France"}},{"type":"Feature","geometry":{"type":"Point","coordinates":[-0.25581,49.10194]},"properties":{"latitude":"49.10194","longitude":"-0.25581","bright_ti4":"304.09","scan":"0.4","track":"0.37","acq_date":"2026-07-19","acq_time":"219","satellite":"N20","instrument":"VIIRS","confidence":"n","version":"2.0NRT","bright_ti5":"283.79","frp":"0.86","daynight":"N","commune":"Bellengreville","code_insee":"14057","departement":"Calvados","region":"Normandie"}},{"type":"Feature","geometry":{"type":"Point","coordinates":[0.5353,49.47596]},"properties":{"latitude":"49.47596","longitude":"0.5353","bright_ti4":"302.38","scan":"0.41","track":"0.37","acq_date":"2026-07-19","acq_time":"219","satellite":"N20","instrument":"VIIRS","confidence":"n","version":"2.0NRT","bright_ti5":"287.03","frp":"1.15","daynight":"N","commune":"Lillebonne","code_insee":"76384","departement":"Seine-Maritime","region":"Normandie"}},{"type":"Feature","geometry":{"type":"Point","coordinates":[2.8735,49.98294]},"properties":{"latitude":"49.98294","longitude":"2.8735","bright_ti4":"335.08","scan":"0.47","track":"0.4","acq_date":"2026-07-19","acq_time":"219","satellite":"N20","instrument":"VIIRS","confidence":"n","version":"2.0NRT","bright_ti5":"282.43","frp":"5.81","daynight":"N","commune":"Cléry-sur-Somme","code_insee":"80199","departement":"Somme","region":"Hauts-de-France"}},{"type":"Feature","geometry":{"type":"Point","coordinates":[3.48922,50.33188]},"properties":{"latitude":"50.33188","longitude":"3.48922","bright_ti4":"298.05","scan":"0.48","track":"0.4","acq_date":"2026-07-19","acq_time":"219","satellite":"N20","instrument":"VIIRS","confidence":"n","version":"2.0NRT","bright_ti5":"285.18","frp":"0.61","daynight":"N","commune":"Trith-Saint-Léger","code_insee":"59603","departement":"Nord","region":"Hauts-de-France"}},{"type":"Feature","geometry":{"type":"Point","coordinates":[3.49104,50.33541]},"properties":{"latitude":"50.33541","longitude":"3.49104","bright_ti4":"298.69","scan":"0.48","track":"0.4","acq_date":"2026-07-19","acq_time":"219","satellite":"N20","instrument":"VIIRS","confidence":"n","version":"2.0NRT","bright_ti5":"283.95","frp":"0.61","daynight":"N","commune":"Trith-Saint-Léger","code_insee":"59603","departement":"Nord","region":"Hauts-de-France"}},{"type":"Feature","geometry":{"type":"Point","coordinates":[3.49286,50.33894]},"properties":{"latitude":"50.33894","longitude":"3.49286","bright_ti4":"303.6","scan":"0.48","track":"0.4","acq_date":"2026-07-19","acq_time":"219","satellite":"N20","instrument":"VIIRS","confidence":"n","version":"2.0NRT","bright_ti5":"286.02","frp":"1.21","daynight":"N","commune":"Trith-Saint-Léger","code_insee":"59603","departement":"Nord","region":"Hauts-de-France"}},{"type":"Feature","geometry":{"type":"Point","coordinates":[1.89286,50.97099]},"properties":{"latitude":"50.97099","longitude":"1.89286","bright_ti4":"298.22","scan":"0.43","track":"0.38","acq_date":"2026-07-19","acq_time":"219","satellite":"N20","instrument":"VIIRS","confidence":"n","version":"2.0NRT","bright_ti5":"286.43","frp":"0.63","daynight":"N","commune":"Calais","code_insee":"62193","departement":"Pas-de-Calais","region":"Hauts-de-France"}},{"type":"Feature","geometry":{"type":"Point","coordinates":[2.28403,51.02542]},"properties":{"latitude":"51.02542","longitude":"2.28403","bright_ti4":"298.96","scan":"0.44","track":"0.38","acq_date":"2026-07-19","acq_time":"219","satellite":"N20","instrument":"VIIRS","confidence":"n","version":"2.0NRT","bright_ti5":"286.35","frp":"0.9","daynight":"N","commune":"Grande-Synthe","code_insee":"59271","departement":"Nord","region":"Hauts-de-France"}},{"type":"Feature","geometry":{"type":"Point","coordinates":[2.27206,51.02777]},"properties":{"latitude":"51.02777","longitude":"2.27206","bright_ti4":"303.31","scan":"0.43","track":"0.38","acq_date":"2026-07-19","acq_time":"219","satellite":"N20","instrument":"VIIRS","confidence":"n","version":"2.0NRT","bright_ti5":"286.85","frp":"0.91","daynight":"N","commune":"Grande-Synthe","code_insee":"59271","departement":"Nord","region":"Hauts-de-France"}},{"type":"Feature","geometry":{"type":"Point","coordinates":[2.2754,51.03452]},"properties":{"latitude":"51.03452","longitude":"2.2754","bright_ti4":"316.31","scan":"0.43","track":"0.38","acq_date":"2026-07-19","acq_time":"219","satellite":"N20","instrument":"VIIRS","confidence":"n","version":"2.0NRT","bright_ti5":"286.92","frp":"1.94","daynight":"N","commune":"Grande-Synthe","code_insee":"59271","departement":"Nord","region":"Hauts-de-France"}},{"type":"Feature","geometry":{"type":"Point","coordinates":[2.28904,51.03556]},"properties":{"latitude":"51.03556","longitude":"2.28904","bright_ti4":"330.95","scan":"0.44","track":"0.38","acq_date":"2026-07-19","acq_time":"219","satellite":"N20","instrument":"VIIRS","confidence":"n","version":"2.0NRT","bright_ti5":"290.03","frp":"5.23","daynight":"N","commune":"Grande-Synthe","code_insee":"59271","departement":"Nord","region":"Hauts-de-France"}},{"type":"Feature","geometry":{"type":"Point","coordinates":[2.29238,51.04232]},"properties":{"latitude":"51.04232","longitude":"2.29238","bright_ti4":"297.09","scan":"0.44","track":"0.38","acq_date":"2026-07-19","acq_time":"219","satellite":"N20","instrument":"VIIRS","confidence":"n","version":"2.0NRT","bright_ti5":"286.85","frp":"1.28","daynight":"N","commune":"Grande-Synthe","code_insee":"59271","departement":"Nord","region":"Hauts-de-France"}},{"type":"Feature","geometry":{"type":"Point","coordinates":[2.30584,51.04412]},"properties":{"latitude":"51.04412","longitude":"2.30584","bright_ti4":"297.21","scan":"0.44","track":"0.38","acq_date":"2026-07-19","acq_time":"219","satellite":"N20","instrument":"VIIRS","confidence":"n","version":"2.0NRT","bright_ti5":"285.74","frp":"0.6","daynight":"N","commune":"Dunkerque","code_insee":"59183","departement":"Nord","region":"Hauts-de-France"}},{"type":"Feature","geometry":{"type":"Point","coordinates":[9.07507,42.2758]},"properties":{"latitude":"42.2758","longitude":"9.07507","bright_ti4":"319","scan":"0.45","track":"0.63","acq_date":"2026-07-19","acq_time":"221","satellite":"N20","instrument":"VIIRS","confidence":"n","version":"2.0NRT","bright_ti5":"288.73","frp":"3.03","daynight":"N","commune":"Corte","code_insee":"2B096","departement":"Haute-Corse","region":"Corse"}},{"type":"Feature","geometry":{"type":"Point","coordinates":[9.10017,42.28091]},"properties":{"latitude":"42.28091","longitude":"9.10017","bright_ti4":"311.48","scan":"0.45","track":"0.63","acq_date":"2026-07-19","acq_time":"221","satellite":"N20","instrument":"VIIRS","confidence":"n","version":"2.0NRT","bright_ti5":"290.86","frp":"1.77","daynight":"N","commune":"Corte","code_insee":"2B096","departement":"Haute-Corse","region":"Corse"}},{"type":"Feature","geometry":{"type":"Point","coordinates":[9.08966,42.28402]},"properties":{"latitude":"42.28402","longitude":"9.08966","bright_ti4":"310.3","scan":"0.45","track":"0.63","acq_date":"2026-07-19","acq_time":"221","satellite":"N20","instrument":"VIIRS","confidence":"n","version":"2.0NRT","bright_ti5":"289.81","frp":"1.87","daynight":"N","commune":"Corte","code_insee":"2B096","departement":"Haute-Corse","region":"Corse"}},{"type":"Feature","geometry":{"type":"Point","coordinates":[0.09219,42.87388]},"properties":{"latitude":"42.87388","longitude":"0.09219","bright_ti4":"342.67","scan":"0.5","track":"0.41","acq_date":"2026-07-19","acq_time":"221","satellite":"N20","instrument":"VIIRS","confidence":"n","version":"2.0NRT","bright_ti5":"289.77","frp":"6.34","daynight":"N","commune":"Barèges","code_insee":"65481","departement":"Hautes-Pyrénées","region":"Occitanie"}},{"type":"Feature","geometry":{"type":"Point","coordinates":[4.89799,43.43106]},"properties":{"latitude":"43.43106","longitude":"4.89799","bright_ti4":"301.27","scan":"0.53","track":"0.5","acq_date":"2026-07-19","acq_time":"221","satellite":"N20","instrument":"VIIRS","confidence":"n","version":"2.0NRT","bright_ti5":"285.51","frp":"1.89","daynight":"N","commune":"Fos-sur-Mer","code_insee":"13039","departement":"Bouches-du-Rhône","region":"Provence-Alpes-Côte d'Azur"}},{"type":"Feature","geometry":{"type":"Point","coordinates":[4.88553,43.43419]},"properties":{"latitude":"43.43419","longitude":"4.88553","bright_ti4":"300.65","scan":"0.53","track":"0.5","acq_date":"2026-07-19","acq_time":"221","satellite":"N20","instrument":"VIIRS","confidence":"n","version":"2.0NRT","bright_ti5":"285.36","frp":"0.83","daynight":"N","commune":"Fos-sur-Mer","code_insee":"13039","departement":"Bouches-du-Rhône","region":"Provence-Alpes-Côte d'Azur"}},{"type":"Feature","geometry":{"type":"Point","coordinates":[4.89381,43.43703]},"properties":{"latitude":"43.43703","longitude":"4.89381","bright_ti4":"302.72","scan":"0.53","track":"0.5","acq_date":"2026-07-19","acq_time":"221","satellite":"N20","instrument":"VIIRS","confidence":"n","version":"2.0NRT","bright_ti5":"286.32","frp":"1.37","daynight":"N","commune":"Fos-sur-Mer","code_insee":"13039","departement":"Bouches-du-Rhône","region":"Provence-Alpes-Côte d'Azur"}},{"type":"Feature","geometry":{"type":"Point","coordinates":[4.88761,43.43858]},"properties":{"latitude":"43.43858","longitude":"4.88761","bright_ti4":"312.25","scan":"0.53","track":"0.5","acq_date":"2026-07-19","acq_time":"221","satellite":"N20","instrument":"VIIRS","confidence":"n","version":"2.0NRT","bright_ti5":"287.27","frp":"1.12","daynight":"N","commune":"Fos-sur-Mer","code_insee":"13039","departement":"Bouches-du-Rhône","region":"Provence-Alpes-Côte d'Azur"}},{"type":"Feature","geometry":{"type":"Point","coordinates":[4.88141,43.44013]},"properties":{"latitude":"43.44013","longitude":"4.88141","bright_ti4":"304.67","scan":"0.53","track":"0.5","acq_date":"2026-07-19","acq_time":"221","satellite":"N20","instrument":"VIIRS","confidence":"n","version":"2.0NRT","bright_ti5":"286.13","frp":"1.12","daynight":"N","commune":"Fos-sur-Mer","code_insee":"13039","departement":"Bouches-du-Rhône","region":"Provence-Alpes-Côte d'Azur"}},{"type":"Feature","geometry":{"type":"Point","coordinates":[4.88349,43.44452]},"properties":{"latitude":"43.44452","longitude":"4.88349","bright_ti4":"297.99","scan":"0.53","track":"0.5","acq_date":"2026-07-19","acq_time":"221","satellite":"N20","instrument":"VIIRS","confidence":"n","version":"2.0NRT","bright_ti5":"284.34","frp":"1.12","daynight":"N","commune":"Fos-sur-Mer","code_insee":"13039","departement":"Bouches-du-Rhône","region":"Provence-Alpes-Côte d'Azur"}},{"type":"Feature","geometry":{"type":"Point","coordinates":[4.89797,43.44581]},"properties":{"latitude":"43.44581","longitude":"4.89797","bright_ti4":"330.86","scan":"0.53","track":"0.5","acq_date":"2026-07-19","acq_time":"221","satellite":"N20","instrument":"VIIRS","confidence":"n","version":"2.0NRT","bright_ti5":"289.98","frp":"3.76","daynight":"N","commune":"Fos-sur-Mer","code_insee":"13039","departement":"Bouches-du-Rhône","region":"Provence-Alpes-Côte d'Azur"}},{"type":"Feature","geometry":{"type":"Point","coordinates":[5.82066,45.91335]},"properties":{"latitude":"45.91335","longitude":"5.82066","bright_ti4":"300.35","scan":"0.5","track":"0.49","acq_date":"2026-07-19","acq_time":"221","satellite":"N20","instrument":"VIIRS","confidence":"n","version":"2.0NRT","bright_ti5":"288.78","frp":"0.94","daynight":"N","commune":"Anglefort","code_insee":"01010","departement":"Ain","region":"Auvergne-Rhône-Alpes"}},{"type":"Feature","geometry":{"type":"Point","coordinates":[0.12693,46.83287]},"properties":{"latitude":"46.83287","longitude":"0.12693","bright_ti4":"331.46","scan":"0.44","track":"0.38","acq_date":"2026-07-19","acq_time":"221","satellite":"N20","instrument":"VIIRS","confidence":"n","version":"2.0NRT","bright_ti5":"290.34","frp":"4.53","daynight":"N","commune":"Saint-Jean-de-Sauves","code_insee":"86225","departement":"Vienne","region":"Nouvelle-Aquitaine"}},{"type":"Feature","geometry":{"type":"Point","coordinates":[-2.05371,47.31736]},"properties":{"latitude":"47.31736","longitude":"-2.05371","bright_ti4":"309.26","scan":"0.39","track":"0.36","acq_date":"2026-07-19","acq_time":"221","satellite":"N20","instrument":"VIIRS","confidence":"n","version":"2.0NRT","bright_ti5":"288.94","frp":"0.9","daynight":"N","commune":"Donges","code_insee":"44052","departement":"Loire-Atlantique","region":"Pays de la Loire"}},{"type":"Feature","geometry":{"type":"Point","coordinates":[-1.03596,48.1076]},"properties":{"latitude":"48.1076","longitude":"-1.03596","bright_ti4":"308.41","scan":"0.4","track":"0.37","acq_date":"2026-07-19","acq_time":"221","satellite":"N20","instrument":"VIIRS","confidence":"n","version":"2.0NRT","bright_ti5":"290.27","frp":"1.29","daynight":"N","commune":"Saint-Pierre-la-Cour","code_insee":"53247","departement":"Mayenne","region":"Pays de la Loire"}},{"type":"Feature","geometry":{"type":"Point","coordinates":[-1.03404,48.10885]},"properties":{"latitude":"48.10885","longitude":"-1.03404","bright_ti4":"307.27","scan":"0.4","track":"0.37","acq_date":"2026-07-19","acq_time":"221","satellite":"N20","instrument":"VIIRS","confidence":"n","version":"2.0NRT","bright_ti5":"289.17","frp":"0.88","daynight":"N","commune":"Saint-Pierre-la-Cour","code_insee":"53247","departement":"Mayenne","region":"Pays de la Loire"}},{"type":"Feature","geometry":{"type":"Point","coordinates":[0.47466,48.33841]},"properties":{"latitude":"48.33841","longitude":"0.47466","bright_ti4":"312.33","scan":"0.43","track":"0.38","acq_date":"2026-07-19","acq_time":"221","satellite":"N20","instrument":"VIIRS","confidence":"n","version":"2.0NRT","bright_ti5":"285.17","frp":"1.46","daynight":"N","commune":"Vaunoise","code_insee":"61498","departement":"Orne","region":"Normandie"}},{"type":"Feature","geometry":{"type":"Point","coordinates":[9.08698,42.2747]},"properties":{"latitude":"42.2747","longitude":"9.08698","bright_ti4":"330.81","scan":"0.45","track":"0.39","acq_date":"2026-07-19","acq_time":"1206","satellite":"N20","instrument":"VIIRS","confidence":"n","version":"2.0NRT","bright_ti5":"289.66","frp":"5.94","daynight":"D","commune":"Corte","code_insee":"2B096","departement":"Haute-Corse","region":"Corse"}},{"type":"Feature","geometry":{"type":"Point","coordinates":[9.09173,42.2756]},"properties":{"latitude":"42.2756","longitude":"9.09173","bright_ti4":"350.22","scan":"0.45","track":"0.39","acq_date":"2026-07-19","acq_time":"1206","satellite":"N20","instrument":"VIIRS","confidence":"n","version":"2.0NRT","bright_ti5":"292.34","frp":"12.28","daynight":"D","commune":"Corte","code_insee":"2B096","departement":"Haute-Corse","region":"Corse"}},{"type":"Feature","geometry":{"type":"Point","coordinates":[9.08903,42.28618]},"properties":{"latitude":"42.28618","longitude":"9.08903","bright_ti4":"335.55","scan":"0.45","track":"0.39","acq_date":"2026-07-19","acq_time":"1206","satellite":"N20","instrument":"VIIRS","confidence":"n","version":"2.0NRT","bright_ti5":"294.63","frp":"5.03","daynight":"D","commune":"Corte","code_insee":"2B096","departement":"Haute-Corse","region":"Corse"}},{"type":"Feature","geometry":{"type":"Point","coordinates":[8.93976,42.31655]},"properties":{"latitude":"42.31655","longitude":"8.93976","bright_ti4":"343.06","scan":"0.45","track":"0.39","acq_date":"2026-07-19","acq_time":"1206","satellite":"N20","instrument":"VIIRS","confidence":"n","version":"2.0NRT","bright_ti5":"314.18","frp":"26.56","daynight":"D","commune":"Albertacce","code_insee":"2B007","departement":"Haute-Corse","region":"Corse"}},{"type":"Feature","geometry":{"type":"Point","coordinates":[8.94471,42.3175]},"properties":{"latitude":"42.3175","longitude":"8.94471","bright_ti4":"330.01","scan":"0.45","track":"0.39","acq_date":"2026-07-19","acq_time":"1206","satellite":"N20","instrument":"VIIRS","confidence":"n","version":"2.0NRT","bright_ti5":"304.93","frp":"6.57","daynight":"D","commune":"Albertacce","code_insee":"2B007","departement":"Haute-Corse","region":"Corse"}},{"type":"Feature","geometry":{"type":"Point","coordinates":[8.93897,42.32011]},"properties":{"latitude":"42.32011","longitude":"8.93897","bright_ti4":"367","scan":"0.45","track":"0.39","acq_date":"2026-07-19","acq_time":"1206","satellite":"N20","instrument":"VIIRS","confidence":"h","version":"2.0NRT","bright_ti5":"307.6","frp":"9.41","daynight":"D","commune":"Albertacce","code_insee":"2B007","departement":"Haute-Corse","region":"Corse"}},{"type":"Feature","geometry":{"type":"Point","coordinates":[4.89069,43.4344]},"properties":{"latitude":"43.4344","longitude":"4.89069","bright_ti4":"347.78","scan":"0.42","track":"0.45","acq_date":"2026-07-19","acq_time":"1206","satellite":"N20","instrument":"VIIRS","confidence":"n","version":"2.0NRT","bright_ti5":"316.13","frp":"7.79","daynight":"D","commune":"Fos-sur-Mer","code_insee":"13039","departement":"Bouches-du-Rhône","region":"Provence-Alpes-Côte d'Azur"}},{"type":"Feature","geometry":{"type":"Point","coordinates":[4.89398,43.43951]},"properties":{"latitude":"43.43951","longitude":"4.89398","bright_ti4":"342.07","scan":"0.42","track":"0.45","acq_date":"2026-07-19","acq_time":"1206","satellite":"N20","instrument":"VIIRS","confidence":"l","version":"2.0NRT","bright_ti5":"313.37","frp":"7.79","daynight":"D","commune":"Fos-sur-Mer","code_insee":"13039","departement":"Bouches-du-Rhône","region":"Provence-Alpes-Côte d'Azur"}},{"type":"Feature","geometry":{"type":"Point","coordinates":[4.89986,43.44347]},"properties":{"latitude":"43.44347","longitude":"4.89986","bright_ti4":"345.82","scan":"0.42","track":"0.45","acq_date":"2026-07-19","acq_time":"1206","satellite":"N20","instrument":"VIIRS","confidence":"n","version":"2.0NRT","bright_ti5":"313.63","frp":"7.93","daynight":"D","commune":"Fos-sur-Mer","code_insee":"13039","departement":"Bouches-du-Rhône","region":"Provence-Alpes-Côte d'Azur"}},{"type":"Feature","geometry":{"type":"Point","coordinates":[4.90222,43.44573]},"properties":{"latitude":"43.44573","longitude":"4.90222","bright_ti4":"342.72","scan":"0.42","track":"0.45","acq_date":"2026-07-19","acq_time":"1206","satellite":"N20","instrument":"VIIRS","confidence":"l","version":"2.0NRT","bright_ti5":"313.31","frp":"8.34","daynight":"D","commune":"Fos-sur-Mer","code_insee":"13039","departement":"Bouches-du-Rhône","region":"Provence-Alpes-Côte d'Azur"}},{"type":"Feature","geometry":{"type":"Point","coordinates":[2.46327,46.29479]},"properties":{"latitude":"46.29479","longitude":"2.46327","bright_ti4":"337.81","scan":"0.46","track":"0.47","acq_date":"2026-07-19","acq_time":"1208","satellite":"N20","instrument":"VIIRS","confidence":"n","version":"2.0NRT","bright_ti5":"298.71","frp":"4.08","daynight":"D","commune":"Quinssaines","code_insee":"03212","departement":"Allier","region":"Auvergne-Rhône-Alpes"}},{"type":"Feature","geometry":{"type":"Point","coordinates":[-2.02919,46.91172]},"properties":{"latitude":"46.91172","longitude":"-2.02919","bright_ti4":"332.79","scan":"0.35","track":"0.57","acq_date":"2026-07-19","acq_time":"1208","satellite":"N20","instrument":"VIIRS","confidence":"n","version":"2.0NRT","bright_ti5":"302.28","frp":"1.81","daynight":"D","commune":"Beauvoir-sur-Mer","code_insee":"85018","departement":"Vendée","region":"Pays de la Loire"}},{"type":"Feature","geometry":{"type":"Point","coordinates":[-3.73125,48.23267]},"properties":{"latitude":"48.23267","longitude":"-3.73125","bright_ti4":"367","scan":"0.37","track":"0.58","acq_date":"2026-07-19","acq_time":"1208","satellite":"N20","instrument":"VIIRS","confidence":"h","version":"2.0NRT","bright_ti5":"297.07","frp":"5.99","daynight":"D","commune":"Landeleau","code_insee":"29102","departement":"Finistère","region":"Bretagne"}},{"type":"Feature","geometry":{"type":"Point","coordinates":[0.09037,42.87252]},"properties":{"latitude":"42.87252","longitude":"0.09037","bright_ti4":"333.47","scan":"0.39","track":"0.59","acq_date":"2026-07-19","acq_time":"1346","satellite":"N20","instrument":"VIIRS","confidence":"l","version":"2.0NRT","bright_ti5":"304.48","frp":"8.63","daynight":"D","commune":"Barèges","code_insee":"65481","departement":"Hautes-Pyrénées","region":"Occitanie"}},{"type":"Feature","geometry":{"type":"Point","coordinates":[0.09341,42.87265]},"properties":{"latitude":"42.87265","longitude":"0.09341","bright_ti4":"339.72","scan":"0.39","track":"0.59","acq_date":"2026-07-19","acq_time":"1346","satellite":"N20","instrument":"VIIRS","confidence":"n","version":"2.0NRT","bright_ti5":"304.54","frp":"8.68","daynight":"D","commune":"Barèges","code_insee":"65481","departement":"Hautes-Pyrénées","region":"Occitanie"}},{"type":"Feature","geometry":{"type":"Point","coordinates":[0.09635,42.87278]},"properties":{"latitude":"42.87278","longitude":"0.09635","bright_ti4":"367","scan":"0.39","track":"0.59","acq_date":"2026-07-19","acq_time":"1346","satellite":"N20","instrument":"VIIRS","confidence":"h","version":"2.0NRT","bright_ti5":"307.31","frp":"8.68","daynight":"D","commune":"Barèges","code_insee":"65481","departement":"Hautes-Pyrénées","region":"Occitanie"}},{"type":"Feature","geometry":{"type":"Point","coordinates":[0.09979,42.87292]},"properties":{"latitude":"42.87292","longitude":"0.09979","bright_ti4":"331.95","scan":"0.39","track":"0.59","acq_date":"2026-07-19","acq_time":"1346","satellite":"N20","instrument":"VIIRS","confidence":"n","version":"2.0NRT","bright_ti5":"301.13","frp":"7.6","daynight":"D","commune":"Barèges","code_insee":"65481","departement":"Hautes-Pyrénées","region":"Occitanie"}},{"type":"Feature","geometry":{"type":"Point","coordinates":[4.8943,43.43502]},"properties":{"latitude":"43.43502","longitude":"4.8943","bright_ti4":"333.71","scan":"0.68","track":"0.74","acq_date":"2026-07-19","acq_time":"1346","satellite":"N20","instrument":"VIIRS","confidence":"l","version":"2.0NRT","bright_ti5":"306.61","frp":"13.4","daynight":"D","commune":"Fos-sur-Mer","code_insee":"13039","departement":"Bouches-du-Rhône","region":"Provence-Alpes-Côte d'Azur"}},{"type":"Feature","geometry":{"type":"Point","coordinates":[4.89449,43.43528]},"properties":{"latitude":"43.43528","longitude":"4.89449","bright_ti4":"335.57","scan":"0.68","track":"0.74","acq_date":"2026-07-19","acq_time":"1346","satellite":"N20","instrument":"VIIRS","confidence":"l","version":"2.0NRT","bright_ti5":"307.21","frp":"10.77","daynight":"D","commune":"Fos-sur-Mer","code_insee":"13039","departement":"Bouches-du-Rhône","region":"Provence-Alpes-Côte d'Azur"}},{"type":"Feature","geometry":{"type":"Point","coordinates":[1.90662,45.45631]},"properties":{"latitude":"45.45631","longitude":"1.90662","bright_ti4":"353.77","scan":"0.49","track":"0.65","acq_date":"2026-07-19","acq_time":"1348","satellite":"N20","instrument":"VIIRS","confidence":"n","version":"2.0NRT","bright_ti5":"297.02","frp":"19.18","daynight":"D","commune":"Chaumeil","code_insee":"19051","departement":"Corrèze","region":"Nouvelle-Aquitaine"}},{"type":"Feature","geometry":{"type":"Point","coordinates":[1.91439,45.45647]},"properties":{"latitude":"45.45647","longitude":"1.91439","bright_ti4":"367","scan":"0.5","track":"0.65","acq_date":"2026-07-19","acq_time":"1348","satellite":"N20","instrument":"VIIRS","confidence":"h","version":"2.0NRT","bright_ti5":"293.81","frp":"20","daynight":"D","commune":"Chaumeil","code_insee":"19051","departement":"Corrèze","region":"Nouvelle-Aquitaine"}},{"type":"Feature","geometry":{"type":"Point","coordinates":[5.82132,45.91249]},"properties":{"latitude":"45.91249","longitude":"5.82132","bright_ti4":"301.05","scan":"0.42","track":"0.37","acq_date":"2026-07-19","acq_time":"126","satellite":"N21","instrument":"VIIRS","confidence":"n","version":"2.0NRT","bright_ti5":"290.84","frp":"0.72","daynight":"N","commune":"Anglefort","code_insee":"01010","departement":"Ain","region":"Auvergne-Rhône-Alpes"}},{"type":"Feature","geometry":{"type":"Point","coordinates":[0.1257,46.83515]},"properties":{"latitude":"46.83515","longitude":"0.1257","bright_ti4":"332.3","scan":"0.47","track":"0.47","acq_date":"2026-07-19","acq_time":"126","satellite":"N21","instrument":"VIIRS","confidence":"n","version":"2.0NRT","bright_ti5":"289.89","frp":"4.05","daynight":"N","commune":"Saint-Jean-de-Sauves","code_insee":"86225","departement":"Vienne","region":"Nouvelle-Aquitaine"}},{"type":"Feature","geometry":{"type":"Point","coordinates":[6.23644,47.21974]},"properties":{"latitude":"47.21974","longitude":"6.23644","bright_ti4":"310.79","scan":"0.42","track":"0.37","acq_date":"2026-07-19","acq_time":"126","satellite":"N21","instrument":"VIIRS","confidence":"n","version":"2.0NRT","bright_ti5":"285.21","frp":"1.84","daynight":"N","commune":"Naisey-les-Granges","code_insee":"25417","departement":"Doubs","region":"Bourgogne-Franche-Comté"}},{"type":"Feature","geometry":{"type":"Point","coordinates":[0.47363,48.34066]},"properties":{"latitude":"48.34066","longitude":"0.47363","bright_ti4":"315.62","scan":"0.47","track":"0.47","acq_date":"2026-07-19","acq_time":"126","satellite":"N21","instrument":"VIIRS","confidence":"n","version":"2.0NRT","bright_ti5":"285.81","frp":"1.43","daynight":"N","commune":"Vaunoise","code_insee":"61498","departement":"Orne","region":"Normandie"}},{"type":"Feature","geometry":{"type":"Point","coordinates":[2.98107,48.38487]},"properties":{"latitude":"48.38487","longitude":"2.98107","bright_ti4":"306.24","scan":"0.55","track":"0.42","acq_date":"2026-07-19","acq_time":"126","satellite":"N21","instrument":"VIIRS","confidence":"n","version":"2.0NRT","bright_ti5":"288.89","frp":"1.51","daynight":"N","commune":"Montereau-Fault-Yonne","code_insee":"77305","departement":"Seine-et-Marne","region":"Île-de-France"}},{"type":"Feature","geometry":{"type":"Point","coordinates":[2.16417,48.9699]},"properties":{"latitude":"48.9699","longitude":"2.16417","bright_ti4":"307","scan":"0.4","track":"0.44","acq_date":"2026-07-19","acq_time":"126","satellite":"N21","instrument":"VIIRS","confidence":"n","version":"2.0NRT","bright_ti5":"286.64","frp":"1.19","daynight":"N","commune":"Saint-Germain-en-Laye","code_insee":"78551","departement":"Yvelines","region":"Île-de-France"}},{"type":"Feature","geometry":{"type":"Point","coordinates":[2.16278,48.97029]},"properties":{"latitude":"48.97029","longitude":"2.16278","bright_ti4":"304.87","scan":"0.4","track":"0.44","acq_date":"2026-07-19","acq_time":"126","satellite":"N21","instrument":"VIIRS","confidence":"n","version":"2.0NRT","bright_ti5":"286.14","frp":"1.14","daynight":"N","commune":"Saint-Germain-en-Laye","code_insee":"78551","departement":"Yvelines","region":"Île-de-France"}},{"type":"Feature","geometry":{"type":"Point","coordinates":[-0.25617,49.10133]},"properties":{"latitude":"49.10133","longitude":"-0.25617","bright_ti4":"295.44","scan":"0.51","track":"0.49","acq_date":"2026-07-19","acq_time":"126","satellite":"N21","instrument":"VIIRS","confidence":"n","version":"2.0NRT","bright_ti5":"282.94","frp":"0.77","daynight":"N","commune":"Bellengreville","code_insee":"14057","departement":"Calvados","region":"Normandie"}},{"type":"Feature","geometry":{"type":"Point","coordinates":[4.05928,49.26591]},"properties":{"latitude":"49.26591","longitude":"4.05928","bright_ti4":"296.37","scan":"0.51","track":"0.41","acq_date":"2026-07-19","acq_time":"126","satellite":"N21","instrument":"VIIRS","confidence":"n","version":"2.0NRT","bright_ti5":"285.63","frp":"0.58","daynight":"N","commune":"Reims","code_insee":"51454","departement":"Marne","region":"Grand Est"}},{"type":"Feature","geometry":{"type":"Point","coordinates":[6.14807,49.31796]},"properties":{"latitude":"49.31796","longitude":"6.14807","bright_ti4":"299.18","scan":"0.44","track":"0.38","acq_date":"2026-07-19","acq_time":"126","satellite":"N21","instrument":"VIIRS","confidence":"n","version":"2.0NRT","bright_ti5":"287.8","frp":"0.63","daynight":"N","commune":"Florange","code_insee":"57221","departement":"Moselle","region":"Grand Est"}},{"type":"Feature","geometry":{"type":"Point","coordinates":[3.49017,50.33757]},"properties":{"latitude":"50.33757","longitude":"3.49017","bright_ti4":"306.41","scan":"0.55","track":"0.43","acq_date":"2026-07-19","acq_time":"126","satellite":"N21","instrument":"VIIRS","confidence":"n","version":"2.0NRT","bright_ti5":"285.89","frp":"1.87","daynight":"N","commune":"Trith-Saint-Léger","code_insee":"59603","departement":"Nord","region":"Hauts-de-France"}},{"type":"Feature","geometry":{"type":"Point","coordinates":[2.26945,51.02648]},"properties":{"latitude":"51.02648","longitude":"2.26945","bright_ti4":"307.05","scan":"0.42","track":"0.45","acq_date":"2026-07-19","acq_time":"126","satellite":"N21","instrument":"VIIRS","confidence":"n","version":"2.0NRT","bright_ti5":"287.73","frp":"2.05","daynight":"N","commune":"Grande-Synthe","code_insee":"59271","departement":"Nord","region":"Hauts-de-France"}},{"type":"Feature","geometry":{"type":"Point","coordinates":[2.28896,51.03332]},"properties":{"latitude":"51.03332","longitude":"2.28896","bright_ti4":"329.14","scan":"0.42","track":"0.45","acq_date":"2026-07-19","acq_time":"126","satellite":"N21","instrument":"VIIRS","confidence":"n","version":"2.0NRT","bright_ti5":"288.95","frp":"4.21","daynight":"N","commune":"Grande-Synthe","code_insee":"59271","departement":"Nord","region":"Hauts-de-France"}},{"type":"Feature","geometry":{"type":"Point","coordinates":[2.29657,51.04111]},"properties":{"latitude":"51.04111","longitude":"2.29657","bright_ti4":"301.16","scan":"0.42","track":"0.45","acq_date":"2026-07-19","acq_time":"126","satellite":"N21","instrument":"VIIRS","confidence":"n","version":"2.0NRT","bright_ti5":"289.13","frp":"2.7","daynight":"N","commune":"Grande-Synthe","code_insee":"59271","departement":"Nord","region":"Hauts-de-France"}},{"type":"Feature","geometry":{"type":"Point","coordinates":[2.30333,51.04476]},"properties":{"latitude":"51.04476","longitude":"2.30333","bright_ti4":"315.52","scan":"0.42","track":"0.45","acq_date":"2026-07-19","acq_time":"126","satellite":"N21","instrument":"VIIRS","confidence":"n","version":"2.0NRT","bright_ti5":"283.67","frp":"2.7","daynight":"N","commune":"Grande-Synthe","code_insee":"59271","departement":"Nord","region":"Hauts-de-France"}},{"type":"Feature","geometry":{"type":"Point","coordinates":[2.2974,51.04524]},"properties":{"latitude":"51.04524","longitude":"2.2974","bright_ti4":"337.93","scan":"0.42","track":"0.45","acq_date":"2026-07-19","acq_time":"126","satellite":"N21","instrument":"VIIRS","confidence":"n","version":"2.0NRT","bright_ti5":"289.68","frp":"2.7","daynight":"N","commune":"Grande-Synthe","code_insee":"59271","departement":"Nord","region":"Hauts-de-France"}},{"type":"Feature","geometry":{"type":"Point","coordinates":[9.07561,42.27274]},"properties":{"latitude":"42.27274","longitude":"9.07561","bright_ti4":"345.16","scan":"0.4","track":"0.37","acq_date":"2026-07-19","acq_time":"128","satellite":"N21","instrument":"VIIRS","confidence":"n","version":"2.0NRT","bright_ti5":"295.3","frp":"5.25","daynight":"N","commune":"Corte","code_insee":"2B096","departement":"Haute-Corse","region":"Corse"}},{"type":"Feature","geometry":{"type":"Point","coordinates":[9.07077,42.27356]},"properties":{"latitude":"42.27356","longitude":"9.07077","bright_ti4":"328.18","scan":"0.4","track":"0.37","acq_date":"2026-07-19","acq_time":"128","satellite":"N21","instrument":"VIIRS","confidence":"n","version":"2.0NRT","bright_ti5":"292.43","frp":"5.25","daynight":"N","commune":"Corte","code_insee":"2B096","departement":"Haute-Corse","region":"Corse"}},{"type":"Feature","geometry":{"type":"Point","coordinates":[9.08643,42.27436]},"properties":{"latitude":"42.27436","longitude":"9.08643","bright_ti4":"337.71","scan":"0.4","track":"0.37","acq_date":"2026-07-19","acq_time":"128","satellite":"N21","instrument":"VIIRS","confidence":"n","version":"2.0NRT","bright_ti5":"295.68","frp":"8.79","daynight":"N","commune":"Corte","code_insee":"2B096","departement":"Haute-Corse","region":"Corse"}},{"type":"Feature","geometry":{"type":"Point","coordinates":[9.08138,42.27521]},"properties":{"latitude":"42.27521","longitude":"9.08138","bright_ti4":"334.42","scan":"0.4","track":"0.37","acq_date":"2026-07-19","acq_time":"128","satellite":"N21","instrument":"VIIRS","confidence":"n","version":"2.0NRT","bright_ti5":"295.34","frp":"8.79","daynight":"N","commune":"Corte","code_insee":"2B096","departement":"Haute-Corse","region":"Corse"}},{"type":"Feature","geometry":{"type":"Point","coordinates":[9.07647,42.27605]},"properties":{"latitude":"42.27605","longitude":"9.07647","bright_ti4":"340.81","scan":"0.4","track":"0.37","acq_date":"2026-07-19","acq_time":"128","satellite":"N21","instrument":"VIIRS","confidence":"n","version":"2.0NRT","bright_ti5":"294.73","frp":"2.97","daynight":"N","commune":"Corte","code_insee":"2B096","departement":"Haute-Corse","region":"Corse"}},{"type":"Feature","geometry":{"type":"Point","coordinates":[9.09236,42.27681]},"properties":{"latitude":"42.27681","longitude":"9.09236","bright_ti4":"315.95","scan":"0.4","track":"0.37","acq_date":"2026-07-19","acq_time":"128","satellite":"N21","instrument":"VIIRS","confidence":"n","version":"2.0NRT","bright_ti5":"296.8","frp":"11.08","daynight":"N","commune":"Corte","code_insee":"2B096","departement":"Haute-Corse","region":"Corse"}},{"type":"Feature","geometry":{"type":"Point","coordinates":[9.07172,42.27686]},"properties":{"latitude":"42.27686","longitude":"9.07172","bright_ti4":"314.6","scan":"0.4","track":"0.37","acq_date":"2026-07-19","acq_time":"128","satellite":"N21","instrument":"VIIRS","confidence":"n","version":"2.0NRT","bright_ti5":"291.69","frp":"2.97","daynight":"N","commune":"Corte","code_insee":"2B096","departement":"Haute-Corse","region":"Corse"}},{"type":"Feature","geometry":{"type":"Point","coordinates":[9.08724,42.27767]},"properties":{"latitude":"42.27767","longitude":"9.08724","bright_ti4":"346.28","scan":"0.4","track":"0.37","acq_date":"2026-07-19","acq_time":"128","satellite":"N21","instrument":"VIIRS","confidence":"n","version":"2.0NRT","bright_ti5":"298.43","frp":"8.79","daynight":"N","commune":"Corte","code_insee":"2B096","departement":"Haute-Corse","region":"Corse"}},{"type":"Feature","geometry":{"type":"Point","coordinates":[9.09327,42.28011]},"properties":{"latitude":"42.28011","longitude":"9.09327","bright_ti4":"311.98","scan":"0.4","track":"0.37","acq_date":"2026-07-19","acq_time":"128","satellite":"N21","instrument":"VIIRS","confidence":"n","version":"2.0NRT","bright_ti5":"294.07","frp":"1.66","daynight":"N","commune":"Corte","code_insee":"2B096","departement":"Haute-Corse","region":"Corse"}},{"type":"Feature","geometry":{"type":"Point","coordinates":[9.08933,42.28424]},"properties":{"latitude":"42.28424","longitude":"9.08933","bright_ti4":"323.96","scan":"0.4","track":"0.37","acq_date":"2026-07-19","acq_time":"128","satellite":"N21","instrument":"VIIRS","confidence":"n","version":"2.0NRT","bright_ti5":"293.39","frp":"1.8","daynight":"N","commune":"Corte","code_insee":"2B096","departement":"Haute-Corse","region":"Corse"}},{"type":"Feature","geometry":{"type":"Point","coordinates":[9.08456,42.28505]},"properties":{"latitude":"42.28505","longitude":"9.08456","bright_ti4":"305.32","scan":"0.4","track":"0.37","acq_date":"2026-07-19","acq_time":"128","satellite":"N21","instrument":"VIIRS","confidence":"n","version":"2.0NRT","bright_ti5":"293.52","frp":"1.8","daynight":"N","commune":"Corte","code_insee":"2B096","departement":"Haute-Corse","region":"Corse"}},{"type":"Feature","geometry":{"type":"Point","coordinates":[9.09045,42.28751]},"properties":{"latitude":"42.28751","longitude":"9.09045","bright_ti4":"313.42","scan":"0.4","track":"0.37","acq_date":"2026-07-19","acq_time":"128","satellite":"N21","instrument":"VIIRS","confidence":"n","version":"2.0NRT","bright_ti5":"292.73","frp":"1.6","daynight":"N","commune":"Corte","code_insee":"2B096","departement":"Haute-Corse","region":"Corse"}},{"type":"Feature","geometry":{"type":"Point","coordinates":[8.94843,42.32208]},"properties":{"latitude":"42.32208","longitude":"8.94843","bright_ti4":"306.88","scan":"0.39","track":"0.36","acq_date":"2026-07-19","acq_time":"128","satellite":"N21","instrument":"VIIRS","confidence":"n","version":"2.0NRT","bright_ti5":"294.19","frp":"1.09","daynight":"N","commune":"Albertacce","code_insee":"2B007","departement":"Haute-Corse","region":"Corse"}},{"type":"Feature","geometry":{"type":"Point","coordinates":[8.9436,42.3229]},"properties":{"latitude":"42.3229","longitude":"8.9436","bright_ti4":"307.15","scan":"0.39","track":"0.36","acq_date":"2026-07-19","acq_time":"128","satellite":"N21","instrument":"VIIRS","confidence":"n","version":"2.0NRT","bright_ti5":"294.5","frp":"1.54","daynight":"N","commune":"Albertacce","code_insee":"2B007","departement":"Haute-Corse","region":"Corse"}},{"type":"Feature","geometry":{"type":"Point","coordinates":[0.0959,42.87332]},"properties":{"latitude":"42.87332","longitude":"0.0959","bright_ti4":"304.29","scan":"0.42","track":"0.46","acq_date":"2026-07-19","acq_time":"128","satellite":"N21","instrument":"VIIRS","confidence":"n","version":"2.0NRT","bright_ti5":"283.91","frp":"0.76","daynight":"N","commune":"Barèges","code_insee":"65481","departement":"Hautes-Pyrénées","region":"Occitanie"}},{"type":"Feature","geometry":{"type":"Point","coordinates":[4.88635,43.43679]},"properties":{"latitude":"43.43679","longitude":"4.88635","bright_ti4":"330.67","scan":"0.42","track":"0.38","acq_date":"2026-07-19","acq_time":"128","satellite":"N21","instrument":"VIIRS","confidence":"n","version":"2.0NRT","bright_ti5":"297.84","frp":"3.26","daynight":"N","commune":"Fos-sur-Mer","code_insee":"13039","departement":"Bouches-du-Rhône","region":"Provence-Alpes-Côte d'Azur"}},{"type":"Feature","geometry":{"type":"Point","coordinates":[4.88121,43.43746]},"properties":{"latitude":"43.43746","longitude":"4.88121","bright_ti4":"308.1","scan":"0.42","track":"0.38","acq_date":"2026-07-19","acq_time":"128","satellite":"N21","instrument":"VIIRS","confidence":"n","version":"2.0NRT","bright_ti5":"296.64","frp":"3.26","daynight":"N","commune":"Fos-sur-Mer","code_insee":"13039","departement":"Bouches-du-Rhône","region":"Provence-Alpes-Côte d'Azur"}},{"type":"Feature","geometry":{"type":"Point","coordinates":[4.89231,43.43954]},"properties":{"latitude":"43.43954","longitude":"4.89231","bright_ti4":"320.8","scan":"0.42","track":"0.38","acq_date":"2026-07-19","acq_time":"128","satellite":"N21","instrument":"VIIRS","confidence":"n","version":"2.0NRT","bright_ti5":"296.9","frp":"3.03","daynight":"N","commune":"Fos-sur-Mer","code_insee":"13039","departement":"Bouches-du-Rhône","region":"Provence-Alpes-Côte d'Azur"}},{"type":"Feature","geometry":{"type":"Point","coordinates":[4.88204,43.44087]},"properties":{"latitude":"43.44087","longitude":"4.88204","bright_ti4":"310.45","scan":"0.42","track":"0.38","acq_date":"2026-07-19","acq_time":"128","satellite":"N21","instrument":"VIIRS","confidence":"n","version":"2.0NRT","bright_ti5":"294.52","frp":"2.22","daynight":"N","commune":"Fos-sur-Mer","code_insee":"13039","departement":"Bouches-du-Rhône","region":"Provence-Alpes-Côte d'Azur"}},{"type":"Feature","geometry":{"type":"Point","coordinates":[4.89911,43.4457]},"properties":{"latitude":"43.4457","longitude":"4.89911","bright_ti4":"325.65","scan":"0.42","track":"0.38","acq_date":"2026-07-19","acq_time":"128","satellite":"N21","instrument":"VIIRS","confidence":"n","version":"2.0NRT","bright_ti5":"296.67","frp":"3.21","daynight":"N","commune":"Fos-sur-Mer","code_insee":"13039","departement":"Bouches-du-Rhône","region":"Provence-Alpes-Côte d'Azur"}},{"type":"Feature","geometry":{"type":"Point","coordinates":[4.89398,43.44637]},"properties":{"latitude":"43.44637","longitude":"4.89398","bright_ti4":"325.57","scan":"0.42","track":"0.38","acq_date":"2026-07-19","acq_time":"128","satellite":"N21","instrument":"VIIRS","confidence":"n","version":"2.0NRT","bright_ti5":"295.96","frp":"3.21","daynight":"N","commune":"Fos-sur-Mer","code_insee":"13039","departement":"Bouches-du-Rhône","region":"Provence-Alpes-Côte d'Azur"}},{"type":"Feature","geometry":{"type":"Point","coordinates":[1.22839,43.9885]},"properties":{"latitude":"43.9885","longitude":"1.22839","bright_ti4":"301.95","scan":"0.39","track":"0.44","acq_date":"2026-07-19","acq_time":"128","satellite":"N21","instrument":"VIIRS","confidence":"n","version":"2.0NRT","bright_ti5":"290","frp":"0.67","daynight":"N","commune":"Montech","code_insee":"82125","departement":"Tarn-et-Garonne","region":"Occitanie"}},{"type":"Feature","geometry":{"type":"Point","coordinates":[5.66742,45.23116]},"properties":{"latitude":"45.23116","longitude":"5.66742","bright_ti4":"308.18","scan":"0.41","track":"0.37","acq_date":"2026-07-19","acq_time":"128","satellite":"N21","instrument":"VIIRS","confidence":"n","version":"2.0NRT","bright_ti5":"292.39","frp":"0.98","daynight":"N","commune":"Saint-Égrève","code_insee":"38382","departement":"Isère","region":"Auvergne-Rhône-Alpes"}},{"type":"Feature","geometry":{"type":"Point","coordinates":[-1.03703,48.10522]},"properties":{"latitude":"48.10522","longitude":"-1.03703","bright_ti4":"301.2","scan":"0.39","track":"0.59","acq_date":"2026-07-19","acq_time":"306","satellite":"N21","instrument":"VIIRS","confidence":"n","version":"2.0NRT","bright_ti5":"288.13","frp":"0.88","daynight":"N","commune":"Saint-Pierre-la-Cour","code_insee":"53247","departement":"Mayenne","region":"Pays de la Loire"}},{"type":"Feature","geometry":{"type":"Point","coordinates":[0.47314,48.33853]},"properties":{"latitude":"48.33853","longitude":"0.47314","bright_ti4":"297.91","scan":"0.44","track":"0.63","acq_date":"2026-07-19","acq_time":"306","satellite":"N21","instrument":"VIIRS","confidence":"n","version":"2.0NRT","bright_ti5":"283.82","frp":"0.69","daynight":"N","commune":"Vaunoise","code_insee":"61498","departement":"Orne","region":"Normandie"}},{"type":"Feature","geometry":{"type":"Point","coordinates":[0.47593,48.34074]},"properties":{"latitude":"48.34074","longitude":"0.47593","bright_ti4":"300.05","scan":"0.44","track":"0.63","acq_date":"2026-07-19","acq_time":"306","satellite":"N21","instrument":"VIIRS","confidence":"n","version":"2.0NRT","bright_ti5":"283.67","frp":"0.64","daynight":"N","commune":"Vaunoise","code_insee":"61498","departement":"Orne","region":"Normandie"}},{"type":"Feature","geometry":{"type":"Point","coordinates":[-0.25629,49.10128]},"properties":{"latitude":"49.10128","longitude":"-0.25629","bright_ti4":"295.41","scan":"0.39","track":"0.59","acq_date":"2026-07-19","acq_time":"306","satellite":"N21","instrument":"VIIRS","confidence":"n","version":"2.0NRT","bright_ti5":"282.59","frp":"0.67","daynight":"N","commune":"Bellengreville","code_insee":"14057","departement":"Calvados","region":"Normandie"}},{"type":"Feature","geometry":{"type":"Point","coordinates":[2.87496,49.98111]},"properties":{"latitude":"49.98111","longitude":"2.87496","bright_ti4":"295.91","scan":"0.49","track":"0.65","acq_date":"2026-07-19","acq_time":"306","satellite":"N21","instrument":"VIIRS","confidence":"n","version":"2.0NRT","bright_ti5":"280.39","frp":"1.66","daynight":"N","commune":"Cléry-sur-Somme","code_insee":"80199","departement":"Somme","region":"Hauts-de-France"}},{"type":"Feature","geometry":{"type":"Point","coordinates":[2.869,49.9831]},"properties":{"latitude":"49.9831","longitude":"2.869","bright_ti4":"310.62","scan":"0.49","track":"0.65","acq_date":"2026-07-19","acq_time":"306","satellite":"N21","instrument":"VIIRS","confidence":"n","version":"2.0NRT","bright_ti5":"281.36","frp":"1.66","daynight":"N","commune":"Maurepas","code_insee":"80521","departement":"Somme","region":"Hauts-de-France"}},{"type":"Feature","geometry":{"type":"Point","coordinates":[3.49264,50.33541]},"properties":{"latitude":"50.33541","longitude":"3.49264","bright_ti4":"303.37","scan":"0.5","track":"0.66","acq_date":"2026-07-19","acq_time":"306","satellite":"N21","instrument":"VIIRS","confidence":"n","version":"2.0NRT","bright_ti5":"284.17","frp":"1.61","daynight":"N","commune":"Trith-Saint-Léger","code_insee":"59603","departement":"Nord","region":"Hauts-de-France"}},{"type":"Feature","geometry":{"type":"Point","coordinates":[3.4927,50.33882]},"properties":{"latitude":"50.33882","longitude":"3.4927","bright_ti4":"297.03","scan":"0.5","track":"0.66","acq_date":"2026-07-19","acq_time":"306","satellite":"N21","instrument":"VIIRS","confidence":"n","version":"2.0NRT","bright_ti5":"284.58","frp":"1.1","daynight":"N","commune":"Trith-Saint-Léger","code_insee":"59603","departement":"Nord","region":"Hauts-de-France"}},{"type":"Feature","geometry":{"type":"Point","coordinates":[2.11181,50.69761]},"properties":{"latitude":"50.69761","longitude":"2.11181","bright_ti4":"295.97","scan":"0.43","track":"0.62","acq_date":"2026-07-19","acq_time":"306","satellite":"N21","instrument":"VIIRS","confidence":"n","version":"2.0NRT","bright_ti5":"283.98","frp":"0.69","daynight":"N","commune":"Lumbres","code_insee":"62534","departement":"Pas-de-Calais","region":"Hauts-de-France"}},{"type":"Feature","geometry":{"type":"Point","coordinates":[2.29781,51.04081]},"properties":{"latitude":"51.04081","longitude":"2.29781","bright_ti4":"301.47","scan":"0.43","track":"0.62","acq_date":"2026-07-19","acq_time":"306","satellite":"N21","instrument":"VIIRS","confidence":"n","version":"2.0NRT","bright_ti5":"285.63","frp":"1.87","daynight":"N","commune":"Grande-Synthe","code_insee":"59271","departement":"Nord","region":"Hauts-de-France"}},{"type":"Feature","geometry":{"type":"Point","coordinates":[2.29239,51.04255]},"properties":{"latitude":"51.04255","longitude":"2.29239","bright_ti4":"302","scan":"0.42","track":"0.61","acq_date":"2026-07-19","acq_time":"306","satellite":"N21","instrument":"VIIRS","confidence":"n","version":"2.0NRT","bright_ti5":"284.89","frp":"1.87","daynight":"N","commune":"Grande-Synthe","code_insee":"59271","departement":"Nord","region":"Hauts-de-France"}},{"type":"Feature","geometry":{"type":"Point","coordinates":[2.30199,51.04583]},"properties":{"latitude":"51.04583","longitude":"2.30199","bright_ti4":"296.3","scan":"0.43","track":"0.62","acq_date":"2026-07-19","acq_time":"306","satellite":"N21","instrument":"VIIRS","confidence":"n","version":"2.0NRT","bright_ti5":"283.71","frp":"1.87","daynight":"N","commune":"Grande-Synthe","code_insee":"59271","departement":"Nord","region":"Hauts-de-France"}},{"type":"Feature","geometry":{"type":"Point","coordinates":[2.29658,51.04756]},"properties":{"latitude":"51.04756","longitude":"2.29658","bright_ti4":"325.12","scan":"0.42","track":"0.61","acq_date":"2026-07-19","acq_time":"306","satellite":"N21","instrument":"VIIRS","confidence":"n","version":"2.0NRT","bright_ti5":"288.32","frp":"1.87","daynight":"N","commune":"Grande-Synthe","code_insee":"59271","departement":"Nord","region":"Hauts-de-France"}},{"type":"Feature","geometry":{"type":"Point","coordinates":[0.0917,42.86855]},"properties":{"latitude":"42.86855","longitude":"0.0917","bright_ti4":"314.32","scan":"0.65","track":"0.73","acq_date":"2026-07-19","acq_time":"308","satellite":"N21","instrument":"VIIRS","confidence":"n","version":"2.0NRT","bright_ti5":"286.57","frp":"4.26","daynight":"N","commune":"Barèges","code_insee":"65481","departement":"Hautes-Pyrénées","region":"Occitanie"}},{"type":"Feature","geometry":{"type":"Point","coordinates":[0.0903,42.86997]},"properties":{"latitude":"42.86997","longitude":"0.0903","bright_ti4":"324.61","scan":"0.65","track":"0.73","acq_date":"2026-07-19","acq_time":"308","satellite":"N21","instrument":"VIIRS","confidence":"n","version":"2.0NRT","bright_ti5":"287.61","frp":"7.75","daynight":"N","commune":"Barèges","code_insee":"65481","departement":"Hautes-Pyrénées","region":"Occitanie"}},{"type":"Feature","geometry":{"type":"Point","coordinates":[0.08695,42.87014]},"properties":{"latitude":"42.87014","longitude":"0.08695","bright_ti4":"310.25","scan":"0.65","track":"0.73","acq_date":"2026-07-19","acq_time":"308","satellite":"N21","instrument":"VIIRS","confidence":"n","version":"2.0NRT","bright_ti5":"285.84","frp":"4.26","daynight":"N","commune":"Barèges","code_insee":"65481","departement":"Hautes-Pyrénées","region":"Occitanie"}},{"type":"Feature","geometry":{"type":"Point","coordinates":[0.12756,46.83023]},"properties":{"latitude":"46.83023","longitude":"0.12756","bright_ti4":"318.56","scan":"0.48","track":"0.65","acq_date":"2026-07-19","acq_time":"308","satellite":"N21","instrument":"VIIRS","confidence":"n","version":"2.0NRT","bright_ti5":"287.07","frp":"2.68","daynight":"N","commune":"Saint-Jean-de-Sauves","code_insee":"86225","departement":"Vienne","region":"Nouvelle-Aquitaine"}},{"type":"Feature","geometry":{"type":"Point","coordinates":[5.69346,43.26672]},"properties":{"latitude":"43.26672","longitude":"5.69346","bright_ti4":"331.8","scan":"0.78","track":"0.78","acq_date":"2026-07-19","acq_time":"1110","satellite":"N21","instrument":"VIIRS","confidence":"n","version":"2.0NRT","bright_ti5":"303.52","frp":"6.93","daynight":"D","commune":"Cuges-les-Pins","code_insee":"13030","departement":"Bouches-du-Rhône","region":"Provence-Alpes-Côte d'Azur"}},{"type":"Feature","geometry":{"type":"Point","coordinates":[9.07156,42.27023]},"properties":{"latitude":"42.27023","longitude":"9.07156","bright_ti4":"332.1","scan":"0.48","track":"0.48","acq_date":"2026-07-19","acq_time":"1253","satellite":"N21","instrument":"VIIRS","confidence":"n","version":"2.0NRT","bright_ti5":"301.16","frp":"6.55","daynight":"D","commune":"Corte","code_insee":"2B096","departement":"Haute-Corse","region":"Corse"}},{"type":"Feature","geometry":{"type":"Point","coordinates":[9.08313,42.27561]},"properties":{"latitude":"42.27561","longitude":"9.08313","bright_ti4":"333.34","scan":"0.48","track":"0.48","acq_date":"2026-07-19","acq_time":"1253","satellite":"N21","instrument":"VIIRS","confidence":"n","version":"2.0NRT","bright_ti5":"297.98","frp":"13.48","daynight":"D","commune":"Corte","code_insee":"2B096","departement":"Haute-Corse","region":"Corse"}},{"type":"Feature","geometry":{"type":"Point","coordinates":[9.09156,42.27628]},"properties":{"latitude":"42.27628","longitude":"9.09156","bright_ti4":"336.67","scan":"0.48","track":"0.48","acq_date":"2026-07-19","acq_time":"1253","satellite":"N21","instrument":"VIIRS","confidence":"n","version":"2.0NRT","bright_ti5":"298.78","frp":"6.31","daynight":"D","commune":"Corte","code_insee":"2B096","departement":"Haute-Corse","region":"Corse"}},{"type":"Feature","geometry":{"type":"Point","coordinates":[8.93836,42.3173]},"properties":{"latitude":"42.3173","longitude":"8.93836","bright_ti4":"334.63","scan":"0.48","track":"0.48","acq_date":"2026-07-19","acq_time":"1253","satellite":"N21","instrument":"VIIRS","confidence":"n","version":"2.0NRT","bright_ti5":"302.33","frp":"5.2","daynight":"D","commune":"Albertacce","code_insee":"2B007","departement":"Haute-Corse","region":"Corse"}},{"type":"Feature","geometry":{"type":"Point","coordinates":[0.09322,42.87169]},"properties":{"latitude":"42.87169","longitude":"0.09322","bright_ti4":"344.18","scan":"0.38","track":"0.36","acq_date":"2026-07-19","acq_time":"1253","satellite":"N21","instrument":"VIIRS","confidence":"n","version":"2.0NRT","bright_ti5":"310.34","frp":"7.12","daynight":"D","commune":"Barèges","code_insee":"65481","departement":"Hautes-Pyrénées","region":"Occitanie"}},{"type":"Feature","geometry":{"type":"Point","coordinates":[6.24098,43.13713]},"properties":{"latitude":"43.13713","longitude":"6.24098","bright_ti4":"341.71","scan":"0.54","track":"0.42","acq_date":"2026-07-19","acq_time":"1253","satellite":"N21","instrument":"VIIRS","confidence":"n","version":"2.0NRT","bright_ti5":"309.4","frp":"5.81","daynight":"D","commune":"La Londe-les-Maures","code_insee":"83071","departement":"Var","region":"Provence-Alpes-Côte d'Azur"}},{"type":"Feature","geometry":{"type":"Point","coordinates":[4.89194,43.43507]},"properties":{"latitude":"43.43507","longitude":"4.89194","bright_ti4":"345.75","scan":"0.48","track":"0.4","acq_date":"2026-07-19","acq_time":"1253","satellite":"N21","instrument":"VIIRS","confidence":"l","version":"2.0NRT","bright_ti5":"318.44","frp":"17.57","daynight":"D","commune":"Fos-sur-Mer","code_insee":"13039","departement":"Bouches-du-Rhône","region":"Provence-Alpes-Côte d'Azur"}},{"type":"Feature","geometry":{"type":"Point","coordinates":[0.3807,44.33125]},"properties":{"latitude":"44.33125","longitude":"0.3807","bright_ti4":"338.69","scan":"0.39","track":"0.36","acq_date":"2026-07-19","acq_time":"1253","satellite":"N21","instrument":"VIIRS","confidence":"n","version":"2.0NRT","bright_ti5":"307.11","frp":"2.85","daynight":"D","commune":"Bourran","code_insee":"47038","departement":"Lot-et-Garonne","region":"Nouvelle-Aquitaine"}},{"type":"Feature","geometry":{"type":"Point","coordinates":[1.9091,45.45632]},"properties":{"latitude":"45.45632","longitude":"1.9091","bright_ti4":"334.59","scan":"0.41","track":"0.37","acq_date":"2026-07-19","acq_time":"1253","satellite":"N21","instrument":"VIIRS","confidence":"n","version":"2.0NRT","bright_ti5":"299.02","frp":"26.23","daynight":"D","commune":"Chaumeil","code_insee":"19051","departement":"Corrèze","region":"Nouvelle-Aquitaine"}},{"type":"Feature","geometry":{"type":"Point","coordinates":[-0.00302,46.12011]},"properties":{"latitude":"46.12011","longitude":"-0.00302","bright_ti4":"337.63","scan":"0.39","track":"0.36","acq_date":"2026-07-19","acq_time":"1253","satellite":"N21","instrument":"VIIRS","confidence":"n","version":"2.0NRT","bright_ti5":"307.95","frp":"3.12","daynight":"D","commune":"Melleran","code_insee":"79175","departement":"Deux-Sèvres","region":"Nouvelle-Aquitaine"}},{"type":"Feature","geometry":{"type":"Point","coordinates":[-0.58891,46.35853]},"properties":{"latitude":"46.35853","longitude":"-0.58891","bright_ti4":"337.6","scan":"0.38","track":"0.36","acq_date":"2026-07-19","acq_time":"1253","satellite":"N21","instrument":"VIIRS","confidence":"l","version":"2.0NRT","bright_ti5":"311.25","frp":"1.4","daynight":"D","commune":"Benet","code_insee":"85020","departement":"Vendée","region":"Pays de la Loire"}},{"type":"Feature","geometry":{"type":"Point","coordinates":[-0.62614,46.73997]},"properties":{"latitude":"46.73997","longitude":"-0.62614","bright_ti4":"341.04","scan":"0.39","track":"0.36","acq_date":"2026-07-19","acq_time":"1253","satellite":"N21","instrument":"VIIRS","confidence":"n","version":"2.0NRT","bright_ti5":"304.29","frp":"2.83","daynight":"D","commune":"La Forêt-sur-Sèvre","code_insee":"79123","departement":"Deux-Sèvres","region":"Nouvelle-Aquitaine"}},{"type":"Feature","geometry":{"type":"Point","coordinates":[2.29558,51.04293]},"properties":{"latitude":"51.04293","longitude":"2.29558","bright_ti4":"336.45","scan":"0.47","track":"0.4","acq_date":"2026-07-19","acq_time":"1253","satellite":"N21","instrument":"VIIRS","confidence":"n","version":"2.0NRT","bright_ti5":"297.62","frp":"5","daynight":"D","commune":"Grande-Synthe","code_insee":"59271","departement":"Nord","region":"Hauts-de-France"}},{"type":"Feature","geometry":{"type":"Point","coordinates":[2.2946,51.04655]},"properties":{"latitude":"51.04655","longitude":"2.2946","bright_ti4":"330.7","scan":"0.47","track":"0.4","acq_date":"2026-07-19","acq_time":"1253","satellite":"N21","instrument":"VIIRS","confidence":"n","version":"2.0NRT","bright_ti5":"295.38","frp":"2.01","daynight":"D","commune":"Grande-Synthe","code_insee":"59271","departement":"Nord","region":"Hauts-de-France"}},{"type":"Feature","geometry":{"type":"Point","coordinates":[-2.11378,48.44693]},"properties":{"latitude":"48.44693","longitude":"-2.11378","bright_ti4":"347.04","scan":"0.38","track":"0.36","acq_date":"2026-07-19","acq_time":"1255","satellite":"N21","instrument":"VIIRS","confidence":"n","version":"2.0NRT","bright_ti5":"295.88","frp":"5.43","daynight":"D","commune":"Aucaleuc","code_insee":"22003","departement":"Côtes-d'Armor","region":"Bretagne"}}]}