{"type":"FeatureCollection","features":[{"type":"Feature","geometry":{"type":"Point","coordinates":[4.8908,43.43362]},"properties":{"latitude":"43.43362","longitude":"4.8908","bright_ti4":"302.47","scan":"0.76","track":"0.77","acq_date":"2026-08-26","acq_time":"30","satellite":"N20","instrument":"VIIRS","confidence":"n","version":"2.0NRT","bright_ti5":"290.83","frp":"1.07","daynight":"N","commune":"Fos-sur-Mer","code_insee":"13039","departement":"Bouches-du-Rhône","region":"Provence-Alpes-Côte d'Azur"}},{"type":"Feature","geometry":{"type":"Point","coordinates":[4.8892,43.43633]},"properties":{"latitude":"43.43633","longitude":"4.8892","bright_ti4":"301.8","scan":"0.76","track":"0.77","acq_date":"2026-08-26","acq_time":"30","satellite":"N20","instrument":"VIIRS","confidence":"n","version":"2.0NRT","bright_ti5":"290.62","frp":"2.41","daynight":"N","commune":"Fos-sur-Mer","code_insee":"13039","departement":"Bouches-du-Rhône","region":"Provence-Alpes-Côte d'Azur"}},{"type":"Feature","geometry":{"type":"Point","coordinates":[4.87142,43.44072]},"properties":{"latitude":"43.44072","longitude":"4.87142","bright_ti4":"303.87","scan":"0.76","track":"0.77","acq_date":"2026-08-26","acq_time":"30","satellite":"N20","instrument":"VIIRS","confidence":"n","version":"2.0NRT","bright_ti5":"289.24","frp":"2.49","daynight":"N","commune":"Fos-sur-Mer","code_insee":"13039","departement":"Bouches-du-Rhône","region":"Provence-Alpes-Côte d'Azur"}},{"type":"Feature","geometry":{"type":"Point","coordinates":[4.8811,43.44075]},"properties":{"latitude":"43.44075","longitude":"4.8811","bright_ti4":"307.29","scan":"0.76","track":"0.77","acq_date":"2026-08-26","acq_time":"30","satellite":"N20","instrument":"VIIRS","confidence":"n","version":"2.0NRT","bright_ti5":"290.09","frp":"2.49","daynight":"N","commune":"Fos-sur-Mer","code_insee":"13039","departement":"Bouches-du-Rhône","region":"Provence-Alpes-Côte d'Azur"}},{"type":"Feature","geometry":{"type":"Point","coordinates":[4.86984,43.44334]},"properties":{"latitude":"43.44334","longitude":"4.86984","bright_ti4":"309.38","scan":"0.76","track":"0.77","acq_date":"2026-08-26","acq_time":"30","satellite":"N20","instrument":"VIIRS","confidence":"n","version":"2.0NRT","bright_ti5":"288.93","frp":"4.6","daynight":"N","commune":"Fos-sur-Mer","code_insee":"13039","departement":"Bouches-du-Rhône","region":"Provence-Alpes-Côte d'Azur"}},{"type":"Feature","geometry":{"type":"Point","coordinates":[4.87953,43.44342]},"properties":{"latitude":"43.44342","longitude":"4.87953","bright_ti4":"327.08","scan":"0.76","track":"0.77","acq_date":"2026-08-26","acq_time":"30","satellite":"N20","instrument":"VIIRS","confidence":"n","version":"2.0NRT","bright_ti5":"290.27","frp":"6.98","daynight":"N","commune":"Fos-sur-Mer","code_insee":"13039","departement":"Bouches-du-Rhône","region":"Provence-Alpes-Côte d'Azur"}},{"type":"Feature","geometry":{"type":"Point","coordinates":[4.8714,43.44789]},"properties":{"latitude":"43.44789","longitude":"4.8714","bright_ti4":"313.96","scan":"0.76","track":"0.77","acq_date":"2026-08-26","acq_time":"30","satellite":"N20","instrument":"VIIRS","confidence":"n","version":"2.0NRT","bright_ti5":"289.24","frp":"2.49","daynight":"N","commune":"Fos-sur-Mer","code_insee":"13039","departement":"Bouches-du-Rhône","region":"Provence-Alpes-Côte d'Azur"}},{"type":"Feature","geometry":{"type":"Point","coordinates":[4.88105,43.44791]},"properties":{"latitude":"43.44791","longitude":"4.88105","bright_ti4":"308.75","scan":"0.76","track":"0.77","acq_date":"2026-08-26","acq_time":"30","satellite":"N20","instrument":"VIIRS","confidence":"n","version":"2.0NRT","bright_ti5":"290.15","frp":"2.49","daynight":"N","commune":"Fos-sur-Mer","code_insee":"13039","departement":"Bouches-du-Rhône","region":"Provence-Alpes-Côte d'Azur"}},{"type":"Feature","geometry":{"type":"Point","coordinates":[4.89626,43.43383]},"properties":{"latitude":"43.43383","longitude":"4.89626","bright_ti4":"304.19","scan":"0.53","track":"0.42","acq_date":"2026-08-26","acq_time":"115","satellite":"N21","instrument":"VIIRS","confidence":"n","version":"2.0NRT","bright_ti5":"292.6","frp":"1.57","daynight":"N","commune":"Fos-sur-Mer","code_insee":"13039","departement":"Bouches-du-Rhône","region":"Provence-Alpes-Côte d'Azur"}},{"type":"Feature","geometry":{"type":"Point","coordinates":[4.88966,43.43451]},"properties":{"latitude":"43.43451","longitude":"4.88966","bright_ti4":"328.43","scan":"0.53","track":"0.42","acq_date":"2026-08-26","acq_time":"115","satellite":"N21","instrument":"VIIRS","confidence":"n","version":"2.0NRT","bright_ti5":"294.13","frp":"6.11","daynight":"N","commune":"Fos-sur-Mer","code_insee":"13039","departement":"Bouches-du-Rhône","region":"Provence-Alpes-Côte d'Azur"}},{"type":"Feature","geometry":{"type":"Point","coordinates":[4.89041,43.43836]},"properties":{"latitude":"43.43836","longitude":"4.89041","bright_ti4":"310.44","scan":"0.53","track":"0.42","acq_date":"2026-08-26","acq_time":"115","satellite":"N21","instrument":"VIIRS","confidence":"n","version":"2.0NRT","bright_ti5":"293.19","frp":"2.18","daynight":"N","commune":"Fos-sur-Mer","code_insee":"13039","departement":"Bouches-du-Rhône","region":"Provence-Alpes-Côte d'Azur"}},{"type":"Feature","geometry":{"type":"Point","coordinates":[4.88452,43.44289]},"properties":{"latitude":"43.44289","longitude":"4.88452","bright_ti4":"304.61","scan":"0.54","track":"0.42","acq_date":"2026-08-26","acq_time":"115","satellite":"N21","instrument":"VIIRS","confidence":"n","version":"2.0NRT","bright_ti5":"292","frp":"2.18","daynight":"N","commune":"Fos-sur-Mer","code_insee":"13039","departement":"Bouches-du-Rhône","region":"Provence-Alpes-Côte d'Azur"}},{"type":"Feature","geometry":{"type":"Point","coordinates":[4.87791,43.44357]},"properties":{"latitude":"43.44357","longitude":"4.87791","bright_ti4":"331.31","scan":"0.54","track":"0.42","acq_date":"2026-08-26","acq_time":"115","satellite":"N21","instrument":"VIIRS","confidence":"n","version":"2.0NRT","bright_ti5":"293.13","frp":"6.68","daynight":"N","commune":"Fos-sur-Mer","code_insee":"13039","departement":"Bouches-du-Rhône","region":"Provence-Alpes-Côte d'Azur"}},{"type":"Feature","geometry":{"type":"Point","coordinates":[4.89848,43.44539]},"properties":{"latitude":"43.44539","longitude":"4.89848","bright_ti4":"304.23","scan":"0.53","track":"0.42","acq_date":"2026-08-26","acq_time":"115","satellite":"N21","instrument":"VIIRS","confidence":"n","version":"2.0NRT","bright_ti5":"293.54","frp":"0.87","daynight":"N","commune":"Fos-sur-Mer","code_insee":"13039","departement":"Bouches-du-Rhône","region":"Provence-Alpes-Côte d'Azur"}},{"type":"Feature","geometry":{"type":"Point","coordinates":[7.37445,43.79513]},"properties":{"latitude":"43.79513","longitude":"7.37445","bright_ti4":"307.22","scan":"0.44","track":"0.38","acq_date":"2026-08-26","acq_time":"115","satellite":"N21","instrument":"VIIRS","confidence":"n","version":"2.0NRT","bright_ti5":"292.05","frp":"1.57","daynight":"N","commune":"Blausasc","code_insee":"06019","departement":"Alpes-Maritimes","region":"Provence-Alpes-Côte d'Azur"}}]}