{"type":"FeatureCollection","features":[{"type":"Feature","geometry":{"type":"Point","coordinates":[0.53288,49.47731]},"properties":{"latitude":"49.47731","longitude":"0.53288","bright_ti4":"314.41","scan":"0.32","track":"0.55","acq_date":"2026-06-19","acq_time":"122","satellite":"N","instrument":"VIIRS","confidence":"n","version":"2.0NRT","bright_ti5":"287.58","frp":"1.43","daynight":"N","commune":"Lillebonne","code_insee":"76384","departement":"Seine-Maritime","region":"Normandie"}},{"type":"Feature","geometry":{"type":"Point","coordinates":[3.49202,50.33862]},"properties":{"latitude":"50.33862","longitude":"3.49202","bright_ti4":"302.82","scan":"0.48","track":"0.48","acq_date":"2026-06-19","acq_time":"122","satellite":"N","instrument":"VIIRS","confidence":"n","version":"2.0NRT","bright_ti5":"289.07","frp":"1.04","daynight":"N","commune":"Trith-Saint-Léger","code_insee":"59603","departement":"Nord","region":"Hauts-de-France"}},{"type":"Feature","geometry":{"type":"Point","coordinates":[3.56049,50.40336]},"properties":{"latitude":"50.40336","longitude":"3.56049","bright_ti4":"309.85","scan":"0.48","track":"0.48","acq_date":"2026-06-19","acq_time":"122","satellite":"N","instrument":"VIIRS","confidence":"n","version":"2.0NRT","bright_ti5":"283.7","frp":"1.31","daynight":"N","commune":"Saint-Saulve","code_insee":"59544","departement":"Nord","region":"Hauts-de-France"}},{"type":"Feature","geometry":{"type":"Point","coordinates":[2.27311,51.02705]},"properties":{"latitude":"51.02705","longitude":"2.27311","bright_ti4":"312.07","scan":"0.55","track":"0.51","acq_date":"2026-06-19","acq_time":"122","satellite":"N","instrument":"VIIRS","confidence":"n","version":"2.0NRT","bright_ti5":"288.74","frp":"2.48","daynight":"N","commune":"Grande-Synthe","code_insee":"59271","departement":"Nord","region":"Hauts-de-France"}},{"type":"Feature","geometry":{"type":"Point","coordinates":[2.29072,51.03566]},"properties":{"latitude":"51.03566","longitude":"2.29072","bright_ti4":"329.81","scan":"0.55","track":"0.51","acq_date":"2026-06-19","acq_time":"122","satellite":"N","instrument":"VIIRS","confidence":"n","version":"2.0NRT","bright_ti5":"289.37","frp":"5.74","daynight":"N","commune":"Grande-Synthe","code_insee":"59271","departement":"Nord","region":"Hauts-de-France"}},{"type":"Feature","geometry":{"type":"Point","coordinates":[2.28264,51.03614]},"properties":{"latitude":"51.03614","longitude":"2.28264","bright_ti4":"338.09","scan":"0.55","track":"0.51","acq_date":"2026-06-19","acq_time":"122","satellite":"N","instrument":"VIIRS","confidence":"n","version":"2.0NRT","bright_ti5":"289.7","frp":"5.74","daynight":"N","commune":"Grande-Synthe","code_insee":"59271","departement":"Nord","region":"Hauts-de-France"}},{"type":"Feature","geometry":{"type":"Point","coordinates":[2.29826,51.04427]},"properties":{"latitude":"51.04427","longitude":"2.29826","bright_ti4":"317.74","scan":"0.55","track":"0.51","acq_date":"2026-06-19","acq_time":"122","satellite":"N","instrument":"VIIRS","confidence":"n","version":"2.0NRT","bright_ti5":"289.35","frp":"2.61","daynight":"N","commune":"Grande-Synthe","code_insee":"59271","departement":"Nord","region":"Hauts-de-France"}},{"type":"Feature","geometry":{"type":"Point","coordinates":[2.29014,51.04471]},"properties":{"latitude":"51.04471","longitude":"2.29014","bright_ti4":"302.95","scan":"0.55","track":"0.51","acq_date":"2026-06-19","acq_time":"122","satellite":"N","instrument":"VIIRS","confidence":"n","version":"2.0NRT","bright_ti5":"288.88","frp":"2.61","daynight":"N","commune":"Grande-Synthe","code_insee":"59271","departement":"Nord","region":"Hauts-de-France"}},{"type":"Feature","geometry":{"type":"Point","coordinates":[2.30022,51.04475]},"properties":{"latitude":"51.04475","longitude":"2.30022","bright_ti4":"305.76","scan":"0.55","track":"0.51","acq_date":"2026-06-19","acq_time":"122","satellite":"N","instrument":"VIIRS","confidence":"n","version":"2.0NRT","bright_ti5":"288.73","frp":"2.35","daynight":"N","commune":"Grande-Synthe","code_insee":"59271","departement":"Nord","region":"Hauts-de-France"}},{"type":"Feature","geometry":{"type":"Point","coordinates":[2.2921,51.04522]},"properties":{"latitude":"51.04522","longitude":"2.2921","bright_ti4":"317.21","scan":"0.55","track":"0.51","acq_date":"2026-06-19","acq_time":"122","satellite":"N","instrument":"VIIRS","confidence":"n","version":"2.0NRT","bright_ti5":"288.95","frp":"3.18","daynight":"N","commune":"Grande-Synthe","code_insee":"59271","departement":"Nord","region":"Hauts-de-France"}},{"type":"Feature","geometry":{"type":"Point","coordinates":[2.31707,51.04857]},"properties":{"latitude":"51.04857","longitude":"2.31707","bright_ti4":"300.86","scan":"0.55","track":"0.51","acq_date":"2026-06-19","acq_time":"122","satellite":"N","instrument":"VIIRS","confidence":"n","version":"2.0NRT","bright_ti5":"288.98","frp":"1.2","daynight":"N","commune":"Dunkerque","code_insee":"59183","departement":"Nord","region":"Hauts-de-France"}},{"type":"Feature","geometry":{"type":"Point","coordinates":[4.88608,43.43058]},"properties":{"latitude":"43.43058","longitude":"4.88608","bright_ti4":"299.96","scan":"0.53","track":"0.42","acq_date":"2026-06-19","acq_time":"124","satellite":"N","instrument":"VIIRS","confidence":"n","version":"2.0NRT","bright_ti5":"282.89","frp":"1.82","daynight":"N","commune":"Fos-sur-Mer","code_insee":"13039","departement":"Bouches-du-Rhône","region":"Provence-Alpes-Côte d'Azur"}},{"type":"Feature","geometry":{"type":"Point","coordinates":[4.8935,43.43377]},"properties":{"latitude":"43.43377","longitude":"4.8935","bright_ti4":"304.21","scan":"0.53","track":"0.42","acq_date":"2026-06-19","acq_time":"124","satellite":"N","instrument":"VIIRS","confidence":"n","version":"2.0NRT","bright_ti5":"287.69","frp":"3.01","daynight":"N","commune":"Fos-sur-Mer","code_insee":"13039","departement":"Bouches-du-Rhône","region":"Provence-Alpes-Côte d'Azur"}},{"type":"Feature","geometry":{"type":"Point","coordinates":[4.8884,43.4422]},"properties":{"latitude":"43.4422","longitude":"4.8884","bright_ti4":"301.13","scan":"0.53","track":"0.42","acq_date":"2026-06-19","acq_time":"124","satellite":"N","instrument":"VIIRS","confidence":"n","version":"2.0NRT","bright_ti5":"288","frp":"1.57","daynight":"N","commune":"Fos-sur-Mer","code_insee":"13039","departement":"Bouches-du-Rhône","region":"Provence-Alpes-Côte d'Azur"}},{"type":"Feature","geometry":{"type":"Point","coordinates":[4.89584,43.44538]},"properties":{"latitude":"43.44538","longitude":"4.89584","bright_ti4":"309.78","scan":"0.53","track":"0.42","acq_date":"2026-06-19","acq_time":"124","satellite":"N","instrument":"VIIRS","confidence":"n","version":"2.0NRT","bright_ti5":"290.88","frp":"1.57","daynight":"N","commune":"Fos-sur-Mer","code_insee":"13039","departement":"Bouches-du-Rhône","region":"Provence-Alpes-Côte d'Azur"}},{"type":"Feature","geometry":{"type":"Point","coordinates":[7.3737,43.7944]},"properties":{"latitude":"43.7944","longitude":"7.3737","bright_ti4":"306.78","scan":"0.44","track":"0.38","acq_date":"2026-06-19","acq_time":"124","satellite":"N","instrument":"VIIRS","confidence":"n","version":"2.0NRT","bright_ti5":"292.21","frp":"1.14","daynight":"N","commune":"Blausasc","code_insee":"06019","departement":"Alpes-Maritimes","region":"Provence-Alpes-Côte d'Azur"}},{"type":"Feature","geometry":{"type":"Point","coordinates":[4.73999,43.80173]},"properties":{"latitude":"43.80173","longitude":"4.73999","bright_ti4":"300.75","scan":"0.55","track":"0.42","acq_date":"2026-06-19","acq_time":"124","satellite":"N","instrument":"VIIRS","confidence":"n","version":"2.0NRT","bright_ti5":"286.34","frp":"0.59","daynight":"N","commune":"Saint-Étienne-du-Grès","code_insee":"13094","departement":"Bouches-du-Rhône","region":"Provence-Alpes-Côte d'Azur"}},{"type":"Feature","geometry":{"type":"Point","coordinates":[7.5272,47.81134]},"properties":{"latitude":"47.81134","longitude":"7.5272","bright_ti4":"302.48","scan":"0.47","track":"0.4","acq_date":"2026-06-19","acq_time":"124","satellite":"N","instrument":"VIIRS","confidence":"n","version":"2.0NRT","bright_ti5":"292.46","frp":"1.34","daynight":"N","commune":"Bantzenheim","code_insee":"68020","departement":"Haut-Rhin","region":"Grand Est"}},{"type":"Feature","geometry":{"type":"Point","coordinates":[2.98228,48.38549]},"properties":{"latitude":"48.38549","longitude":"2.98228","bright_ti4":"305.08","scan":"0.49","track":"0.48","acq_date":"2026-06-19","acq_time":"124","satellite":"N","instrument":"VIIRS","confidence":"n","version":"2.0NRT","bright_ti5":"290.88","frp":"0.94","daynight":"N","commune":"Montereau-Fault-Yonne","code_insee":"77305","departement":"Seine-et-Marne","region":"Île-de-France"}},{"type":"Feature","geometry":{"type":"Point","coordinates":[6.11662,48.60897]},"properties":{"latitude":"48.60897","longitude":"6.11662","bright_ti4":"304.91","scan":"0.54","track":"0.42","acq_date":"2026-06-19","acq_time":"124","satellite":"N","instrument":"VIIRS","confidence":"n","version":"2.0NRT","bright_ti5":"292.08","frp":"1.37","daynight":"N","commune":"Neuves-Maisons","code_insee":"54397","departement":"Meurthe-et-Moselle","region":"Grand Est"}},{"type":"Feature","geometry":{"type":"Point","coordinates":[6.10917,48.60971]},"properties":{"latitude":"48.60971","longitude":"6.10917","bright_ti4":"310.33","scan":"0.54","track":"0.42","acq_date":"2026-06-19","acq_time":"124","satellite":"N","instrument":"VIIRS","confidence":"n","version":"2.0NRT","bright_ti5":"291.89","frp":"1.95","daynight":"N","commune":"Neuves-Maisons","code_insee":"54397","departement":"Meurthe-et-Moselle","region":"Grand Est"}},{"type":"Feature","geometry":{"type":"Point","coordinates":[6.05343,48.8835]},"properties":{"latitude":"48.8835","longitude":"6.05343","bright_ti4":"309.51","scan":"0.55","track":"0.43","acq_date":"2026-06-19","acq_time":"124","satellite":"N","instrument":"VIIRS","confidence":"n","version":"2.0NRT","bright_ti5":"289.99","frp":"1.25","daynight":"N","commune":"Blénod-lès-Pont-à-Mousson","code_insee":"54079","departement":"Meurthe-et-Moselle","region":"Grand Est"}},{"type":"Feature","geometry":{"type":"Point","coordinates":[6.05431,48.88744]},"properties":{"latitude":"48.88744","longitude":"6.05431","bright_ti4":"309.32","scan":"0.55","track":"0.43","acq_date":"2026-06-19","acq_time":"124","satellite":"N","instrument":"VIIRS","confidence":"n","version":"2.0NRT","bright_ti5":"291.41","frp":"1.45","daynight":"N","commune":"Blénod-lès-Pont-à-Mousson","code_insee":"54079","departement":"Meurthe-et-Moselle","region":"Grand Est"}},{"type":"Feature","geometry":{"type":"Point","coordinates":[2.73827,48.94867]},"properties":{"latitude":"48.94867","longitude":"2.73827","bright_ti4":"300.37","scan":"0.51","track":"0.49","acq_date":"2026-06-19","acq_time":"124","satellite":"N","instrument":"VIIRS","confidence":"n","version":"2.0NRT","bright_ti5":"288.63","frp":"0.48","daynight":"N","commune":"Fresnes-sur-Marne","code_insee":"77196","departement":"Seine-et-Marne","region":"Île-de-France"}},{"type":"Feature","geometry":{"type":"Point","coordinates":[2.26528,51.02774]},"properties":{"latitude":"51.02774","longitude":"2.26528","bright_ti4":"297.99","scan":"0.63","track":"0.54","acq_date":"2026-06-19","acq_time":"302","satellite":"N","instrument":"VIIRS","confidence":"n","version":"2.0NRT","bright_ti5":"287.23","frp":"0.72","daynight":"N","commune":"Grande-Synthe","code_insee":"59271","departement":"Nord","region":"Hauts-de-France"}},{"type":"Feature","geometry":{"type":"Point","coordinates":[2.28888,51.03208]},"properties":{"latitude":"51.03208","longitude":"2.28888","bright_ti4":"302.07","scan":"0.63","track":"0.54","acq_date":"2026-06-19","acq_time":"302","satellite":"N","instrument":"VIIRS","confidence":"n","version":"2.0NRT","bright_ti5":"287.13","frp":"1.56","daynight":"N","commune":"Grande-Synthe","code_insee":"59271","departement":"Nord","region":"Hauts-de-France"}},{"type":"Feature","geometry":{"type":"Point","coordinates":[2.28047,51.03452]},"properties":{"latitude":"51.03452","longitude":"2.28047","bright_ti4":"303.11","scan":"0.63","track":"0.54","acq_date":"2026-06-19","acq_time":"302","satellite":"N","instrument":"VIIRS","confidence":"n","version":"2.0NRT","bright_ti5":"287.29","frp":"1.56","daynight":"N","commune":"Grande-Synthe","code_insee":"59271","departement":"Nord","region":"Hauts-de-France"}},{"type":"Feature","geometry":{"type":"Point","coordinates":[2.2923,51.03669]},"properties":{"latitude":"51.03669","longitude":"2.2923","bright_ti4":"312.69","scan":"0.63","track":"0.54","acq_date":"2026-06-19","acq_time":"302","satellite":"N","instrument":"VIIRS","confidence":"n","version":"2.0NRT","bright_ti5":"287.64","frp":"5.06","daynight":"N","commune":"Grande-Synthe","code_insee":"59271","departement":"Nord","region":"Hauts-de-France"}},{"type":"Feature","geometry":{"type":"Point","coordinates":[2.28391,51.03912]},"properties":{"latitude":"51.03912","longitude":"2.28391","bright_ti4":"332.91","scan":"0.63","track":"0.54","acq_date":"2026-06-19","acq_time":"302","satellite":"N","instrument":"VIIRS","confidence":"n","version":"2.0NRT","bright_ti5":"288.42","frp":"5.06","daynight":"N","commune":"Grande-Synthe","code_insee":"59271","departement":"Nord","region":"Hauts-de-France"}},{"type":"Feature","geometry":{"type":"Point","coordinates":[2.29264,51.04195]},"properties":{"latitude":"51.04195","longitude":"2.29264","bright_ti4":"298.08","scan":"0.63","track":"0.54","acq_date":"2026-06-19","acq_time":"302","satellite":"N","instrument":"VIIRS","confidence":"n","version":"2.0NRT","bright_ti5":"287.83","frp":"1.81","daynight":"N","commune":"Grande-Synthe","code_insee":"59271","departement":"Nord","region":"Hauts-de-France"}},{"type":"Feature","geometry":{"type":"Point","coordinates":[2.31935,51.04564]},"properties":{"latitude":"51.04564","longitude":"2.31935","bright_ti4":"300.79","scan":"0.63","track":"0.54","acq_date":"2026-06-19","acq_time":"302","satellite":"N","instrument":"VIIRS","confidence":"n","version":"2.0NRT","bright_ti5":"287.54","frp":"1.74","daynight":"N","commune":"Dunkerque","code_insee":"59183","departement":"Nord","region":"Hauts-de-France"}},{"type":"Feature","geometry":{"type":"Point","coordinates":[2.29912,51.0459]},"properties":{"latitude":"51.0459","longitude":"2.29912","bright_ti4":"314.33","scan":"0.63","track":"0.54","acq_date":"2026-06-19","acq_time":"302","satellite":"N","instrument":"VIIRS","confidence":"n","version":"2.0NRT","bright_ti5":"288.19","frp":"3.05","daynight":"N","commune":"Grande-Synthe","code_insee":"59271","departement":"Nord","region":"Hauts-de-France"}},{"type":"Feature","geometry":{"type":"Point","coordinates":[2.31618,51.04623]},"properties":{"latitude":"51.04623","longitude":"2.31618","bright_ti4":"319.31","scan":"0.63","track":"0.54","acq_date":"2026-06-19","acq_time":"302","satellite":"N","instrument":"VIIRS","confidence":"n","version":"2.0NRT","bright_ti5":"287.98","frp":"3.27","daynight":"N","commune":"Dunkerque","code_insee":"59183","departement":"Nord","region":"Hauts-de-France"}},{"type":"Feature","geometry":{"type":"Point","coordinates":[2.29605,51.04655]},"properties":{"latitude":"51.04655","longitude":"2.29605","bright_ti4":"312.5","scan":"0.63","track":"0.54","acq_date":"2026-06-19","acq_time":"302","satellite":"N","instrument":"VIIRS","confidence":"n","version":"2.0NRT","bright_ti5":"288.1","frp":"1.81","daynight":"N","commune":"Grande-Synthe","code_insee":"59271","departement":"Nord","region":"Hauts-de-France"}},{"type":"Feature","geometry":{"type":"Point","coordinates":[2.31097,51.04807]},"properties":{"latitude":"51.04807","longitude":"2.31097","bright_ti4":"309.73","scan":"0.63","track":"0.54","acq_date":"2026-06-19","acq_time":"302","satellite":"N","instrument":"VIIRS","confidence":"n","version":"2.0NRT","bright_ti5":"287.49","frp":"1.74","daynight":"N","commune":"Dunkerque","code_insee":"59183","departement":"Nord","region":"Hauts-de-France"}},{"type":"Feature","geometry":{"type":"Point","coordinates":[4.89631,43.43183]},"properties":{"latitude":"43.43183","longitude":"4.89631","bright_ti4":"301.57","scan":"0.71","track":"0.75","acq_date":"2026-06-19","acq_time":"304","satellite":"N","instrument":"VIIRS","confidence":"n","version":"2.0NRT","bright_ti5":"288.92","frp":"1.67","daynight":"N","commune":"Fos-sur-Mer","code_insee":"13039","departement":"Bouches-du-Rhône","region":"Provence-Alpes-Côte d'Azur"}},{"type":"Feature","geometry":{"type":"Point","coordinates":[4.89229,43.44111]},"properties":{"latitude":"43.44111","longitude":"4.89229","bright_ti4":"298.37","scan":"0.71","track":"0.75","acq_date":"2026-06-19","acq_time":"304","satellite":"N","instrument":"VIIRS","confidence":"n","version":"2.0NRT","bright_ti5":"287.8","frp":"1.57","daynight":"N","commune":"Fos-sur-Mer","code_insee":"13039","departement":"Bouches-du-Rhône","region":"Provence-Alpes-Côte d'Azur"}},{"type":"Feature","geometry":{"type":"Point","coordinates":[4.89704,43.4464]},"properties":{"latitude":"43.4464","longitude":"4.89704","bright_ti4":"311.1","scan":"0.71","track":"0.75","acq_date":"2026-06-19","acq_time":"304","satellite":"N","instrument":"VIIRS","confidence":"n","version":"2.0NRT","bright_ti5":"284.12","frp":"1.24","daynight":"N","commune":"Fos-sur-Mer","code_insee":"13039","departement":"Bouches-du-Rhône","region":"Provence-Alpes-Côte d'Azur"}},{"type":"Feature","geometry":{"type":"Point","coordinates":[4.8966,43.44747]},"properties":{"latitude":"43.44747","longitude":"4.8966","bright_ti4":"314.83","scan":"0.71","track":"0.75","acq_date":"2026-06-19","acq_time":"304","satellite":"N","instrument":"VIIRS","confidence":"n","version":"2.0NRT","bright_ti5":"283.22","frp":"1.57","daynight":"N","commune":"Fos-sur-Mer","code_insee":"13039","departement":"Bouches-du-Rhône","region":"Provence-Alpes-Côte d'Azur"}},{"type":"Feature","geometry":{"type":"Point","coordinates":[4.88883,43.44932]},"properties":{"latitude":"43.44932","longitude":"4.88883","bright_ti4":"299.19","scan":"0.71","track":"0.75","acq_date":"2026-06-19","acq_time":"304","satellite":"N","instrument":"VIIRS","confidence":"n","version":"2.0NRT","bright_ti5":"283.51","frp":"1.78","daynight":"N","commune":"Fos-sur-Mer","code_insee":"13039","departement":"Bouches-du-Rhône","region":"Provence-Alpes-Côte d'Azur"}},{"type":"Feature","geometry":{"type":"Point","coordinates":[2.73614,48.95053]},"properties":{"latitude":"48.95053","longitude":"2.73614","bright_ti4":"298.72","scan":"0.38","track":"0.59","acq_date":"2026-06-19","acq_time":"304","satellite":"N","instrument":"VIIRS","confidence":"n","version":"2.0NRT","bright_ti5":"287.71","frp":"0.43","daynight":"N","commune":"Fresnes-sur-Marne","code_insee":"77196","departement":"Seine-et-Marne","region":"Île-de-France"}},{"type":"Feature","geometry":{"type":"Point","coordinates":[2.73667,48.95095]},"properties":{"latitude":"48.95095","longitude":"2.73667","bright_ti4":"298.69","scan":"0.38","track":"0.59","acq_date":"2026-06-19","acq_time":"304","satellite":"N","instrument":"VIIRS","confidence":"n","version":"2.0NRT","bright_ti5":"287.79","frp":"0.52","daynight":"N","commune":"Fresnes-sur-Marne","code_insee":"77196","departement":"Seine-et-Marne","region":"Île-de-France"}},{"type":"Feature","geometry":{"type":"Point","coordinates":[1.76359,48.98434]},"properties":{"latitude":"48.98434","longitude":"1.76359","bright_ti4":"302.8","scan":"0.35","track":"0.57","acq_date":"2026-06-19","acq_time":"304","satellite":"N","instrument":"VIIRS","confidence":"n","version":"2.0NRT","bright_ti5":"289.25","frp":"1.4","daynight":"N","commune":"Porcheville","code_insee":"78501","departement":"Yvelines","region":"Île-de-France"}},{"type":"Feature","geometry":{"type":"Point","coordinates":[1.75905,48.98567]},"properties":{"latitude":"48.98567","longitude":"1.75905","bright_ti4":"323.42","scan":"0.35","track":"0.57","acq_date":"2026-06-19","acq_time":"304","satellite":"N","instrument":"VIIRS","confidence":"n","version":"2.0NRT","bright_ti5":"290.06","frp":"1.4","daynight":"N","commune":"Limay","code_insee":"78335","departement":"Yvelines","region":"Île-de-France"}},{"type":"Feature","geometry":{"type":"Point","coordinates":[0.53625,49.47836]},"properties":{"latitude":"49.47836","longitude":"0.53625","bright_ti4":"300.35","scan":"0.6","track":"0.53","acq_date":"2026-06-19","acq_time":"304","satellite":"N","instrument":"VIIRS","confidence":"n","version":"2.0NRT","bright_ti5":"289.33","frp":"1.62","daynight":"N","commune":"Port-Jérôme-sur-Seine","code_insee":"76476","departement":"Seine-Maritime","region":"Normandie"}},{"type":"Feature","geometry":{"type":"Point","coordinates":[3.48662,50.32986]},"properties":{"latitude":"50.32986","longitude":"3.48662","bright_ti4":"300.31","scan":"0.37","track":"0.58","acq_date":"2026-06-19","acq_time":"304","satellite":"N","instrument":"VIIRS","confidence":"n","version":"2.0NRT","bright_ti5":"287.28","frp":"0.72","daynight":"N","commune":"Trith-Saint-Léger","code_insee":"59603","departement":"Nord","region":"Hauts-de-France"}},{"type":"Feature","geometry":{"type":"Point","coordinates":[3.4921,50.33654]},"properties":{"latitude":"50.33654","longitude":"3.4921","bright_ti4":"301.82","scan":"0.37","track":"0.58","acq_date":"2026-06-19","acq_time":"304","satellite":"N","instrument":"VIIRS","confidence":"n","version":"2.0NRT","bright_ti5":"287.82","frp":"0.44","daynight":"N","commune":"Trith-Saint-Léger","code_insee":"59603","departement":"Nord","region":"Hauts-de-France"}},{"type":"Feature","geometry":{"type":"Point","coordinates":[3.49414,50.33964]},"properties":{"latitude":"50.33964","longitude":"3.49414","bright_ti4":"303.09","scan":"0.37","track":"0.58","acq_date":"2026-06-19","acq_time":"304","satellite":"N","instrument":"VIIRS","confidence":"n","version":"2.0NRT","bright_ti5":"288.39","frp":"0.82","daynight":"N","commune":"Valenciennes","code_insee":"59606","departement":"Nord","region":"Hauts-de-France"}},{"type":"Feature","geometry":{"type":"Point","coordinates":[-1.64109,43.39009]},"properties":{"latitude":"43.39009","longitude":"-1.64109","bright_ti4":"298.73","scan":"0.36","track":"0.58","acq_date":"2026-06-19","acq_time":"306","satellite":"N","instrument":"VIIRS","confidence":"n","version":"2.0NRT","bright_ti5":"287.28","frp":"0.47","daynight":"N","commune":"Saint-Jean-de-Luz","code_insee":"64483","departement":"Pyrénées-Atlantiques","region":"Nouvelle-Aquitaine"}},{"type":"Feature","geometry":{"type":"Point","coordinates":[2.28147,51.03889]},"properties":{"latitude":"51.03889","longitude":"2.28147","bright_ti4":"327.54","scan":"0.69","track":"0.75","acq_date":"2026-06-19","acq_time":"1113","satellite":"N","instrument":"VIIRS","confidence":"n","version":"2.0NRT","bright_ti5":"292.15","frp":"1.76","daynight":"D","commune":"Grande-Synthe","code_insee":"59271","departement":"Nord","region":"Hauts-de-France"}},{"type":"Feature","geometry":{"type":"Point","coordinates":[3.33489,43.40005]},"properties":{"latitude":"43.40005","longitude":"3.33489","bright_ti4":"336.11","scan":"0.38","track":"0.36","acq_date":"2026-06-19","acq_time":"1251","satellite":"N","instrument":"VIIRS","confidence":"l","version":"2.0NRT","bright_ti5":"308.98","frp":"1.34","daynight":"D","commune":"Servian","code_insee":"34300","departement":"Hérault","region":"Occitanie"}},{"type":"Feature","geometry":{"type":"Point","coordinates":[3.33396,43.40334]},"properties":{"latitude":"43.40334","longitude":"3.33396","bright_ti4":"335.19","scan":"0.38","track":"0.36","acq_date":"2026-06-19","acq_time":"1251","satellite":"N","instrument":"VIIRS","confidence":"l","version":"2.0NRT","bright_ti5":"306.19","frp":"1.34","daynight":"D","commune":"Servian","code_insee":"34300","departement":"Hérault","region":"Occitanie"}},{"type":"Feature","geometry":{"type":"Point","coordinates":[0.9932,43.75071]},"properties":{"latitude":"43.75071","longitude":"0.9932","bright_ti4":"341.41","scan":"0.4","track":"0.37","acq_date":"2026-06-19","acq_time":"1251","satellite":"N","instrument":"VIIRS","confidence":"n","version":"2.0NRT","bright_ti5":"308","frp":"3.81","daynight":"D","commune":"Brignemont","code_insee":"31090","departement":"Haute-Garonne","region":"Occitanie"}},{"type":"Feature","geometry":{"type":"Point","coordinates":[4.70114,45.87832]},"properties":{"latitude":"45.87832","longitude":"4.70114","bright_ti4":"338.78","scan":"0.41","track":"0.37","acq_date":"2026-06-19","acq_time":"1251","satellite":"N","instrument":"VIIRS","confidence":"n","version":"2.0NRT","bright_ti5":"307.78","frp":"6.51","daynight":"D","commune":"Chazay-d'Azergues","code_insee":"69052","departement":"Rhône","region":"Auvergne-Rhône-Alpes"}},{"type":"Feature","geometry":{"type":"Point","coordinates":[2.26893,46.22539]},"properties":{"latitude":"46.22539","longitude":"2.26893","bright_ti4":"337.5","scan":"0.38","track":"0.36","acq_date":"2026-06-19","acq_time":"1251","satellite":"N","instrument":"VIIRS","confidence":"l","version":"2.0NRT","bright_ti5":"312.01","frp":"4.89","daynight":"D","commune":"Gouzon","code_insee":"23093","departement":"Creuse","region":"Nouvelle-Aquitaine"}},{"type":"Feature","geometry":{"type":"Point","coordinates":[3.4582,46.62591]},"properties":{"latitude":"46.62591","longitude":"3.4582","bright_ti4":"341.31","scan":"0.39","track":"0.37","acq_date":"2026-06-19","acq_time":"1251","satellite":"N","instrument":"VIIRS","confidence":"l","version":"2.0NRT","bright_ti5":"314.58","frp":"3.62","daynight":"D","commune":"Chézy","code_insee":"03076","departement":"Allier","region":"Auvergne-Rhône-Alpes"}},{"type":"Feature","geometry":{"type":"Point","coordinates":[3.45625,46.63257]},"properties":{"latitude":"46.63257","longitude":"3.45625","bright_ti4":"350.57","scan":"0.39","track":"0.37","acq_date":"2026-06-19","acq_time":"1251","satellite":"N","instrument":"VIIRS","confidence":"l","version":"2.0NRT","bright_ti5":"322.49","frp":"27.66","daynight":"D","commune":"Gennetines","code_insee":"03121","departement":"Allier","region":"Auvergne-Rhône-Alpes"}},{"type":"Feature","geometry":{"type":"Point","coordinates":[2.41604,47.46899]},"properties":{"latitude":"47.46899","longitude":"2.41604","bright_ti4":"341.87","scan":"0.39","track":"0.36","acq_date":"2026-06-19","acq_time":"1251","satellite":"N","instrument":"VIIRS","confidence":"l","version":"2.0NRT","bright_ti5":"314.57","frp":"4.33","daynight":"D","commune":"Aubigny-sur-Nère","code_insee":"18015","departement":"Cher","region":"Centre-Val de Loire"}},{"type":"Feature","geometry":{"type":"Point","coordinates":[2.28147,51.0365]},"properties":{"latitude":"51.0365","longitude":"2.28147","bright_ti4":"336.91","scan":"0.4","track":"0.37","acq_date":"2026-06-19","acq_time":"1253","satellite":"N","instrument":"VIIRS","confidence":"n","version":"2.0NRT","bright_ti5":"305.41","frp":"5.55","daynight":"D","commune":"Grande-Synthe","code_insee":"59271","departement":"Nord","region":"Hauts-de-France"}},{"type":"Feature","geometry":{"type":"Point","coordinates":[2.29176,51.04139]},"properties":{"latitude":"51.04139","longitude":"2.29176","bright_ti4":"330.88","scan":"0.4","track":"0.37","acq_date":"2026-06-19","acq_time":"1253","satellite":"N","instrument":"VIIRS","confidence":"l","version":"2.0NRT","bright_ti5":"304.01","frp":"19.48","daynight":"D","commune":"Grande-Synthe","code_insee":"59271","departement":"Nord","region":"Hauts-de-France"}},{"type":"Feature","geometry":{"type":"Point","coordinates":[2.29634,51.04551]},"properties":{"latitude":"51.04551","longitude":"2.29634","bright_ti4":"333.34","scan":"0.4","track":"0.37","acq_date":"2026-06-19","acq_time":"1253","satellite":"N","instrument":"VIIRS","confidence":"l","version":"2.0NRT","bright_ti5":"305.59","frp":"19.48","daynight":"D","commune":"Grande-Synthe","code_insee":"59271","departement":"Nord","region":"Hauts-de-France"}},{"type":"Feature","geometry":{"type":"Point","coordinates":[7.23671,47.62851]},"properties":{"latitude":"47.62851","longitude":"7.23671","bright_ti4":"305.79","scan":"0.39","track":"0.36","acq_date":"2026-06-19","acq_time":"141","satellite":"N20","instrument":"VIIRS","confidence":"n","version":"2.0NRT","bright_ti5":"291.58","frp":"1.02","daynight":"N","commune":"Altkirch","code_insee":"68004","departement":"Haut-Rhin","region":"Grand Est"}},{"type":"Feature","geometry":{"type":"Point","coordinates":[7.52769,47.81018]},"properties":{"latitude":"47.81018","longitude":"7.52769","bright_ti4":"303.47","scan":"0.39","track":"0.36","acq_date":"2026-06-19","acq_time":"141","satellite":"N20","instrument":"VIIRS","confidence":"n","version":"2.0NRT","bright_ti5":"293.13","frp":"1.15","daynight":"N","commune":"Bantzenheim","code_insee":"68020","departement":"Haut-Rhin","region":"Grand Est"}},{"type":"Feature","geometry":{"type":"Point","coordinates":[2.98385,48.38769]},"properties":{"latitude":"48.38769","longitude":"2.98385","bright_ti4":"320.15","scan":"0.43","track":"0.38","acq_date":"2026-06-19","acq_time":"141","satellite":"N20","instrument":"VIIRS","confidence":"n","version":"2.0NRT","bright_ti5":"292.21","frp":"1.97","daynight":"N","commune":"Montereau-Fault-Yonne","code_insee":"77305","departement":"Seine-et-Marne","region":"Île-de-France"}},{"type":"Feature","geometry":{"type":"Point","coordinates":[6.10997,48.60953]},"properties":{"latitude":"48.60953","longitude":"6.10997","bright_ti4":"311.16","scan":"0.39","track":"0.36","acq_date":"2026-06-19","acq_time":"141","satellite":"N20","instrument":"VIIRS","confidence":"n","version":"2.0NRT","bright_ti5":"292.66","frp":"1.12","daynight":"N","commune":"Neuves-Maisons","code_insee":"54397","departement":"Meurthe-et-Moselle","region":"Grand Est"}},{"type":"Feature","geometry":{"type":"Point","coordinates":[6.11626,48.612]},"properties":{"latitude":"48.612","longitude":"6.11626","bright_ti4":"309.79","scan":"0.39","track":"0.36","acq_date":"2026-06-19","acq_time":"141","satellite":"N20","instrument":"VIIRS","confidence":"n","version":"2.0NRT","bright_ti5":"292.37","frp":"1.51","daynight":"N","commune":"Neuves-Maisons","code_insee":"54397","departement":"Meurthe-et-Moselle","region":"Grand Est"}},{"type":"Feature","geometry":{"type":"Point","coordinates":[6.96655,48.69105]},"properties":{"latitude":"48.69105","longitude":"6.96655","bright_ti4":"303.77","scan":"0.38","track":"0.36","acq_date":"2026-06-19","acq_time":"141","satellite":"N20","instrument":"VIIRS","confidence":"n","version":"2.0NRT","bright_ti5":"291.71","frp":"0.75","daynight":"N","commune":"Héming","code_insee":"57314","departement":"Moselle","region":"Grand Est"}},{"type":"Feature","geometry":{"type":"Point","coordinates":[5.68422,48.71523]},"properties":{"latitude":"48.71523","longitude":"5.68422","bright_ti4":"297.68","scan":"0.39","track":"0.36","acq_date":"2026-06-19","acq_time":"141","satellite":"N20","instrument":"VIIRS","confidence":"n","version":"2.0NRT","bright_ti5":"276.69","frp":"0.63","daynight":"N","commune":"Sorcy-Saint-Martin","code_insee":"55496","departement":"Meuse","region":"Grand Est"}},{"type":"Feature","geometry":{"type":"Point","coordinates":[2.74036,48.94857]},"properties":{"latitude":"48.94857","longitude":"2.74036","bright_ti4":"303.95","scan":"0.44","track":"0.38","acq_date":"2026-06-19","acq_time":"141","satellite":"N20","instrument":"VIIRS","confidence":"n","version":"2.0NRT","bright_ti5":"289.68","frp":"0.54","daynight":"N","commune":"Fresnes-sur-Marne","code_insee":"77196","departement":"Seine-et-Marne","region":"Île-de-France"}},{"type":"Feature","geometry":{"type":"Point","coordinates":[1.75903,48.98444]},"properties":{"latitude":"48.98444","longitude":"1.75903","bright_ti4":"311.46","scan":"0.47","track":"0.4","acq_date":"2026-06-19","acq_time":"141","satellite":"N20","instrument":"VIIRS","confidence":"n","version":"2.0NRT","bright_ti5":"285.08","frp":"1.38","daynight":"N","commune":"Porcheville","code_insee":"78501","departement":"Yvelines","region":"Île-de-France"}},{"type":"Feature","geometry":{"type":"Point","coordinates":[0.53531,49.47709]},"properties":{"latitude":"49.47709","longitude":"0.53531","bright_ti4":"310.16","scan":"0.53","track":"0.42","acq_date":"2026-06-19","acq_time":"141","satellite":"N20","instrument":"VIIRS","confidence":"n","version":"2.0NRT","bright_ti5":"290.6","frp":"1.75","daynight":"N","commune":"Port-Jérôme-sur-Seine","code_insee":"76476","departement":"Seine-Maritime","region":"Normandie"}},{"type":"Feature","geometry":{"type":"Point","coordinates":[3.48867,50.33031]},"properties":{"latitude":"50.33031","longitude":"3.48867","bright_ti4":"305.4","scan":"0.43","track":"0.38","acq_date":"2026-06-19","acq_time":"141","satellite":"N20","instrument":"VIIRS","confidence":"n","version":"2.0NRT","bright_ti5":"289.88","frp":"0.7","daynight":"N","commune":"Trith-Saint-Léger","code_insee":"59603","departement":"Nord","region":"Hauts-de-France"}},{"type":"Feature","geometry":{"type":"Point","coordinates":[3.49681,50.3365]},"properties":{"latitude":"50.3365","longitude":"3.49681","bright_ti4":"301.59","scan":"0.43","track":"0.38","acq_date":"2026-06-19","acq_time":"141","satellite":"N20","instrument":"VIIRS","confidence":"n","version":"2.0NRT","bright_ti5":"290.19","frp":"0.67","daynight":"N","commune":"Trith-Saint-Léger","code_insee":"59603","departement":"Nord","region":"Hauts-de-France"}},{"type":"Feature","geometry":{"type":"Point","coordinates":[3.49077,50.33726]},"properties":{"latitude":"50.33726","longitude":"3.49077","bright_ti4":"311.59","scan":"0.43","track":"0.38","acq_date":"2026-06-19","acq_time":"141","satellite":"N20","instrument":"VIIRS","confidence":"n","version":"2.0NRT","bright_ti5":"289.63","frp":"1.47","daynight":"N","commune":"Trith-Saint-Léger","code_insee":"59603","departement":"Nord","region":"Hauts-de-France"}},{"type":"Feature","geometry":{"type":"Point","coordinates":[3.56134,50.40102]},"properties":{"latitude":"50.40102","longitude":"3.56134","bright_ti4":"302.96","scan":"0.43","track":"0.38","acq_date":"2026-06-19","acq_time":"141","satellite":"N20","instrument":"VIIRS","confidence":"n","version":"2.0NRT","bright_ti5":"289.62","frp":"0.95","daynight":"N","commune":"Saint-Saulve","code_insee":"59544","departement":"Nord","region":"Hauts-de-France"}},{"type":"Feature","geometry":{"type":"Point","coordinates":[2.26978,51.02631]},"properties":{"latitude":"51.02631","longitude":"2.26978","bright_ti4":"300.48","scan":"0.48","track":"0.4","acq_date":"2026-06-19","acq_time":"141","satellite":"N20","instrument":"VIIRS","confidence":"n","version":"2.0NRT","bright_ti5":"289.32","frp":"0.65","daynight":"N","commune":"Grande-Synthe","code_insee":"59271","departement":"Nord","region":"Hauts-de-France"}},{"type":"Feature","geometry":{"type":"Point","coordinates":[2.27079,51.02995]},"properties":{"latitude":"51.02995","longitude":"2.27079","bright_ti4":"310.1","scan":"0.48","track":"0.4","acq_date":"2026-06-19","acq_time":"141","satellite":"N20","instrument":"VIIRS","confidence":"n","version":"2.0NRT","bright_ti5":"289.81","frp":"1.24","daynight":"N","commune":"Grande-Synthe","code_insee":"59271","departement":"Nord","region":"Hauts-de-France"}},{"type":"Feature","geometry":{"type":"Point","coordinates":[2.29132,51.03406]},"properties":{"latitude":"51.03406","longitude":"2.29132","bright_ti4":"327.32","scan":"0.48","track":"0.4","acq_date":"2026-06-19","acq_time":"141","satellite":"N20","instrument":"VIIRS","confidence":"n","version":"2.0NRT","bright_ti5":"291.26","frp":"3.96","daynight":"N","commune":"Grande-Synthe","code_insee":"59271","departement":"Nord","region":"Hauts-de-France"}},{"type":"Feature","geometry":{"type":"Point","coordinates":[2.25628,51.03409]},"properties":{"latitude":"51.03409","longitude":"2.25628","bright_ti4":"302.8","scan":"0.48","track":"0.4","acq_date":"2026-06-19","acq_time":"141","satellite":"N20","instrument":"VIIRS","confidence":"n","version":"2.0NRT","bright_ti5":"289.47","frp":"0.74","daynight":"N","commune":"Dunkerque","code_insee":"59183","departement":"Nord","region":"Hauts-de-France"}},{"type":"Feature","geometry":{"type":"Point","coordinates":[2.28454,51.0348]},"properties":{"latitude":"51.0348","longitude":"2.28454","bright_ti4":"328.95","scan":"0.48","track":"0.4","acq_date":"2026-06-19","acq_time":"141","satellite":"N20","instrument":"VIIRS","confidence":"n","version":"2.0NRT","bright_ti5":"289.96","frp":"3.96","daynight":"N","commune":"Grande-Synthe","code_insee":"59271","departement":"Nord","region":"Hauts-de-France"}},{"type":"Feature","geometry":{"type":"Point","coordinates":[2.2582,51.03512]},"properties":{"latitude":"51.03512","longitude":"2.2582","bright_ti4":"305.63","scan":"0.48","track":"0.4","acq_date":"2026-06-19","acq_time":"141","satellite":"N20","instrument":"VIIRS","confidence":"n","version":"2.0NRT","bright_ti5":"289.48","frp":"1.01","daynight":"N","commune":"Dunkerque","code_insee":"59183","departement":"Nord","region":"Hauts-de-France"}},{"type":"Feature","geometry":{"type":"Point","coordinates":[2.28641,51.03572]},"properties":{"latitude":"51.03572","longitude":"2.28641","bright_ti4":"334.87","scan":"0.48","track":"0.4","acq_date":"2026-06-19","acq_time":"141","satellite":"N20","instrument":"VIIRS","confidence":"n","version":"2.0NRT","bright_ti5":"292.06","frp":"4.02","daynight":"N","commune":"Grande-Synthe","code_insee":"59271","departement":"Nord","region":"Hauts-de-France"}},{"type":"Feature","geometry":{"type":"Point","coordinates":[2.27962,51.03648]},"properties":{"latitude":"51.03648","longitude":"2.27962","bright_ti4":"328.45","scan":"0.48","track":"0.4","acq_date":"2026-06-19","acq_time":"141","satellite":"N20","instrument":"VIIRS","confidence":"n","version":"2.0NRT","bright_ti5":"289.58","frp":"4.02","daynight":"N","commune":"Grande-Synthe","code_insee":"59271","departement":"Nord","region":"Hauts-de-France"}},{"type":"Feature","geometry":{"type":"Point","coordinates":[2.28555,51.03844]},"properties":{"latitude":"51.03844","longitude":"2.28555","bright_ti4":"344.93","scan":"0.48","track":"0.4","acq_date":"2026-06-19","acq_time":"141","satellite":"N20","instrument":"VIIRS","confidence":"n","version":"2.0NRT","bright_ti5":"290.66","frp":"2.88","daynight":"N","commune":"Grande-Synthe","code_insee":"59271","departement":"Nord","region":"Hauts-de-France"}},{"type":"Feature","geometry":{"type":"Point","coordinates":[2.28742,51.03936]},"properties":{"latitude":"51.03936","longitude":"2.28742","bright_ti4":"300.68","scan":"0.48","track":"0.4","acq_date":"2026-06-19","acq_time":"141","satellite":"N20","instrument":"VIIRS","confidence":"n","version":"2.0NRT","bright_ti5":"289.52","frp":"4.02","daynight":"N","commune":"Grande-Synthe","code_insee":"59271","departement":"Nord","region":"Hauts-de-France"}},{"type":"Feature","geometry":{"type":"Point","coordinates":[2.29337,51.04135]},"properties":{"latitude":"51.04135","longitude":"2.29337","bright_ti4":"303.04","scan":"0.48","track":"0.4","acq_date":"2026-06-19","acq_time":"141","satellite":"N20","instrument":"VIIRS","confidence":"n","version":"2.0NRT","bright_ti5":"290.74","frp":"2.88","daynight":"N","commune":"Grande-Synthe","code_insee":"59271","departement":"Nord","region":"Hauts-de-France"}},{"type":"Feature","geometry":{"type":"Point","coordinates":[2.30118,51.04425]},"properties":{"latitude":"51.04425","longitude":"2.30118","bright_ti4":"299.95","scan":"0.48","track":"0.4","acq_date":"2026-06-19","acq_time":"141","satellite":"N20","instrument":"VIIRS","confidence":"n","version":"2.0NRT","bright_ti5":"289.8","frp":"2.79","daynight":"N","commune":"Grande-Synthe","code_insee":"59271","departement":"Nord","region":"Hauts-de-France"}},{"type":"Feature","geometry":{"type":"Point","coordinates":[2.29439,51.04499]},"properties":{"latitude":"51.04499","longitude":"2.29439","bright_ti4":"329.32","scan":"0.48","track":"0.4","acq_date":"2026-06-19","acq_time":"141","satellite":"N20","instrument":"VIIRS","confidence":"n","version":"2.0NRT","bright_ti5":"290.85","frp":"4.16","daynight":"N","commune":"Grande-Synthe","code_insee":"59271","departement":"Nord","region":"Hauts-de-France"}},{"type":"Feature","geometry":{"type":"Point","coordinates":[2.32257,51.04568]},"properties":{"latitude":"51.04568","longitude":"2.32257","bright_ti4":"302.01","scan":"0.48","track":"0.4","acq_date":"2026-06-19","acq_time":"141","satellite":"N20","instrument":"VIIRS","confidence":"n","version":"2.0NRT","bright_ti5":"290.25","frp":"0.9","daynight":"N","commune":"Dunkerque","code_insee":"59183","departement":"Nord","region":"Hauts-de-France"}},{"type":"Feature","geometry":{"type":"Point","coordinates":[2.31578,51.04642]},"properties":{"latitude":"51.04642","longitude":"2.31578","bright_ti4":"305.56","scan":"0.48","track":"0.4","acq_date":"2026-06-19","acq_time":"141","satellite":"N20","instrument":"VIIRS","confidence":"n","version":"2.0NRT","bright_ti5":"289.81","frp":"0.9","daynight":"N","commune":"Dunkerque","code_insee":"59183","departement":"Nord","region":"Hauts-de-France"}},{"type":"Feature","geometry":{"type":"Point","coordinates":[2.32356,51.04932]},"properties":{"latitude":"51.04932","longitude":"2.32356","bright_ti4":"301.45","scan":"0.48","track":"0.4","acq_date":"2026-06-19","acq_time":"141","satellite":"N20","instrument":"VIIRS","confidence":"n","version":"2.0NRT","bright_ti5":"290.23","frp":"1.02","daynight":"N","commune":"Dunkerque","code_insee":"59183","departement":"Nord","region":"Hauts-de-France"}},{"type":"Feature","geometry":{"type":"Point","coordinates":[4.89202,43.42802]},"properties":{"latitude":"43.42802","longitude":"4.89202","bright_ti4":"305.04","scan":"0.38","track":"0.36","acq_date":"2026-06-19","acq_time":"143","satellite":"N20","instrument":"VIIRS","confidence":"n","version":"2.0NRT","bright_ti5":"290.59","frp":"0.87","daynight":"N","commune":"Fos-sur-Mer","code_insee":"13039","departement":"Bouches-du-Rhône","region":"Provence-Alpes-Côte d'Azur"}},{"type":"Feature","geometry":{"type":"Point","coordinates":[4.89867,43.4338]},"properties":{"latitude":"43.4338","longitude":"4.89867","bright_ti4":"303.18","scan":"0.38","track":"0.36","acq_date":"2026-06-19","acq_time":"143","satellite":"N20","instrument":"VIIRS","confidence":"n","version":"2.0NRT","bright_ti5":"287.94","frp":"1.7","daynight":"N","commune":"Fos-sur-Mer","code_insee":"13039","departement":"Bouches-du-Rhône","region":"Provence-Alpes-Côte d'Azur"}},{"type":"Feature","geometry":{"type":"Point","coordinates":[4.8903,43.43856]},"properties":{"latitude":"43.43856","longitude":"4.8903","bright_ti4":"302.22","scan":"0.38","track":"0.36","acq_date":"2026-06-19","acq_time":"143","satellite":"N20","instrument":"VIIRS","confidence":"n","version":"2.0NRT","bright_ti5":"287.52","frp":"0.78","daynight":"N","commune":"Fos-sur-Mer","code_insee":"13039","departement":"Bouches-du-Rhône","region":"Provence-Alpes-Côte d'Azur"}},{"type":"Feature","geometry":{"type":"Point","coordinates":[4.89128,43.44183]},"properties":{"latitude":"43.44183","longitude":"4.89128","bright_ti4":"303.52","scan":"0.38","track":"0.36","acq_date":"2026-06-19","acq_time":"143","satellite":"N20","instrument":"VIIRS","confidence":"n","version":"2.0NRT","bright_ti5":"287.17","frp":"0.78","daynight":"N","commune":"Fos-sur-Mer","code_insee":"13039","departement":"Bouches-du-Rhône","region":"Provence-Alpes-Côte d'Azur"}},{"type":"Feature","geometry":{"type":"Point","coordinates":[4.90164,43.44358]},"properties":{"latitude":"43.44358","longitude":"4.90164","bright_ti4":"309.46","scan":"0.38","track":"0.36","acq_date":"2026-06-19","acq_time":"143","satellite":"N20","instrument":"VIIRS","confidence":"n","version":"2.0NRT","bright_ti5":"283.38","frp":"0.79","daynight":"N","commune":"Fos-sur-Mer","code_insee":"13039","departement":"Bouches-du-Rhône","region":"Provence-Alpes-Côte d'Azur"}},{"type":"Feature","geometry":{"type":"Point","coordinates":[4.89695,43.44434]},"properties":{"latitude":"43.44434","longitude":"4.89695","bright_ti4":"300.74","scan":"0.38","track":"0.36","acq_date":"2026-06-19","acq_time":"143","satellite":"N20","instrument":"VIIRS","confidence":"n","version":"2.0NRT","bright_ti5":"285.85","frp":"0.79","daynight":"N","commune":"Fos-sur-Mer","code_insee":"13039","departement":"Bouches-du-Rhône","region":"Provence-Alpes-Côte d'Azur"}},{"type":"Feature","geometry":{"type":"Point","coordinates":[4.89794,43.4476]},"properties":{"latitude":"43.4476","longitude":"4.89794","bright_ti4":"302.38","scan":"0.38","track":"0.36","acq_date":"2026-06-19","acq_time":"143","satellite":"N20","instrument":"VIIRS","confidence":"n","version":"2.0NRT","bright_ti5":"284.47","frp":"0.79","daynight":"N","commune":"Fos-sur-Mer","code_insee":"13039","departement":"Bouches-du-Rhône","region":"Provence-Alpes-Côte d'Azur"}},{"type":"Feature","geometry":{"type":"Point","coordinates":[7.37405,43.79291]},"properties":{"latitude":"43.79291","longitude":"7.37405","bright_ti4":"306.94","scan":"0.41","track":"0.37","acq_date":"2026-06-19","acq_time":"143","satellite":"N20","instrument":"VIIRS","confidence":"n","version":"2.0NRT","bright_ti5":"292.17","frp":"0.98","daynight":"N","commune":"Blausasc","code_insee":"06019","departement":"Alpes-Maritimes","region":"Provence-Alpes-Côte d'Azur"}},{"type":"Feature","geometry":{"type":"Point","coordinates":[4.74464,43.80045]},"properties":{"latitude":"43.80045","longitude":"4.74464","bright_ti4":"300.37","scan":"0.38","track":"0.36","acq_date":"2026-06-19","acq_time":"143","satellite":"N20","instrument":"VIIRS","confidence":"n","version":"2.0NRT","bright_ti5":"285.72","frp":"0.31","daynight":"N","commune":"Saint-Étienne-du-Grès","code_insee":"13094","departement":"Bouches-du-Rhône","region":"Provence-Alpes-Côte d'Azur"}},{"type":"Feature","geometry":{"type":"Point","coordinates":[4.62198,43.80267]},"properties":{"latitude":"43.80267","longitude":"4.62198","bright_ti4":"300.05","scan":"0.38","track":"0.36","acq_date":"2026-06-19","acq_time":"143","satellite":"N20","instrument":"VIIRS","confidence":"n","version":"2.0NRT","bright_ti5":"289.65","frp":"0.43","daynight":"N","commune":"Beaucaire","code_insee":"30032","departement":"Gard","region":"Occitanie"}},{"type":"Feature","geometry":{"type":"Point","coordinates":[1.76202,48.98053]},"properties":{"latitude":"48.98053","longitude":"1.76202","bright_ti4":"298.28","scan":"0.63","track":"0.72","acq_date":"2026-06-19","acq_time":"321","satellite":"N20","instrument":"VIIRS","confidence":"n","version":"2.0NRT","bright_ti5":"287.18","frp":"1.04","daynight":"N","commune":"Porcheville","code_insee":"78501","departement":"Yvelines","region":"Île-de-France"}},{"type":"Feature","geometry":{"type":"Point","coordinates":[0.53624,49.47795]},"properties":{"latitude":"49.47795","longitude":"0.53624","bright_ti4":"298.55","scan":"0.54","track":"0.68","acq_date":"2026-06-19","acq_time":"321","satellite":"N20","instrument":"VIIRS","confidence":"n","version":"2.0NRT","bright_ti5":"287.78","frp":"0.8","daynight":"N","commune":"Port-Jérôme-sur-Seine","code_insee":"76476","departement":"Seine-Maritime","region":"Normandie"}},{"type":"Feature","geometry":{"type":"Point","coordinates":[2.27302,51.0267]},"properties":{"latitude":"51.0267","longitude":"2.27302","bright_ti4":"300.34","scan":"0.56","track":"0.69","acq_date":"2026-06-19","acq_time":"321","satellite":"N20","instrument":"VIIRS","confidence":"n","version":"2.0NRT","bright_ti5":"284.42","frp":"0.94","daynight":"N","commune":"Grande-Synthe","code_insee":"59271","departement":"Nord","region":"Hauts-de-France"}},{"type":"Feature","geometry":{"type":"Point","coordinates":[2.29001,51.03522]},"properties":{"latitude":"51.03522","longitude":"2.29001","bright_ti4":"327.57","scan":"0.56","track":"0.69","acq_date":"2026-06-19","acq_time":"321","satellite":"N20","instrument":"VIIRS","confidence":"n","version":"2.0NRT","bright_ti5":"279.63","frp":"3.29","daynight":"N","commune":"Grande-Synthe","code_insee":"59271","departement":"Nord","region":"Hauts-de-France"}},{"type":"Feature","geometry":{"type":"Point","coordinates":[2.29701,51.04473]},"properties":{"latitude":"51.04473","longitude":"2.29701","bright_ti4":"332.37","scan":"0.56","track":"0.69","acq_date":"2026-06-19","acq_time":"321","satellite":"N20","instrument":"VIIRS","confidence":"n","version":"2.0NRT","bright_ti5":"285.18","frp":"3.55","daynight":"N","commune":"Grande-Synthe","code_insee":"59271","departement":"Nord","region":"Hauts-de-France"}},{"type":"Feature","geometry":{"type":"Point","coordinates":[2.31589,51.04519]},"properties":{"latitude":"51.04519","longitude":"2.31589","bright_ti4":"306.64","scan":"0.56","track":"0.69","acq_date":"2026-06-19","acq_time":"321","satellite":"N20","instrument":"VIIRS","confidence":"n","version":"2.0NRT","bright_ti5":"284.37","frp":"2.66","daynight":"N","commune":"Dunkerque","code_insee":"59183","departement":"Nord","region":"Hauts-de-France"}},{"type":"Feature","geometry":{"type":"Point","coordinates":[2.30008,51.04623]},"properties":{"latitude":"51.04623","longitude":"2.30008","bright_ti4":"330.61","scan":"0.56","track":"0.69","acq_date":"2026-06-19","acq_time":"321","satellite":"N20","instrument":"VIIRS","confidence":"n","version":"2.0NRT","bright_ti5":"284.73","frp":"4.46","daynight":"N","commune":"Grande-Synthe","code_insee":"59271","departement":"Nord","region":"Hauts-de-France"}},{"type":"Feature","geometry":{"type":"Point","coordinates":[2.31905,51.04673]},"properties":{"latitude":"51.04673","longitude":"2.31905","bright_ti4":"305.06","scan":"0.56","track":"0.69","acq_date":"2026-06-19","acq_time":"321","satellite":"N20","instrument":"VIIRS","confidence":"n","version":"2.0NRT","bright_ti5":"284.92","frp":"3.07","daynight":"N","commune":"Dunkerque","code_insee":"59183","departement":"Nord","region":"Hauts-de-France"}},{"type":"Feature","geometry":{"type":"Point","coordinates":[1.70992,44.77186]},"properties":{"latitude":"44.77186","longitude":"1.70992","bright_ti4":"330.1","scan":"0.74","track":"0.76","acq_date":"2026-06-19","acq_time":"1128","satellite":"N20","instrument":"VIIRS","confidence":"n","version":"2.0NRT","bright_ti5":"296.72","frp":"4.52","daynight":"D","commune":"Gramat","code_insee":"46128","departement":"Lot","region":"Occitanie"}},{"type":"Feature","geometry":{"type":"Point","coordinates":[6.11385,48.60886]},"properties":{"latitude":"48.60886","longitude":"6.11385","bright_ti4":"330.52","scan":"0.36","track":"0.57","acq_date":"2026-06-19","acq_time":"1128","satellite":"N20","instrument":"VIIRS","confidence":"n","version":"2.0NRT","bright_ti5":"295.35","frp":"2.96","daynight":"D","commune":"Neuves-Maisons","code_insee":"54397","departement":"Meurthe-et-Moselle","region":"Grand Est"}},{"type":"Feature","geometry":{"type":"Point","coordinates":[2.28516,51.03637]},"properties":{"latitude":"51.03637","longitude":"2.28516","bright_ti4":"328.43","scan":"0.42","track":"0.61","acq_date":"2026-06-19","acq_time":"1130","satellite":"N20","instrument":"VIIRS","confidence":"n","version":"2.0NRT","bright_ti5":"296.36","frp":"7.11","daynight":"D","commune":"Grande-Synthe","code_insee":"59271","departement":"Nord","region":"Hauts-de-France"}},{"type":"Feature","geometry":{"type":"Point","coordinates":[2.29726,51.04666]},"properties":{"latitude":"51.04666","longitude":"2.29726","bright_ti4":"334.81","scan":"0.42","track":"0.61","acq_date":"2026-06-19","acq_time":"1130","satellite":"N20","instrument":"VIIRS","confidence":"n","version":"2.0NRT","bright_ti5":"292.77","frp":"1.27","daynight":"D","commune":"Grande-Synthe","code_insee":"59271","departement":"Nord","region":"Hauts-de-France"}},{"type":"Feature","geometry":{"type":"Point","coordinates":[-0.28816,43.23721]},"properties":{"latitude":"43.23721","longitude":"-0.28816","bright_ti4":"340.84","scan":"0.42","track":"0.38","acq_date":"2026-06-19","acq_time":"1308","satellite":"N20","instrument":"VIIRS","confidence":"n","version":"2.0NRT","bright_ti5":"312.72","frp":"4.05","daynight":"D","commune":"Bordes","code_insee":"64138","departement":"Pyrénées-Atlantiques","region":"Nouvelle-Aquitaine"}},{"type":"Feature","geometry":{"type":"Point","coordinates":[4.87979,43.44346]},"properties":{"latitude":"43.44346","longitude":"4.87979","bright_ti4":"342.45","scan":"0.45","track":"0.47","acq_date":"2026-06-19","acq_time":"1308","satellite":"N20","instrument":"VIIRS","confidence":"n","version":"2.0NRT","bright_ti5":"307.69","frp":"13.45","daynight":"D","commune":"Fos-sur-Mer","code_insee":"13039","departement":"Bouches-du-Rhône","region":"Provence-Alpes-Côte d'Azur"}},{"type":"Feature","geometry":{"type":"Point","coordinates":[3.17802,45.30426]},"properties":{"latitude":"45.30426","longitude":"3.17802","bright_ti4":"339.4","scan":"0.39","track":"0.44","acq_date":"2026-06-19","acq_time":"1308","satellite":"N20","instrument":"VIIRS","confidence":"n","version":"2.0NRT","bright_ti5":"306.83","frp":"4.39","daynight":"D","commune":"Blesle","code_insee":"43033","departement":"Haute-Loire","region":"Auvergne-Rhône-Alpes"}},{"type":"Feature","geometry":{"type":"Point","coordinates":[3.17574,45.30457]},"properties":{"latitude":"45.30457","longitude":"3.17574","bright_ti4":"336.2","scan":"0.39","track":"0.44","acq_date":"2026-06-19","acq_time":"1308","satellite":"N20","instrument":"VIIRS","confidence":"n","version":"2.0NRT","bright_ti5":"304.36","frp":"2.43","daynight":"D","commune":"Blesle","code_insee":"43033","departement":"Haute-Loire","region":"Auvergne-Rhône-Alpes"}},{"type":"Feature","geometry":{"type":"Point","coordinates":[-0.95537,46.14778]},"properties":{"latitude":"46.14778","longitude":"-0.95537","bright_ti4":"345.24","scan":"0.42","track":"0.38","acq_date":"2026-06-19","acq_time":"1308","satellite":"N20","instrument":"VIIRS","confidence":"n","version":"2.0NRT","bright_ti5":"306.46","frp":"4.94","daynight":"D","commune":"Saint-Médard-d'Aunis","code_insee":"17373","departement":"Charente-Maritime","region":"Nouvelle-Aquitaine"}},{"type":"Feature","geometry":{"type":"Point","coordinates":[3.51309,46.19445]},"properties":{"latitude":"46.19445","longitude":"3.51309","bright_ti4":"331.98","scan":"0.41","track":"0.45","acq_date":"2026-06-19","acq_time":"1308","satellite":"N20","instrument":"VIIRS","confidence":"l","version":"2.0NRT","bright_ti5":"306.44","frp":"1.21","daynight":"D","commune":"Bost","code_insee":"03033","departement":"Allier","region":"Auvergne-Rhône-Alpes"}},{"type":"Feature","geometry":{"type":"Point","coordinates":[2.81421,46.275]},"properties":{"latitude":"46.275","longitude":"2.81421","bright_ti4":"336.01","scan":"0.39","track":"0.44","acq_date":"2026-06-19","acq_time":"1308","satellite":"N20","instrument":"VIIRS","confidence":"n","version":"2.0NRT","bright_ti5":"308.72","frp":"3.33","daynight":"D","commune":"Hyds","code_insee":"03129","departement":"Allier","region":"Auvergne-Rhône-Alpes"}},{"type":"Feature","geometry":{"type":"Point","coordinates":[3.45949,46.62682]},"properties":{"latitude":"46.62682","longitude":"3.45949","bright_ti4":"340.17","scan":"0.42","track":"0.45","acq_date":"2026-06-19","acq_time":"1308","satellite":"N20","instrument":"VIIRS","confidence":"n","version":"2.0NRT","bright_ti5":"313.56","frp":"16.81","daynight":"D","commune":"Chézy","code_insee":"03076","departement":"Allier","region":"Auvergne-Rhône-Alpes"}},{"type":"Feature","geometry":{"type":"Point","coordinates":[3.4533,46.63052]},"properties":{"latitude":"46.63052","longitude":"3.4533","bright_ti4":"343.32","scan":"0.42","track":"0.45","acq_date":"2026-06-19","acq_time":"1308","satellite":"N20","instrument":"VIIRS","confidence":"n","version":"2.0NRT","bright_ti5":"316.23","frp":"11.49","daynight":"D","commune":"Gennetines","code_insee":"03121","departement":"Allier","region":"Auvergne-Rhône-Alpes"}},{"type":"Feature","geometry":{"type":"Point","coordinates":[3.45877,46.63097]},"properties":{"latitude":"46.63097","longitude":"3.45877","bright_ti4":"354.44","scan":"0.42","track":"0.45","acq_date":"2026-06-19","acq_time":"1308","satellite":"N20","instrument":"VIIRS","confidence":"n","version":"2.0NRT","bright_ti5":"326.9","frp":"16.81","daynight":"D","commune":"Gennetines","code_insee":"03121","departement":"Allier","region":"Auvergne-Rhône-Alpes"}},{"type":"Feature","geometry":{"type":"Point","coordinates":[3.46427,46.63143]},"properties":{"latitude":"46.63143","longitude":"3.46427","bright_ti4":"354.98","scan":"0.42","track":"0.45","acq_date":"2026-06-19","acq_time":"1308","satellite":"N20","instrument":"VIIRS","confidence":"n","version":"2.0NRT","bright_ti5":"316.31","frp":"16.81","daynight":"D","commune":"Chézy","code_insee":"03076","departement":"Allier","region":"Auvergne-Rhône-Alpes"}},{"type":"Feature","geometry":{"type":"Point","coordinates":[3.45257,46.63467]},"properties":{"latitude":"46.63467","longitude":"3.45257","bright_ti4":"339","scan":"0.42","track":"0.45","acq_date":"2026-06-19","acq_time":"1308","satellite":"N20","instrument":"VIIRS","confidence":"n","version":"2.0NRT","bright_ti5":"311.29","frp":"2.76","daynight":"D","commune":"Gennetines","code_insee":"03121","departement":"Allier","region":"Auvergne-Rhône-Alpes"}},{"type":"Feature","geometry":{"type":"Point","coordinates":[3.45807,46.63513]},"properties":{"latitude":"46.63513","longitude":"3.45807","bright_ti4":"350.22","scan":"0.42","track":"0.45","acq_date":"2026-06-19","acq_time":"1308","satellite":"N20","instrument":"VIIRS","confidence":"n","version":"2.0NRT","bright_ti5":"308.49","frp":"6.28","daynight":"D","commune":"Gennetines","code_insee":"03121","departement":"Allier","region":"Auvergne-Rhône-Alpes"}},{"type":"Feature","geometry":{"type":"Point","coordinates":[5.30859,47.16595]},"properties":{"latitude":"47.16595","longitude":"5.30859","bright_ti4":"356.55","scan":"0.51","track":"0.49","acq_date":"2026-06-19","acq_time":"1308","satellite":"N20","instrument":"VIIRS","confidence":"n","version":"2.0NRT","bright_ti5":"316.29","frp":"23.7","daynight":"D","commune":"Les Maillys","code_insee":"21371","departement":"Côte-d'Or","region":"Bourgogne-Franche-Comté"}},{"type":"Feature","geometry":{"type":"Point","coordinates":[5.30758,47.17049]},"properties":{"latitude":"47.17049","longitude":"5.30758","bright_ti4":"332.83","scan":"0.51","track":"0.49","acq_date":"2026-06-19","acq_time":"1308","satellite":"N20","instrument":"VIIRS","confidence":"n","version":"2.0NRT","bright_ti5":"303.07","frp":"2.64","daynight":"D","commune":"Les Maillys","code_insee":"21371","departement":"Côte-d'Or","region":"Bourgogne-Franche-Comté"}},{"type":"Feature","geometry":{"type":"Point","coordinates":[5.30794,47.17052]},"properties":{"latitude":"47.17052","longitude":"5.30794","bright_ti4":"331.85","scan":"0.51","track":"0.49","acq_date":"2026-06-19","acq_time":"1308","satellite":"N20","instrument":"VIIRS","confidence":"l","version":"2.0NRT","bright_ti5":"303.33","frp":"23.7","daynight":"D","commune":"Les Maillys","code_insee":"21371","departement":"Côte-d'Or","region":"Bourgogne-Franche-Comté"}},{"type":"Feature","geometry":{"type":"Point","coordinates":[2.88658,47.89261]},"properties":{"latitude":"47.89261","longitude":"2.88658","bright_ti4":"341.52","scan":"0.41","track":"0.45","acq_date":"2026-06-19","acq_time":"1310","satellite":"N20","instrument":"VIIRS","confidence":"n","version":"2.0NRT","bright_ti5":"308.87","frp":"5.94","daynight":"D","commune":"La Chapelle-sur-Aveyron","code_insee":"45077","departement":"Loiret","region":"Centre-Val de Loire"}},{"type":"Feature","geometry":{"type":"Point","coordinates":[2.96485,48.06041]},"properties":{"latitude":"48.06041","longitude":"2.96485","bright_ti4":"341.73","scan":"0.41","track":"0.45","acq_date":"2026-06-19","acq_time":"1310","satellite":"N20","instrument":"VIIRS","confidence":"n","version":"2.0NRT","bright_ti5":"309.4","frp":"6.42","daynight":"D","commune":"Chantecoq","code_insee":"45073","departement":"Loiret","region":"Centre-Val de Loire"}},{"type":"Feature","geometry":{"type":"Point","coordinates":[2.2844,51.03539]},"properties":{"latitude":"51.03539","longitude":"2.2844","bright_ti4":"337.84","scan":"0.41","track":"0.45","acq_date":"2026-06-19","acq_time":"1310","satellite":"N20","instrument":"VIIRS","confidence":"n","version":"2.0NRT","bright_ti5":"302.13","frp":"5.23","daynight":"D","commune":"Grande-Synthe","code_insee":"59271","departement":"Nord","region":"Hauts-de-France"}},{"type":"Feature","geometry":{"type":"Point","coordinates":[2.2947,51.04464]},"properties":{"latitude":"51.04464","longitude":"2.2947","bright_ti4":"340.22","scan":"0.42","track":"0.45","acq_date":"2026-06-19","acq_time":"1310","satellite":"N20","instrument":"VIIRS","confidence":"n","version":"2.0NRT","bright_ti5":"299.09","frp":"5.16","daynight":"D","commune":"Grande-Synthe","code_insee":"59271","departement":"Nord","region":"Hauts-de-France"}},{"type":"Feature","geometry":{"type":"Point","coordinates":[5.68146,48.71558]},"properties":{"latitude":"48.71558","longitude":"5.68146","bright_ti4":"300.23","scan":"0.38","track":"0.58","acq_date":"2026-06-19","acq_time":"48","satellite":"N21","instrument":"VIIRS","confidence":"n","version":"2.0NRT","bright_ti5":"286.41","frp":"0.81","daynight":"N","commune":"Sorcy-Saint-Martin","code_insee":"55496","departement":"Meuse","region":"Grand Est"}},{"type":"Feature","geometry":{"type":"Point","coordinates":[0.53393,49.47711]},"properties":{"latitude":"49.47711","longitude":"0.53393","bright_ti4":"301.81","scan":"0.66","track":"0.73","acq_date":"2026-06-19","acq_time":"48","satellite":"N21","instrument":"VIIRS","confidence":"n","version":"2.0NRT","bright_ti5":"287.47","frp":"2.97","daynight":"N","commune":"Lillebonne","code_insee":"76384","departement":"Seine-Maritime","region":"Normandie"}},{"type":"Feature","geometry":{"type":"Point","coordinates":[2.26893,51.02695]},"properties":{"latitude":"51.02695","longitude":"2.26893","bright_ti4":"315.17","scan":"0.55","track":"0.68","acq_date":"2026-06-19","acq_time":"48","satellite":"N21","instrument":"VIIRS","confidence":"n","version":"2.0NRT","bright_ti5":"287.23","frp":"2.84","daynight":"N","commune":"Grande-Synthe","code_insee":"59271","departement":"Nord","region":"Hauts-de-France"}},{"type":"Feature","geometry":{"type":"Point","coordinates":[2.25296,51.03325]},"properties":{"latitude":"51.03325","longitude":"2.25296","bright_ti4":"300.6","scan":"0.55","track":"0.68","acq_date":"2026-06-19","acq_time":"48","satellite":"N21","instrument":"VIIRS","confidence":"n","version":"2.0NRT","bright_ti5":"286.64","frp":"1.4","daynight":"N","commune":"Dunkerque","code_insee":"59183","departement":"Nord","region":"Hauts-de-France"}},{"type":"Feature","geometry":{"type":"Point","coordinates":[2.27682,51.03325]},"properties":{"latitude":"51.03325","longitude":"2.27682","bright_ti4":"300.06","scan":"0.55","track":"0.68","acq_date":"2026-06-19","acq_time":"48","satellite":"N21","instrument":"VIIRS","confidence":"n","version":"2.0NRT","bright_ti5":"286.67","frp":"2.71","daynight":"N","commune":"Grande-Synthe","code_insee":"59271","departement":"Nord","region":"Hauts-de-France"}},{"type":"Feature","geometry":{"type":"Point","coordinates":[2.28478,51.03325]},"properties":{"latitude":"51.03325","longitude":"2.28478","bright_ti4":"331.48","scan":"0.55","track":"0.68","acq_date":"2026-06-19","acq_time":"48","satellite":"N21","instrument":"VIIRS","confidence":"n","version":"2.0NRT","bright_ti5":"287.55","frp":"2.71","daynight":"N","commune":"Grande-Synthe","code_insee":"59271","departement":"Nord","region":"Hauts-de-France"}},{"type":"Feature","geometry":{"type":"Point","coordinates":[2.25433,51.03611]},"properties":{"latitude":"51.03611","longitude":"2.25433","bright_ti4":"298.14","scan":"0.55","track":"0.68","acq_date":"2026-06-19","acq_time":"48","satellite":"N21","instrument":"VIIRS","confidence":"n","version":"2.0NRT","bright_ti5":"286.71","frp":"1.6","daynight":"N","commune":"Dunkerque","code_insee":"59183","departement":"Nord","region":"Hauts-de-France"}},{"type":"Feature","geometry":{"type":"Point","coordinates":[2.27822,51.03622]},"properties":{"latitude":"51.03622","longitude":"2.27822","bright_ti4":"323.97","scan":"0.55","track":"0.68","acq_date":"2026-06-19","acq_time":"48","satellite":"N21","instrument":"VIIRS","confidence":"n","version":"2.0NRT","bright_ti5":"287.53","frp":"7","daynight":"N","commune":"Grande-Synthe","code_insee":"59271","departement":"Nord","region":"Hauts-de-France"}},{"type":"Feature","geometry":{"type":"Point","coordinates":[2.28619,51.03625]},"properties":{"latitude":"51.03625","longitude":"2.28619","bright_ti4":"336.32","scan":"0.55","track":"0.68","acq_date":"2026-06-19","acq_time":"48","satellite":"N21","instrument":"VIIRS","confidence":"n","version":"2.0NRT","bright_ti5":"287.95","frp":"6.27","daynight":"N","commune":"Grande-Synthe","code_insee":"59271","departement":"Nord","region":"Hauts-de-France"}},{"type":"Feature","geometry":{"type":"Point","coordinates":[2.27669,51.03956]},"properties":{"latitude":"51.03956","longitude":"2.27669","bright_ti4":"305.28","scan":"0.55","track":"0.68","acq_date":"2026-06-19","acq_time":"48","satellite":"N21","instrument":"VIIRS","confidence":"n","version":"2.0NRT","bright_ti5":"286.68","frp":"2.71","daynight":"N","commune":"Grande-Synthe","code_insee":"59271","departement":"Nord","region":"Hauts-de-France"}},{"type":"Feature","geometry":{"type":"Point","coordinates":[2.28465,51.03956]},"properties":{"latitude":"51.03956","longitude":"2.28465","bright_ti4":"302.3","scan":"0.55","track":"0.68","acq_date":"2026-06-19","acq_time":"48","satellite":"N21","instrument":"VIIRS","confidence":"n","version":"2.0NRT","bright_ti5":"286.72","frp":"2.71","daynight":"N","commune":"Grande-Synthe","code_insee":"59271","departement":"Nord","region":"Hauts-de-France"}},{"type":"Feature","geometry":{"type":"Point","coordinates":[2.29408,51.04259]},"properties":{"latitude":"51.04259","longitude":"2.29408","bright_ti4":"310.09","scan":"0.55","track":"0.68","acq_date":"2026-06-19","acq_time":"48","satellite":"N21","instrument":"VIIRS","confidence":"n","version":"2.0NRT","bright_ti5":"287.68","frp":"6.27","daynight":"N","commune":"Grande-Synthe","code_insee":"59271","departement":"Nord","region":"Hauts-de-France"}},{"type":"Feature","geometry":{"type":"Point","coordinates":[2.302,51.04262]},"properties":{"latitude":"51.04262","longitude":"2.302","bright_ti4":"302.66","scan":"0.55","track":"0.68","acq_date":"2026-06-19","acq_time":"48","satellite":"N21","instrument":"VIIRS","confidence":"n","version":"2.0NRT","bright_ti5":"287.13","frp":"3.23","daynight":"N","commune":"Grande-Synthe","code_insee":"59271","departement":"Nord","region":"Hauts-de-France"}},{"type":"Feature","geometry":{"type":"Point","coordinates":[2.31777,51.04898]},"properties":{"latitude":"51.04898","longitude":"2.31777","bright_ti4":"299.16","scan":"0.55","track":"0.68","acq_date":"2026-06-19","acq_time":"48","satellite":"N21","instrument":"VIIRS","confidence":"n","version":"2.0NRT","bright_ti5":"287.68","frp":"2.01","daynight":"N","commune":"Dunkerque","code_insee":"59183","departement":"Nord","region":"Hauts-de-France"}},{"type":"Feature","geometry":{"type":"Point","coordinates":[4.89123,43.42817]},"properties":{"latitude":"43.42817","longitude":"4.89123","bright_ti4":"306.31","scan":"0.38","track":"0.58","acq_date":"2026-06-19","acq_time":"50","satellite":"N21","instrument":"VIIRS","confidence":"n","version":"2.0NRT","bright_ti5":"292.53","frp":"3.52","daynight":"N","commune":"Fos-sur-Mer","code_insee":"13039","departement":"Bouches-du-Rhône","region":"Provence-Alpes-Côte d'Azur"}},{"type":"Feature","geometry":{"type":"Point","coordinates":[4.89634,43.43334]},"properties":{"latitude":"43.43334","longitude":"4.89634","bright_ti4":"309.49","scan":"0.38","track":"0.58","acq_date":"2026-06-19","acq_time":"50","satellite":"N21","instrument":"VIIRS","confidence":"n","version":"2.0NRT","bright_ti5":"291.91","frp":"1.86","daynight":"N","commune":"Fos-sur-Mer","code_insee":"13039","departement":"Bouches-du-Rhône","region":"Provence-Alpes-Côte d'Azur"}},{"type":"Feature","geometry":{"type":"Point","coordinates":[4.89213,43.43894]},"properties":{"latitude":"43.43894","longitude":"4.89213","bright_ti4":"308.91","scan":"0.38","track":"0.58","acq_date":"2026-06-19","acq_time":"50","satellite":"N21","instrument":"VIIRS","confidence":"n","version":"2.0NRT","bright_ti5":"293.09","frp":"1.43","daynight":"N","commune":"Fos-sur-Mer","code_insee":"13039","departement":"Bouches-du-Rhône","region":"Provence-Alpes-Côte d'Azur"}},{"type":"Feature","geometry":{"type":"Point","coordinates":[4.88743,43.43915]},"properties":{"latitude":"43.43915","longitude":"4.88743","bright_ti4":"304.67","scan":"0.38","track":"0.58","acq_date":"2026-06-19","acq_time":"50","satellite":"N21","instrument":"VIIRS","confidence":"n","version":"2.0NRT","bright_ti5":"291.36","frp":"1.43","daynight":"N","commune":"Fos-sur-Mer","code_insee":"13039","departement":"Bouches-du-Rhône","region":"Provence-Alpes-Côte d'Azur"}},{"type":"Feature","geometry":{"type":"Point","coordinates":[4.89723,43.4441]},"properties":{"latitude":"43.4441","longitude":"4.89723","bright_ti4":"313.68","scan":"0.38","track":"0.58","acq_date":"2026-06-19","acq_time":"50","satellite":"N21","instrument":"VIIRS","confidence":"n","version":"2.0NRT","bright_ti5":"292.36","frp":"2.33","daynight":"N","commune":"Fos-sur-Mer","code_insee":"13039","departement":"Bouches-du-Rhône","region":"Provence-Alpes-Côte d'Azur"}},{"type":"Feature","geometry":{"type":"Point","coordinates":[4.65924,43.80439]},"properties":{"latitude":"43.80439","longitude":"4.65924","bright_ti4":"303.48","scan":"0.39","track":"0.59","acq_date":"2026-06-19","acq_time":"50","satellite":"N21","instrument":"VIIRS","confidence":"n","version":"2.0NRT","bright_ti5":"290.16","frp":"1.2","daynight":"N","commune":"Tarascon","code_insee":"13108","departement":"Bouches-du-Rhône","region":"Provence-Alpes-Côte d'Azur"}},{"type":"Feature","geometry":{"type":"Point","coordinates":[7.52583,47.80798]},"properties":{"latitude":"47.80798","longitude":"7.52583","bright_ti4":"301.79","scan":"0.36","track":"0.57","acq_date":"2026-06-19","acq_time":"228","satellite":"N21","instrument":"VIIRS","confidence":"n","version":"2.0NRT","bright_ti5":"290.21","frp":"0.31","daynight":"N","commune":"Bantzenheim","code_insee":"68020","departement":"Haut-Rhin","region":"Grand Est"}},{"type":"Feature","geometry":{"type":"Point","coordinates":[6.11714,48.61036]},"properties":{"latitude":"48.61036","longitude":"6.11714","bright_ti4":"300.1","scan":"0.59","track":"0.53","acq_date":"2026-06-19","acq_time":"228","satellite":"N21","instrument":"VIIRS","confidence":"n","version":"2.0NRT","bright_ti5":"286.62","frp":"1.14","daynight":"N","commune":"Neuves-Maisons","code_insee":"54397","departement":"Meurthe-et-Moselle","region":"Grand Est"}},{"type":"Feature","geometry":{"type":"Point","coordinates":[6.96545,48.69072]},"properties":{"latitude":"48.69072","longitude":"6.96545","bright_ti4":"302.68","scan":"0.32","track":"0.54","acq_date":"2026-06-19","acq_time":"228","satellite":"N21","instrument":"VIIRS","confidence":"n","version":"2.0NRT","bright_ti5":"290.45","frp":"0.87","daynight":"N","commune":"Héming","code_insee":"57314","departement":"Moselle","region":"Grand Est"}},{"type":"Feature","geometry":{"type":"Point","coordinates":[2.7363,48.95024]},"properties":{"latitude":"48.95024","longitude":"2.7363","bright_ti4":"302.35","scan":"0.42","track":"0.45","acq_date":"2026-06-19","acq_time":"228","satellite":"N21","instrument":"VIIRS","confidence":"n","version":"2.0NRT","bright_ti5":"289.21","frp":"0.95","daynight":"N","commune":"Fresnes-sur-Marne","code_insee":"77196","departement":"Seine-et-Marne","region":"Île-de-France"}},{"type":"Feature","geometry":{"type":"Point","coordinates":[1.76007,48.98442]},"properties":{"latitude":"48.98442","longitude":"1.76007","bright_ti4":"327.08","scan":"0.57","track":"0.43","acq_date":"2026-06-19","acq_time":"228","satellite":"N21","instrument":"VIIRS","confidence":"n","version":"2.0NRT","bright_ti5":"292.48","frp":"5.07","daynight":"N","commune":"Porcheville","code_insee":"78501","departement":"Yvelines","region":"Île-de-France"}},{"type":"Feature","geometry":{"type":"Point","coordinates":[0.53774,49.47707]},"properties":{"latitude":"49.47707","longitude":"0.53774","bright_ti4":"311.96","scan":"0.5","track":"0.41","acq_date":"2026-06-19","acq_time":"228","satellite":"N21","instrument":"VIIRS","confidence":"n","version":"2.0NRT","bright_ti5":"290.87","frp":"1.6","daynight":"N","commune":"Port-Jérôme-sur-Seine","code_insee":"76476","departement":"Seine-Maritime","region":"Normandie"}},{"type":"Feature","geometry":{"type":"Point","coordinates":[3.4936,50.33606]},"properties":{"latitude":"50.33606","longitude":"3.4936","bright_ti4":"303.89","scan":"0.41","track":"0.45","acq_date":"2026-06-19","acq_time":"228","satellite":"N21","instrument":"VIIRS","confidence":"n","version":"2.0NRT","bright_ti5":"290.08","frp":"1.43","daynight":"N","commune":"Trith-Saint-Léger","code_insee":"59603","departement":"Nord","region":"Hauts-de-France"}},{"type":"Feature","geometry":{"type":"Point","coordinates":[2.26775,51.02756]},"properties":{"latitude":"51.02756","longitude":"2.26775","bright_ti4":"315.17","scan":"0.54","track":"0.42","acq_date":"2026-06-19","acq_time":"228","satellite":"N21","instrument":"VIIRS","confidence":"n","version":"2.0NRT","bright_ti5":"290.13","frp":"1.56","daynight":"N","commune":"Grande-Synthe","code_insee":"59271","departement":"Nord","region":"Hauts-de-France"}},{"type":"Feature","geometry":{"type":"Point","coordinates":[2.28847,51.03531]},"properties":{"latitude":"51.03531","longitude":"2.28847","bright_ti4":"339.59","scan":"0.54","track":"0.42","acq_date":"2026-06-19","acq_time":"228","satellite":"N21","instrument":"VIIRS","confidence":"n","version":"2.0NRT","bright_ti5":"291.78","frp":"7.62","daynight":"N","commune":"Grande-Synthe","code_insee":"59271","departement":"Nord","region":"Hauts-de-France"}},{"type":"Feature","geometry":{"type":"Point","coordinates":[2.28122,51.03692]},"properties":{"latitude":"51.03692","longitude":"2.28122","bright_ti4":"327.71","scan":"0.54","track":"0.42","acq_date":"2026-06-19","acq_time":"228","satellite":"N21","instrument":"VIIRS","confidence":"n","version":"2.0NRT","bright_ti5":"290.28","frp":"7.62","daynight":"N","commune":"Grande-Synthe","code_insee":"59271","departement":"Nord","region":"Hauts-de-France"}},{"type":"Feature","geometry":{"type":"Point","coordinates":[2.29262,51.04263]},"properties":{"latitude":"51.04263","longitude":"2.29262","bright_ti4":"303.57","scan":"0.54","track":"0.42","acq_date":"2026-06-19","acq_time":"228","satellite":"N21","instrument":"VIIRS","confidence":"n","version":"2.0NRT","bright_ti5":"290.45","frp":"4.93","daynight":"N","commune":"Grande-Synthe","code_insee":"59271","departement":"Nord","region":"Hauts-de-France"}},{"type":"Feature","geometry":{"type":"Point","coordinates":[2.30196,51.04467]},"properties":{"latitude":"51.04467","longitude":"2.30196","bright_ti4":"299.96","scan":"0.54","track":"0.42","acq_date":"2026-06-19","acq_time":"228","satellite":"N21","instrument":"VIIRS","confidence":"n","version":"2.0NRT","bright_ti5":"289.13","frp":"3.54","daynight":"N","commune":"Grande-Synthe","code_insee":"59271","departement":"Nord","region":"Hauts-de-France"}},{"type":"Feature","geometry":{"type":"Point","coordinates":[2.31857,51.04509]},"properties":{"latitude":"51.04509","longitude":"2.31857","bright_ti4":"310.91","scan":"0.54","track":"0.42","acq_date":"2026-06-19","acq_time":"228","satellite":"N21","instrument":"VIIRS","confidence":"n","version":"2.0NRT","bright_ti5":"290.38","frp":"1.55","daynight":"N","commune":"Dunkerque","code_insee":"59183","departement":"Nord","region":"Hauts-de-France"}},{"type":"Feature","geometry":{"type":"Point","coordinates":[2.29471,51.04629]},"properties":{"latitude":"51.04629","longitude":"2.29471","bright_ti4":"328.27","scan":"0.54","track":"0.42","acq_date":"2026-06-19","acq_time":"228","satellite":"N21","instrument":"VIIRS","confidence":"n","version":"2.0NRT","bright_ti5":"291.08","frp":"4.93","daynight":"N","commune":"Grande-Synthe","code_insee":"59271","departement":"Nord","region":"Hauts-de-France"}},{"type":"Feature","geometry":{"type":"Point","coordinates":[2.32067,51.04876]},"properties":{"latitude":"51.04876","longitude":"2.32067","bright_ti4":"301.57","scan":"0.54","track":"0.42","acq_date":"2026-06-19","acq_time":"228","satellite":"N21","instrument":"VIIRS","confidence":"n","version":"2.0NRT","bright_ti5":"290.39","frp":"1.55","daynight":"N","commune":"Dunkerque","code_insee":"59183","departement":"Nord","region":"Hauts-de-France"}},{"type":"Feature","geometry":{"type":"Point","coordinates":[4.88949,43.43902]},"properties":{"latitude":"43.43902","longitude":"4.88949","bright_ti4":"300.24","scan":"0.37","track":"0.58","acq_date":"2026-06-19","acq_time":"230","satellite":"N21","instrument":"VIIRS","confidence":"n","version":"2.0NRT","bright_ti5":"281.89","frp":"2.22","daynight":"N","commune":"Fos-sur-Mer","code_insee":"13039","departement":"Bouches-du-Rhône","region":"Provence-Alpes-Côte d'Azur"}},{"type":"Feature","geometry":{"type":"Point","coordinates":[4.90068,43.44162]},"properties":{"latitude":"43.44162","longitude":"4.90068","bright_ti4":"296.74","scan":"0.37","track":"0.58","acq_date":"2026-06-19","acq_time":"230","satellite":"N21","instrument":"VIIRS","confidence":"n","version":"2.0NRT","bright_ti5":"279.05","frp":"1.45","daynight":"N","commune":"Fos-sur-Mer","code_insee":"13039","departement":"Bouches-du-Rhône","region":"Provence-Alpes-Côte d'Azur"}},{"type":"Feature","geometry":{"type":"Point","coordinates":[4.89639,43.44281]},"properties":{"latitude":"43.44281","longitude":"4.89639","bright_ti4":"325.52","scan":"0.37","track":"0.58","acq_date":"2026-06-19","acq_time":"230","satellite":"N21","instrument":"VIIRS","confidence":"n","version":"2.0NRT","bright_ti5":"287.31","frp":"2.22","daynight":"N","commune":"Fos-sur-Mer","code_insee":"13039","departement":"Bouches-du-Rhône","region":"Provence-Alpes-Côte d'Azur"}},{"type":"Feature","geometry":{"type":"Point","coordinates":[5.66774,45.23088]},"properties":{"latitude":"45.23088","longitude":"5.66774","bright_ti4":"306.14","scan":"0.35","track":"0.57","acq_date":"2026-06-19","acq_time":"230","satellite":"N21","instrument":"VIIRS","confidence":"n","version":"2.0NRT","bright_ti5":"288.05","frp":"0.79","daynight":"N","commune":"Saint-Égrève","code_insee":"38382","departement":"Isère","region":"Auvergne-Rhône-Alpes"}},{"type":"Feature","geometry":{"type":"Point","coordinates":[-1.03376,48.10783]},"properties":{"latitude":"48.10783","longitude":"-1.03376","bright_ti4":"302.07","scan":"0.47","track":"0.4","acq_date":"2026-06-19","acq_time":"230","satellite":"N21","instrument":"VIIRS","confidence":"n","version":"2.0NRT","bright_ti5":"291.31","frp":"1.42","daynight":"N","commune":"Saint-Pierre-la-Cour","code_insee":"53247","departement":"Mayenne","region":"Pays de la Loire"}},{"type":"Feature","geometry":{"type":"Point","coordinates":[1.87274,42.97641]},"properties":{"latitude":"42.97641","longitude":"1.87274","bright_ti4":"337.34","scan":"0.44","track":"0.46","acq_date":"2026-06-19","acq_time":"1214","satellite":"N21","instrument":"VIIRS","confidence":"n","version":"2.0NRT","bright_ti5":"305.87","frp":"3.26","daynight":"D","commune":"Laroque-d'Olmes","code_insee":"09157","departement":"Ariège","region":"Occitanie"}},{"type":"Feature","geometry":{"type":"Point","coordinates":[4.88206,43.44276]},"properties":{"latitude":"43.44276","longitude":"4.88206","bright_ti4":"336.17","scan":"0.48","track":"0.4","acq_date":"2026-06-19","acq_time":"1214","satellite":"N21","instrument":"VIIRS","confidence":"l","version":"2.0NRT","bright_ti5":"310.36","frp":"19.95","daynight":"D","commune":"Fos-sur-Mer","code_insee":"13039","departement":"Bouches-du-Rhône","region":"Provence-Alpes-Côte d'Azur"}},{"type":"Feature","geometry":{"type":"Point","coordinates":[4.31312,43.64588]},"properties":{"latitude":"43.64588","longitude":"4.31312","bright_ti4":"333.31","scan":"0.5","track":"0.41","acq_date":"2026-06-19","acq_time":"1214","satellite":"N21","instrument":"VIIRS","confidence":"n","version":"2.0NRT","bright_ti5":"305.71","frp":"2.18","daynight":"D","commune":"Vauvert","code_insee":"30341","departement":"Gard","region":"Occitanie"}},{"type":"Feature","geometry":{"type":"Point","coordinates":[0.9936,43.7522]},"properties":{"latitude":"43.7522","longitude":"0.9936","bright_ti4":"367","scan":"0.46","track":"0.47","acq_date":"2026-06-19","acq_time":"1214","satellite":"N21","instrument":"VIIRS","confidence":"h","version":"2.0NRT","bright_ti5":"308.06","frp":"23.56","daynight":"D","commune":"Brignemont","code_insee":"31090","departement":"Haute-Garonne","region":"Occitanie"}},{"type":"Feature","geometry":{"type":"Point","coordinates":[0.39897,46.40194]},"properties":{"latitude":"46.40194","longitude":"0.39897","bright_ti4":"344.05","scan":"0.42","track":"0.45","acq_date":"2026-06-19","acq_time":"1217","satellite":"N21","instrument":"VIIRS","confidence":"n","version":"2.0NRT","bright_ti5":"303.65","frp":"5.53","daynight":"D","commune":"Saint-Maurice-la-Clouère","code_insee":"86235","departement":"Vienne","region":"Nouvelle-Aquitaine"}},{"type":"Feature","geometry":{"type":"Point","coordinates":[1.63677,47.15748]},"properties":{"latitude":"47.15748","longitude":"1.63677","bright_ti4":"350","scan":"0.54","track":"0.42","acq_date":"2026-06-19","acq_time":"1217","satellite":"N21","instrument":"VIIRS","confidence":"n","version":"2.0NRT","bright_ti5":"312.78","frp":"11.13","daynight":"D","commune":"Poulaines","code_insee":"36162","departement":"Indre","region":"Centre-Val de Loire"}},{"type":"Feature","geometry":{"type":"Point","coordinates":[1.64362,47.15897]},"properties":{"latitude":"47.15897","longitude":"1.64362","bright_ti4":"333.99","scan":"0.54","track":"0.42","acq_date":"2026-06-19","acq_time":"1217","satellite":"N21","instrument":"VIIRS","confidence":"l","version":"2.0NRT","bright_ti5":"308.19","frp":"11.13","daynight":"D","commune":"Poulaines","code_insee":"36162","departement":"Indre","region":"Centre-Val de Loire"}},{"type":"Feature","geometry":{"type":"Point","coordinates":[1.63504,47.16121]},"properties":{"latitude":"47.16121","longitude":"1.63504","bright_ti4":"347.69","scan":"0.54","track":"0.42","acq_date":"2026-06-19","acq_time":"1217","satellite":"N21","instrument":"VIIRS","confidence":"n","version":"2.0NRT","bright_ti5":"312.72","frp":"29.82","daynight":"D","commune":"Poulaines","code_insee":"36162","departement":"Indre","region":"Centre-Val de Loire"}},{"type":"Feature","geometry":{"type":"Point","coordinates":[0.80078,47.47853]},"properties":{"latitude":"47.47853","longitude":"0.80078","bright_ti4":"352.44","scan":"0.38","track":"0.43","acq_date":"2026-06-19","acq_time":"1217","satellite":"N21","instrument":"VIIRS","confidence":"n","version":"2.0NRT","bright_ti5":"303.97","frp":"10.89","daynight":"D","commune":"Monnaie","code_insee":"37153","departement":"Indre-et-Loire","region":"Centre-Val de Loire"}},{"type":"Feature","geometry":{"type":"Point","coordinates":[2.28659,51.03412]},"properties":{"latitude":"51.03412","longitude":"2.28659","bright_ti4":"331.96","scan":"0.44","track":"0.38","acq_date":"2026-06-19","acq_time":"1217","satellite":"N21","instrument":"VIIRS","confidence":"l","version":"2.0NRT","bright_ti5":"306.77","frp":"5.77","daynight":"D","commune":"Grande-Synthe","code_insee":"59271","departement":"Nord","region":"Hauts-de-France"}},{"type":"Feature","geometry":{"type":"Point","coordinates":[2.28493,51.03752]},"properties":{"latitude":"51.03752","longitude":"2.28493","bright_ti4":"332.87","scan":"0.44","track":"0.38","acq_date":"2026-06-19","acq_time":"1217","satellite":"N21","instrument":"VIIRS","confidence":"l","version":"2.0NRT","bright_ti5":"304.52","frp":"3.23","daynight":"D","commune":"Grande-Synthe","code_insee":"59271","departement":"Nord","region":"Hauts-de-France"}},{"type":"Feature","geometry":{"type":"Point","coordinates":[2.29372,51.04665]},"properties":{"latitude":"51.04665","longitude":"2.29372","bright_ti4":"330.77","scan":"0.44","track":"0.38","acq_date":"2026-06-19","acq_time":"1217","satellite":"N21","instrument":"VIIRS","confidence":"n","version":"2.0NRT","bright_ti5":"297.33","frp":"1.78","daynight":"D","commune":"Grande-Synthe","code_insee":"59271","departement":"Nord","region":"Hauts-de-France"}},{"type":"Feature","geometry":{"type":"Point","coordinates":[2.31958,51.04792]},"properties":{"latitude":"51.04792","longitude":"2.31958","bright_ti4":"331.65","scan":"0.44","track":"0.38","acq_date":"2026-06-19","acq_time":"1217","satellite":"N21","instrument":"VIIRS","confidence":"l","version":"2.0NRT","bright_ti5":"302.68","frp":"2.88","daynight":"D","commune":"Dunkerque","code_insee":"59183","departement":"Nord","region":"Hauts-de-France"}},{"type":"Feature","geometry":{"type":"Point","coordinates":[0.65899,47.53905]},"properties":{"latitude":"47.53905","longitude":"0.65899","bright_ti4":"346.87","scan":"0.61","track":"0.71","acq_date":"2026-06-19","acq_time":"1355","satellite":"N21","instrument":"VIIRS","confidence":"n","version":"2.0NRT","bright_ti5":"294.05","frp":"19.98","daynight":"D","commune":"Rouziers-de-Touraine","code_insee":"37204","departement":"Indre-et-Loire","region":"Centre-Val de Loire"}},{"type":"Feature","geometry":{"type":"Point","coordinates":[0.65078,47.53908]},"properties":{"latitude":"47.53908","longitude":"0.65078","bright_ti4":"354.31","scan":"0.61","track":"0.71","acq_date":"2026-06-19","acq_time":"1355","satellite":"N21","instrument":"VIIRS","confidence":"n","version":"2.0NRT","bright_ti5":"294.71","frp":"19.89","daynight":"D","commune":"Rouziers-de-Touraine","code_insee":"37204","departement":"Indre-et-Loire","region":"Centre-Val de Loire"}},{"type":"Feature","geometry":{"type":"Point","coordinates":[0.6501,47.54045]},"properties":{"latitude":"47.54045","longitude":"0.6501","bright_ti4":"343.08","scan":"0.61","track":"0.71","acq_date":"2026-06-19","acq_time":"1355","satellite":"N21","instrument":"VIIRS","confidence":"n","version":"2.0NRT","bright_ti5":"294.28","frp":"15.48","daynight":"D","commune":"Rouziers-de-Touraine","code_insee":"37204","departement":"Indre-et-Loire","region":"Centre-Val de Loire"}},{"type":"Feature","geometry":{"type":"Point","coordinates":[0.65829,47.54045]},"properties":{"latitude":"47.54045","longitude":"0.65829","bright_ti4":"367","scan":"0.61","track":"0.71","acq_date":"2026-06-19","acq_time":"1355","satellite":"N21","instrument":"VIIRS","confidence":"h","version":"2.0NRT","bright_ti5":"294.26","frp":"15.48","daynight":"D","commune":"Rouziers-de-Touraine","code_insee":"37204","departement":"Indre-et-Loire","region":"Centre-Val de Loire"}},{"type":"Feature","geometry":{"type":"Point","coordinates":[3.10116,47.95787]},"properties":{"latitude":"47.95787","longitude":"3.10116","bright_ti4":"336.57","scan":"0.8","track":"0.78","acq_date":"2026-06-19","acq_time":"1355","satellite":"N21","instrument":"VIIRS","confidence":"n","version":"2.0NRT","bright_ti5":"303.79","frp":"9.97","daynight":"D","commune":"Douchy-Montcorbon","code_insee":"45129","departement":"Loiret","region":"Centre-Val de Loire"}},{"type":"Feature","geometry":{"type":"Point","coordinates":[3.09053,47.95814]},"properties":{"latitude":"47.95814","longitude":"3.09053","bright_ti4":"332.28","scan":"0.79","track":"0.78","acq_date":"2026-06-19","acq_time":"1355","satellite":"N21","instrument":"VIIRS","confidence":"n","version":"2.0NRT","bright_ti5":"303.39","frp":"9.97","daynight":"D","commune":"Douchy-Montcorbon","code_insee":"45129","departement":"Loiret","region":"Centre-Val de Loire"}},{"type":"Feature","geometry":{"type":"Point","coordinates":[2.96018,48.05705]},"properties":{"latitude":"48.05705","longitude":"2.96018","bright_ti4":"367","scan":"0.78","track":"0.78","acq_date":"2026-06-19","acq_time":"1355","satellite":"N21","instrument":"VIIRS","confidence":"h","version":"2.0NRT","bright_ti5":"304.3","frp":"28.89","daynight":"D","commune":"Chantecoq","code_insee":"45073","departement":"Loiret","region":"Centre-Val de Loire"}},{"type":"Feature","geometry":{"type":"Point","coordinates":[2.28635,51.03711]},"properties":{"latitude":"51.03711","longitude":"2.28635","bright_ti4":"326.46","scan":"0.73","track":"0.76","acq_date":"2026-06-19","acq_time":"1357","satellite":"N21","instrument":"VIIRS","confidence":"n","version":"2.0NRT","bright_ti5":"290.31","frp":"6.86","daynight":"D","commune":"Grande-Synthe","code_insee":"59271","departement":"Nord","region":"Hauts-de-France"}},{"type":"Feature","geometry":{"type":"Point","coordinates":[2.29729,51.04384]},"properties":{"latitude":"51.04384","longitude":"2.29729","bright_ti4":"326.15","scan":"0.73","track":"0.76","acq_date":"2026-06-19","acq_time":"1357","satellite":"N21","instrument":"VIIRS","confidence":"n","version":"2.0NRT","bright_ti5":"290.07","frp":"11.11","daynight":"D","commune":"Grande-Synthe","code_insee":"59271","departement":"Nord","region":"Hauts-de-France"}}]}