{"type":"FeatureCollection","features":[{"type":"Feature","geometry":{"type":"Point","coordinates":[1.75941,48.98277]},"properties":{"latitude":"48.98277","longitude":"1.75941","bright_ti4":"315.34","scan":"0.41","track":"0.45","acq_date":"2026-06-29","acq_time":"134","satellite":"N","instrument":"VIIRS","confidence":"n","version":"2.0NRT","bright_ti5":"286.13","frp":"1.61","daynight":"N","commune":"Porcheville","code_insee":"78501","departement":"Yvelines","region":"Île-de-France"}},{"type":"Feature","geometry":{"type":"Point","coordinates":[1.76037,48.9869]},"properties":{"latitude":"48.9869","longitude":"1.76037","bright_ti4":"305.01","scan":"0.41","track":"0.45","acq_date":"2026-06-29","acq_time":"134","satellite":"N","instrument":"VIIRS","confidence":"n","version":"2.0NRT","bright_ti5":"286.31","frp":"1.08","daynight":"N","commune":"Porcheville","code_insee":"78501","departement":"Yvelines","region":"Île-de-France"}},{"type":"Feature","geometry":{"type":"Point","coordinates":[-1.83996,49.50486]},"properties":{"latitude":"49.50486","longitude":"-1.83996","bright_ti4":"299.43","scan":"0.59","track":"0.53","acq_date":"2026-06-29","acq_time":"134","satellite":"N","instrument":"VIIRS","confidence":"n","version":"2.0NRT","bright_ti5":"284.21","frp":"1.51","daynight":"N","commune":"Les Pieux","code_insee":"50402","departement":"Manche","region":"Normandie"}},{"type":"Feature","geometry":{"type":"Point","coordinates":[8.80531,41.95217]},"properties":{"latitude":"41.95217","longitude":"8.80531","bright_ti4":"304.67","scan":"0.4","track":"0.37","acq_date":"2026-06-29","acq_time":"137","satellite":"N","instrument":"VIIRS","confidence":"n","version":"2.0NRT","bright_ti5":"294.41","frp":"0.65","daynight":"N","commune":"Sarrola-Carcopino","code_insee":"2A271","departement":"Corse-du-Sud","region":"Corse"}},{"type":"Feature","geometry":{"type":"Point","coordinates":[4.88129,43.43811]},"properties":{"latitude":"43.43811","longitude":"4.88129","bright_ti4":"309.21","scan":"0.42","track":"0.37","acq_date":"2026-06-29","acq_time":"137","satellite":"N","instrument":"VIIRS","confidence":"n","version":"2.0NRT","bright_ti5":"295.33","frp":"1.74","daynight":"N","commune":"Fos-sur-Mer","code_insee":"13039","departement":"Bouches-du-Rhône","region":"Provence-Alpes-Côte d'Azur"}},{"type":"Feature","geometry":{"type":"Point","coordinates":[4.89242,43.44017]},"properties":{"latitude":"43.44017","longitude":"4.89242","bright_ti4":"330.65","scan":"0.42","track":"0.37","acq_date":"2026-06-29","acq_time":"137","satellite":"N","instrument":"VIIRS","confidence":"n","version":"2.0NRT","bright_ti5":"296.48","frp":"4.13","daynight":"N","commune":"Fos-sur-Mer","code_insee":"13039","departement":"Bouches-du-Rhône","region":"Provence-Alpes-Côte d'Azur"}},{"type":"Feature","geometry":{"type":"Point","coordinates":[4.89842,43.44291]},"properties":{"latitude":"43.44291","longitude":"4.89842","bright_ti4":"308.78","scan":"0.42","track":"0.37","acq_date":"2026-06-29","acq_time":"137","satellite":"N","instrument":"VIIRS","confidence":"n","version":"2.0NRT","bright_ti5":"294.42","frp":"1.19","daynight":"N","commune":"Fos-sur-Mer","code_insee":"13039","departement":"Bouches-du-Rhône","region":"Provence-Alpes-Côte d'Azur"}},{"type":"Feature","geometry":{"type":"Point","coordinates":[4.89928,43.44635]},"properties":{"latitude":"43.44635","longitude":"4.89928","bright_ti4":"323.24","scan":"0.42","track":"0.37","acq_date":"2026-06-29","acq_time":"137","satellite":"N","instrument":"VIIRS","confidence":"n","version":"2.0NRT","bright_ti5":"295.53","frp":"4.1","daynight":"N","commune":"Fos-sur-Mer","code_insee":"13039","departement":"Bouches-du-Rhône","region":"Provence-Alpes-Côte d'Azur"}},{"type":"Feature","geometry":{"type":"Point","coordinates":[4.89415,43.44703]},"properties":{"latitude":"43.44703","longitude":"4.89415","bright_ti4":"331.6","scan":"0.42","track":"0.37","acq_date":"2026-06-29","acq_time":"137","satellite":"N","instrument":"VIIRS","confidence":"n","version":"2.0NRT","bright_ti5":"295.68","frp":"3.76","daynight":"N","commune":"Fos-sur-Mer","code_insee":"13039","departement":"Bouches-du-Rhône","region":"Provence-Alpes-Côte d'Azur"}},{"type":"Feature","geometry":{"type":"Point","coordinates":[4.89501,43.45046]},"properties":{"latitude":"43.45046","longitude":"4.89501","bright_ti4":"324.67","scan":"0.42","track":"0.37","acq_date":"2026-06-29","acq_time":"137","satellite":"N","instrument":"VIIRS","confidence":"n","version":"2.0NRT","bright_ti5":"294.43","frp":"3.76","daynight":"N","commune":"Fos-sur-Mer","code_insee":"13039","departement":"Bouches-du-Rhône","region":"Provence-Alpes-Côte d'Azur"}},{"type":"Feature","geometry":{"type":"Point","coordinates":[4.70026,43.60588]},"properties":{"latitude":"43.60588","longitude":"4.70026","bright_ti4":"325.01","scan":"0.42","track":"0.38","acq_date":"2026-06-29","acq_time":"137","satellite":"N","instrument":"VIIRS","confidence":"n","version":"2.0NRT","bright_ti5":"292.93","frp":"2.79","daynight":"N","commune":"Arles","code_insee":"13004","departement":"Bouches-du-Rhône","region":"Provence-Alpes-Côte d'Azur"}},{"type":"Feature","geometry":{"type":"Point","coordinates":[7.37378,43.79538]},"properties":{"latitude":"43.79538","longitude":"7.37378","bright_ti4":"310.94","scan":"0.38","track":"0.36","acq_date":"2026-06-29","acq_time":"137","satellite":"N","instrument":"VIIRS","confidence":"n","version":"2.0NRT","bright_ti5":"294.5","frp":"1","daynight":"N","commune":"Blausasc","code_insee":"06019","departement":"Alpes-Maritimes","region":"Provence-Alpes-Côte d'Azur"}},{"type":"Feature","geometry":{"type":"Point","coordinates":[2.63781,45.37779]},"properties":{"latitude":"45.37779","longitude":"2.63781","bright_ti4":"327.94","scan":"0.51","track":"0.41","acq_date":"2026-06-29","acq_time":"137","satellite":"N","instrument":"VIIRS","confidence":"n","version":"2.0NRT","bright_ti5":"285.51","frp":"2.91","daynight":"N","commune":"Trémouille","code_insee":"15240","departement":"Cantal","region":"Auvergne-Rhône-Alpes"}},{"type":"Feature","geometry":{"type":"Point","coordinates":[5.41897,45.80406]},"properties":{"latitude":"45.80406","longitude":"5.41897","bright_ti4":"299.52","scan":"0.42","track":"0.38","acq_date":"2026-06-29","acq_time":"137","satellite":"N","instrument":"VIIRS","confidence":"n","version":"2.0NRT","bright_ti5":"283.91","frp":"0.63","daynight":"N","commune":"Bouvesse-Quirieu","code_insee":"38054","departement":"Isère","region":"Auvergne-Rhône-Alpes"}},{"type":"Feature","geometry":{"type":"Point","coordinates":[2.2671,51.01532]},"properties":{"latitude":"51.01532","longitude":"2.2671","bright_ti4":"299.46","scan":"0.41","track":"0.45","acq_date":"2026-06-29","acq_time":"137","satellite":"N","instrument":"VIIRS","confidence":"n","version":"2.0NRT","bright_ti5":"287.39","frp":"0.58","daynight":"N","commune":"Grande-Synthe","code_insee":"59271","departement":"Nord","region":"Hauts-de-France"}},{"type":"Feature","geometry":{"type":"Point","coordinates":[2.26981,51.02776]},"properties":{"latitude":"51.02776","longitude":"2.26981","bright_ti4":"298.31","scan":"0.41","track":"0.45","acq_date":"2026-06-29","acq_time":"137","satellite":"N","instrument":"VIIRS","confidence":"n","version":"2.0NRT","bright_ti5":"287.95","frp":"0.73","daynight":"N","commune":"Grande-Synthe","code_insee":"59271","departement":"Nord","region":"Hauts-de-France"}},{"type":"Feature","geometry":{"type":"Point","coordinates":[2.28844,51.03041]},"properties":{"latitude":"51.03041","longitude":"2.28844","bright_ti4":"301.05","scan":"0.41","track":"0.45","acq_date":"2026-06-29","acq_time":"137","satellite":"N","instrument":"VIIRS","confidence":"n","version":"2.0NRT","bright_ti5":"287.48","frp":"0.88","daynight":"N","commune":"Grande-Synthe","code_insee":"59271","departement":"Nord","region":"Hauts-de-France"}},{"type":"Feature","geometry":{"type":"Point","coordinates":[2.28253,51.03091]},"properties":{"latitude":"51.03091","longitude":"2.28253","bright_ti4":"316.12","scan":"0.41","track":"0.45","acq_date":"2026-06-29","acq_time":"137","satellite":"N","instrument":"VIIRS","confidence":"n","version":"2.0NRT","bright_ti5":"288.9","frp":"2.09","daynight":"N","commune":"Grande-Synthe","code_insee":"59271","departement":"Nord","region":"Hauts-de-France"}},{"type":"Feature","geometry":{"type":"Point","coordinates":[2.28932,51.03455]},"properties":{"latitude":"51.03455","longitude":"2.28932","bright_ti4":"315.9","scan":"0.41","track":"0.45","acq_date":"2026-06-29","acq_time":"137","satellite":"N","instrument":"VIIRS","confidence":"n","version":"2.0NRT","bright_ti5":"289.17","frp":"2.26","daynight":"N","commune":"Grande-Synthe","code_insee":"59271","departement":"Nord","region":"Hauts-de-France"}},{"type":"Feature","geometry":{"type":"Point","coordinates":[2.28342,51.03505]},"properties":{"latitude":"51.03505","longitude":"2.28342","bright_ti4":"325.79","scan":"0.41","track":"0.45","acq_date":"2026-06-29","acq_time":"137","satellite":"N","instrument":"VIIRS","confidence":"n","version":"2.0NRT","bright_ti5":"289.38","frp":"3.36","daynight":"N","commune":"Grande-Synthe","code_insee":"59271","departement":"Nord","region":"Hauts-de-France"}},{"type":"Feature","geometry":{"type":"Point","coordinates":[2.297,51.04234]},"properties":{"latitude":"51.04234","longitude":"2.297","bright_ti4":"305","scan":"0.41","track":"0.45","acq_date":"2026-06-29","acq_time":"137","satellite":"N","instrument":"VIIRS","confidence":"n","version":"2.0NRT","bright_ti5":"290.02","frp":"1.75","daynight":"N","commune":"Grande-Synthe","code_insee":"59271","departement":"Nord","region":"Hauts-de-France"}},{"type":"Feature","geometry":{"type":"Point","coordinates":[2.29108,51.04284]},"properties":{"latitude":"51.04284","longitude":"2.29108","bright_ti4":"302.15","scan":"0.41","track":"0.45","acq_date":"2026-06-29","acq_time":"137","satellite":"N","instrument":"VIIRS","confidence":"n","version":"2.0NRT","bright_ti5":"289.2","frp":"1.75","daynight":"N","commune":"Grande-Synthe","code_insee":"59271","departement":"Nord","region":"Hauts-de-France"}},{"type":"Feature","geometry":{"type":"Point","coordinates":[2.29788,51.04649]},"properties":{"latitude":"51.04649","longitude":"2.29788","bright_ti4":"338.43","scan":"0.41","track":"0.45","acq_date":"2026-06-29","acq_time":"137","satellite":"N","instrument":"VIIRS","confidence":"n","version":"2.0NRT","bright_ti5":"290.09","frp":"1.75","daynight":"N","commune":"Grande-Synthe","code_insee":"59271","departement":"Nord","region":"Hauts-de-France"}},{"type":"Feature","geometry":{"type":"Point","coordinates":[2.29196,51.04699]},"properties":{"latitude":"51.04699","longitude":"2.29196","bright_ti4":"300.85","scan":"0.41","track":"0.45","acq_date":"2026-06-29","acq_time":"137","satellite":"N","instrument":"VIIRS","confidence":"n","version":"2.0NRT","bright_ti5":"289.06","frp":"1.75","daynight":"N","commune":"Grande-Synthe","code_insee":"59271","departement":"Nord","region":"Hauts-de-France"}},{"type":"Feature","geometry":{"type":"Point","coordinates":[2.32235,51.04861]},"properties":{"latitude":"51.04861","longitude":"2.32235","bright_ti4":"338.05","scan":"0.41","track":"0.45","acq_date":"2026-06-29","acq_time":"137","satellite":"N","instrument":"VIIRS","confidence":"n","version":"2.0NRT","bright_ti5":"290.13","frp":"2.34","daynight":"N","commune":"Dunkerque","code_insee":"59183","departement":"Nord","region":"Hauts-de-France"}},{"type":"Feature","geometry":{"type":"Point","coordinates":[2.31646,51.04912]},"properties":{"latitude":"51.04912","longitude":"2.31646","bright_ti4":"299.59","scan":"0.41","track":"0.45","acq_date":"2026-06-29","acq_time":"137","satellite":"N","instrument":"VIIRS","confidence":"n","version":"2.0NRT","bright_ti5":"288.98","frp":"2.34","daynight":"N","commune":"Dunkerque","code_insee":"59183","departement":"Nord","region":"Hauts-de-France"}},{"type":"Feature","geometry":{"type":"Point","coordinates":[-1.03758,48.10706]},"properties":{"latitude":"48.10706","longitude":"-1.03758","bright_ti4":"297.21","scan":"0.38","track":"0.59","acq_date":"2026-06-29","acq_time":"317","satellite":"N","instrument":"VIIRS","confidence":"n","version":"2.0NRT","bright_ti5":"285.94","frp":"0.98","daynight":"N","commune":"Saint-Pierre-la-Cour","code_insee":"53247","departement":"Mayenne","region":"Pays de la Loire"}},{"type":"Feature","geometry":{"type":"Point","coordinates":[1.75741,48.98293]},"properties":{"latitude":"48.98293","longitude":"1.75741","bright_ti4":"305.67","scan":"0.47","track":"0.64","acq_date":"2026-06-29","acq_time":"317","satellite":"N","instrument":"VIIRS","confidence":"n","version":"2.0NRT","bright_ti5":"283.89","frp":"1.07","daynight":"N","commune":"Limay","code_insee":"78335","departement":"Yvelines","region":"Île-de-France"}},{"type":"Feature","geometry":{"type":"Point","coordinates":[1.75859,48.98602]},"properties":{"latitude":"48.98602","longitude":"1.75859","bright_ti4":"305.81","scan":"0.47","track":"0.64","acq_date":"2026-06-29","acq_time":"317","satellite":"N","instrument":"VIIRS","confidence":"n","version":"2.0NRT","bright_ti5":"284.43","frp":"0.92","daynight":"N","commune":"Limay","code_insee":"78335","departement":"Yvelines","region":"Île-de-France"}},{"type":"Feature","geometry":{"type":"Point","coordinates":[0.53555,49.47896]},"properties":{"latitude":"49.47896","longitude":"0.53555","bright_ti4":"299.43","scan":"0.4","track":"0.6","acq_date":"2026-06-29","acq_time":"317","satellite":"N","instrument":"VIIRS","confidence":"n","version":"2.0NRT","bright_ti5":"285.8","frp":"0.82","daynight":"N","commune":"Port-Jérôme-sur-Seine","code_insee":"76476","departement":"Seine-Maritime","region":"Normandie"}},{"type":"Feature","geometry":{"type":"Point","coordinates":[-1.84206,49.50302]},"properties":{"latitude":"49.50302","longitude":"-1.84206","bright_ti4":"311.7","scan":"0.32","track":"0.55","acq_date":"2026-06-29","acq_time":"317","satellite":"N","instrument":"VIIRS","confidence":"n","version":"2.0NRT","bright_ti5":"285.43","frp":"1.13","daynight":"N","commune":"Les Pieux","code_insee":"50402","departement":"Manche","region":"Normandie"}},{"type":"Feature","geometry":{"type":"Point","coordinates":[2.2659,51.01675]},"properties":{"latitude":"51.01675","longitude":"2.2659","bright_ti4":"297.12","scan":"0.42","track":"0.61","acq_date":"2026-06-29","acq_time":"317","satellite":"N","instrument":"VIIRS","confidence":"n","version":"2.0NRT","bright_ti5":"286.44","frp":"0.61","daynight":"N","commune":"Grande-Synthe","code_insee":"59271","departement":"Nord","region":"Hauts-de-France"}},{"type":"Feature","geometry":{"type":"Point","coordinates":[2.27303,51.0338]},"properties":{"latitude":"51.0338","longitude":"2.27303","bright_ti4":"299.69","scan":"0.42","track":"0.61","acq_date":"2026-06-29","acq_time":"317","satellite":"N","instrument":"VIIRS","confidence":"n","version":"2.0NRT","bright_ti5":"286.88","frp":"1.37","daynight":"N","commune":"Grande-Synthe","code_insee":"59271","departement":"Nord","region":"Hauts-de-France"}},{"type":"Feature","geometry":{"type":"Point","coordinates":[2.28816,51.03534]},"properties":{"latitude":"51.03534","longitude":"2.28816","bright_ti4":"324.5","scan":"0.42","track":"0.61","acq_date":"2026-06-29","acq_time":"317","satellite":"N","instrument":"VIIRS","confidence":"n","version":"2.0NRT","bright_ti5":"289.33","frp":"2.56","daynight":"N","commune":"Grande-Synthe","code_insee":"59271","departement":"Nord","region":"Hauts-de-France"}},{"type":"Feature","geometry":{"type":"Point","coordinates":[2.2966,51.0455]},"properties":{"latitude":"51.0455","longitude":"2.2966","bright_ti4":"328.07","scan":"0.42","track":"0.61","acq_date":"2026-06-29","acq_time":"317","satellite":"N","instrument":"VIIRS","confidence":"n","version":"2.0NRT","bright_ti5":"289.04","frp":"2.76","daynight":"N","commune":"Grande-Synthe","code_insee":"59271","departement":"Nord","region":"Hauts-de-France"}},{"type":"Feature","geometry":{"type":"Point","coordinates":[2.29586,51.04916]},"properties":{"latitude":"51.04916","longitude":"2.29586","bright_ti4":"314.27","scan":"0.42","track":"0.61","acq_date":"2026-06-29","acq_time":"317","satellite":"N","instrument":"VIIRS","confidence":"n","version":"2.0NRT","bright_ti5":"289.05","frp":"1.75","daynight":"N","commune":"Grande-Synthe","code_insee":"59271","departement":"Nord","region":"Hauts-de-France"}},{"type":"Feature","geometry":{"type":"Point","coordinates":[-0.24075,45.95237]},"properties":{"latitude":"45.95237","longitude":"-0.24075","bright_ti4":"295.9","scan":"0.49","track":"0.65","acq_date":"2026-06-29","acq_time":"319","satellite":"N","instrument":"VIIRS","confidence":"n","version":"2.0NRT","bright_ti5":"269.98","frp":"0.87","daynight":"N","commune":"Néré","code_insee":"17257","departement":"Charente-Maritime","region":"Nouvelle-Aquitaine"}},{"type":"Feature","geometry":{"type":"Point","coordinates":[2.30072,51.04627]},"properties":{"latitude":"51.04627","longitude":"2.30072","bright_ti4":"349.41","scan":"0.53","track":"0.67","acq_date":"2026-06-29","acq_time":"1123","satellite":"N","instrument":"VIIRS","confidence":"n","version":"2.0NRT","bright_ti5":"298.51","frp":"4.28","daynight":"D","commune":"Grande-Synthe","code_insee":"59271","departement":"Nord","region":"Hauts-de-France"}},{"type":"Feature","geometry":{"type":"Point","coordinates":[2.32635,51.04812]},"properties":{"latitude":"51.04812","longitude":"2.32635","bright_ti4":"326.09","scan":"0.53","track":"0.67","acq_date":"2026-06-29","acq_time":"1123","satellite":"N","instrument":"VIIRS","confidence":"n","version":"2.0NRT","bright_ti5":"299.3","frp":"2.76","daynight":"D","commune":"Dunkerque","code_insee":"59183","departement":"Nord","region":"Hauts-de-France"}},{"type":"Feature","geometry":{"type":"Point","coordinates":[4.89683,43.44584]},"properties":{"latitude":"43.44584","longitude":"4.89683","bright_ti4":"339.49","scan":"0.49","track":"0.41","acq_date":"2026-06-29","acq_time":"1301","satellite":"N","instrument":"VIIRS","confidence":"n","version":"2.0NRT","bright_ti5":"304.24","frp":"6.44","daynight":"D","commune":"Fos-sur-Mer","code_insee":"13039","departement":"Bouches-du-Rhône","region":"Provence-Alpes-Côte d'Azur"}},{"type":"Feature","geometry":{"type":"Point","coordinates":[-0.28455,44.66815]},"properties":{"latitude":"44.66815","longitude":"-0.28455","bright_ti4":"334.25","scan":"0.38","track":"0.36","acq_date":"2026-06-29","acq_time":"1301","satellite":"N","instrument":"VIIRS","confidence":"n","version":"2.0NRT","bright_ti5":"302.07","frp":"2.97","daynight":"D","commune":"Escoussans","code_insee":"33156","departement":"Gironde","region":"Nouvelle-Aquitaine"}},{"type":"Feature","geometry":{"type":"Point","coordinates":[0.31375,44.7637]},"properties":{"latitude":"44.7637","longitude":"0.31375","bright_ti4":"339.78","scan":"0.39","track":"0.36","acq_date":"2026-06-29","acq_time":"1301","satellite":"N","instrument":"VIIRS","confidence":"n","version":"2.0NRT","bright_ti5":"298.87","frp":"8.02","daynight":"D","commune":"Thénac","code_insee":"24549","departement":"Dordogne","region":"Nouvelle-Aquitaine"}},{"type":"Feature","geometry":{"type":"Point","coordinates":[5.20083,45.36655]},"properties":{"latitude":"45.36655","longitude":"5.20083","bright_ti4":"349.2","scan":"0.53","track":"0.42","acq_date":"2026-06-29","acq_time":"1301","satellite":"N","instrument":"VIIRS","confidence":"n","version":"2.0NRT","bright_ti5":"303.94","frp":"27.56","daynight":"D","commune":"Sardieu","code_insee":"38473","departement":"Isère","region":"Auvergne-Rhône-Alpes"}},{"type":"Feature","geometry":{"type":"Point","coordinates":[5.19318,45.36972]},"properties":{"latitude":"45.36972","longitude":"5.19318","bright_ti4":"334.74","scan":"0.53","track":"0.42","acq_date":"2026-06-29","acq_time":"1301","satellite":"N","instrument":"VIIRS","confidence":"n","version":"2.0NRT","bright_ti5":"297.65","frp":"9.19","daynight":"D","commune":"Penol","code_insee":"38300","departement":"Isère","region":"Auvergne-Rhône-Alpes"}},{"type":"Feature","geometry":{"type":"Point","coordinates":[5.19998,45.37041]},"properties":{"latitude":"45.37041","longitude":"5.19998","bright_ti4":"350.29","scan":"0.53","track":"0.42","acq_date":"2026-06-29","acq_time":"1301","satellite":"N","instrument":"VIIRS","confidence":"n","version":"2.0NRT","bright_ti5":"300.24","frp":"27.56","daynight":"D","commune":"Sardieu","code_insee":"38473","departement":"Isère","region":"Auvergne-Rhône-Alpes"}},{"type":"Feature","geometry":{"type":"Point","coordinates":[-0.43336,45.55595]},"properties":{"latitude":"45.55595","longitude":"-0.43336","bright_ti4":"337.07","scan":"0.39","track":"0.36","acq_date":"2026-06-29","acq_time":"1301","satellite":"N","instrument":"VIIRS","confidence":"n","version":"2.0NRT","bright_ti5":"302.39","frp":"4.72","daynight":"D","commune":"Jarnac-Champagne","code_insee":"17192","departement":"Charente-Maritime","region":"Nouvelle-Aquitaine"}},{"type":"Feature","geometry":{"type":"Point","coordinates":[-0.66469,46.72188]},"properties":{"latitude":"46.72188","longitude":"-0.66469","bright_ti4":"343.85","scan":"0.39","track":"0.36","acq_date":"2026-06-29","acq_time":"1301","satellite":"N","instrument":"VIIRS","confidence":"n","version":"2.0NRT","bright_ti5":"308.63","frp":"2.25","daynight":"D","commune":"La Forêt-sur-Sèvre","code_insee":"79123","departement":"Deux-Sèvres","region":"Nouvelle-Aquitaine"}},{"type":"Feature","geometry":{"type":"Point","coordinates":[2.29034,51.0335]},"properties":{"latitude":"51.0335","longitude":"2.29034","bright_ti4":"340.44","scan":"0.48","track":"0.4","acq_date":"2026-06-29","acq_time":"1304","satellite":"N","instrument":"VIIRS","confidence":"n","version":"2.0NRT","bright_ti5":"309.72","frp":"8.03","daynight":"D","commune":"Grande-Synthe","code_insee":"59271","departement":"Nord","region":"Hauts-de-France"}},{"type":"Feature","geometry":{"type":"Point","coordinates":[2.30125,51.04604]},"properties":{"latitude":"51.04604","longitude":"2.30125","bright_ti4":"335.15","scan":"0.48","track":"0.4","acq_date":"2026-06-29","acq_time":"1304","satellite":"N","instrument":"VIIRS","confidence":"n","version":"2.0NRT","bright_ti5":"304.36","frp":"3.89","daynight":"D","commune":"Grande-Synthe","code_insee":"59271","departement":"Nord","region":"Hauts-de-France"}},{"type":"Feature","geometry":{"type":"Point","coordinates":[2.32205,51.04825]},"properties":{"latitude":"51.04825","longitude":"2.32205","bright_ti4":"330.43","scan":"0.48","track":"0.4","acq_date":"2026-06-29","acq_time":"1304","satellite":"N","instrument":"VIIRS","confidence":"l","version":"2.0NRT","bright_ti5":"305.42","frp":"2.19","daynight":"D","commune":"Dunkerque","code_insee":"59183","departement":"Nord","region":"Hauts-de-France"}},{"type":"Feature","geometry":{"type":"Point","coordinates":[1.89856,50.9734]},"properties":{"latitude":"50.9734","longitude":"1.89856","bright_ti4":"299.74","scan":"0.41","track":"0.37","acq_date":"2026-06-29","acq_time":"154","satellite":"N20","instrument":"VIIRS","confidence":"n","version":"2.0NRT","bright_ti5":"287.3","frp":"0.51","daynight":"N","commune":"Calais","code_insee":"62193","departement":"Pas-de-Calais","region":"Hauts-de-France"}},{"type":"Feature","geometry":{"type":"Point","coordinates":[2.28811,51.03279]},"properties":{"latitude":"51.03279","longitude":"2.28811","bright_ti4":"329.11","scan":"0.4","track":"0.37","acq_date":"2026-06-29","acq_time":"154","satellite":"N20","instrument":"VIIRS","confidence":"n","version":"2.0NRT","bright_ti5":"290.35","frp":"3.08","daynight":"N","commune":"Grande-Synthe","code_insee":"59271","departement":"Nord","region":"Hauts-de-France"}},{"type":"Feature","geometry":{"type":"Point","coordinates":[2.25312,51.03413]},"properties":{"latitude":"51.03413","longitude":"2.25312","bright_ti4":"305.64","scan":"0.4","track":"0.37","acq_date":"2026-06-29","acq_time":"154","satellite":"N20","instrument":"VIIRS","confidence":"n","version":"2.0NRT","bright_ti5":"288.65","frp":"0.54","daynight":"N","commune":"Dunkerque","code_insee":"59183","departement":"Nord","region":"Hauts-de-France"}},{"type":"Feature","geometry":{"type":"Point","coordinates":[2.27684,51.03434]},"properties":{"latitude":"51.03434","longitude":"2.27684","bright_ti4":"330.88","scan":"0.4","track":"0.37","acq_date":"2026-06-29","acq_time":"154","satellite":"N20","instrument":"VIIRS","confidence":"n","version":"2.0NRT","bright_ti5":"289.12","frp":"2.94","daynight":"N","commune":"Grande-Synthe","code_insee":"59271","departement":"Nord","region":"Hauts-de-France"}},{"type":"Feature","geometry":{"type":"Point","coordinates":[2.28927,51.03612]},"properties":{"latitude":"51.03612","longitude":"2.28927","bright_ti4":"328.04","scan":"0.4","track":"0.37","acq_date":"2026-06-29","acq_time":"154","satellite":"N20","instrument":"VIIRS","confidence":"n","version":"2.0NRT","bright_ti5":"291.37","frp":"3.08","daynight":"N","commune":"Grande-Synthe","code_insee":"59271","departement":"Nord","region":"Hauts-de-France"}},{"type":"Feature","geometry":{"type":"Point","coordinates":[2.29723,51.04199]},"properties":{"latitude":"51.04199","longitude":"2.29723","bright_ti4":"307.45","scan":"0.4","track":"0.37","acq_date":"2026-06-29","acq_time":"154","satellite":"N20","instrument":"VIIRS","confidence":"n","version":"2.0NRT","bright_ti5":"290.68","frp":"1.07","daynight":"N","commune":"Grande-Synthe","code_insee":"59271","departement":"Nord","region":"Hauts-de-France"}},{"type":"Feature","geometry":{"type":"Point","coordinates":[2.29159,51.04277]},"properties":{"latitude":"51.04277","longitude":"2.29159","bright_ti4":"309.28","scan":"0.4","track":"0.37","acq_date":"2026-06-29","acq_time":"154","satellite":"N20","instrument":"VIIRS","confidence":"n","version":"2.0NRT","bright_ti5":"288.99","frp":"0.84","daynight":"N","commune":"Grande-Synthe","code_insee":"59271","departement":"Nord","region":"Hauts-de-France"}},{"type":"Feature","geometry":{"type":"Point","coordinates":[2.30402,51.04453]},"properties":{"latitude":"51.04453","longitude":"2.30402","bright_ti4":"302.5","scan":"0.4","track":"0.37","acq_date":"2026-06-29","acq_time":"154","satellite":"N20","instrument":"VIIRS","confidence":"n","version":"2.0NRT","bright_ti5":"288.68","frp":"4.53","daynight":"N","commune":"Grande-Synthe","code_insee":"59271","departement":"Nord","region":"Hauts-de-France"}},{"type":"Feature","geometry":{"type":"Point","coordinates":[2.29839,51.04531]},"properties":{"latitude":"51.04531","longitude":"2.29839","bright_ti4":"341.51","scan":"0.4","track":"0.37","acq_date":"2026-06-29","acq_time":"154","satellite":"N20","instrument":"VIIRS","confidence":"n","version":"2.0NRT","bright_ti5":"291.28","frp":"4.53","daynight":"N","commune":"Grande-Synthe","code_insee":"59271","departement":"Nord","region":"Hauts-de-France"}},{"type":"Feature","geometry":{"type":"Point","coordinates":[2.32208,51.04552]},"properties":{"latitude":"51.04552","longitude":"2.32208","bright_ti4":"337.88","scan":"0.4","track":"0.37","acq_date":"2026-06-29","acq_time":"154","satellite":"N20","instrument":"VIIRS","confidence":"n","version":"2.0NRT","bright_ti5":"289.83","frp":"4.38","daynight":"N","commune":"Dunkerque","code_insee":"59183","departement":"Nord","region":"Hauts-de-France"}},{"type":"Feature","geometry":{"type":"Point","coordinates":[2.31645,51.0463]},"properties":{"latitude":"51.0463","longitude":"2.31645","bright_ti4":"299.33","scan":"0.4","track":"0.37","acq_date":"2026-06-29","acq_time":"154","satellite":"N20","instrument":"VIIRS","confidence":"n","version":"2.0NRT","bright_ti5":"289.23","frp":"0.92","daynight":"N","commune":"Dunkerque","code_insee":"59183","departement":"Nord","region":"Hauts-de-France"}},{"type":"Feature","geometry":{"type":"Point","coordinates":[2.32323,51.04884]},"properties":{"latitude":"51.04884","longitude":"2.32323","bright_ti4":"318.32","scan":"0.4","track":"0.37","acq_date":"2026-06-29","acq_time":"154","satellite":"N20","instrument":"VIIRS","confidence":"n","version":"2.0NRT","bright_ti5":"289.92","frp":"1.03","daynight":"N","commune":"Dunkerque","code_insee":"59183","departement":"Nord","region":"Hauts-de-France"}},{"type":"Feature","geometry":{"type":"Point","coordinates":[4.89928,43.43346]},"properties":{"latitude":"43.43346","longitude":"4.89928","bright_ti4":"307.44","scan":"0.43","track":"0.38","acq_date":"2026-06-29","acq_time":"156","satellite":"N20","instrument":"VIIRS","confidence":"n","version":"2.0NRT","bright_ti5":"293.68","frp":"1.51","daynight":"N","commune":"Fos-sur-Mer","code_insee":"13039","departement":"Bouches-du-Rhône","region":"Provence-Alpes-Côte d'Azur"}},{"type":"Feature","geometry":{"type":"Point","coordinates":[4.89405,43.43445]},"properties":{"latitude":"43.43445","longitude":"4.89405","bright_ti4":"305.14","scan":"0.43","track":"0.38","acq_date":"2026-06-29","acq_time":"156","satellite":"N20","instrument":"VIIRS","confidence":"n","version":"2.0NRT","bright_ti5":"293.32","frp":"1.85","daynight":"N","commune":"Fos-sur-Mer","code_insee":"13039","departement":"Bouches-du-Rhône","region":"Provence-Alpes-Côte d'Azur"}},{"type":"Feature","geometry":{"type":"Point","coordinates":[4.89247,43.43967]},"properties":{"latitude":"43.43967","longitude":"4.89247","bright_ti4":"332.68","scan":"0.43","track":"0.38","acq_date":"2026-06-29","acq_time":"156","satellite":"N20","instrument":"VIIRS","confidence":"n","version":"2.0NRT","bright_ti5":"295.97","frp":"4.61","daynight":"N","commune":"Fos-sur-Mer","code_insee":"13039","departement":"Bouches-du-Rhône","region":"Provence-Alpes-Côte d'Azur"}},{"type":"Feature","geometry":{"type":"Point","coordinates":[4.90012,43.44551]},"properties":{"latitude":"43.44551","longitude":"4.90012","bright_ti4":"318.67","scan":"0.43","track":"0.38","acq_date":"2026-06-29","acq_time":"156","satellite":"N20","instrument":"VIIRS","confidence":"n","version":"2.0NRT","bright_ti5":"294.96","frp":"2.87","daynight":"N","commune":"Fos-sur-Mer","code_insee":"13039","departement":"Bouches-du-Rhône","region":"Provence-Alpes-Côte d'Azur"}},{"type":"Feature","geometry":{"type":"Point","coordinates":[4.89491,43.44651]},"properties":{"latitude":"43.44651","longitude":"4.89491","bright_ti4":"325.8","scan":"0.43","track":"0.38","acq_date":"2026-06-29","acq_time":"156","satellite":"N20","instrument":"VIIRS","confidence":"n","version":"2.0NRT","bright_ti5":"294.82","frp":"1.87","daynight":"N","commune":"Fos-sur-Mer","code_insee":"13039","departement":"Bouches-du-Rhône","region":"Provence-Alpes-Côte d'Azur"}},{"type":"Feature","geometry":{"type":"Point","coordinates":[4.89613,43.44992]},"properties":{"latitude":"43.44992","longitude":"4.89613","bright_ti4":"320.41","scan":"0.43","track":"0.38","acq_date":"2026-06-29","acq_time":"156","satellite":"N20","instrument":"VIIRS","confidence":"n","version":"2.0NRT","bright_ti5":"293.75","frp":"1.87","daynight":"N","commune":"Fos-sur-Mer","code_insee":"13039","departement":"Bouches-du-Rhône","region":"Provence-Alpes-Côte d'Azur"}},{"type":"Feature","geometry":{"type":"Point","coordinates":[4.70354,43.60434]},"properties":{"latitude":"43.60434","longitude":"4.70354","bright_ti4":"322.78","scan":"0.43","track":"0.38","acq_date":"2026-06-29","acq_time":"156","satellite":"N20","instrument":"VIIRS","confidence":"n","version":"2.0NRT","bright_ti5":"292.43","frp":"2.16","daynight":"N","commune":"Arles","code_insee":"13004","departement":"Bouches-du-Rhône","region":"Provence-Alpes-Côte d'Azur"}},{"type":"Feature","geometry":{"type":"Point","coordinates":[2.64095,45.37575]},"properties":{"latitude":"45.37575","longitude":"2.64095","bright_ti4":"301.14","scan":"0.38","track":"0.36","acq_date":"2026-06-29","acq_time":"156","satellite":"N20","instrument":"VIIRS","confidence":"n","version":"2.0NRT","bright_ti5":"285.71","frp":"1.87","daynight":"N","commune":"Trémouille","code_insee":"15240","departement":"Cantal","region":"Auvergne-Rhône-Alpes"}},{"type":"Feature","geometry":{"type":"Point","coordinates":[2.64198,45.37901]},"properties":{"latitude":"45.37901","longitude":"2.64198","bright_ti4":"328.85","scan":"0.38","track":"0.36","acq_date":"2026-06-29","acq_time":"156","satellite":"N20","instrument":"VIIRS","confidence":"n","version":"2.0NRT","bright_ti5":"285.66","frp":"1.87","daynight":"N","commune":"Trémouille","code_insee":"15240","departement":"Cantal","region":"Auvergne-Rhône-Alpes"}},{"type":"Feature","geometry":{"type":"Point","coordinates":[-0.23699,45.94983]},"properties":{"latitude":"45.94983","longitude":"-0.23699","bright_ti4":"330.02","scan":"0.41","track":"0.37","acq_date":"2026-06-29","acq_time":"156","satellite":"N20","instrument":"VIIRS","confidence":"n","version":"2.0NRT","bright_ti5":"289","frp":"3.99","daynight":"N","commune":"Néré","code_insee":"17257","departement":"Charente-Maritime","region":"Nouvelle-Aquitaine"}},{"type":"Feature","geometry":{"type":"Point","coordinates":[-0.23604,45.9532]},"properties":{"latitude":"45.9532","longitude":"-0.23604","bright_ti4":"298.77","scan":"0.41","track":"0.37","acq_date":"2026-06-29","acq_time":"156","satellite":"N20","instrument":"VIIRS","confidence":"n","version":"2.0NRT","bright_ti5":"286.24","frp":"0.38","daynight":"N","commune":"Néré","code_insee":"17257","departement":"Charente-Maritime","region":"Nouvelle-Aquitaine"}},{"type":"Feature","geometry":{"type":"Point","coordinates":[-1.03831,48.10737]},"properties":{"latitude":"48.10737","longitude":"-1.03831","bright_ti4":"300.58","scan":"0.45","track":"0.39","acq_date":"2026-06-29","acq_time":"156","satellite":"N20","instrument":"VIIRS","confidence":"n","version":"2.0NRT","bright_ti5":"287.68","frp":"1.02","daynight":"N","commune":"Saint-Pierre-la-Cour","code_insee":"53247","departement":"Mayenne","region":"Pays de la Loire"}},{"type":"Feature","geometry":{"type":"Point","coordinates":[1.76097,48.98238]},"properties":{"latitude":"48.98238","longitude":"1.76097","bright_ti4":"314.12","scan":"0.4","track":"0.37","acq_date":"2026-06-29","acq_time":"156","satellite":"N20","instrument":"VIIRS","confidence":"n","version":"2.0NRT","bright_ti5":"289.1","frp":"1.36","daynight":"N","commune":"Porcheville","code_insee":"78501","departement":"Yvelines","region":"Île-de-France"}},{"type":"Feature","geometry":{"type":"Point","coordinates":[1.76208,48.98569]},"properties":{"latitude":"48.98569","longitude":"1.76208","bright_ti4":"316.86","scan":"0.4","track":"0.37","acq_date":"2026-06-29","acq_time":"156","satellite":"N20","instrument":"VIIRS","confidence":"n","version":"2.0NRT","bright_ti5":"289.23","frp":"1.4","daynight":"N","commune":"Porcheville","code_insee":"78501","departement":"Yvelines","region":"Île-de-France"}},{"type":"Feature","geometry":{"type":"Point","coordinates":[0.53688,49.47558]},"properties":{"latitude":"49.47558","longitude":"0.53688","bright_ti4":"306.63","scan":"0.42","track":"0.38","acq_date":"2026-06-29","acq_time":"156","satellite":"N20","instrument":"VIIRS","confidence":"n","version":"2.0NRT","bright_ti5":"288.43","frp":"1.79","daynight":"N","commune":"Port-Jérôme-sur-Seine","code_insee":"76476","departement":"Seine-Maritime","region":"Normandie"}},{"type":"Feature","geometry":{"type":"Point","coordinates":[-1.84372,49.50471]},"properties":{"latitude":"49.50471","longitude":"-1.84372","bright_ti4":"329.69","scan":"0.49","track":"0.4","acq_date":"2026-06-29","acq_time":"156","satellite":"N20","instrument":"VIIRS","confidence":"n","version":"2.0NRT","bright_ti5":"289.23","frp":"6.42","daynight":"N","commune":"Les Pieux","code_insee":"50402","departement":"Manche","region":"Normandie"}},{"type":"Feature","geometry":{"type":"Point","coordinates":[-1.83869,49.50253]},"properties":{"latitude":"49.50253","longitude":"-1.83869","bright_ti4":"295.92","scan":"0.59","track":"0.7","acq_date":"2026-06-29","acq_time":"334","satellite":"N20","instrument":"VIIRS","confidence":"n","version":"2.0NRT","bright_ti5":"283.94","frp":"1.47","daynight":"N","commune":"Les Pieux","code_insee":"50402","departement":"Manche","region":"Normandie"}},{"type":"Feature","geometry":{"type":"Point","coordinates":[2.29257,51.03434]},"properties":{"latitude":"51.03434","longitude":"2.29257","bright_ti4":"310.13","scan":"0.73","track":"0.76","acq_date":"2026-06-29","acq_time":"334","satellite":"N20","instrument":"VIIRS","confidence":"n","version":"2.0NRT","bright_ti5":"288.07","frp":"3.08","daynight":"N","commune":"Grande-Synthe","code_insee":"59271","departement":"Nord","region":"Hauts-de-France"}},{"type":"Feature","geometry":{"type":"Point","coordinates":[2.28856,51.03547]},"properties":{"latitude":"51.03547","longitude":"2.28856","bright_ti4":"316.35","scan":"0.73","track":"0.76","acq_date":"2026-06-29","acq_time":"334","satellite":"N20","instrument":"VIIRS","confidence":"n","version":"2.0NRT","bright_ti5":"287.47","frp":"3.7","daynight":"N","commune":"Grande-Synthe","code_insee":"59271","departement":"Nord","region":"Hauts-de-France"}},{"type":"Feature","geometry":{"type":"Point","coordinates":[2.30059,51.04734]},"properties":{"latitude":"51.04734","longitude":"2.30059","bright_ti4":"334.59","scan":"0.73","track":"0.76","acq_date":"2026-06-29","acq_time":"334","satellite":"N20","instrument":"VIIRS","confidence":"n","version":"2.0NRT","bright_ti5":"287.92","frp":"6","daynight":"N","commune":"Grande-Synthe","code_insee":"59271","departement":"Nord","region":"Hauts-de-France"}},{"type":"Feature","geometry":{"type":"Point","coordinates":[2.29519,51.04331]},"properties":{"latitude":"51.04331","longitude":"2.29519","bright_ti4":"341.78","scan":"0.63","track":"0.54","acq_date":"2026-06-29","acq_time":"1142","satellite":"N20","instrument":"VIIRS","confidence":"n","version":"2.0NRT","bright_ti5":"305","frp":"5.17","daynight":"D","commune":"Grande-Synthe","code_insee":"59271","departement":"Nord","region":"Hauts-de-France"}},{"type":"Feature","geometry":{"type":"Point","coordinates":[2.30345,51.04567]},"properties":{"latitude":"51.04567","longitude":"2.30345","bright_ti4":"333.86","scan":"0.63","track":"0.54","acq_date":"2026-06-29","acq_time":"1142","satellite":"N20","instrument":"VIIRS","confidence":"n","version":"2.0NRT","bright_ti5":"302.39","frp":"5.17","daynight":"D","commune":"Grande-Synthe","code_insee":"59271","departement":"Nord","region":"Hauts-de-France"}},{"type":"Feature","geometry":{"type":"Point","coordinates":[4.89775,43.44569]},"properties":{"latitude":"43.44569","longitude":"4.89775","bright_ti4":"339.76","scan":"0.32","track":"0.55","acq_date":"2026-06-29","acq_time":"1321","satellite":"N20","instrument":"VIIRS","confidence":"n","version":"2.0NRT","bright_ti5":"295.11","frp":"3.23","daynight":"D","commune":"Fos-sur-Mer","code_insee":"13039","departement":"Bouches-du-Rhône","region":"Provence-Alpes-Côte d'Azur"}},{"type":"Feature","geometry":{"type":"Point","coordinates":[5.19741,45.36721]},"properties":{"latitude":"45.36721","longitude":"5.19741","bright_ti4":"351.34","scan":"0.35","track":"0.56","acq_date":"2026-06-29","acq_time":"1323","satellite":"N20","instrument":"VIIRS","confidence":"n","version":"2.0NRT","bright_ti5":"295.33","frp":"13.49","daynight":"D","commune":"Sardieu","code_insee":"38473","departement":"Isère","region":"Auvergne-Rhône-Alpes"}},{"type":"Feature","geometry":{"type":"Point","coordinates":[5.20187,45.36742]},"properties":{"latitude":"45.36742","longitude":"5.20187","bright_ti4":"355.37","scan":"0.35","track":"0.56","acq_date":"2026-06-29","acq_time":"1323","satellite":"N20","instrument":"VIIRS","confidence":"n","version":"2.0NRT","bright_ti5":"299.94","frp":"26.42","daynight":"D","commune":"Sardieu","code_insee":"38473","departement":"Isère","region":"Auvergne-Rhône-Alpes"}},{"type":"Feature","geometry":{"type":"Point","coordinates":[0.77061,45.38322]},"properties":{"latitude":"45.38322","longitude":"0.77061","bright_ti4":"332.26","scan":"0.42","track":"0.46","acq_date":"2026-06-29","acq_time":"1323","satellite":"N20","instrument":"VIIRS","confidence":"n","version":"2.0NRT","bright_ti5":"296.62","frp":"3.69","daynight":"D","commune":"La Chapelle-Faucher","code_insee":"24107","departement":"Dordogne","region":"Nouvelle-Aquitaine"}},{"type":"Feature","geometry":{"type":"Point","coordinates":[0.76988,45.38741]},"properties":{"latitude":"45.38741","longitude":"0.76988","bright_ti4":"341.81","scan":"0.42","track":"0.46","acq_date":"2026-06-29","acq_time":"1323","satellite":"N20","instrument":"VIIRS","confidence":"n","version":"2.0NRT","bright_ti5":"298.64","frp":"3.69","daynight":"D","commune":"La Chapelle-Faucher","code_insee":"24107","departement":"Dordogne","region":"Nouvelle-Aquitaine"}},{"type":"Feature","geometry":{"type":"Point","coordinates":[-0.43165,45.5598]},"properties":{"latitude":"45.5598","longitude":"-0.43165","bright_ti4":"331.72","scan":"0.57","track":"0.43","acq_date":"2026-06-29","acq_time":"1323","satellite":"N20","instrument":"VIIRS","confidence":"n","version":"2.0NRT","bright_ti5":"301.57","frp":"4.73","daynight":"D","commune":"Jarnac-Champagne","code_insee":"17192","departement":"Charente-Maritime","region":"Nouvelle-Aquitaine"}},{"type":"Feature","geometry":{"type":"Point","coordinates":[3.56543,50.40068]},"properties":{"latitude":"50.40068","longitude":"3.56543","bright_ti4":"327.73","scan":"0.32","track":"0.54","acq_date":"2026-06-29","acq_time":"1323","satellite":"N20","instrument":"VIIRS","confidence":"l","version":"2.0NRT","bright_ti5":"300.9","frp":"3.08","daynight":"D","commune":"Saint-Saulve","code_insee":"59544","departement":"Nord","region":"Hauts-de-France"}},{"type":"Feature","geometry":{"type":"Point","coordinates":[2.28729,51.03482]},"properties":{"latitude":"51.03482","longitude":"2.28729","bright_ti4":"334.09","scan":"0.57","track":"0.52","acq_date":"2026-06-29","acq_time":"1323","satellite":"N20","instrument":"VIIRS","confidence":"l","version":"2.0NRT","bright_ti5":"305.24","frp":"5.53","daynight":"D","commune":"Grande-Synthe","code_insee":"59271","departement":"Nord","region":"Hauts-de-France"}},{"type":"Feature","geometry":{"type":"Point","coordinates":[2.29567,51.04432]},"properties":{"latitude":"51.04432","longitude":"2.29567","bright_ti4":"341.61","scan":"0.57","track":"0.52","acq_date":"2026-06-29","acq_time":"1323","satellite":"N20","instrument":"VIIRS","confidence":"n","version":"2.0NRT","bright_ti5":"302.62","frp":"9.91","daynight":"D","commune":"Grande-Synthe","code_insee":"59271","departement":"Nord","region":"Hauts-de-France"}},{"type":"Feature","geometry":{"type":"Point","coordinates":[2.29429,51.04486]},"properties":{"latitude":"51.04486","longitude":"2.29429","bright_ti4":"339.56","scan":"0.57","track":"0.52","acq_date":"2026-06-29","acq_time":"1323","satellite":"N20","instrument":"VIIRS","confidence":"n","version":"2.0NRT","bright_ti5":"300.65","frp":"2.07","daynight":"D","commune":"Grande-Synthe","code_insee":"59271","departement":"Nord","region":"Hauts-de-France"}},{"type":"Feature","geometry":{"type":"Point","coordinates":[-1.84408,49.5004]},"properties":{"latitude":"49.5004","longitude":"-1.84408","bright_ti4":"301.39","scan":"0.6","track":"0.71","acq_date":"2026-06-29","acq_time":"100","satellite":"N21","instrument":"VIIRS","confidence":"n","version":"2.0NRT","bright_ti5":"284.14","frp":"1.75","daynight":"N","commune":"Les Pieux","code_insee":"50402","departement":"Manche","region":"Normandie"}},{"type":"Feature","geometry":{"type":"Point","coordinates":[-1.84513,49.50611]},"properties":{"latitude":"49.50611","longitude":"-1.84513","bright_ti4":"301.02","scan":"0.6","track":"0.71","acq_date":"2026-06-29","acq_time":"100","satellite":"N21","instrument":"VIIRS","confidence":"n","version":"2.0NRT","bright_ti5":"283.8","frp":"1.09","daynight":"N","commune":"Les Pieux","code_insee":"50402","departement":"Manche","region":"Normandie"}},{"type":"Feature","geometry":{"type":"Point","coordinates":[2.26858,51.01475]},"properties":{"latitude":"51.01475","longitude":"2.26858","bright_ti4":"306.95","scan":"0.4","track":"0.6","acq_date":"2026-06-29","acq_time":"100","satellite":"N21","instrument":"VIIRS","confidence":"n","version":"2.0NRT","bright_ti5":"284.88","frp":"0.93","daynight":"N","commune":"Grande-Synthe","code_insee":"59271","departement":"Nord","region":"Hauts-de-France"}},{"type":"Feature","geometry":{"type":"Point","coordinates":[2.26799,51.01506]},"properties":{"latitude":"51.01506","longitude":"2.26799","bright_ti4":"307.22","scan":"0.4","track":"0.6","acq_date":"2026-06-29","acq_time":"100","satellite":"N21","instrument":"VIIRS","confidence":"n","version":"2.0NRT","bright_ti5":"285.06","frp":"1.04","daynight":"N","commune":"Grande-Synthe","code_insee":"59271","departement":"Nord","region":"Hauts-de-France"}},{"type":"Feature","geometry":{"type":"Point","coordinates":[2.26936,51.02579]},"properties":{"latitude":"51.02579","longitude":"2.26936","bright_ti4":"297.98","scan":"0.4","track":"0.6","acq_date":"2026-06-29","acq_time":"100","satellite":"N21","instrument":"VIIRS","confidence":"n","version":"2.0NRT","bright_ti5":"285.54","frp":"0.59","daynight":"N","commune":"Grande-Synthe","code_insee":"59271","departement":"Nord","region":"Hauts-de-France"}},{"type":"Feature","geometry":{"type":"Point","coordinates":[2.28687,51.0309]},"properties":{"latitude":"51.0309","longitude":"2.28687","bright_ti4":"326.11","scan":"0.4","track":"0.6","acq_date":"2026-06-29","acq_time":"100","satellite":"N21","instrument":"VIIRS","confidence":"n","version":"2.0NRT","bright_ti5":"286.62","frp":"3.36","daynight":"N","commune":"Grande-Synthe","code_insee":"59271","departement":"Nord","region":"Hauts-de-France"}},{"type":"Feature","geometry":{"type":"Point","coordinates":[2.2872,51.03642]},"properties":{"latitude":"51.03642","longitude":"2.2872","bright_ti4":"335.16","scan":"0.4","track":"0.6","acq_date":"2026-06-29","acq_time":"100","satellite":"N21","instrument":"VIIRS","confidence":"n","version":"2.0NRT","bright_ti5":"288.26","frp":"3.36","daynight":"N","commune":"Grande-Synthe","code_insee":"59271","departement":"Nord","region":"Hauts-de-France"}},{"type":"Feature","geometry":{"type":"Point","coordinates":[2.29895,51.04165]},"properties":{"latitude":"51.04165","longitude":"2.29895","bright_ti4":"308.26","scan":"0.4","track":"0.6","acq_date":"2026-06-29","acq_time":"100","satellite":"N21","instrument":"VIIRS","confidence":"n","version":"2.0NRT","bright_ti5":"286.35","frp":"2.36","daynight":"N","commune":"Grande-Synthe","code_insee":"59271","departement":"Nord","region":"Hauts-de-France"}},{"type":"Feature","geometry":{"type":"Point","coordinates":[2.32213,51.04659]},"properties":{"latitude":"51.04659","longitude":"2.32213","bright_ti4":"299.63","scan":"0.4","track":"0.6","acq_date":"2026-06-29","acq_time":"100","satellite":"N21","instrument":"VIIRS","confidence":"n","version":"2.0NRT","bright_ti5":"285.96","frp":"0.53","daynight":"N","commune":"Dunkerque","code_insee":"59183","departement":"Nord","region":"Hauts-de-France"}},{"type":"Feature","geometry":{"type":"Point","coordinates":[2.29927,51.04717]},"properties":{"latitude":"51.04717","longitude":"2.29927","bright_ti4":"314.3","scan":"0.4","track":"0.6","acq_date":"2026-06-29","acq_time":"100","satellite":"N21","instrument":"VIIRS","confidence":"n","version":"2.0NRT","bright_ti5":"286.06","frp":"2.36","daynight":"N","commune":"Grande-Synthe","code_insee":"59271","departement":"Nord","region":"Hauts-de-France"}},{"type":"Feature","geometry":{"type":"Point","coordinates":[2.29354,51.04731]},"properties":{"latitude":"51.04731","longitude":"2.29354","bright_ti4":"324.4","scan":"0.4","track":"0.6","acq_date":"2026-06-29","acq_time":"100","satellite":"N21","instrument":"VIIRS","confidence":"n","version":"2.0NRT","bright_ti5":"286.53","frp":"5.18","daynight":"N","commune":"Grande-Synthe","code_insee":"59271","departement":"Nord","region":"Hauts-de-France"}},{"type":"Feature","geometry":{"type":"Point","coordinates":[0.98905,43.18368]},"properties":{"latitude":"43.18368","longitude":"0.98905","bright_ti4":"295.46","scan":"0.41","track":"0.61","acq_date":"2026-06-29","acq_time":"102","satellite":"N21","instrument":"VIIRS","confidence":"n","version":"2.0NRT","bright_ti5":"277.55","frp":"0.97","daynight":"N","commune":"Martres-Tolosane","code_insee":"31324","departement":"Haute-Garonne","region":"Occitanie"}},{"type":"Feature","geometry":{"type":"Point","coordinates":[0.98926,43.18476]},"properties":{"latitude":"43.18476","longitude":"0.98926","bright_ti4":"295.73","scan":"0.41","track":"0.6","acq_date":"2026-06-29","acq_time":"102","satellite":"N21","instrument":"VIIRS","confidence":"n","version":"2.0NRT","bright_ti5":"277.68","frp":"0.66","daynight":"N","commune":"Martres-Tolosane","code_insee":"31324","departement":"Haute-Garonne","region":"Occitanie"}},{"type":"Feature","geometry":{"type":"Point","coordinates":[4.88843,43.43726]},"properties":{"latitude":"43.43726","longitude":"4.88843","bright_ti4":"312.68","scan":"0.52","track":"0.5","acq_date":"2026-06-29","acq_time":"102","satellite":"N21","instrument":"VIIRS","confidence":"n","version":"2.0NRT","bright_ti5":"294.05","frp":"3.74","daynight":"N","commune":"Fos-sur-Mer","code_insee":"13039","departement":"Bouches-du-Rhône","region":"Provence-Alpes-Côte d'Azur"}},{"type":"Feature","geometry":{"type":"Point","coordinates":[4.88903,43.44183]},"properties":{"latitude":"43.44183","longitude":"4.88903","bright_ti4":"311.7","scan":"0.52","track":"0.5","acq_date":"2026-06-29","acq_time":"102","satellite":"N21","instrument":"VIIRS","confidence":"n","version":"2.0NRT","bright_ti5":"294.12","frp":"2.73","daynight":"N","commune":"Fos-sur-Mer","code_insee":"13039","departement":"Bouches-du-Rhône","region":"Provence-Alpes-Côte d'Azur"}},{"type":"Feature","geometry":{"type":"Point","coordinates":[4.90244,43.44545]},"properties":{"latitude":"43.44545","longitude":"4.90244","bright_ti4":"306.21","scan":"0.52","track":"0.5","acq_date":"2026-06-29","acq_time":"102","satellite":"N21","instrument":"VIIRS","confidence":"n","version":"2.0NRT","bright_ti5":"293.43","frp":"3.22","daynight":"N","commune":"Fos-sur-Mer","code_insee":"13039","departement":"Bouches-du-Rhône","region":"Provence-Alpes-Côte d'Azur"}},{"type":"Feature","geometry":{"type":"Point","coordinates":[4.89607,43.44593]},"properties":{"latitude":"43.44593","longitude":"4.89607","bright_ti4":"321.35","scan":"0.52","track":"0.5","acq_date":"2026-06-29","acq_time":"102","satellite":"N21","instrument":"VIIRS","confidence":"n","version":"2.0NRT","bright_ti5":"294.56","frp":"3.22","daynight":"N","commune":"Fos-sur-Mer","code_insee":"13039","departement":"Bouches-du-Rhône","region":"Provence-Alpes-Côte d'Azur"}},{"type":"Feature","geometry":{"type":"Point","coordinates":[4.70332,43.60268]},"properties":{"latitude":"43.60268","longitude":"4.70332","bright_ti4":"319.36","scan":"0.53","track":"0.5","acq_date":"2026-06-29","acq_time":"102","satellite":"N21","instrument":"VIIRS","confidence":"n","version":"2.0NRT","bright_ti5":"292.31","frp":"3.34","daynight":"N","commune":"Arles","code_insee":"13004","departement":"Bouches-du-Rhône","region":"Provence-Alpes-Côte d'Azur"}},{"type":"Feature","geometry":{"type":"Point","coordinates":[4.70148,43.60378]},"properties":{"latitude":"43.60378","longitude":"4.70148","bright_ti4":"329.85","scan":"0.53","track":"0.5","acq_date":"2026-06-29","acq_time":"102","satellite":"N21","instrument":"VIIRS","confidence":"n","version":"2.0NRT","bright_ti5":"292.35","frp":"5.26","daynight":"N","commune":"Arles","code_insee":"13004","departement":"Bouches-du-Rhône","region":"Provence-Alpes-Côte d'Azur"}},{"type":"Feature","geometry":{"type":"Point","coordinates":[4.70392,43.6073]},"properties":{"latitude":"43.6073","longitude":"4.70392","bright_ti4":"306.67","scan":"0.53","track":"0.5","acq_date":"2026-06-29","acq_time":"102","satellite":"N21","instrument":"VIIRS","confidence":"n","version":"2.0NRT","bright_ti5":"291.27","frp":"3.34","daynight":"N","commune":"Arles","code_insee":"13004","departement":"Bouches-du-Rhône","region":"Provence-Alpes-Côte d'Azur"}},{"type":"Feature","geometry":{"type":"Point","coordinates":[7.37216,43.79309]},"properties":{"latitude":"43.79309","longitude":"7.37216","bright_ti4":"306.46","scan":"0.4","track":"0.44","acq_date":"2026-06-29","acq_time":"102","satellite":"N21","instrument":"VIIRS","confidence":"n","version":"2.0NRT","bright_ti5":"293.63","frp":"1.25","daynight":"N","commune":"Blausasc","code_insee":"06019","departement":"Alpes-Maritimes","region":"Provence-Alpes-Côte d'Azur"}},{"type":"Feature","geometry":{"type":"Point","coordinates":[2.63873,45.37743]},"properties":{"latitude":"45.37743","longitude":"2.63873","bright_ti4":"324.68","scan":"0.35","track":"0.57","acq_date":"2026-06-29","acq_time":"102","satellite":"N21","instrument":"VIIRS","confidence":"n","version":"2.0NRT","bright_ti5":"276.95","frp":"2.46","daynight":"N","commune":"Trémouille","code_insee":"15240","departement":"Cantal","region":"Auvergne-Rhône-Alpes"}},{"type":"Feature","geometry":{"type":"Point","coordinates":[-2.05826,47.31618]},"properties":{"latitude":"47.31618","longitude":"-2.05826","bright_ti4":"313.36","scan":"0.61","track":"0.71","acq_date":"2026-06-29","acq_time":"102","satellite":"N21","instrument":"VIIRS","confidence":"n","version":"2.0NRT","bright_ti5":"284.41","frp":"1.98","daynight":"N","commune":"Donges","code_insee":"44052","departement":"Loire-Atlantique","region":"Pays de la Loire"}},{"type":"Feature","geometry":{"type":"Point","coordinates":[-2.05682,47.31705]},"properties":{"latitude":"47.31705","longitude":"-2.05682","bright_ti4":"309.8","scan":"0.61","track":"0.71","acq_date":"2026-06-29","acq_time":"102","satellite":"N21","instrument":"VIIRS","confidence":"n","version":"2.0NRT","bright_ti5":"283.98","frp":"1.85","daynight":"N","commune":"Donges","code_insee":"44052","departement":"Loire-Atlantique","region":"Pays de la Loire"}},{"type":"Feature","geometry":{"type":"Point","coordinates":[2.64013,45.37438]},"properties":{"latitude":"45.37438","longitude":"2.64013","bright_ti4":"295.93","scan":"0.36","track":"0.57","acq_date":"2026-06-29","acq_time":"241","satellite":"N21","instrument":"VIIRS","confidence":"n","version":"2.0NRT","bright_ti5":"283.99","frp":"0.39","daynight":"N","commune":"Champs-sur-Tarentaine-Marchal","code_insee":"15038","departement":"Cantal","region":"Auvergne-Rhône-Alpes"}},{"type":"Feature","geometry":{"type":"Point","coordinates":[2.28292,51.03107]},"properties":{"latitude":"51.03107","longitude":"2.28292","bright_ti4":"306.64","scan":"0.47","track":"0.48","acq_date":"2026-06-29","acq_time":"241","satellite":"N21","instrument":"VIIRS","confidence":"n","version":"2.0NRT","bright_ti5":"289.09","frp":"2.01","daynight":"N","commune":"Grande-Synthe","code_insee":"59271","departement":"Nord","region":"Hauts-de-France"}},{"type":"Feature","geometry":{"type":"Point","coordinates":[2.27665,51.03264]},"properties":{"latitude":"51.03264","longitude":"2.27665","bright_ti4":"316.82","scan":"0.47","track":"0.48","acq_date":"2026-06-29","acq_time":"241","satellite":"N21","instrument":"VIIRS","confidence":"n","version":"2.0NRT","bright_ti5":"288.27","frp":"2.01","daynight":"N","commune":"Grande-Synthe","code_insee":"59271","departement":"Nord","region":"Hauts-de-France"}},{"type":"Feature","geometry":{"type":"Point","coordinates":[2.28556,51.03514]},"properties":{"latitude":"51.03514","longitude":"2.28556","bright_ti4":"334.02","scan":"0.47","track":"0.48","acq_date":"2026-06-29","acq_time":"241","satellite":"N21","instrument":"VIIRS","confidence":"n","version":"2.0NRT","bright_ti5":"291.57","frp":"3.8","daynight":"N","commune":"Grande-Synthe","code_insee":"59271","departement":"Nord","region":"Hauts-de-France"}},{"type":"Feature","geometry":{"type":"Point","coordinates":[2.28596,51.03633]},"properties":{"latitude":"51.03633","longitude":"2.28596","bright_ti4":"333.09","scan":"0.47","track":"0.48","acq_date":"2026-06-29","acq_time":"241","satellite":"N21","instrument":"VIIRS","confidence":"n","version":"2.0NRT","bright_ti5":"291.26","frp":"5.73","daynight":"N","commune":"Grande-Synthe","code_insee":"59271","departement":"Nord","region":"Hauts-de-France"}},{"type":"Feature","geometry":{"type":"Point","coordinates":[2.29716,51.04172]},"properties":{"latitude":"51.04172","longitude":"2.29716","bright_ti4":"313.44","scan":"0.47","track":"0.48","acq_date":"2026-06-29","acq_time":"241","satellite":"N21","instrument":"VIIRS","confidence":"n","version":"2.0NRT","bright_ti5":"290.9","frp":"2.79","daynight":"N","commune":"Grande-Synthe","code_insee":"59271","departement":"Nord","region":"Hauts-de-France"}},{"type":"Feature","geometry":{"type":"Point","coordinates":[2.2975,51.04288]},"properties":{"latitude":"51.04288","longitude":"2.2975","bright_ti4":"342.22","scan":"0.47","track":"0.48","acq_date":"2026-06-29","acq_time":"241","satellite":"N21","instrument":"VIIRS","confidence":"n","version":"2.0NRT","bright_ti5":"292.47","frp":"6.32","daynight":"N","commune":"Grande-Synthe","code_insee":"59271","departement":"Nord","region":"Hauts-de-France"}},{"type":"Feature","geometry":{"type":"Point","coordinates":[2.29088,51.04329]},"properties":{"latitude":"51.04329","longitude":"2.29088","bright_ti4":"306.68","scan":"0.47","track":"0.48","acq_date":"2026-06-29","acq_time":"241","satellite":"N21","instrument":"VIIRS","confidence":"n","version":"2.0NRT","bright_ti5":"288.66","frp":"2.82","daynight":"N","commune":"Grande-Synthe","code_insee":"59271","departement":"Nord","region":"Hauts-de-France"}},{"type":"Feature","geometry":{"type":"Point","coordinates":[2.3061,51.04422]},"properties":{"latitude":"51.04422","longitude":"2.3061","bright_ti4":"299.76","scan":"0.47","track":"0.48","acq_date":"2026-06-29","acq_time":"241","satellite":"N21","instrument":"VIIRS","confidence":"n","version":"2.0NRT","bright_ti5":"288.18","frp":"2.79","daynight":"N","commune":"Dunkerque","code_insee":"59183","departement":"Nord","region":"Hauts-de-France"}},{"type":"Feature","geometry":{"type":"Point","coordinates":[2.29125,51.04448]},"properties":{"latitude":"51.04448","longitude":"2.29125","bright_ti4":"305.27","scan":"0.47","track":"0.48","acq_date":"2026-06-29","acq_time":"241","satellite":"N21","instrument":"VIIRS","confidence":"n","version":"2.0NRT","bright_ti5":"288.79","frp":"6.32","daynight":"N","commune":"Grande-Synthe","code_insee":"59271","departement":"Nord","region":"Hauts-de-France"}},{"type":"Feature","geometry":{"type":"Point","coordinates":[2.30641,51.04535]},"properties":{"latitude":"51.04535","longitude":"2.30641","bright_ti4":"298.14","scan":"0.47","track":"0.48","acq_date":"2026-06-29","acq_time":"241","satellite":"N21","instrument":"VIIRS","confidence":"n","version":"2.0NRT","bright_ti5":"288.01","frp":"1.17","daynight":"N","commune":"Dunkerque","code_insee":"59183","departement":"Nord","region":"Hauts-de-France"}},{"type":"Feature","geometry":{"type":"Point","coordinates":[2.29981,51.04579]},"properties":{"latitude":"51.04579","longitude":"2.29981","bright_ti4":"337.6","scan":"0.47","track":"0.48","acq_date":"2026-06-29","acq_time":"241","satellite":"N21","instrument":"VIIRS","confidence":"n","version":"2.0NRT","bright_ti5":"289.81","frp":"2.79","daynight":"N","commune":"Grande-Synthe","code_insee":"59271","departement":"Nord","region":"Hauts-de-France"}},{"type":"Feature","geometry":{"type":"Point","coordinates":[2.32158,51.04622]},"properties":{"latitude":"51.04622","longitude":"2.32158","bright_ti4":"319.51","scan":"0.47","track":"0.48","acq_date":"2026-06-29","acq_time":"241","satellite":"N21","instrument":"VIIRS","confidence":"n","version":"2.0NRT","bright_ti5":"290.84","frp":"2.56","daynight":"N","commune":"Dunkerque","code_insee":"59183","departement":"Nord","region":"Hauts-de-France"}},{"type":"Feature","geometry":{"type":"Point","coordinates":[2.29355,51.04736]},"properties":{"latitude":"51.04736","longitude":"2.29355","bright_ti4":"303.51","scan":"0.47","track":"0.48","acq_date":"2026-06-29","acq_time":"241","satellite":"N21","instrument":"VIIRS","confidence":"n","version":"2.0NRT","bright_ti5":"290.75","frp":"2.82","daynight":"N","commune":"Grande-Synthe","code_insee":"59271","departement":"Nord","region":"Hauts-de-France"}},{"type":"Feature","geometry":{"type":"Point","coordinates":[-1.03617,48.10635]},"properties":{"latitude":"48.10635","longitude":"-1.03617","bright_ti4":"301.9","scan":"0.41","track":"0.45","acq_date":"2026-06-29","acq_time":"243","satellite":"N21","instrument":"VIIRS","confidence":"n","version":"2.0NRT","bright_ti5":"287.48","frp":"1.08","daynight":"N","commune":"Saint-Pierre-la-Cour","code_insee":"53247","departement":"Mayenne","region":"Pays de la Loire"}},{"type":"Feature","geometry":{"type":"Point","coordinates":[1.76158,48.98005]},"properties":{"latitude":"48.98005","longitude":"1.76158","bright_ti4":"298.79","scan":"0.51","track":"0.5","acq_date":"2026-06-29","acq_time":"243","satellite":"N21","instrument":"VIIRS","confidence":"n","version":"2.0NRT","bright_ti5":"286.87","frp":"0.81","daynight":"N","commune":"Porcheville","code_insee":"78501","departement":"Yvelines","region":"Île-de-France"}},{"type":"Feature","geometry":{"type":"Point","coordinates":[1.75746,48.98405]},"properties":{"latitude":"48.98405","longitude":"1.75746","bright_ti4":"308.95","scan":"0.51","track":"0.5","acq_date":"2026-06-29","acq_time":"243","satellite":"N21","instrument":"VIIRS","confidence":"n","version":"2.0NRT","bright_ti5":"287.56","frp":"2.86","daynight":"N","commune":"Limay","code_insee":"78335","departement":"Yvelines","region":"Île-de-France"}},{"type":"Feature","geometry":{"type":"Point","coordinates":[1.76398,48.98433]},"properties":{"latitude":"48.98433","longitude":"1.76398","bright_ti4":"298.48","scan":"0.51","track":"0.5","acq_date":"2026-06-29","acq_time":"243","satellite":"N21","instrument":"VIIRS","confidence":"n","version":"2.0NRT","bright_ti5":"286.69","frp":"0.81","daynight":"N","commune":"Porcheville","code_insee":"78501","departement":"Yvelines","region":"Île-de-France"}},{"type":"Feature","geometry":{"type":"Point","coordinates":[0.53314,49.47565]},"properties":{"latitude":"49.47565","longitude":"0.53314","bright_ti4":"305.57","scan":"0.44","track":"0.46","acq_date":"2026-06-29","acq_time":"243","satellite":"N21","instrument":"VIIRS","confidence":"n","version":"2.0NRT","bright_ti5":"288.19","frp":"1.79","daynight":"N","commune":"Lillebonne","code_insee":"76384","departement":"Seine-Maritime","region":"Normandie"}},{"type":"Feature","geometry":{"type":"Point","coordinates":[-1.84052,49.5004]},"properties":{"latitude":"49.5004","longitude":"-1.84052","bright_ti4":"315.29","scan":"0.54","track":"0.42","acq_date":"2026-06-29","acq_time":"243","satellite":"N21","instrument":"VIIRS","confidence":"n","version":"2.0NRT","bright_ti5":"286.65","frp":"2.38","daynight":"N","commune":"Les Pieux","code_insee":"50402","departement":"Manche","region":"Normandie"}},{"type":"Feature","geometry":{"type":"Point","coordinates":[-1.83897,49.50196]},"properties":{"latitude":"49.50196","longitude":"-1.83897","bright_ti4":"306.3","scan":"0.54","track":"0.42","acq_date":"2026-06-29","acq_time":"243","satellite":"N21","instrument":"VIIRS","confidence":"n","version":"2.0NRT","bright_ti5":"285.52","frp":"2.24","daynight":"N","commune":"Les Pieux","code_insee":"50402","departement":"Manche","region":"Normandie"}},{"type":"Feature","geometry":{"type":"Point","coordinates":[-1.84576,49.50345]},"properties":{"latitude":"49.50345","longitude":"-1.84576","bright_ti4":"314.34","scan":"0.54","track":"0.42","acq_date":"2026-06-29","acq_time":"243","satellite":"N21","instrument":"VIIRS","confidence":"n","version":"2.0NRT","bright_ti5":"286.66","frp":"2.97","daynight":"N","commune":"Les Pieux","code_insee":"50402","departement":"Manche","region":"Normandie"}},{"type":"Feature","geometry":{"type":"Point","coordinates":[-0.8781,45.53814]},"properties":{"latitude":"45.53814","longitude":"-0.8781","bright_ti4":"332.59","scan":"0.55","track":"0.43","acq_date":"2026-06-29","acq_time":"1227","satellite":"N21","instrument":"VIIRS","confidence":"n","version":"2.0NRT","bright_ti5":"301.4","frp":"3.18","daynight":"D","commune":"Barzan","code_insee":"17034","departement":"Charente-Maritime","region":"Nouvelle-Aquitaine"}},{"type":"Feature","geometry":{"type":"Point","coordinates":[2.9808,48.38691]},"properties":{"latitude":"48.38691","longitude":"2.9808","bright_ti4":"339.04","scan":"0.39","track":"0.36","acq_date":"2026-06-29","acq_time":"1227","satellite":"N21","instrument":"VIIRS","confidence":"n","version":"2.0NRT","bright_ti5":"308.48","frp":"2.9","daynight":"D","commune":"Montereau-Fault-Yonne","code_insee":"77305","departement":"Seine-et-Marne","region":"Île-de-France"}},{"type":"Feature","geometry":{"type":"Point","coordinates":[3.26181,50.13029]},"properties":{"latitude":"50.13029","longitude":"3.26181","bright_ti4":"344.01","scan":"0.39","track":"0.36","acq_date":"2026-06-29","acq_time":"1227","satellite":"N21","instrument":"VIIRS","confidence":"n","version":"2.0NRT","bright_ti5":"303.49","frp":"4.24","daynight":"D","commune":"Séranvillers-Forenville","code_insee":"59567","departement":"Nord","region":"Hauts-de-France"}},{"type":"Feature","geometry":{"type":"Point","coordinates":[2.27628,51.03329]},"properties":{"latitude":"51.03329","longitude":"2.27628","bright_ti4":"338.03","scan":"0.39","track":"0.36","acq_date":"2026-06-29","acq_time":"1227","satellite":"N21","instrument":"VIIRS","confidence":"n","version":"2.0NRT","bright_ti5":"309.6","frp":"3.2","daynight":"D","commune":"Grande-Synthe","code_insee":"59271","departement":"Nord","region":"Hauts-de-France"}},{"type":"Feature","geometry":{"type":"Point","coordinates":[2.28709,51.03508]},"properties":{"latitude":"51.03508","longitude":"2.28709","bright_ti4":"339.26","scan":"0.39","track":"0.36","acq_date":"2026-06-29","acq_time":"1227","satellite":"N21","instrument":"VIIRS","confidence":"l","version":"2.0NRT","bright_ti5":"311.18","frp":"4.46","daynight":"D","commune":"Grande-Synthe","code_insee":"59271","departement":"Nord","region":"Hauts-de-France"}},{"type":"Feature","geometry":{"type":"Point","coordinates":[2.28034,51.03743]},"properties":{"latitude":"51.03743","longitude":"2.28034","bright_ti4":"335.77","scan":"0.39","track":"0.36","acq_date":"2026-06-29","acq_time":"1227","satellite":"N21","instrument":"VIIRS","confidence":"n","version":"2.0NRT","bright_ti5":"309.43","frp":"4.46","daynight":"D","commune":"Grande-Synthe","code_insee":"59271","departement":"Nord","region":"Hauts-de-France"}},{"type":"Feature","geometry":{"type":"Point","coordinates":[2.29522,51.04335]},"properties":{"latitude":"51.04335","longitude":"2.29522","bright_ti4":"338.1","scan":"0.39","track":"0.36","acq_date":"2026-06-29","acq_time":"1227","satellite":"N21","instrument":"VIIRS","confidence":"l","version":"2.0NRT","bright_ti5":"309.29","frp":"7.36","daynight":"D","commune":"Grande-Synthe","code_insee":"59271","departement":"Nord","region":"Hauts-de-France"}},{"type":"Feature","geometry":{"type":"Point","coordinates":[2.32224,51.0478]},"properties":{"latitude":"51.0478","longitude":"2.32224","bright_ti4":"336.28","scan":"0.39","track":"0.36","acq_date":"2026-06-29","acq_time":"1227","satellite":"N21","instrument":"VIIRS","confidence":"n","version":"2.0NRT","bright_ti5":"306.54","frp":"3.13","daynight":"D","commune":"Dunkerque","code_insee":"59183","departement":"Nord","region":"Hauts-de-France"}}]}