{"type":"FeatureCollection","features":[{"type":"Feature","geometry":{"type":"Point","coordinates":[7.3727,43.79335]},"properties":{"latitude":"43.79335","longitude":"7.3727","bright_ti4":"296.63","scan":"0.39","track":"0.36","acq_date":"2026-08-21","acq_time":"143","satellite":"N","instrument":"VIIRS","confidence":"n","version":"2.0NRT","bright_ti5":"270.67","frp":"0.76","daynight":"N","commune":"Blausasc","code_insee":"06019","departement":"Alpes-Maritimes","region":"Provence-Alpes-Côte d'Azur"}},{"type":"Feature","geometry":{"type":"Point","coordinates":[6.11695,48.60932]},"properties":{"latitude":"48.60932","longitude":"6.11695","bright_ti4":"296.22","scan":"0.4","track":"0.37","acq_date":"2026-08-21","acq_time":"143","satellite":"N","instrument":"VIIRS","confidence":"n","version":"2.0NRT","bright_ti5":"270.88","frp":"0.73","daynight":"N","commune":"Neuves-Maisons","code_insee":"54397","departement":"Meurthe-et-Moselle","region":"Grand Est"}},{"type":"Feature","geometry":{"type":"Point","coordinates":[6.11157,48.61008]},"properties":{"latitude":"48.61008","longitude":"6.11157","bright_ti4":"306.74","scan":"0.4","track":"0.37","acq_date":"2026-08-21","acq_time":"143","satellite":"N","instrument":"VIIRS","confidence":"n","version":"2.0NRT","bright_ti5":"272.94","frp":"0.73","daynight":"N","commune":"Neuves-Maisons","code_insee":"54397","departement":"Meurthe-et-Moselle","region":"Grand Est"}},{"type":"Feature","geometry":{"type":"Point","coordinates":[6.09896,49.32629]},"properties":{"latitude":"49.32629","longitude":"6.09896","bright_ti4":"296.71","scan":"0.4","track":"0.37","acq_date":"2026-08-21","acq_time":"143","satellite":"N","instrument":"VIIRS","confidence":"n","version":"2.0NRT","bright_ti5":"284.09","frp":"0.52","daynight":"N","commune":"Serémange-Erzange","code_insee":"57647","departement":"Moselle","region":"Grand Est"}},{"type":"Feature","geometry":{"type":"Point","coordinates":[2.11403,50.69618]},"properties":{"latitude":"50.69618","longitude":"2.11403","bright_ti4":"296.35","scan":"0.54","track":"0.42","acq_date":"2026-08-21","acq_time":"143","satellite":"N","instrument":"VIIRS","confidence":"n","version":"2.0NRT","bright_ti5":"283.82","frp":"0.53","daynight":"N","commune":"Lumbres","code_insee":"62534","departement":"Pas-de-Calais","region":"Hauts-de-France"}},{"type":"Feature","geometry":{"type":"Point","coordinates":[2.27004,51.02587]},"properties":{"latitude":"51.02587","longitude":"2.27004","bright_ti4":"295.79","scan":"0.54","track":"0.42","acq_date":"2026-08-21","acq_time":"143","satellite":"N","instrument":"VIIRS","confidence":"n","version":"2.0NRT","bright_ti5":"282.88","frp":"0.81","daynight":"N","commune":"Grande-Synthe","code_insee":"59271","departement":"Nord","region":"Hauts-de-France"}},{"type":"Feature","geometry":{"type":"Point","coordinates":[2.27098,51.02976]},"properties":{"latitude":"51.02976","longitude":"2.27098","bright_ti4":"300.06","scan":"0.54","track":"0.42","acq_date":"2026-08-21","acq_time":"143","satellite":"N","instrument":"VIIRS","confidence":"n","version":"2.0NRT","bright_ti5":"283.63","frp":"0.81","daynight":"N","commune":"Grande-Synthe","code_insee":"59271","departement":"Nord","region":"Hauts-de-France"}},{"type":"Feature","geometry":{"type":"Point","coordinates":[2.28637,51.0356]},"properties":{"latitude":"51.0356","longitude":"2.28637","bright_ti4":"303.98","scan":"0.54","track":"0.42","acq_date":"2026-08-21","acq_time":"143","satellite":"N","instrument":"VIIRS","confidence":"n","version":"2.0NRT","bright_ti5":"283.24","frp":"2.15","daynight":"N","commune":"Grande-Synthe","code_insee":"59271","departement":"Nord","region":"Hauts-de-France"}},{"type":"Feature","geometry":{"type":"Point","coordinates":[2.28835,51.036]},"properties":{"latitude":"51.036","longitude":"2.28835","bright_ti4":"305.85","scan":"0.54","track":"0.42","acq_date":"2026-08-21","acq_time":"143","satellite":"N","instrument":"VIIRS","confidence":"n","version":"2.0NRT","bright_ti5":"283.56","frp":"2.13","daynight":"N","commune":"Grande-Synthe","code_insee":"59271","departement":"Nord","region":"Hauts-de-France"}},{"type":"Feature","geometry":{"type":"Point","coordinates":[2.29703,51.03911]},"properties":{"latitude":"51.03911","longitude":"2.29703","bright_ti4":"297.62","scan":"0.54","track":"0.42","acq_date":"2026-08-21","acq_time":"143","satellite":"N","instrument":"VIIRS","confidence":"n","version":"2.0NRT","bright_ti5":"283.64","frp":"1.29","daynight":"N","commune":"Grande-Synthe","code_insee":"59271","departement":"Nord","region":"Hauts-de-France"}},{"type":"Feature","geometry":{"type":"Point","coordinates":[2.29602,51.04263]},"properties":{"latitude":"51.04263","longitude":"2.29602","bright_ti4":"301.84","scan":"0.54","track":"0.42","acq_date":"2026-08-21","acq_time":"143","satellite":"N","instrument":"VIIRS","confidence":"n","version":"2.0NRT","bright_ti5":"283.4","frp":"2.28","daynight":"N","commune":"Grande-Synthe","code_insee":"59271","departement":"Nord","region":"Hauts-de-France"}},{"type":"Feature","geometry":{"type":"Point","coordinates":[2.29798,51.043]},"properties":{"latitude":"51.043","longitude":"2.29798","bright_ti4":"310.61","scan":"0.54","track":"0.42","acq_date":"2026-08-21","acq_time":"143","satellite":"N","instrument":"VIIRS","confidence":"n","version":"2.0NRT","bright_ti5":"284.26","frp":"1.29","daynight":"N","commune":"Grande-Synthe","code_insee":"59271","departement":"Nord","region":"Hauts-de-France"}},{"type":"Feature","geometry":{"type":"Point","coordinates":[2.29696,51.04651]},"properties":{"latitude":"51.04651","longitude":"2.29696","bright_ti4":"330.04","scan":"0.54","track":"0.42","acq_date":"2026-08-21","acq_time":"143","satellite":"N","instrument":"VIIRS","confidence":"n","version":"2.0NRT","bright_ti5":"284.1","frp":"2.28","daynight":"N","commune":"Grande-Synthe","code_insee":"59271","departement":"Nord","region":"Hauts-de-France"}},{"type":"Feature","geometry":{"type":"Point","coordinates":[2.29893,51.04688]},"properties":{"latitude":"51.04688","longitude":"2.29893","bright_ti4":"325.08","scan":"0.54","track":"0.42","acq_date":"2026-08-21","acq_time":"143","satellite":"N","instrument":"VIIRS","confidence":"n","version":"2.0NRT","bright_ti5":"285.09","frp":"3.35","daynight":"N","commune":"Grande-Synthe","code_insee":"59271","departement":"Nord","region":"Hauts-de-France"}},{"type":"Feature","geometry":{"type":"Point","coordinates":[2.3211,51.04818]},"properties":{"latitude":"51.04818","longitude":"2.3211","bright_ti4":"303.5","scan":"0.54","track":"0.42","acq_date":"2026-08-21","acq_time":"143","satellite":"N","instrument":"VIIRS","confidence":"n","version":"2.0NRT","bright_ti5":"284.19","frp":"1.91","daynight":"N","commune":"Dunkerque","code_insee":"59183","departement":"Nord","region":"Hauts-de-France"}},{"type":"Feature","geometry":{"type":"Point","coordinates":[2.323,51.04845]},"properties":{"latitude":"51.04845","longitude":"2.323","bright_ti4":"301.7","scan":"0.54","track":"0.42","acq_date":"2026-08-21","acq_time":"143","satellite":"N","instrument":"VIIRS","confidence":"n","version":"2.0NRT","bright_ti5":"283.47","frp":"2.13","daynight":"N","commune":"Dunkerque","code_insee":"59183","departement":"Nord","region":"Hauts-de-France"}},{"type":"Feature","geometry":{"type":"Point","coordinates":[2.27346,51.02922]},"properties":{"latitude":"51.02922","longitude":"2.27346","bright_ti4":"296.66","scan":"0.48","track":"0.64","acq_date":"2026-08-21","acq_time":"323","satellite":"N","instrument":"VIIRS","confidence":"n","version":"2.0NRT","bright_ti5":"283.22","frp":"2.78","daynight":"N","commune":"Grande-Synthe","code_insee":"59271","departement":"Nord","region":"Hauts-de-France"}},{"type":"Feature","geometry":{"type":"Point","coordinates":[2.2705,51.03325]},"properties":{"latitude":"51.03325","longitude":"2.2705","bright_ti4":"299.77","scan":"0.48","track":"0.64","acq_date":"2026-08-21","acq_time":"323","satellite":"N","instrument":"VIIRS","confidence":"n","version":"2.0NRT","bright_ti5":"283.57","frp":"1.33","daynight":"N","commune":"Grande-Synthe","code_insee":"59271","departement":"Nord","region":"Hauts-de-France"}},{"type":"Feature","geometry":{"type":"Point","coordinates":[2.28746,51.03434]},"properties":{"latitude":"51.03434","longitude":"2.28746","bright_ti4":"306.57","scan":"0.48","track":"0.65","acq_date":"2026-08-21","acq_time":"323","satellite":"N","instrument":"VIIRS","confidence":"n","version":"2.0NRT","bright_ti5":"284.09","frp":"1.84","daynight":"N","commune":"Grande-Synthe","code_insee":"59271","departement":"Nord","region":"Hauts-de-France"}},{"type":"Feature","geometry":{"type":"Point","coordinates":[2.28126,51.03645]},"properties":{"latitude":"51.03645","longitude":"2.28126","bright_ti4":"311.36","scan":"0.48","track":"0.64","acq_date":"2026-08-21","acq_time":"323","satellite":"N","instrument":"VIIRS","confidence":"n","version":"2.0NRT","bright_ti5":"283.36","frp":"1.33","daynight":"N","commune":"Grande-Synthe","code_insee":"59271","departement":"Nord","region":"Hauts-de-France"}},{"type":"Feature","geometry":{"type":"Point","coordinates":[2.27192,51.03665]},"properties":{"latitude":"51.03665","longitude":"2.27192","bright_ti4":"301.46","scan":"0.48","track":"0.64","acq_date":"2026-08-21","acq_time":"323","satellite":"N","instrument":"VIIRS","confidence":"n","version":"2.0NRT","bright_ti5":"283.45","frp":"1.78","daynight":"N","commune":"Grande-Synthe","code_insee":"59271","departement":"Nord","region":"Hauts-de-France"}},{"type":"Feature","geometry":{"type":"Point","coordinates":[2.28882,51.03769]},"properties":{"latitude":"51.03769","longitude":"2.28882","bright_ti4":"303.07","scan":"0.48","track":"0.64","acq_date":"2026-08-21","acq_time":"323","satellite":"N","instrument":"VIIRS","confidence":"n","version":"2.0NRT","bright_ti5":"283.47","frp":"1.66","daynight":"N","commune":"Grande-Synthe","code_insee":"59271","departement":"Nord","region":"Hauts-de-France"}},{"type":"Feature","geometry":{"type":"Point","coordinates":[2.28267,51.03982]},"properties":{"latitude":"51.03982","longitude":"2.28267","bright_ti4":"301.13","scan":"0.48","track":"0.64","acq_date":"2026-08-21","acq_time":"323","satellite":"N","instrument":"VIIRS","confidence":"n","version":"2.0NRT","bright_ti5":"282.88","frp":"1.66","daynight":"N","commune":"Grande-Synthe","code_insee":"59271","departement":"Nord","region":"Hauts-de-France"}},{"type":"Feature","geometry":{"type":"Point","coordinates":[2.29958,51.04087]},"properties":{"latitude":"51.04087","longitude":"2.29958","bright_ti4":"304.88","scan":"0.48","track":"0.65","acq_date":"2026-08-21","acq_time":"323","satellite":"N","instrument":"VIIRS","confidence":"n","version":"2.0NRT","bright_ti5":"284.2","frp":"3.48","daynight":"N","commune":"Grande-Synthe","code_insee":"59271","departement":"Nord","region":"Hauts-de-France"}},{"type":"Feature","geometry":{"type":"Point","coordinates":[2.30293,51.04282]},"properties":{"latitude":"51.04282","longitude":"2.30293","bright_ti4":"300.62","scan":"0.48","track":"0.65","acq_date":"2026-08-21","acq_time":"323","satellite":"N","instrument":"VIIRS","confidence":"n","version":"2.0NRT","bright_ti5":"283.85","frp":"3.51","daynight":"N","commune":"Grande-Synthe","code_insee":"59271","departement":"Nord","region":"Hauts-de-France"}},{"type":"Feature","geometry":{"type":"Point","coordinates":[2.2934,51.043]},"properties":{"latitude":"51.043","longitude":"2.2934","bright_ti4":"321.69","scan":"0.48","track":"0.64","acq_date":"2026-08-21","acq_time":"323","satellite":"N","instrument":"VIIRS","confidence":"n","version":"2.0NRT","bright_ti5":"284.18","frp":"1.66","daynight":"N","commune":"Grande-Synthe","code_insee":"59271","departement":"Nord","region":"Hauts-de-France"}},{"type":"Feature","geometry":{"type":"Point","coordinates":[2.29673,51.04493]},"properties":{"latitude":"51.04493","longitude":"2.29673","bright_ti4":"352.39","scan":"0.48","track":"0.65","acq_date":"2026-08-21","acq_time":"323","satellite":"N","instrument":"VIIRS","confidence":"n","version":"2.0NRT","bright_ti5":"285.27","frp":"3.51","daynight":"N","commune":"Grande-Synthe","code_insee":"59271","departement":"Nord","region":"Hauts-de-France"}},{"type":"Feature","geometry":{"type":"Point","coordinates":[2.32116,51.0472]},"properties":{"latitude":"51.0472","longitude":"2.32116","bright_ti4":"333.27","scan":"0.48","track":"0.65","acq_date":"2026-08-21","acq_time":"323","satellite":"N","instrument":"VIIRS","confidence":"n","version":"2.0NRT","bright_ti5":"284.91","frp":"3.75","daynight":"N","commune":"Dunkerque","code_insee":"59183","departement":"Nord","region":"Hauts-de-France"}},{"type":"Feature","geometry":{"type":"Point","coordinates":[2.32468,51.04918]},"properties":{"latitude":"51.04918","longitude":"2.32468","bright_ti4":"329.89","scan":"0.48","track":"0.65","acq_date":"2026-08-21","acq_time":"323","satellite":"N","instrument":"VIIRS","confidence":"n","version":"2.0NRT","bright_ti5":"284.93","frp":"4.79","daynight":"N","commune":"Dunkerque","code_insee":"59183","departement":"Nord","region":"Hauts-de-France"}},{"type":"Feature","geometry":{"type":"Point","coordinates":[6.14667,49.31966]},"properties":{"latitude":"49.31966","longitude":"6.14667","bright_ti4":"302.12","scan":"0.44","track":"0.38","acq_date":"2026-08-21","acq_time":"202","satellite":"N20","instrument":"VIIRS","confidence":"n","version":"2.0NRT","bright_ti5":"282.64","frp":"0.81","daynight":"N","commune":"Florange","code_insee":"57221","departement":"Moselle","region":"Grand Est"}},{"type":"Feature","geometry":{"type":"Point","coordinates":[6.09849,49.32545]},"properties":{"latitude":"49.32545","longitude":"6.09849","bright_ti4":"306.01","scan":"0.44","track":"0.38","acq_date":"2026-08-21","acq_time":"202","satellite":"N20","instrument":"VIIRS","confidence":"n","version":"2.0NRT","bright_ti5":"280.02","frp":"0.88","daynight":"N","commune":"Serémange-Erzange","code_insee":"57647","departement":"Moselle","region":"Grand Est"}},{"type":"Feature","geometry":{"type":"Point","coordinates":[3.56258,50.4031]},"properties":{"latitude":"50.4031","longitude":"3.56258","bright_ti4":"329.63","scan":"0.39","track":"0.36","acq_date":"2026-08-21","acq_time":"202","satellite":"N20","instrument":"VIIRS","confidence":"n","version":"2.0NRT","bright_ti5":"281.31","frp":"3.73","daynight":"N","commune":"Saint-Saulve","code_insee":"59544","departement":"Nord","region":"Hauts-de-France"}},{"type":"Feature","geometry":{"type":"Point","coordinates":[2.27086,51.02735]},"properties":{"latitude":"51.02735","longitude":"2.27086","bright_ti4":"302.93","scan":"0.39","track":"0.36","acq_date":"2026-08-21","acq_time":"202","satellite":"N20","instrument":"VIIRS","confidence":"n","version":"2.0NRT","bright_ti5":"284.19","frp":"1.27","daynight":"N","commune":"Grande-Synthe","code_insee":"59271","departement":"Nord","region":"Hauts-de-France"}},{"type":"Feature","geometry":{"type":"Point","coordinates":[2.25597,51.03308]},"properties":{"latitude":"51.03308","longitude":"2.25597","bright_ti4":"307.39","scan":"0.39","track":"0.36","acq_date":"2026-08-21","acq_time":"202","satellite":"N20","instrument":"VIIRS","confidence":"n","version":"2.0NRT","bright_ti5":"285.83","frp":"1.01","daynight":"N","commune":"Dunkerque","code_insee":"59183","departement":"Nord","region":"Hauts-de-France"}},{"type":"Feature","geometry":{"type":"Point","coordinates":[2.28002,51.03627]},"properties":{"latitude":"51.03627","longitude":"2.28002","bright_ti4":"313.76","scan":"0.39","track":"0.36","acq_date":"2026-08-21","acq_time":"202","satellite":"N20","instrument":"VIIRS","confidence":"n","version":"2.0NRT","bright_ti5":"284.55","frp":"1.68","daynight":"N","commune":"Grande-Synthe","code_insee":"59271","departement":"Nord","region":"Hauts-de-France"}},{"type":"Feature","geometry":{"type":"Point","coordinates":[2.29458,51.04436]},"properties":{"latitude":"51.04436","longitude":"2.29458","bright_ti4":"325.3","scan":"0.38","track":"0.36","acq_date":"2026-08-21","acq_time":"202","satellite":"N20","instrument":"VIIRS","confidence":"n","version":"2.0NRT","bright_ti5":"285.16","frp":"3.95","daynight":"N","commune":"Grande-Synthe","code_insee":"59271","departement":"Nord","region":"Hauts-de-France"}},{"type":"Feature","geometry":{"type":"Point","coordinates":[2.29583,51.04761]},"properties":{"latitude":"51.04761","longitude":"2.29583","bright_ti4":"329.23","scan":"0.38","track":"0.36","acq_date":"2026-08-21","acq_time":"202","satellite":"N20","instrument":"VIIRS","confidence":"n","version":"2.0NRT","bright_ti5":"289.02","frp":"3.95","daynight":"N","commune":"Grande-Synthe","code_insee":"59271","departement":"Nord","region":"Hauts-de-France"}},{"type":"Feature","geometry":{"type":"Point","coordinates":[2.98485,48.38832]},"properties":{"latitude":"48.38832","longitude":"2.98485","bright_ti4":"305.47","scan":"0.39","track":"0.36","acq_date":"2026-08-21","acq_time":"204","satellite":"N20","instrument":"VIIRS","confidence":"n","version":"2.0NRT","bright_ti5":"276.16","frp":"1.28","daynight":"N","commune":"Montereau-Fault-Yonne","code_insee":"77305","departement":"Seine-et-Marne","region":"Île-de-France"}},{"type":"Feature","geometry":{"type":"Point","coordinates":[-2.98065,48.07029]},"properties":{"latitude":"48.07029","longitude":"-2.98065","bright_ti4":"301.33","scan":"0.7","track":"0.75","acq_date":"2026-08-21","acq_time":"345","satellite":"N20","instrument":"VIIRS","confidence":"n","version":"2.0NRT","bright_ti5":"280.65","frp":"1.07","daynight":"N","commune":"Pontivy","code_insee":"56178","departement":"Morbihan","region":"Bretagne"}},{"type":"Feature","geometry":{"type":"Point","coordinates":[-2.97737,48.07113]},"properties":{"latitude":"48.07113","longitude":"-2.97737","bright_ti4":"302.51","scan":"0.7","track":"0.75","acq_date":"2026-08-21","acq_time":"345","satellite":"N20","instrument":"VIIRS","confidence":"n","version":"2.0NRT","bright_ti5":"280.78","frp":"1.4","daynight":"N","commune":"Pontivy","code_insee":"56178","departement":"Morbihan","region":"Bretagne"}},{"type":"Feature","geometry":{"type":"Point","coordinates":[4.88781,43.4356]},"properties":{"latitude":"43.4356","longitude":"4.88781","bright_ti4":"335.08","scan":"0.42","track":"0.45","acq_date":"2026-08-21","acq_time":"107","satellite":"N21","instrument":"VIIRS","confidence":"n","version":"2.0NRT","bright_ti5":"288.25","frp":"6.27","daynight":"N","commune":"Fos-sur-Mer","code_insee":"13039","departement":"Bouches-du-Rhône","region":"Provence-Alpes-Côte d'Azur"}},{"type":"Feature","geometry":{"type":"Point","coordinates":[4.87806,43.44068]},"properties":{"latitude":"43.44068","longitude":"4.87806","bright_ti4":"338.93","scan":"0.42","track":"0.45","acq_date":"2026-08-21","acq_time":"107","satellite":"N21","instrument":"VIIRS","confidence":"n","version":"2.0NRT","bright_ti5":"288.97","frp":"14.72","daynight":"N","commune":"Fos-sur-Mer","code_insee":"13039","departement":"Bouches-du-Rhône","region":"Provence-Alpes-Côte d'Azur"}},{"type":"Feature","geometry":{"type":"Point","coordinates":[4.89961,43.44302]},"properties":{"latitude":"43.44302","longitude":"4.89961","bright_ti4":"320","scan":"0.42","track":"0.45","acq_date":"2026-08-21","acq_time":"107","satellite":"N21","instrument":"VIIRS","confidence":"n","version":"2.0NRT","bright_ti5":"288.83","frp":"2.05","daynight":"N","commune":"Fos-sur-Mer","code_insee":"13039","departement":"Bouches-du-Rhône","region":"Provence-Alpes-Côte d'Azur"}},{"type":"Feature","geometry":{"type":"Point","coordinates":[4.87874,43.44485]},"properties":{"latitude":"43.44485","longitude":"4.87874","bright_ti4":"340.7","scan":"0.42","track":"0.45","acq_date":"2026-08-21","acq_time":"107","satellite":"N21","instrument":"VIIRS","confidence":"n","version":"2.0NRT","bright_ti5":"288.56","frp":"14.72","daynight":"N","commune":"Fos-sur-Mer","code_insee":"13039","departement":"Bouches-du-Rhône","region":"Provence-Alpes-Côte d'Azur"}},{"type":"Feature","geometry":{"type":"Point","coordinates":[4.89509,43.44764]},"properties":{"latitude":"43.44764","longitude":"4.89509","bright_ti4":"338.24","scan":"0.42","track":"0.45","acq_date":"2026-08-21","acq_time":"107","satellite":"N21","instrument":"VIIRS","confidence":"n","version":"2.0NRT","bright_ti5":"290.1","frp":"9.24","daynight":"N","commune":"Fos-sur-Mer","code_insee":"13039","departement":"Bouches-du-Rhône","region":"Provence-Alpes-Côte d'Azur"}},{"type":"Feature","geometry":{"type":"Point","coordinates":[6.11212,48.61061]},"properties":{"latitude":"48.61061","longitude":"6.11212","bright_ti4":"299.91","scan":"0.42","track":"0.45","acq_date":"2026-08-21","acq_time":"107","satellite":"N21","instrument":"VIIRS","confidence":"n","version":"2.0NRT","bright_ti5":"274.72","frp":"1.18","daynight":"N","commune":"Neuves-Maisons","code_insee":"54397","departement":"Meurthe-et-Moselle","region":"Grand Est"}},{"type":"Feature","geometry":{"type":"Point","coordinates":[2.11141,50.69934]},"properties":{"latitude":"50.69934","longitude":"2.11141","bright_ti4":"296.14","scan":"0.33","track":"0.56","acq_date":"2026-08-21","acq_time":"107","satellite":"N21","instrument":"VIIRS","confidence":"n","version":"2.0NRT","bright_ti5":"280.88","frp":"0.71","daynight":"N","commune":"Lumbres","code_insee":"62534","departement":"Pas-de-Calais","region":"Hauts-de-France"}},{"type":"Feature","geometry":{"type":"Point","coordinates":[2.27025,51.0295]},"properties":{"latitude":"51.0295","longitude":"2.27025","bright_ti4":"301.12","scan":"0.55","track":"0.51","acq_date":"2026-08-21","acq_time":"247","satellite":"N21","instrument":"VIIRS","confidence":"n","version":"2.0NRT","bright_ti5":"285.62","frp":"1.42","daynight":"N","commune":"Grande-Synthe","code_insee":"59271","departement":"Nord","region":"Hauts-de-France"}},{"type":"Feature","geometry":{"type":"Point","coordinates":[2.27328,51.03384]},"properties":{"latitude":"51.03384","longitude":"2.27328","bright_ti4":"304.3","scan":"0.55","track":"0.51","acq_date":"2026-08-21","acq_time":"247","satellite":"N21","instrument":"VIIRS","confidence":"n","version":"2.0NRT","bright_ti5":"285.34","frp":"1.42","daynight":"N","commune":"Grande-Synthe","code_insee":"59271","departement":"Nord","region":"Hauts-de-France"}},{"type":"Feature","geometry":{"type":"Point","coordinates":[2.29091,51.0342]},"properties":{"latitude":"51.0342","longitude":"2.29091","bright_ti4":"301.73","scan":"0.55","track":"0.51","acq_date":"2026-08-21","acq_time":"247","satellite":"N21","instrument":"VIIRS","confidence":"n","version":"2.0NRT","bright_ti5":"285.45","frp":"1.92","daynight":"N","commune":"Grande-Synthe","code_insee":"59271","departement":"Nord","region":"Hauts-de-France"}},{"type":"Feature","geometry":{"type":"Point","coordinates":[2.28358,51.03619]},"properties":{"latitude":"51.03619","longitude":"2.28358","bright_ti4":"309.13","scan":"0.55","track":"0.51","acq_date":"2026-08-21","acq_time":"247","satellite":"N21","instrument":"VIIRS","confidence":"n","version":"2.0NRT","bright_ti5":"285.4","frp":"2.53","daynight":"N","commune":"Grande-Synthe","code_insee":"59271","departement":"Nord","region":"Hauts-de-France"}},{"type":"Feature","geometry":{"type":"Point","coordinates":[2.29696,51.04288]},"properties":{"latitude":"51.04288","longitude":"2.29696","bright_ti4":"343.31","scan":"0.55","track":"0.51","acq_date":"2026-08-21","acq_time":"247","satellite":"N21","instrument":"VIIRS","confidence":"n","version":"2.0NRT","bright_ti5":"289.61","frp":"8.71","daynight":"N","commune":"Grande-Synthe","code_insee":"59271","departement":"Nord","region":"Hauts-de-France"}},{"type":"Feature","geometry":{"type":"Point","coordinates":[2.31769,51.04758]},"properties":{"latitude":"51.04758","longitude":"2.31769","bright_ti4":"321.5","scan":"0.56","track":"0.51","acq_date":"2026-08-21","acq_time":"247","satellite":"N21","instrument":"VIIRS","confidence":"n","version":"2.0NRT","bright_ti5":"287.58","frp":"5.49","daynight":"N","commune":"Dunkerque","code_insee":"59183","departement":"Nord","region":"Hauts-de-France"}},{"type":"Feature","geometry":{"type":"Point","coordinates":[4.8892,43.43349]},"properties":{"latitude":"43.43349","longitude":"4.8892","bright_ti4":"335.97","scan":"0.35","track":"0.57","acq_date":"2026-08-21","acq_time":"1147","satellite":"N20","instrument":"VIIRS","confidence":"n","version":"2.0NRT","bright_ti5":"297.28","frp":"5.96","daynight":"D","commune":"Fos-sur-Mer","code_insee":"13039","departement":"Bouches-du-Rhône","region":"Provence-Alpes-Côte d'Azur"}},{"type":"Feature","geometry":{"type":"Point","coordinates":[4.88008,43.44217]},"properties":{"latitude":"43.44217","longitude":"4.88008","bright_ti4":"339.42","scan":"0.35","track":"0.57","acq_date":"2026-08-21","acq_time":"1147","satellite":"N20","instrument":"VIIRS","confidence":"n","version":"2.0NRT","bright_ti5":"299.99","frp":"25.49","daynight":"D","commune":"Fos-sur-Mer","code_insee":"13039","departement":"Bouches-du-Rhône","region":"Provence-Alpes-Côte d'Azur"}},{"type":"Feature","geometry":{"type":"Point","coordinates":[4.88413,43.44328]},"properties":{"latitude":"43.44328","longitude":"4.88413","bright_ti4":"367","scan":"0.35","track":"0.57","acq_date":"2026-08-21","acq_time":"1147","satellite":"N20","instrument":"VIIRS","confidence":"h","version":"2.0NRT","bright_ti5":"294.69","frp":"20.87","daynight":"D","commune":"Fos-sur-Mer","code_insee":"13039","departement":"Bouches-du-Rhône","region":"Provence-Alpes-Côte d'Azur"}},{"type":"Feature","geometry":{"type":"Point","coordinates":[2.93995,43.29708]},"properties":{"latitude":"43.29708","longitude":"2.93995","bright_ti4":"332.91","scan":"0.4","track":"0.37","acq_date":"2026-08-21","acq_time":"1234","satellite":"N21","instrument":"VIIRS","confidence":"n","version":"2.0NRT","bright_ti5":"303.54","frp":"3.82","daynight":"D","commune":"Ouveillan","code_insee":"11269","departement":"Aude","region":"Occitanie"}},{"type":"Feature","geometry":{"type":"Point","coordinates":[2.94475,43.2979]},"properties":{"latitude":"43.2979","longitude":"2.94475","bright_ti4":"334.06","scan":"0.4","track":"0.37","acq_date":"2026-08-21","acq_time":"1234","satellite":"N21","instrument":"VIIRS","confidence":"n","version":"2.0NRT","bright_ti5":"303.45","frp":"3.82","daynight":"D","commune":"Ouveillan","code_insee":"11269","departement":"Aude","region":"Occitanie"}},{"type":"Feature","geometry":{"type":"Point","coordinates":[2.9437,43.3012]},"properties":{"latitude":"43.3012","longitude":"2.9437","bright_ti4":"333.15","scan":"0.4","track":"0.37","acq_date":"2026-08-21","acq_time":"1234","satellite":"N21","instrument":"VIIRS","confidence":"n","version":"2.0NRT","bright_ti5":"302.81","frp":"3.82","daynight":"D","commune":"Ouveillan","code_insee":"11269","departement":"Aude","region":"Occitanie"}},{"type":"Feature","geometry":{"type":"Point","coordinates":[4.89037,43.43263]},"properties":{"latitude":"43.43263","longitude":"4.89037","bright_ti4":"344.31","scan":"0.38","track":"0.36","acq_date":"2026-08-21","acq_time":"1234","satellite":"N21","instrument":"VIIRS","confidence":"n","version":"2.0NRT","bright_ti5":"303.01","frp":"12.22","daynight":"D","commune":"Fos-sur-Mer","code_insee":"13039","departement":"Bouches-du-Rhône","region":"Provence-Alpes-Côte d'Azur"}},{"type":"Feature","geometry":{"type":"Point","coordinates":[4.89692,43.44383]},"properties":{"latitude":"43.44383","longitude":"4.89692","bright_ti4":"333.17","scan":"0.38","track":"0.36","acq_date":"2026-08-21","acq_time":"1234","satellite":"N21","instrument":"VIIRS","confidence":"n","version":"2.0NRT","bright_ti5":"299.41","frp":"3.64","daynight":"D","commune":"Fos-sur-Mer","code_insee":"13039","departement":"Bouches-du-Rhône","region":"Provence-Alpes-Côte d'Azur"}},{"type":"Feature","geometry":{"type":"Point","coordinates":[4.87729,43.44425]},"properties":{"latitude":"43.44425","longitude":"4.87729","bright_ti4":"295.91","scan":"0.38","track":"0.36","acq_date":"2026-08-21","acq_time":"1234","satellite":"N21","instrument":"VIIRS","confidence":"l","version":"2.0NRT","bright_ti5":"301.16","frp":"21.12","daynight":"D","commune":"Fos-sur-Mer","code_insee":"13039","departement":"Bouches-du-Rhône","region":"Provence-Alpes-Côte d'Azur"}},{"type":"Feature","geometry":{"type":"Point","coordinates":[4.88196,43.44496]},"properties":{"latitude":"43.44496","longitude":"4.88196","bright_ti4":"333.05","scan":"0.38","track":"0.36","acq_date":"2026-08-21","acq_time":"1234","satellite":"N21","instrument":"VIIRS","confidence":"n","version":"2.0NRT","bright_ti5":"301.7","frp":"21.12","daynight":"D","commune":"Fos-sur-Mer","code_insee":"13039","departement":"Bouches-du-Rhône","region":"Provence-Alpes-Côte d'Azur"}},{"type":"Feature","geometry":{"type":"Point","coordinates":[3.42974,43.5027]},"properties":{"latitude":"43.5027","longitude":"3.42974","bright_ti4":"351.12","scan":"0.39","track":"0.36","acq_date":"2026-08-21","acq_time":"1234","satellite":"N21","instrument":"VIIRS","confidence":"n","version":"2.0NRT","bright_ti5":"303.55","frp":"6.43","daynight":"D","commune":"Lézignan-la-Cèbe","code_insee":"34136","departement":"Hérault","region":"Occitanie"}},{"type":"Feature","geometry":{"type":"Point","coordinates":[3.56718,43.52522]},"properties":{"latitude":"43.52522","longitude":"3.56718","bright_ti4":"346.34","scan":"0.39","track":"0.36","acq_date":"2026-08-21","acq_time":"1234","satellite":"N21","instrument":"VIIRS","confidence":"n","version":"2.0NRT","bright_ti5":"301.24","frp":"6.43","daynight":"D","commune":"Saint-Pargoire","code_insee":"34281","departement":"Hérault","region":"Occitanie"}},{"type":"Feature","geometry":{"type":"Point","coordinates":[3.5719,43.52599]},"properties":{"latitude":"43.52599","longitude":"3.5719","bright_ti4":"335.36","scan":"0.39","track":"0.36","acq_date":"2026-08-21","acq_time":"1234","satellite":"N21","instrument":"VIIRS","confidence":"n","version":"2.0NRT","bright_ti5":"301.83","frp":"5.95","daynight":"D","commune":"Saint-Pargoire","code_insee":"34281","departement":"Hérault","region":"Occitanie"}},{"type":"Feature","geometry":{"type":"Point","coordinates":[0.81826,45.38535]},"properties":{"latitude":"45.38535","longitude":"0.81826","bright_ti4":"335.12","scan":"0.42","track":"0.38","acq_date":"2026-08-21","acq_time":"1234","satellite":"N21","instrument":"VIIRS","confidence":"n","version":"2.0NRT","bright_ti5":"302.03","frp":"2.92","daynight":"D","commune":"Saint-Pierre-de-Côle","code_insee":"24485","departement":"Dordogne","region":"Nouvelle-Aquitaine"}},{"type":"Feature","geometry":{"type":"Point","coordinates":[0.99696,46.95613]},"properties":{"latitude":"46.95613","longitude":"0.99696","bright_ti4":"335.77","scan":"0.4","track":"0.37","acq_date":"2026-08-21","acq_time":"1234","satellite":"N21","instrument":"VIIRS","confidence":"n","version":"2.0NRT","bright_ti5":"296.33","frp":"3.54","daynight":"D","commune":"Saint-Flovier","code_insee":"37218","departement":"Indre-et-Loire","region":"Centre-Val de Loire"}},{"type":"Feature","geometry":{"type":"Point","coordinates":[0.99572,46.95943]},"properties":{"latitude":"46.95943","longitude":"0.99572","bright_ti4":"346.25","scan":"0.4","track":"0.37","acq_date":"2026-08-21","acq_time":"1234","satellite":"N21","instrument":"VIIRS","confidence":"n","version":"2.0NRT","bright_ti5":"298.9","frp":"3.54","daynight":"D","commune":"Saint-Flovier","code_insee":"37218","departement":"Indre-et-Loire","region":"Centre-Val de Loire"}},{"type":"Feature","geometry":{"type":"Point","coordinates":[1.68559,47.27768]},"properties":{"latitude":"47.27768","longitude":"1.68559","bright_ti4":"349.84","scan":"0.39","track":"0.36","acq_date":"2026-08-21","acq_time":"1234","satellite":"N21","instrument":"VIIRS","confidence":"n","version":"2.0NRT","bright_ti5":"298.85","frp":"17.96","daynight":"D","commune":"Gièvres","code_insee":"41097","departement":"Loir-et-Cher","region":"Centre-Val de Loire"}},{"type":"Feature","geometry":{"type":"Point","coordinates":[1.05368,47.87753]},"properties":{"latitude":"47.87753","longitude":"1.05368","bright_ti4":"339.08","scan":"0.4","track":"0.37","acq_date":"2026-08-21","acq_time":"1234","satellite":"N21","instrument":"VIIRS","confidence":"n","version":"2.0NRT","bright_ti5":"303.54","frp":"21.64","daynight":"D","commune":"Rahart","code_insee":"41186","departement":"Loir-et-Cher","region":"Centre-Val de Loire"}},{"type":"Feature","geometry":{"type":"Point","coordinates":[1.05244,47.88081]},"properties":{"latitude":"47.88081","longitude":"1.05244","bright_ti4":"337.02","scan":"0.4","track":"0.37","acq_date":"2026-08-21","acq_time":"1234","satellite":"N21","instrument":"VIIRS","confidence":"n","version":"2.0NRT","bright_ti5":"302.98","frp":"21.64","daynight":"D","commune":"Danzé","code_insee":"41073","departement":"Loir-et-Cher","region":"Centre-Val de Loire"}},{"type":"Feature","geometry":{"type":"Point","coordinates":[-0.64214,48.0701]},"properties":{"latitude":"48.0701","longitude":"-0.64214","bright_ti4":"339.73","scan":"0.43","track":"0.38","acq_date":"2026-08-21","acq_time":"1234","satellite":"N21","instrument":"VIIRS","confidence":"n","version":"2.0NRT","bright_ti5":"297.41","frp":"5.98","daynight":"D","commune":"Argentré","code_insee":"53007","departement":"Mayenne","region":"Pays de la Loire"}},{"type":"Feature","geometry":{"type":"Point","coordinates":[2.98026,48.38614]},"properties":{"latitude":"48.38614","longitude":"2.98026","bright_ti4":"334.23","scan":"0.38","track":"0.36","acq_date":"2026-08-21","acq_time":"1234","satellite":"N21","instrument":"VIIRS","confidence":"l","version":"2.0NRT","bright_ti5":"304.55","frp":"3.23","daynight":"D","commune":"Montereau-Fault-Yonne","code_insee":"77305","departement":"Seine-et-Marne","region":"Île-de-France"}}]}