{"type":"FeatureCollection","features":[{"type":"Feature","geometry":{"type":"Point","coordinates":[2.27089,51.0322]},"properties":{"latitude":"51.0322","longitude":"2.27089","bright_ti4":"298.18","scan":"0.75","track":"0.77","acq_date":"2026-06-01","acq_time":"37","satellite":"N20","instrument":"VIIRS","confidence":"n","version":"2.0NRT","bright_ti5":"282.19","frp":"1.54","daynight":"N","commune":"Grande-Synthe","code_insee":"59271","departement":"Nord","region":"Hauts-de-France"}},{"type":"Feature","geometry":{"type":"Point","coordinates":[2.28146,51.03962]},"properties":{"latitude":"51.03962","longitude":"2.28146","bright_ti4":"295.9","scan":"0.74","track":"0.76","acq_date":"2026-06-01","acq_time":"37","satellite":"N20","instrument":"VIIRS","confidence":"n","version":"2.0NRT","bright_ti5":"281.81","frp":"1.54","daynight":"N","commune":"Grande-Synthe","code_insee":"59271","departement":"Nord","region":"Hauts-de-France"}},{"type":"Feature","geometry":{"type":"Point","coordinates":[2.29244,51.03992]},"properties":{"latitude":"51.03992","longitude":"2.29244","bright_ti4":"295.1","scan":"0.74","track":"0.76","acq_date":"2026-06-01","acq_time":"37","satellite":"N20","instrument":"VIIRS","confidence":"n","version":"2.0NRT","bright_ti5":"282.97","frp":"2.03","daynight":"N","commune":"Grande-Synthe","code_insee":"59271","departement":"Nord","region":"Hauts-de-France"}},{"type":"Feature","geometry":{"type":"Point","coordinates":[5.00572,43.38238]},"properties":{"latitude":"43.38238","longitude":"5.00572","bright_ti4":"302.92","scan":"0.53","track":"0.67","acq_date":"2026-06-01","acq_time":"39","satellite":"N20","instrument":"VIIRS","confidence":"n","version":"2.0NRT","bright_ti5":"290.95","frp":"0.66","daynight":"N","commune":"Martigues","code_insee":"13056","departement":"Bouches-du-Rhône","region":"Provence-Alpes-Côte d'Azur"}},{"type":"Feature","geometry":{"type":"Point","coordinates":[5.10736,43.39277]},"properties":{"latitude":"43.39277","longitude":"5.10736","bright_ti4":"317.28","scan":"0.52","track":"0.67","acq_date":"2026-06-01","acq_time":"39","satellite":"N20","instrument":"VIIRS","confidence":"n","version":"2.0NRT","bright_ti5":"290.47","frp":"1.21","daynight":"N","commune":"Châteauneuf-les-Martigues","code_insee":"13026","departement":"Bouches-du-Rhône","region":"Provence-Alpes-Côte d'Azur"}},{"type":"Feature","geometry":{"type":"Point","coordinates":[4.89369,43.43483]},"properties":{"latitude":"43.43483","longitude":"4.89369","bright_ti4":"303.12","scan":"0.54","track":"0.68","acq_date":"2026-06-01","acq_time":"39","satellite":"N20","instrument":"VIIRS","confidence":"n","version":"2.0NRT","bright_ti5":"290.96","frp":"1.71","daynight":"N","commune":"Fos-sur-Mer","code_insee":"13039","departement":"Bouches-du-Rhône","region":"Provence-Alpes-Côte d'Azur"}},{"type":"Feature","geometry":{"type":"Point","coordinates":[4.8891,43.43812]},"properties":{"latitude":"43.43812","longitude":"4.8891","bright_ti4":"308.84","scan":"0.54","track":"0.68","acq_date":"2026-06-01","acq_time":"39","satellite":"N20","instrument":"VIIRS","confidence":"n","version":"2.0NRT","bright_ti5":"290.72","frp":"2.83","daynight":"N","commune":"Fos-sur-Mer","code_insee":"13039","departement":"Bouches-du-Rhône","region":"Provence-Alpes-Côte d'Azur"}},{"type":"Feature","geometry":{"type":"Point","coordinates":[4.89399,43.44111]},"properties":{"latitude":"43.44111","longitude":"4.89399","bright_ti4":"303.39","scan":"0.54","track":"0.68","acq_date":"2026-06-01","acq_time":"39","satellite":"N20","instrument":"VIIRS","confidence":"n","version":"2.0NRT","bright_ti5":"290.76","frp":"2.16","daynight":"N","commune":"Fos-sur-Mer","code_insee":"13039","departement":"Bouches-du-Rhône","region":"Provence-Alpes-Côte d'Azur"}},{"type":"Feature","geometry":{"type":"Point","coordinates":[4.88715,43.44126]},"properties":{"latitude":"43.44126","longitude":"4.88715","bright_ti4":"305.18","scan":"0.54","track":"0.68","acq_date":"2026-06-01","acq_time":"39","satellite":"N20","instrument":"VIIRS","confidence":"n","version":"2.0NRT","bright_ti5":"289.84","frp":"1.21","daynight":"N","commune":"Fos-sur-Mer","code_insee":"13039","departement":"Bouches-du-Rhône","region":"Provence-Alpes-Côte d'Azur"}},{"type":"Feature","geometry":{"type":"Point","coordinates":[4.88036,43.4414]},"properties":{"latitude":"43.4414","longitude":"4.88036","bright_ti4":"306.04","scan":"0.54","track":"0.68","acq_date":"2026-06-01","acq_time":"39","satellite":"N20","instrument":"VIIRS","confidence":"n","version":"2.0NRT","bright_ti5":"290.28","frp":"1.21","daynight":"N","commune":"Fos-sur-Mer","code_insee":"13039","departement":"Bouches-du-Rhône","region":"Provence-Alpes-Côte d'Azur"}},{"type":"Feature","geometry":{"type":"Point","coordinates":[4.88938,43.4444]},"properties":{"latitude":"43.4444","longitude":"4.88938","bright_ti4":"304.62","scan":"0.54","track":"0.68","acq_date":"2026-06-01","acq_time":"39","satellite":"N20","instrument":"VIIRS","confidence":"n","version":"2.0NRT","bright_ti5":"290.1","frp":"0.98","daynight":"N","commune":"Fos-sur-Mer","code_insee":"13039","departement":"Bouches-du-Rhône","region":"Provence-Alpes-Côte d'Azur"}},{"type":"Feature","geometry":{"type":"Point","coordinates":[5.82016,45.91208]},"properties":{"latitude":"45.91208","longitude":"5.82016","bright_ti4":"295.41","scan":"0.5","track":"0.66","acq_date":"2026-06-01","acq_time":"39","satellite":"N20","instrument":"VIIRS","confidence":"n","version":"2.0NRT","bright_ti5":"284.96","frp":"1.28","daynight":"N","commune":"Anglefort","code_insee":"01010","departement":"Ain","region":"Auvergne-Rhône-Alpes"}},{"type":"Feature","geometry":{"type":"Point","coordinates":[3.42193,46.2527]},"properties":{"latitude":"46.2527","longitude":"3.42193","bright_ti4":"295.5","scan":"0.65","track":"0.73","acq_date":"2026-06-01","acq_time":"39","satellite":"N20","instrument":"VIIRS","confidence":"n","version":"2.0NRT","bright_ti5":"282.73","frp":"1.07","daynight":"N","commune":"Créchy","code_insee":"03091","departement":"Allier","region":"Auvergne-Rhône-Alpes"}},{"type":"Feature","geometry":{"type":"Point","coordinates":[6.10535,49.32672]},"properties":{"latitude":"49.32672","longitude":"6.10535","bright_ti4":"303.54","scan":"0.41","track":"0.45","acq_date":"2026-06-01","acq_time":"217","satellite":"N20","instrument":"VIIRS","confidence":"n","version":"2.0NRT","bright_ti5":"284.74","frp":"0.54","daynight":"N","commune":"Serémange-Erzange","code_insee":"57647","departement":"Moselle","region":"Grand Est"}},{"type":"Feature","geometry":{"type":"Point","coordinates":[3.49316,50.33657]},"properties":{"latitude":"50.33657","longitude":"3.49316","bright_ti4":"299.12","scan":"0.48","track":"0.4","acq_date":"2026-06-01","acq_time":"217","satellite":"N20","instrument":"VIIRS","confidence":"n","version":"2.0NRT","bright_ti5":"284.77","frp":"1.03","daynight":"N","commune":"Trith-Saint-Léger","code_insee":"59603","departement":"Nord","region":"Hauts-de-France"}},{"type":"Feature","geometry":{"type":"Point","coordinates":[3.49333,50.33695]},"properties":{"latitude":"50.33695","longitude":"3.49333","bright_ti4":"299.45","scan":"0.48","track":"0.4","acq_date":"2026-06-01","acq_time":"217","satellite":"N20","instrument":"VIIRS","confidence":"n","version":"2.0NRT","bright_ti5":"284.78","frp":"0.91","daynight":"N","commune":"Trith-Saint-Léger","code_insee":"59603","departement":"Nord","region":"Hauts-de-France"}},{"type":"Feature","geometry":{"type":"Point","coordinates":[1.89736,50.97193]},"properties":{"latitude":"50.97193","longitude":"1.89736","bright_ti4":"296.45","scan":"0.42","track":"0.38","acq_date":"2026-06-01","acq_time":"217","satellite":"N20","instrument":"VIIRS","confidence":"n","version":"2.0NRT","bright_ti5":"284.4","frp":"0.38","daynight":"N","commune":"Calais","code_insee":"62193","departement":"Pas-de-Calais","region":"Hauts-de-France"}},{"type":"Feature","geometry":{"type":"Point","coordinates":[2.28436,51.02514]},"properties":{"latitude":"51.02514","longitude":"2.28436","bright_ti4":"296.41","scan":"0.43","track":"0.38","acq_date":"2026-06-01","acq_time":"217","satellite":"N20","instrument":"VIIRS","confidence":"n","version":"2.0NRT","bright_ti5":"284.34","frp":"0.56","daynight":"N","commune":"Grande-Synthe","code_insee":"59271","departement":"Nord","region":"Hauts-de-France"}},{"type":"Feature","geometry":{"type":"Point","coordinates":[2.2725,51.02747]},"properties":{"latitude":"51.02747","longitude":"2.2725","bright_ti4":"298.58","scan":"0.43","track":"0.38","acq_date":"2026-06-01","acq_time":"217","satellite":"N20","instrument":"VIIRS","confidence":"n","version":"2.0NRT","bright_ti5":"284.44","frp":"0.8","daynight":"N","commune":"Grande-Synthe","code_insee":"59271","departement":"Nord","region":"Hauts-de-France"}},{"type":"Feature","geometry":{"type":"Point","coordinates":[2.27317,51.02996]},"properties":{"latitude":"51.02996","longitude":"2.27317","bright_ti4":"297.24","scan":"0.43","track":"0.38","acq_date":"2026-06-01","acq_time":"217","satellite":"N20","instrument":"VIIRS","confidence":"n","version":"2.0NRT","bright_ti5":"284.85","frp":"0.85","daynight":"N","commune":"Grande-Synthe","code_insee":"59271","departement":"Nord","region":"Hauts-de-France"}},{"type":"Feature","geometry":{"type":"Point","coordinates":[2.25535,51.03341]},"properties":{"latitude":"51.03341","longitude":"2.25535","bright_ti4":"306.27","scan":"0.43","track":"0.38","acq_date":"2026-06-01","acq_time":"217","satellite":"N20","instrument":"VIIRS","confidence":"n","version":"2.0NRT","bright_ti5":"285.27","frp":"0.89","daynight":"N","commune":"Dunkerque","code_insee":"59183","departement":"Nord","region":"Hauts-de-France"}},{"type":"Feature","geometry":{"type":"Point","coordinates":[2.25638,51.03433]},"properties":{"latitude":"51.03433","longitude":"2.25638","bright_ti4":"303.29","scan":"0.43","track":"0.38","acq_date":"2026-06-01","acq_time":"217","satellite":"N20","instrument":"VIIRS","confidence":"n","version":"2.0NRT","bright_ti5":"285.74","frp":"0.77","daynight":"N","commune":"Dunkerque","code_insee":"59183","departement":"Nord","region":"Hauts-de-France"}},{"type":"Feature","geometry":{"type":"Point","coordinates":[2.28931,51.03525]},"properties":{"latitude":"51.03525","longitude":"2.28931","bright_ti4":"312.6","scan":"0.43","track":"0.38","acq_date":"2026-06-01","acq_time":"217","satellite":"N20","instrument":"VIIRS","confidence":"n","version":"2.0NRT","bright_ti5":"286.33","frp":"1.29","daynight":"N","commune":"Grande-Synthe","code_insee":"59271","departement":"Nord","region":"Hauts-de-France"}},{"type":"Feature","geometry":{"type":"Point","coordinates":[2.29262,51.04199]},"properties":{"latitude":"51.04199","longitude":"2.29262","bright_ti4":"303.63","scan":"0.43","track":"0.38","acq_date":"2026-06-01","acq_time":"217","satellite":"N20","instrument":"VIIRS","confidence":"n","version":"2.0NRT","bright_ti5":"286.9","frp":"1.39","daynight":"N","commune":"Grande-Synthe","code_insee":"59271","departement":"Nord","region":"Hauts-de-France"}},{"type":"Feature","geometry":{"type":"Point","coordinates":[2.3002,51.0442]},"properties":{"latitude":"51.0442","longitude":"2.3002","bright_ti4":"330.04","scan":"0.43","track":"0.38","acq_date":"2026-06-01","acq_time":"217","satellite":"N20","instrument":"VIIRS","confidence":"n","version":"2.0NRT","bright_ti5":"288.04","frp":"8.91","daynight":"N","commune":"Grande-Synthe","code_insee":"59271","departement":"Nord","region":"Hauts-de-France"}},{"type":"Feature","geometry":{"type":"Point","coordinates":[2.31373,51.04525]},"properties":{"latitude":"51.04525","longitude":"2.31373","bright_ti4":"297.17","scan":"0.43","track":"0.38","acq_date":"2026-06-01","acq_time":"217","satellite":"N20","instrument":"VIIRS","confidence":"n","version":"2.0NRT","bright_ti5":"285.34","frp":"0.89","daynight":"N","commune":"Dunkerque","code_insee":"59183","departement":"Nord","region":"Hauts-de-France"}},{"type":"Feature","geometry":{"type":"Point","coordinates":[2.29428,51.04536]},"properties":{"latitude":"51.04536","longitude":"2.29428","bright_ti4":"328.43","scan":"0.43","track":"0.38","acq_date":"2026-06-01","acq_time":"217","satellite":"N20","instrument":"VIIRS","confidence":"n","version":"2.0NRT","bright_ti5":"286.87","frp":"8.91","daynight":"N","commune":"Grande-Synthe","code_insee":"59271","departement":"Nord","region":"Hauts-de-France"}},{"type":"Feature","geometry":{"type":"Point","coordinates":[2.31539,51.04861]},"properties":{"latitude":"51.04861","longitude":"2.31539","bright_ti4":"299.41","scan":"0.43","track":"0.38","acq_date":"2026-06-01","acq_time":"217","satellite":"N20","instrument":"VIIRS","confidence":"n","version":"2.0NRT","bright_ti5":"285.85","frp":"1.03","daynight":"N","commune":"Dunkerque","code_insee":"59183","departement":"Nord","region":"Hauts-de-France"}},{"type":"Feature","geometry":{"type":"Point","coordinates":[4.89101,43.42963]},"properties":{"latitude":"43.42963","longitude":"4.89101","bright_ti4":"303.11","scan":"0.52","track":"0.5","acq_date":"2026-06-01","acq_time":"219","satellite":"N20","instrument":"VIIRS","confidence":"n","version":"2.0NRT","bright_ti5":"291.54","frp":"1.03","daynight":"N","commune":"Fos-sur-Mer","code_insee":"13039","departement":"Bouches-du-Rhône","region":"Provence-Alpes-Côte d'Azur"}},{"type":"Feature","geometry":{"type":"Point","coordinates":[4.89918,43.43248]},"properties":{"latitude":"43.43248","longitude":"4.89918","bright_ti4":"303.2","scan":"0.52","track":"0.5","acq_date":"2026-06-01","acq_time":"219","satellite":"N20","instrument":"VIIRS","confidence":"n","version":"2.0NRT","bright_ti5":"291.6","frp":"0.88","daynight":"N","commune":"Fos-sur-Mer","code_insee":"13039","departement":"Bouches-du-Rhône","region":"Provence-Alpes-Côte d'Azur"}},{"type":"Feature","geometry":{"type":"Point","coordinates":[4.889,43.43988]},"properties":{"latitude":"43.43988","longitude":"4.889","bright_ti4":"309.75","scan":"0.52","track":"0.5","acq_date":"2026-06-01","acq_time":"219","satellite":"N20","instrument":"VIIRS","confidence":"n","version":"2.0NRT","bright_ti5":"291.24","frp":"3.13","daynight":"N","commune":"Fos-sur-Mer","code_insee":"13039","departement":"Bouches-du-Rhône","region":"Provence-Alpes-Côte d'Azur"}},{"type":"Feature","geometry":{"type":"Point","coordinates":[4.8829,43.44139]},"properties":{"latitude":"43.44139","longitude":"4.8829","bright_ti4":"307.22","scan":"0.52","track":"0.5","acq_date":"2026-06-01","acq_time":"219","satellite":"N20","instrument":"VIIRS","confidence":"n","version":"2.0NRT","bright_ti5":"290.84","frp":"1.41","daynight":"N","commune":"Fos-sur-Mer","code_insee":"13039","departement":"Bouches-du-Rhône","region":"Provence-Alpes-Côte d'Azur"}},{"type":"Feature","geometry":{"type":"Point","coordinates":[4.89923,43.44709]},"properties":{"latitude":"43.44709","longitude":"4.89923","bright_ti4":"331.6","scan":"0.52","track":"0.5","acq_date":"2026-06-01","acq_time":"219","satellite":"N20","instrument":"VIIRS","confidence":"n","version":"2.0NRT","bright_ti5":"292.64","frp":"5.22","daynight":"N","commune":"Fos-sur-Mer","code_insee":"13039","departement":"Bouches-du-Rhône","region":"Provence-Alpes-Côte d'Azur"}},{"type":"Feature","geometry":{"type":"Point","coordinates":[4.62041,45.91166]},"properties":{"latitude":"45.91166","longitude":"4.62041","bright_ti4":"303.22","scan":"0.44","track":"0.46","acq_date":"2026-06-01","acq_time":"219","satellite":"N20","instrument":"VIIRS","confidence":"n","version":"2.0NRT","bright_ti5":"280.27","frp":"0.53","daynight":"N","commune":"Bagnols","code_insee":"69017","departement":"Rhône","region":"Auvergne-Rhône-Alpes"}},{"type":"Feature","geometry":{"type":"Point","coordinates":[5.82164,45.91363]},"properties":{"latitude":"45.91363","longitude":"5.82164","bright_ti4":"302.88","scan":"0.49","track":"0.49","acq_date":"2026-06-01","acq_time":"219","satellite":"N20","instrument":"VIIRS","confidence":"n","version":"2.0NRT","bright_ti5":"287.76","frp":"1.06","daynight":"N","commune":"Anglefort","code_insee":"01010","departement":"Ain","region":"Auvergne-Rhône-Alpes"}},{"type":"Feature","geometry":{"type":"Point","coordinates":[6.10969,48.61017]},"properties":{"latitude":"48.61017","longitude":"6.10969","bright_ti4":"296.73","scan":"0.43","track":"0.46","acq_date":"2026-06-01","acq_time":"219","satellite":"N20","instrument":"VIIRS","confidence":"n","version":"2.0NRT","bright_ti5":"284.86","frp":"0.78","daynight":"N","commune":"Neuves-Maisons","code_insee":"54397","departement":"Meurthe-et-Moselle","region":"Grand Est"}},{"type":"Feature","geometry":{"type":"Point","coordinates":[6.11072,48.61037]},"properties":{"latitude":"48.61037","longitude":"6.11072","bright_ti4":"298.83","scan":"0.43","track":"0.46","acq_date":"2026-06-01","acq_time":"219","satellite":"N20","instrument":"VIIRS","confidence":"n","version":"2.0NRT","bright_ti5":"284.96","frp":"1.5","daynight":"N","commune":"Neuves-Maisons","code_insee":"54397","departement":"Meurthe-et-Moselle","region":"Grand Est"}},{"type":"Feature","geometry":{"type":"Point","coordinates":[5.68226,48.71876]},"properties":{"latitude":"48.71876","longitude":"5.68226","bright_ti4":"297.99","scan":"0.41","track":"0.45","acq_date":"2026-06-01","acq_time":"219","satellite":"N20","instrument":"VIIRS","confidence":"n","version":"2.0NRT","bright_ti5":"283.85","frp":"0.54","daynight":"N","commune":"Sorcy-Saint-Martin","code_insee":"55496","departement":"Meuse","region":"Grand Est"}},{"type":"Feature","geometry":{"type":"Point","coordinates":[4.56258,48.77103]},"properties":{"latitude":"48.77103","longitude":"4.56258","bright_ti4":"300.31","scan":"0.56","track":"0.43","acq_date":"2026-06-01","acq_time":"219","satellite":"N20","instrument":"VIIRS","confidence":"n","version":"2.0NRT","bright_ti5":"284.88","frp":"0.97","daynight":"N","commune":"Couvrot","code_insee":"51195","departement":"Marne","region":"Grand Est"}},{"type":"Feature","geometry":{"type":"Point","coordinates":[1.76125,48.98395]},"properties":{"latitude":"48.98395","longitude":"1.76125","bright_ti4":"316.5","scan":"0.45","track":"0.39","acq_date":"2026-06-01","acq_time":"219","satellite":"N20","instrument":"VIIRS","confidence":"n","version":"2.0NRT","bright_ti5":"277.49","frp":"1.68","daynight":"N","commune":"Porcheville","code_insee":"78501","departement":"Yvelines","region":"Île-de-France"}},{"type":"Feature","geometry":{"type":"Point","coordinates":[4.90179,43.44596]},"properties":{"latitude":"43.44596","longitude":"4.90179","bright_ti4":"340.33","scan":"0.42","track":"0.46","acq_date":"2026-06-01","acq_time":"1204","satellite":"N20","instrument":"VIIRS","confidence":"n","version":"2.0NRT","bright_ti5":"306.09","frp":"3.86","daynight":"D","commune":"Fos-sur-Mer","code_insee":"13039","departement":"Bouches-du-Rhône","region":"Provence-Alpes-Côte d'Azur"}},{"type":"Feature","geometry":{"type":"Point","coordinates":[2.29191,51.04099]},"properties":{"latitude":"51.04099","longitude":"2.29191","bright_ti4":"334.06","scan":"0.54","track":"0.42","acq_date":"2026-06-01","acq_time":"1206","satellite":"N20","instrument":"VIIRS","confidence":"n","version":"2.0NRT","bright_ti5":"295.57","frp":"4.33","daynight":"D","commune":"Grande-Synthe","code_insee":"59271","departement":"Nord","region":"Hauts-de-France"}},{"type":"Feature","geometry":{"type":"Point","coordinates":[2.29929,51.04264]},"properties":{"latitude":"51.04264","longitude":"2.29929","bright_ti4":"341.69","scan":"0.54","track":"0.42","acq_date":"2026-06-01","acq_time":"1206","satellite":"N20","instrument":"VIIRS","confidence":"n","version":"2.0NRT","bright_ti5":"298.95","frp":"4.33","daynight":"D","commune":"Grande-Synthe","code_insee":"59271","departement":"Nord","region":"Hauts-de-France"}},{"type":"Feature","geometry":{"type":"Point","coordinates":[3.14535,48.50321]},"properties":{"latitude":"48.50321","longitude":"3.14535","bright_ti4":"307.72","scan":"0.54","track":"0.42","acq_date":"2026-06-01","acq_time":"126","satellite":"N21","instrument":"VIIRS","confidence":"n","version":"2.0NRT","bright_ti5":"280.01","frp":"1.61","daynight":"N","commune":"Cessoy-en-Montois","code_insee":"77068","departement":"Seine-et-Marne","region":"Île-de-France"}},{"type":"Feature","geometry":{"type":"Point","coordinates":[4.56445,48.76752]},"properties":{"latitude":"48.76752","longitude":"4.56445","bright_ti4":"297.95","scan":"0.49","track":"0.4","acq_date":"2026-06-01","acq_time":"126","satellite":"N21","instrument":"VIIRS","confidence":"n","version":"2.0NRT","bright_ti5":"287.03","frp":"0.97","daynight":"N","commune":"Couvrot","code_insee":"51195","departement":"Marne","region":"Grand Est"}},{"type":"Feature","geometry":{"type":"Point","coordinates":[2.29267,50.99057]},"properties":{"latitude":"50.99057","longitude":"2.29267","bright_ti4":"298.34","scan":"0.42","track":"0.45","acq_date":"2026-06-01","acq_time":"126","satellite":"N21","instrument":"VIIRS","confidence":"n","version":"2.0NRT","bright_ti5":"285.18","frp":"0.6","daynight":"N","commune":"Grande-Synthe","code_insee":"59271","departement":"Nord","region":"Hauts-de-France"}},{"type":"Feature","geometry":{"type":"Point","coordinates":[2.2694,51.02623]},"properties":{"latitude":"51.02623","longitude":"2.2694","bright_ti4":"299.69","scan":"0.42","track":"0.45","acq_date":"2026-06-01","acq_time":"126","satellite":"N21","instrument":"VIIRS","confidence":"n","version":"2.0NRT","bright_ti5":"284.89","frp":"0.63","daynight":"N","commune":"Grande-Synthe","code_insee":"59271","departement":"Nord","region":"Hauts-de-France"}},{"type":"Feature","geometry":{"type":"Point","coordinates":[2.25222,51.03185]},"properties":{"latitude":"51.03185","longitude":"2.25222","bright_ti4":"317.49","scan":"0.42","track":"0.45","acq_date":"2026-06-01","acq_time":"126","satellite":"N21","instrument":"VIIRS","confidence":"n","version":"2.0NRT","bright_ti5":"285.51","frp":"2.38","daynight":"N","commune":"Dunkerque","code_insee":"59183","departement":"Nord","region":"Hauts-de-France"}},{"type":"Feature","geometry":{"type":"Point","coordinates":[2.28903,51.03307]},"properties":{"latitude":"51.03307","longitude":"2.28903","bright_ti4":"313.08","scan":"0.42","track":"0.45","acq_date":"2026-06-01","acq_time":"126","satellite":"N21","instrument":"VIIRS","confidence":"n","version":"2.0NRT","bright_ti5":"286.47","frp":"1.47","daynight":"N","commune":"Grande-Synthe","code_insee":"59271","departement":"Nord","region":"Hauts-de-France"}},{"type":"Feature","geometry":{"type":"Point","coordinates":[2.27704,51.03405]},"properties":{"latitude":"51.03405","longitude":"2.27704","bright_ti4":"302.55","scan":"0.42","track":"0.45","acq_date":"2026-06-01","acq_time":"126","satellite":"N21","instrument":"VIIRS","confidence":"n","version":"2.0NRT","bright_ti5":"285.21","frp":"2.44","daynight":"N","commune":"Grande-Synthe","code_insee":"59271","departement":"Nord","region":"Hauts-de-France"}},{"type":"Feature","geometry":{"type":"Point","coordinates":[2.29666,51.04089]},"properties":{"latitude":"51.04089","longitude":"2.29666","bright_ti4":"299.62","scan":"0.42","track":"0.45","acq_date":"2026-06-01","acq_time":"126","satellite":"N21","instrument":"VIIRS","confidence":"n","version":"2.0NRT","bright_ti5":"287.17","frp":"0.82","daynight":"N","commune":"Grande-Synthe","code_insee":"59271","departement":"Nord","region":"Hauts-de-France"}},{"type":"Feature","geometry":{"type":"Point","coordinates":[2.29066,51.04139]},"properties":{"latitude":"51.04139","longitude":"2.29066","bright_ti4":"298.98","scan":"0.42","track":"0.45","acq_date":"2026-06-01","acq_time":"126","satellite":"N21","instrument":"VIIRS","confidence":"n","version":"2.0NRT","bright_ti5":"286.03","frp":"0.82","daynight":"N","commune":"Grande-Synthe","code_insee":"59271","departement":"Nord","region":"Hauts-de-France"}},{"type":"Feature","geometry":{"type":"Point","coordinates":[2.29748,51.04505]},"properties":{"latitude":"51.04505","longitude":"2.29748","bright_ti4":"338.18","scan":"0.42","track":"0.45","acq_date":"2026-06-01","acq_time":"126","satellite":"N21","instrument":"VIIRS","confidence":"n","version":"2.0NRT","bright_ti5":"288.51","frp":"11.71","daynight":"N","commune":"Grande-Synthe","code_insee":"59271","departement":"Nord","region":"Hauts-de-France"}},{"type":"Feature","geometry":{"type":"Point","coordinates":[2.31624,51.04772]},"properties":{"latitude":"51.04772","longitude":"2.31624","bright_ti4":"300.76","scan":"0.42","track":"0.45","acq_date":"2026-06-01","acq_time":"126","satellite":"N21","instrument":"VIIRS","confidence":"n","version":"2.0NRT","bright_ti5":"285.15","frp":"0.71","daynight":"N","commune":"Dunkerque","code_insee":"59183","departement":"Nord","region":"Hauts-de-France"}},{"type":"Feature","geometry":{"type":"Point","coordinates":[8.80688,41.95122]},"properties":{"latitude":"41.95122","longitude":"8.80688","bright_ti4":"304.8","scan":"0.39","track":"0.36","acq_date":"2026-06-01","acq_time":"128","satellite":"N21","instrument":"VIIRS","confidence":"n","version":"2.0NRT","bright_ti5":"289.56","frp":"0.77","daynight":"N","commune":"Sarrola-Carcopino","code_insee":"2A271","departement":"Corse-du-Sud","region":"Corse"}},{"type":"Feature","geometry":{"type":"Point","coordinates":[3.21556,43.37943]},"properties":{"latitude":"43.37943","longitude":"3.21556","bright_ti4":"296.8","scan":"0.48","track":"0.4","acq_date":"2026-06-01","acq_time":"128","satellite":"N21","instrument":"VIIRS","confidence":"n","version":"2.0NRT","bright_ti5":"284.41","frp":"0.29","daynight":"N","commune":"Béziers","code_insee":"34032","departement":"Hérault","region":"Occitanie"}},{"type":"Feature","geometry":{"type":"Point","coordinates":[4.89486,43.43423]},"properties":{"latitude":"43.43423","longitude":"4.89486","bright_ti4":"308.17","scan":"0.42","track":"0.38","acq_date":"2026-06-01","acq_time":"128","satellite":"N21","instrument":"VIIRS","confidence":"n","version":"2.0NRT","bright_ti5":"292.89","frp":"1.07","daynight":"N","commune":"Fos-sur-Mer","code_insee":"13039","departement":"Bouches-du-Rhône","region":"Provence-Alpes-Côte d'Azur"}},{"type":"Feature","geometry":{"type":"Point","coordinates":[4.89052,43.43833]},"properties":{"latitude":"43.43833","longitude":"4.89052","bright_ti4":"311.35","scan":"0.42","track":"0.38","acq_date":"2026-06-01","acq_time":"128","satellite":"N21","instrument":"VIIRS","confidence":"n","version":"2.0NRT","bright_ti5":"292.81","frp":"1.92","daynight":"N","commune":"Fos-sur-Mer","code_insee":"13039","departement":"Bouches-du-Rhône","region":"Provence-Alpes-Côte d'Azur"}},{"type":"Feature","geometry":{"type":"Point","coordinates":[4.89135,43.44176]},"properties":{"latitude":"43.44176","longitude":"4.89135","bright_ti4":"306.56","scan":"0.42","track":"0.38","acq_date":"2026-06-01","acq_time":"128","satellite":"N21","instrument":"VIIRS","confidence":"n","version":"2.0NRT","bright_ti5":"292.98","frp":"1.07","daynight":"N","commune":"Fos-sur-Mer","code_insee":"13039","departement":"Bouches-du-Rhône","region":"Provence-Alpes-Côte d'Azur"}},{"type":"Feature","geometry":{"type":"Point","coordinates":[4.89734,43.44451]},"properties":{"latitude":"43.44451","longitude":"4.89734","bright_ti4":"306.89","scan":"0.42","track":"0.38","acq_date":"2026-06-01","acq_time":"128","satellite":"N21","instrument":"VIIRS","confidence":"n","version":"2.0NRT","bright_ti5":"293.67","frp":"1.17","daynight":"N","commune":"Fos-sur-Mer","code_insee":"13039","departement":"Bouches-du-Rhône","region":"Provence-Alpes-Côte d'Azur"}},{"type":"Feature","geometry":{"type":"Point","coordinates":[4.89217,43.44519]},"properties":{"latitude":"43.44519","longitude":"4.89217","bright_ti4":"308.61","scan":"0.42","track":"0.38","acq_date":"2026-06-01","acq_time":"128","satellite":"N21","instrument":"VIIRS","confidence":"n","version":"2.0NRT","bright_ti5":"292.53","frp":"1.07","daynight":"N","commune":"Fos-sur-Mer","code_insee":"13039","departement":"Bouches-du-Rhône","region":"Provence-Alpes-Côte d'Azur"}},{"type":"Feature","geometry":{"type":"Point","coordinates":[4.89817,43.44794]},"properties":{"latitude":"43.44794","longitude":"4.89817","bright_ti4":"320.9","scan":"0.42","track":"0.38","acq_date":"2026-06-01","acq_time":"128","satellite":"N21","instrument":"VIIRS","confidence":"n","version":"2.0NRT","bright_ti5":"293.44","frp":"1.78","daynight":"N","commune":"Fos-sur-Mer","code_insee":"13039","departement":"Bouches-du-Rhône","region":"Provence-Alpes-Côte d'Azur"}},{"type":"Feature","geometry":{"type":"Point","coordinates":[1.22828,43.98799]},"properties":{"latitude":"43.98799","longitude":"1.22828","bright_ti4":"297.29","scan":"0.39","track":"0.44","acq_date":"2026-06-01","acq_time":"128","satellite":"N21","instrument":"VIIRS","confidence":"n","version":"2.0NRT","bright_ti5":"285.43","frp":"0.46","daynight":"N","commune":"Montech","code_insee":"82125","departement":"Tarn-et-Garonne","region":"Occitanie"}},{"type":"Feature","geometry":{"type":"Point","coordinates":[4.61819,45.91118]},"properties":{"latitude":"45.91118","longitude":"4.61819","bright_ti4":"319.3","scan":"0.45","track":"0.39","acq_date":"2026-06-01","acq_time":"128","satellite":"N21","instrument":"VIIRS","confidence":"n","version":"2.0NRT","bright_ti5":"285.47","frp":"1.96","daynight":"N","commune":"Bagnols","code_insee":"69017","departement":"Rhône","region":"Auvergne-Rhône-Alpes"}},{"type":"Feature","geometry":{"type":"Point","coordinates":[6.05623,48.8848]},"properties":{"latitude":"48.8848","longitude":"6.05623","bright_ti4":"295.17","scan":"0.71","track":"0.75","acq_date":"2026-06-01","acq_time":"306","satellite":"N21","instrument":"VIIRS","confidence":"n","version":"2.0NRT","bright_ti5":"282.69","frp":"0.99","daynight":"N","commune":"Blénod-lès-Pont-à-Mousson","code_insee":"54079","departement":"Meurthe-et-Moselle","region":"Grand Est"}},{"type":"Feature","geometry":{"type":"Point","coordinates":[6.10508,49.32713]},"properties":{"latitude":"49.32713","longitude":"6.10508","bright_ti4":"298.06","scan":"0.68","track":"0.74","acq_date":"2026-06-01","acq_time":"306","satellite":"N21","instrument":"VIIRS","confidence":"n","version":"2.0NRT","bright_ti5":"282.13","frp":"1.6","daynight":"N","commune":"Serémange-Erzange","code_insee":"57647","departement":"Moselle","region":"Grand Est"}},{"type":"Feature","geometry":{"type":"Point","coordinates":[2.27024,51.02829]},"properties":{"latitude":"51.02829","longitude":"2.27024","bright_ti4":"297.38","scan":"0.42","track":"0.61","acq_date":"2026-06-01","acq_time":"306","satellite":"N21","instrument":"VIIRS","confidence":"n","version":"2.0NRT","bright_ti5":"283.55","frp":"0.77","daynight":"N","commune":"Grande-Synthe","code_insee":"59271","departement":"Nord","region":"Hauts-de-France"}},{"type":"Feature","geometry":{"type":"Point","coordinates":[2.27975,51.0316]},"properties":{"latitude":"51.0316","longitude":"2.27975","bright_ti4":"298.09","scan":"0.42","track":"0.61","acq_date":"2026-06-01","acq_time":"306","satellite":"N21","instrument":"VIIRS","confidence":"n","version":"2.0NRT","bright_ti5":"283.24","frp":"1.61","daynight":"N","commune":"Grande-Synthe","code_insee":"59271","departement":"Nord","region":"Hauts-de-France"}},{"type":"Feature","geometry":{"type":"Point","coordinates":[2.27439,51.03331]},"properties":{"latitude":"51.03331","longitude":"2.27439","bright_ti4":"302.02","scan":"0.42","track":"0.61","acq_date":"2026-06-01","acq_time":"306","satellite":"N21","instrument":"VIIRS","confidence":"n","version":"2.0NRT","bright_ti5":"283.05","frp":"1.67","daynight":"N","commune":"Grande-Synthe","code_insee":"59271","departement":"Nord","region":"Hauts-de-France"}},{"type":"Feature","geometry":{"type":"Point","coordinates":[2.28931,51.0349]},"properties":{"latitude":"51.0349","longitude":"2.28931","bright_ti4":"308.72","scan":"0.42","track":"0.61","acq_date":"2026-06-01","acq_time":"306","satellite":"N21","instrument":"VIIRS","confidence":"n","version":"2.0NRT","bright_ti5":"284.23","frp":"1.61","daynight":"N","commune":"Grande-Synthe","code_insee":"59271","departement":"Nord","region":"Hauts-de-France"}},{"type":"Feature","geometry":{"type":"Point","coordinates":[2.28476,51.03502]},"properties":{"latitude":"51.03502","longitude":"2.28476","bright_ti4":"300.63","scan":"0.42","track":"0.61","acq_date":"2026-06-01","acq_time":"306","satellite":"N21","instrument":"VIIRS","confidence":"n","version":"2.0NRT","bright_ti5":"283.6","frp":"2.16","daynight":"N","commune":"Grande-Synthe","code_insee":"59271","departement":"Nord","region":"Hauts-de-France"}},{"type":"Feature","geometry":{"type":"Point","coordinates":[2.29347,51.03991]},"properties":{"latitude":"51.03991","longitude":"2.29347","bright_ti4":"297.69","scan":"0.42","track":"0.61","acq_date":"2026-06-01","acq_time":"306","satellite":"N21","instrument":"VIIRS","confidence":"n","version":"2.0NRT","bright_ti5":"285.1","frp":"2.15","daynight":"N","commune":"Grande-Synthe","code_insee":"59271","departement":"Nord","region":"Hauts-de-France"}},{"type":"Feature","geometry":{"type":"Point","coordinates":[2.30302,51.04322]},"properties":{"latitude":"51.04322","longitude":"2.30302","bright_ti4":"297.44","scan":"0.42","track":"0.61","acq_date":"2026-06-01","acq_time":"306","satellite":"N21","instrument":"VIIRS","confidence":"n","version":"2.0NRT","bright_ti5":"283.93","frp":"1.68","daynight":"N","commune":"Grande-Synthe","code_insee":"59271","departement":"Nord","region":"Hauts-de-France"}},{"type":"Feature","geometry":{"type":"Point","coordinates":[2.29841,51.04332]},"properties":{"latitude":"51.04332","longitude":"2.29841","bright_ti4":"314.14","scan":"0.42","track":"0.61","acq_date":"2026-06-01","acq_time":"306","satellite":"N21","instrument":"VIIRS","confidence":"n","version":"2.0NRT","bright_ti5":"285.51","frp":"3.07","daynight":"N","commune":"Grande-Synthe","code_insee":"59271","departement":"Nord","region":"Hauts-de-France"}},{"type":"Feature","geometry":{"type":"Point","coordinates":[2.29763,51.04493]},"properties":{"latitude":"51.04493","longitude":"2.29763","bright_ti4":"323.01","scan":"0.42","track":"0.61","acq_date":"2026-06-01","acq_time":"306","satellite":"N21","instrument":"VIIRS","confidence":"n","version":"2.0NRT","bright_ti5":"285.11","frp":"2.15","daynight":"N","commune":"Grande-Synthe","code_insee":"59271","departement":"Nord","region":"Hauts-de-France"}},{"type":"Feature","geometry":{"type":"Point","coordinates":[2.29306,51.04505]},"properties":{"latitude":"51.04505","longitude":"2.29306","bright_ti4":"300.77","scan":"0.42","track":"0.61","acq_date":"2026-06-01","acq_time":"306","satellite":"N21","instrument":"VIIRS","confidence":"n","version":"2.0NRT","bright_ti5":"283.77","frp":"2.36","daynight":"N","commune":"Grande-Synthe","code_insee":"59271","departement":"Nord","region":"Hauts-de-France"}},{"type":"Feature","geometry":{"type":"Point","coordinates":[4.89782,43.44664]},"properties":{"latitude":"43.44664","longitude":"4.89782","bright_ti4":"337.65","scan":"0.48","track":"0.4","acq_date":"2026-06-01","acq_time":"1253","satellite":"N21","instrument":"VIIRS","confidence":"l","version":"2.0NRT","bright_ti5":"309.42","frp":"8.04","daynight":"D","commune":"Fos-sur-Mer","code_insee":"13039","departement":"Bouches-du-Rhône","region":"Provence-Alpes-Côte d'Azur"}},{"type":"Feature","geometry":{"type":"Point","coordinates":[2.28846,51.03465]},"properties":{"latitude":"51.03465","longitude":"2.28846","bright_ti4":"331.1","scan":"0.47","track":"0.4","acq_date":"2026-06-01","acq_time":"1253","satellite":"N21","instrument":"VIIRS","confidence":"l","version":"2.0NRT","bright_ti5":"304.75","frp":"3.81","daynight":"D","commune":"Grande-Synthe","code_insee":"59271","departement":"Nord","region":"Hauts-de-France"}},{"type":"Feature","geometry":{"type":"Point","coordinates":[2.29981,51.0433]},"properties":{"latitude":"51.0433","longitude":"2.29981","bright_ti4":"343.13","scan":"0.47","track":"0.4","acq_date":"2026-06-01","acq_time":"1253","satellite":"N21","instrument":"VIIRS","confidence":"n","version":"2.0NRT","bright_ti5":"304.5","frp":"27.78","daynight":"D","commune":"Grande-Synthe","code_insee":"59271","departement":"Nord","region":"Hauts-de-France"}}]}