{"type":"FeatureCollection","features":[{"type":"Feature","geometry":{"type":"Point","coordinates":[2.26855,51.03062]},"properties":{"latitude":"51.03062","longitude":"2.26855","bright_ti4":"299.18","scan":"0.73","track":"0.76","acq_date":"2026-08-04","acq_time":"39","satellite":"N20","instrument":"VIIRS","confidence":"n","version":"2.0NRT","bright_ti5":"285.73","frp":"2.46","daynight":"N","commune":"Grande-Synthe","code_insee":"59271","departement":"Nord","region":"Hauts-de-France"}},{"type":"Feature","geometry":{"type":"Point","coordinates":[2.28969,51.03825]},"properties":{"latitude":"51.03825","longitude":"2.28969","bright_ti4":"307.35","scan":"0.73","track":"0.76","acq_date":"2026-08-04","acq_time":"39","satellite":"N20","instrument":"VIIRS","confidence":"n","version":"2.0NRT","bright_ti5":"285.92","frp":"1.82","daynight":"N","commune":"Grande-Synthe","code_insee":"59271","departement":"Nord","region":"Hauts-de-France"}},{"type":"Feature","geometry":{"type":"Point","coordinates":[2.28926,51.04532]},"properties":{"latitude":"51.04532","longitude":"2.28926","bright_ti4":"307.19","scan":"0.73","track":"0.76","acq_date":"2026-08-04","acq_time":"39","satellite":"N20","instrument":"VIIRS","confidence":"n","version":"2.0NRT","bright_ti5":"286.55","frp":"2.92","daynight":"N","commune":"Grande-Synthe","code_insee":"59271","departement":"Nord","region":"Hauts-de-France"}},{"type":"Feature","geometry":{"type":"Point","coordinates":[2.3108,51.04587]},"properties":{"latitude":"51.04587","longitude":"2.3108","bright_ti4":"297.7","scan":"0.73","track":"0.76","acq_date":"2026-08-04","acq_time":"39","satellite":"N20","instrument":"VIIRS","confidence":"n","version":"2.0NRT","bright_ti5":"285.66","frp":"2.09","daynight":"N","commune":"Dunkerque","code_insee":"59183","departement":"Nord","region":"Hauts-de-France"}},{"type":"Feature","geometry":{"type":"Point","coordinates":[2.32156,51.04614]},"properties":{"latitude":"51.04614","longitude":"2.32156","bright_ti4":"309.59","scan":"0.73","track":"0.76","acq_date":"2026-08-04","acq_time":"39","satellite":"N20","instrument":"VIIRS","confidence":"n","version":"2.0NRT","bright_ti5":"285.89","frp":"2.09","daynight":"N","commune":"Dunkerque","code_insee":"59183","departement":"Nord","region":"Hauts-de-France"}},{"type":"Feature","geometry":{"type":"Point","coordinates":[7.37339,43.79332]},"properties":{"latitude":"43.79332","longitude":"7.37339","bright_ti4":"304.52","scan":"0.4","track":"0.6","acq_date":"2026-08-04","acq_time":"41","satellite":"N20","instrument":"VIIRS","confidence":"n","version":"2.0NRT","bright_ti5":"292.13","frp":"0.61","daynight":"N","commune":"Blausasc","code_insee":"06019","departement":"Alpes-Maritimes","region":"Provence-Alpes-Côte d'Azur"}},{"type":"Feature","geometry":{"type":"Point","coordinates":[7.37287,43.79402]},"properties":{"latitude":"43.79402","longitude":"7.37287","bright_ti4":"302.59","scan":"0.4","track":"0.6","acq_date":"2026-08-04","acq_time":"41","satellite":"N20","instrument":"VIIRS","confidence":"n","version":"2.0NRT","bright_ti5":"291.58","frp":"0.38","daynight":"N","commune":"Blausasc","code_insee":"06019","departement":"Alpes-Maritimes","region":"Provence-Alpes-Côte d'Azur"}},{"type":"Feature","geometry":{"type":"Point","coordinates":[5.46002,44.53095]},"properties":{"latitude":"44.53095","longitude":"5.46002","bright_ti4":"333.6","scan":"0.5","track":"0.66","acq_date":"2026-08-04","acq_time":"41","satellite":"N20","instrument":"VIIRS","confidence":"n","version":"2.0NRT","bright_ti5":"291.26","frp":"5.48","daynight":"N","commune":"Bellegarde-en-Diois","code_insee":"26047","departement":"Drôme","region":"Auvergne-Rhône-Alpes"}},{"type":"Feature","geometry":{"type":"Point","coordinates":[5.45026,44.53116]},"properties":{"latitude":"44.53116","longitude":"5.45026","bright_ti4":"327.35","scan":"0.5","track":"0.66","acq_date":"2026-08-04","acq_time":"41","satellite":"N20","instrument":"VIIRS","confidence":"n","version":"2.0NRT","bright_ti5":"287.16","frp":"5.48","daynight":"N","commune":"Bellegarde-en-Diois","code_insee":"26047","departement":"Drôme","region":"Auvergne-Rhône-Alpes"}},{"type":"Feature","geometry":{"type":"Point","coordinates":[2.16562,51.01556]},"properties":{"latitude":"51.01556","longitude":"2.16562","bright_ti4":"306.66","scan":"0.43","track":"0.38","acq_date":"2026-08-04","acq_time":"219","satellite":"N20","instrument":"VIIRS","confidence":"n","version":"2.0NRT","bright_ti5":"289.86","frp":"0.96","daynight":"N","commune":"Gravelines","code_insee":"59273","departement":"Nord","region":"Hauts-de-France"}},{"type":"Feature","geometry":{"type":"Point","coordinates":[2.27112,51.02907]},"properties":{"latitude":"51.02907","longitude":"2.27112","bright_ti4":"304.58","scan":"0.44","track":"0.38","acq_date":"2026-08-04","acq_time":"219","satellite":"N20","instrument":"VIIRS","confidence":"n","version":"2.0NRT","bright_ti5":"291.49","frp":"1.05","daynight":"N","commune":"Grande-Synthe","code_insee":"59271","departement":"Nord","region":"Hauts-de-France"}},{"type":"Feature","geometry":{"type":"Point","coordinates":[2.28643,51.03347]},"properties":{"latitude":"51.03347","longitude":"2.28643","bright_ti4":"313.16","scan":"0.44","track":"0.38","acq_date":"2026-08-04","acq_time":"219","satellite":"N20","instrument":"VIIRS","confidence":"n","version":"2.0NRT","bright_ti5":"291.26","frp":"1.91","daynight":"N","commune":"Grande-Synthe","code_insee":"59271","departement":"Nord","region":"Hauts-de-France"}},{"type":"Feature","geometry":{"type":"Point","coordinates":[2.29409,51.03566]},"properties":{"latitude":"51.03566","longitude":"2.29409","bright_ti4":"312.46","scan":"0.44","track":"0.38","acq_date":"2026-08-04","acq_time":"219","satellite":"N20","instrument":"VIIRS","confidence":"n","version":"2.0NRT","bright_ti5":"290.22","frp":"1.33","daynight":"N","commune":"Grande-Synthe","code_insee":"59271","departement":"Nord","region":"Hauts-de-France"}},{"type":"Feature","geometry":{"type":"Point","coordinates":[2.2881,51.03684]},"properties":{"latitude":"51.03684","longitude":"2.2881","bright_ti4":"313.36","scan":"0.44","track":"0.38","acq_date":"2026-08-04","acq_time":"219","satellite":"N20","instrument":"VIIRS","confidence":"n","version":"2.0NRT","bright_ti5":"291.62","frp":"1.33","daynight":"N","commune":"Grande-Synthe","code_insee":"59271","departement":"Nord","region":"Hauts-de-France"}},{"type":"Feature","geometry":{"type":"Point","coordinates":[2.29744,51.04242]},"properties":{"latitude":"51.04242","longitude":"2.29744","bright_ti4":"323.83","scan":"0.44","track":"0.38","acq_date":"2026-08-04","acq_time":"219","satellite":"N20","instrument":"VIIRS","confidence":"n","version":"2.0NRT","bright_ti5":"292.79","frp":"4.28","daynight":"N","commune":"Grande-Synthe","code_insee":"59271","departement":"Nord","region":"Hauts-de-France"}},{"type":"Feature","geometry":{"type":"Point","coordinates":[2.29145,51.04361]},"properties":{"latitude":"51.04361","longitude":"2.29145","bright_ti4":"305.93","scan":"0.44","track":"0.38","acq_date":"2026-08-04","acq_time":"219","satellite":"N20","instrument":"VIIRS","confidence":"n","version":"2.0NRT","bright_ti5":"291.44","frp":"4.28","daynight":"N","commune":"Grande-Synthe","code_insee":"59271","departement":"Nord","region":"Hauts-de-France"}},{"type":"Feature","geometry":{"type":"Point","coordinates":[2.31876,51.04564]},"properties":{"latitude":"51.04564","longitude":"2.31876","bright_ti4":"317.41","scan":"0.44","track":"0.38","acq_date":"2026-08-04","acq_time":"219","satellite":"N20","instrument":"VIIRS","confidence":"n","version":"2.0NRT","bright_ti5":"292","frp":"5.59","daynight":"N","commune":"Dunkerque","code_insee":"59183","departement":"Nord","region":"Hauts-de-France"}},{"type":"Feature","geometry":{"type":"Point","coordinates":[2.29912,51.0458]},"properties":{"latitude":"51.0458","longitude":"2.29912","bright_ti4":"333.84","scan":"0.44","track":"0.38","acq_date":"2026-08-04","acq_time":"219","satellite":"N20","instrument":"VIIRS","confidence":"n","version":"2.0NRT","bright_ti5":"293.67","frp":"4.28","daynight":"N","commune":"Grande-Synthe","code_insee":"59271","departement":"Nord","region":"Hauts-de-France"}},{"type":"Feature","geometry":{"type":"Point","coordinates":[2.32046,51.04902]},"properties":{"latitude":"51.04902","longitude":"2.32046","bright_ti4":"329.43","scan":"0.44","track":"0.38","acq_date":"2026-08-04","acq_time":"219","satellite":"N20","instrument":"VIIRS","confidence":"n","version":"2.0NRT","bright_ti5":"294.13","frp":"5.59","daynight":"N","commune":"Dunkerque","code_insee":"59183","departement":"Nord","region":"Hauts-de-France"}},{"type":"Feature","geometry":{"type":"Point","coordinates":[5.45867,44.52588]},"properties":{"latitude":"44.52588","longitude":"5.45867","bright_ti4":"318.49","scan":"0.53","track":"0.5","acq_date":"2026-08-04","acq_time":"221","satellite":"N20","instrument":"VIIRS","confidence":"n","version":"2.0NRT","bright_ti5":"288.66","frp":"2.28","daynight":"N","commune":"Bellegarde-en-Diois","code_insee":"26047","departement":"Drôme","region":"Auvergne-Rhône-Alpes"}},{"type":"Feature","geometry":{"type":"Point","coordinates":[5.45959,44.52596]},"properties":{"latitude":"44.52596","longitude":"5.45959","bright_ti4":"302.87","scan":"0.53","track":"0.5","acq_date":"2026-08-04","acq_time":"221","satellite":"N20","instrument":"VIIRS","confidence":"n","version":"2.0NRT","bright_ti5":"289.05","frp":"4.07","daynight":"N","commune":"Bellegarde-en-Diois","code_insee":"26047","departement":"Drôme","region":"Auvergne-Rhône-Alpes"}},{"type":"Feature","geometry":{"type":"Point","coordinates":[5.45311,44.52728]},"properties":{"latitude":"44.52728","longitude":"5.45311","bright_ti4":"304.11","scan":"0.53","track":"0.5","acq_date":"2026-08-04","acq_time":"221","satellite":"N20","instrument":"VIIRS","confidence":"n","version":"2.0NRT","bright_ti5":"288.25","frp":"2.28","daynight":"N","commune":"Bellegarde-en-Diois","code_insee":"26047","departement":"Drôme","region":"Auvergne-Rhône-Alpes"}},{"type":"Feature","geometry":{"type":"Point","coordinates":[5.45406,44.52738]},"properties":{"latitude":"44.52738","longitude":"5.45406","bright_ti4":"336.45","scan":"0.53","track":"0.5","acq_date":"2026-08-04","acq_time":"221","satellite":"N20","instrument":"VIIRS","confidence":"n","version":"2.0NRT","bright_ti5":"288.7","frp":"4.5","daynight":"N","commune":"Bellegarde-en-Diois","code_insee":"26047","departement":"Drôme","region":"Auvergne-Rhône-Alpes"}},{"type":"Feature","geometry":{"type":"Point","coordinates":[5.46002,44.53046]},"properties":{"latitude":"44.53046","longitude":"5.46002","bright_ti4":"338.57","scan":"0.53","track":"0.5","acq_date":"2026-08-04","acq_time":"221","satellite":"N20","instrument":"VIIRS","confidence":"n","version":"2.0NRT","bright_ti5":"294.96","frp":"6.01","daynight":"N","commune":"Bellegarde-en-Diois","code_insee":"26047","departement":"Drôme","region":"Auvergne-Rhône-Alpes"}},{"type":"Feature","geometry":{"type":"Point","coordinates":[5.46091,44.53055]},"properties":{"latitude":"44.53055","longitude":"5.46091","bright_ti4":"319.21","scan":"0.53","track":"0.5","acq_date":"2026-08-04","acq_time":"221","satellite":"N20","instrument":"VIIRS","confidence":"n","version":"2.0NRT","bright_ti5":"292.36","frp":"4.07","daynight":"N","commune":"Bellegarde-en-Diois","code_insee":"26047","departement":"Drôme","region":"Auvergne-Rhône-Alpes"}},{"type":"Feature","geometry":{"type":"Point","coordinates":[5.45471,44.53179]},"properties":{"latitude":"44.53179","longitude":"5.45471","bright_ti4":"313.7","scan":"0.53","track":"0.5","acq_date":"2026-08-04","acq_time":"221","satellite":"N20","instrument":"VIIRS","confidence":"n","version":"2.0NRT","bright_ti5":"288.08","frp":"6.01","daynight":"N","commune":"Bellegarde-en-Diois","code_insee":"26047","departement":"Drôme","region":"Auvergne-Rhône-Alpes"}},{"type":"Feature","geometry":{"type":"Point","coordinates":[5.45564,44.5319]},"properties":{"latitude":"44.5319","longitude":"5.45564","bright_ti4":"332.83","scan":"0.53","track":"0.5","acq_date":"2026-08-04","acq_time":"221","satellite":"N20","instrument":"VIIRS","confidence":"n","version":"2.0NRT","bright_ti5":"289.66","frp":"4.5","daynight":"N","commune":"Bellegarde-en-Diois","code_insee":"26047","departement":"Drôme","region":"Auvergne-Rhône-Alpes"}},{"type":"Feature","geometry":{"type":"Point","coordinates":[5.46996,44.53809]},"properties":{"latitude":"44.53809","longitude":"5.46996","bright_ti4":"337.08","scan":"0.53","track":"0.5","acq_date":"2026-08-04","acq_time":"221","satellite":"N20","instrument":"VIIRS","confidence":"n","version":"2.0NRT","bright_ti5":"291.05","frp":"7.19","daynight":"N","commune":"Bellegarde-en-Diois","code_insee":"26047","departement":"Drôme","region":"Auvergne-Rhône-Alpes"}},{"type":"Feature","geometry":{"type":"Point","coordinates":[5.46432,44.53953]},"properties":{"latitude":"44.53953","longitude":"5.46432","bright_ti4":"324.32","scan":"0.53","track":"0.5","acq_date":"2026-08-04","acq_time":"221","satellite":"N20","instrument":"VIIRS","confidence":"n","version":"2.0NRT","bright_ti5":"289.11","frp":"7.19","daynight":"N","commune":"Bellegarde-en-Diois","code_insee":"26047","departement":"Drôme","region":"Auvergne-Rhône-Alpes"}},{"type":"Feature","geometry":{"type":"Point","coordinates":[5.45867,44.54098]},"properties":{"latitude":"44.54098","longitude":"5.45867","bright_ti4":"317.82","scan":"0.53","track":"0.5","acq_date":"2026-08-04","acq_time":"221","satellite":"N20","instrument":"VIIRS","confidence":"n","version":"2.0NRT","bright_ti5":"289.94","frp":"3.42","daynight":"N","commune":"Bellegarde-en-Diois","code_insee":"26047","departement":"Drôme","region":"Auvergne-Rhône-Alpes"}},{"type":"Feature","geometry":{"type":"Point","coordinates":[5.46064,44.5454]},"properties":{"latitude":"44.5454","longitude":"5.46064","bright_ti4":"309.48","scan":"0.53","track":"0.5","acq_date":"2026-08-04","acq_time":"221","satellite":"N20","instrument":"VIIRS","confidence":"n","version":"2.0NRT","bright_ti5":"288.89","frp":"1.08","daynight":"N","commune":"Beaumont-en-Diois","code_insee":"26036","departement":"Drôme","region":"Auvergne-Rhône-Alpes"}},{"type":"Feature","geometry":{"type":"Point","coordinates":[2.4402,46.12627]},"properties":{"latitude":"46.12627","longitude":"2.4402","bright_ti4":"328.65","scan":"0.54","track":"0.42","acq_date":"2026-08-04","acq_time":"221","satellite":"N20","instrument":"VIIRS","confidence":"n","version":"2.0NRT","bright_ti5":"287.36","frp":"7.62","daynight":"N","commune":"Sannat","code_insee":"23167","departement":"Creuse","region":"Nouvelle-Aquitaine"}},{"type":"Feature","geometry":{"type":"Point","coordinates":[0.15445,46.80945]},"properties":{"latitude":"46.80945","longitude":"0.15445","bright_ti4":"321.04","scan":"0.44","track":"0.38","acq_date":"2026-08-04","acq_time":"221","satellite":"N20","instrument":"VIIRS","confidence":"n","version":"2.0NRT","bright_ti5":"288.67","frp":"2.51","daynight":"N","commune":"Chouppes","code_insee":"86075","departement":"Vienne","region":"Nouvelle-Aquitaine"}},{"type":"Feature","geometry":{"type":"Point","coordinates":[-1.03543,48.10772]},"properties":{"latitude":"48.10772","longitude":"-1.03543","bright_ti4":"305.57","scan":"0.4","track":"0.37","acq_date":"2026-08-04","acq_time":"221","satellite":"N20","instrument":"VIIRS","confidence":"n","version":"2.0NRT","bright_ti5":"290.86","frp":"1.32","daynight":"N","commune":"Saint-Pierre-la-Cour","code_insee":"53247","departement":"Mayenne","region":"Pays de la Loire"}},{"type":"Feature","geometry":{"type":"Point","coordinates":[0.53367,49.4791]},"properties":{"latitude":"49.4791","longitude":"0.53367","bright_ti4":"303.54","scan":"0.42","track":"0.37","acq_date":"2026-08-04","acq_time":"221","satellite":"N20","instrument":"VIIRS","confidence":"n","version":"2.0NRT","bright_ti5":"286.75","frp":"0.81","daynight":"N","commune":"Port-Jérôme-sur-Seine","code_insee":"76476","departement":"Seine-Maritime","region":"Normandie"}},{"type":"Feature","geometry":{"type":"Point","coordinates":[0.53528,49.4745]},"properties":{"latitude":"49.4745","longitude":"0.53528","bright_ti4":"307.08","scan":"0.47","track":"0.48","acq_date":"2026-08-04","acq_time":"126","satellite":"N21","instrument":"VIIRS","confidence":"n","version":"2.0NRT","bright_ti5":"289.96","frp":"2.11","daynight":"N","commune":"Lillebonne","code_insee":"76384","departement":"Seine-Maritime","region":"Normandie"}},{"type":"Feature","geometry":{"type":"Point","coordinates":[2.27216,51.02601]},"properties":{"latitude":"51.02601","longitude":"2.27216","bright_ti4":"308.3","scan":"0.41","track":"0.45","acq_date":"2026-08-04","acq_time":"126","satellite":"N21","instrument":"VIIRS","confidence":"n","version":"2.0NRT","bright_ti5":"290.11","frp":"1.38","daynight":"N","commune":"Grande-Synthe","code_insee":"59271","departement":"Nord","region":"Hauts-de-France"}},{"type":"Feature","geometry":{"type":"Point","coordinates":[2.25526,51.03159]},"properties":{"latitude":"51.03159","longitude":"2.25526","bright_ti4":"303.16","scan":"0.42","track":"0.45","acq_date":"2026-08-04","acq_time":"126","satellite":"N21","instrument":"VIIRS","confidence":"n","version":"2.0NRT","bright_ti5":"290.15","frp":"0.88","daynight":"N","commune":"Dunkerque","code_insee":"59183","departement":"Nord","region":"Hauts-de-France"}},{"type":"Feature","geometry":{"type":"Point","coordinates":[2.29157,51.0328]},"properties":{"latitude":"51.0328","longitude":"2.29157","bright_ti4":"318.63","scan":"0.41","track":"0.45","acq_date":"2026-08-04","acq_time":"126","satellite":"N21","instrument":"VIIRS","confidence":"n","version":"2.0NRT","bright_ti5":"290.06","frp":"3.18","daynight":"N","commune":"Grande-Synthe","code_insee":"59271","departement":"Nord","region":"Hauts-de-France"}},{"type":"Feature","geometry":{"type":"Point","coordinates":[2.28567,51.03329]},"properties":{"latitude":"51.03329","longitude":"2.28567","bright_ti4":"335","scan":"0.41","track":"0.45","acq_date":"2026-08-04","acq_time":"126","satellite":"N21","instrument":"VIIRS","confidence":"n","version":"2.0NRT","bright_ti5":"291.67","frp":"3.72","daynight":"N","commune":"Grande-Synthe","code_insee":"59271","departement":"Nord","region":"Hauts-de-France"}},{"type":"Feature","geometry":{"type":"Point","coordinates":[2.29324,51.04105]},"properties":{"latitude":"51.04105","longitude":"2.29324","bright_ti4":"303.34","scan":"0.41","track":"0.45","acq_date":"2026-08-04","acq_time":"126","satellite":"N21","instrument":"VIIRS","confidence":"n","version":"2.0NRT","bright_ti5":"291.54","frp":"1.22","daynight":"N","commune":"Grande-Synthe","code_insee":"59271","departement":"Nord","region":"Hauts-de-France"}},{"type":"Feature","geometry":{"type":"Point","coordinates":[2.29997,51.04469]},"properties":{"latitude":"51.04469","longitude":"2.29997","bright_ti4":"305.08","scan":"0.41","track":"0.45","acq_date":"2026-08-04","acq_time":"126","satellite":"N21","instrument":"VIIRS","confidence":"n","version":"2.0NRT","bright_ti5":"290.28","frp":"2.13","daynight":"N","commune":"Grande-Synthe","code_insee":"59271","departement":"Nord","region":"Hauts-de-France"}},{"type":"Feature","geometry":{"type":"Point","coordinates":[2.29406,51.04518]},"properties":{"latitude":"51.04518","longitude":"2.29406","bright_ti4":"323.35","scan":"0.41","track":"0.45","acq_date":"2026-08-04","acq_time":"126","satellite":"N21","instrument":"VIIRS","confidence":"n","version":"2.0NRT","bright_ti5":"291.46","frp":"2.13","daynight":"N","commune":"Grande-Synthe","code_insee":"59271","departement":"Nord","region":"Hauts-de-France"}},{"type":"Feature","geometry":{"type":"Point","coordinates":[2.32438,51.04686]},"properties":{"latitude":"51.04686","longitude":"2.32438","bright_ti4":"332.71","scan":"0.41","track":"0.45","acq_date":"2026-08-04","acq_time":"126","satellite":"N21","instrument":"VIIRS","confidence":"n","version":"2.0NRT","bright_ti5":"290.98","frp":"8.76","daynight":"N","commune":"Dunkerque","code_insee":"59183","departement":"Nord","region":"Hauts-de-France"}},{"type":"Feature","geometry":{"type":"Point","coordinates":[2.31849,51.04735]},"properties":{"latitude":"51.04735","longitude":"2.31849","bright_ti4":"338.14","scan":"0.41","track":"0.45","acq_date":"2026-08-04","acq_time":"126","satellite":"N21","instrument":"VIIRS","confidence":"n","version":"2.0NRT","bright_ti5":"292.79","frp":"8.76","daynight":"N","commune":"Dunkerque","code_insee":"59183","departement":"Nord","region":"Hauts-de-France"}},{"type":"Feature","geometry":{"type":"Point","coordinates":[7.37171,43.7954]},"properties":{"latitude":"43.7954","longitude":"7.37171","bright_ti4":"304.93","scan":"0.39","track":"0.36","acq_date":"2026-08-04","acq_time":"128","satellite":"N21","instrument":"VIIRS","confidence":"n","version":"2.0NRT","bright_ti5":"294.12","frp":"0.77","daynight":"N","commune":"Blausasc","code_insee":"06019","departement":"Alpes-Maritimes","region":"Provence-Alpes-Côte d'Azur"}},{"type":"Feature","geometry":{"type":"Point","coordinates":[5.45563,44.52693]},"properties":{"latitude":"44.52693","longitude":"5.45563","bright_ti4":"343.66","scan":"0.41","track":"0.37","acq_date":"2026-08-04","acq_time":"128","satellite":"N21","instrument":"VIIRS","confidence":"n","version":"2.0NRT","bright_ti5":"293.39","frp":"9.45","daynight":"N","commune":"Bellegarde-en-Diois","code_insee":"26047","departement":"Drôme","region":"Auvergne-Rhône-Alpes"}},{"type":"Feature","geometry":{"type":"Point","coordinates":[5.46206,44.52958]},"properties":{"latitude":"44.52958","longitude":"5.46206","bright_ti4":"306.3","scan":"0.41","track":"0.37","acq_date":"2026-08-04","acq_time":"128","satellite":"N21","instrument":"VIIRS","confidence":"n","version":"2.0NRT","bright_ti5":"290.44","frp":"6.32","daynight":"N","commune":"Bellegarde-en-Diois","code_insee":"26047","departement":"Drôme","region":"Auvergne-Rhône-Alpes"}},{"type":"Feature","geometry":{"type":"Point","coordinates":[5.45663,44.5303]},"properties":{"latitude":"44.5303","longitude":"5.45663","bright_ti4":"342.78","scan":"0.41","track":"0.37","acq_date":"2026-08-04","acq_time":"128","satellite":"N21","instrument":"VIIRS","confidence":"n","version":"2.0NRT","bright_ti5":"299.15","frp":"6.32","daynight":"N","commune":"Bellegarde-en-Diois","code_insee":"26047","departement":"Drôme","region":"Auvergne-Rhône-Alpes"}},{"type":"Feature","geometry":{"type":"Point","coordinates":[5.46305,44.53295]},"properties":{"latitude":"44.53295","longitude":"5.46305","bright_ti4":"310.77","scan":"0.41","track":"0.37","acq_date":"2026-08-04","acq_time":"128","satellite":"N21","instrument":"VIIRS","confidence":"n","version":"2.0NRT","bright_ti5":"292.27","frp":"6.32","daynight":"N","commune":"Bellegarde-en-Diois","code_insee":"26047","departement":"Drôme","region":"Auvergne-Rhône-Alpes"}},{"type":"Feature","geometry":{"type":"Point","coordinates":[5.46401,44.53632]},"properties":{"latitude":"44.53632","longitude":"5.46401","bright_ti4":"307.66","scan":"0.41","track":"0.37","acq_date":"2026-08-04","acq_time":"128","satellite":"N21","instrument":"VIIRS","confidence":"n","version":"2.0NRT","bright_ti5":"289.7","frp":"1.03","daynight":"N","commune":"Bellegarde-en-Diois","code_insee":"26047","departement":"Drôme","region":"Auvergne-Rhône-Alpes"}},{"type":"Feature","geometry":{"type":"Point","coordinates":[5.45858,44.53704]},"properties":{"latitude":"44.53704","longitude":"5.45858","bright_ti4":"306.08","scan":"0.41","track":"0.37","acq_date":"2026-08-04","acq_time":"128","satellite":"N21","instrument":"VIIRS","confidence":"n","version":"2.0NRT","bright_ti5":"291.5","frp":"1.03","daynight":"N","commune":"Bellegarde-en-Diois","code_insee":"26047","departement":"Drôme","region":"Auvergne-Rhône-Alpes"}},{"type":"Feature","geometry":{"type":"Point","coordinates":[5.45958,44.54041]},"properties":{"latitude":"44.54041","longitude":"5.45958","bright_ti4":"303.35","scan":"0.41","track":"0.37","acq_date":"2026-08-04","acq_time":"128","satellite":"N21","instrument":"VIIRS","confidence":"n","version":"2.0NRT","bright_ti5":"290.96","frp":"1.03","daynight":"N","commune":"Bellegarde-en-Diois","code_insee":"26047","departement":"Drôme","region":"Auvergne-Rhône-Alpes"}},{"type":"Feature","geometry":{"type":"Point","coordinates":[5.46051,44.54379]},"properties":{"latitude":"44.54379","longitude":"5.46051","bright_ti4":"305.12","scan":"0.41","track":"0.37","acq_date":"2026-08-04","acq_time":"128","satellite":"N21","instrument":"VIIRS","confidence":"n","version":"2.0NRT","bright_ti5":"289.15","frp":"1.16","daynight":"N","commune":"Beaumont-en-Diois","code_insee":"26036","departement":"Drôme","region":"Auvergne-Rhône-Alpes"}},{"type":"Feature","geometry":{"type":"Point","coordinates":[0.53424,49.47593]},"properties":{"latitude":"49.47593","longitude":"0.53424","bright_ti4":"302.73","scan":"0.41","track":"0.61","acq_date":"2026-08-04","acq_time":"306","satellite":"N21","instrument":"VIIRS","confidence":"n","version":"2.0NRT","bright_ti5":"287.96","frp":"1.31","daynight":"N","commune":"Lillebonne","code_insee":"76384","departement":"Seine-Maritime","region":"Normandie"}},{"type":"Feature","geometry":{"type":"Point","coordinates":[0.5353,49.476]},"properties":{"latitude":"49.476","longitude":"0.5353","bright_ti4":"303.76","scan":"0.41","track":"0.61","acq_date":"2026-08-04","acq_time":"306","satellite":"N21","instrument":"VIIRS","confidence":"n","version":"2.0NRT","bright_ti5":"287.89","frp":"1.75","daynight":"N","commune":"Lillebonne","code_insee":"76384","departement":"Seine-Maritime","region":"Normandie"}},{"type":"Feature","geometry":{"type":"Point","coordinates":[2.29292,51.03174]},"properties":{"latitude":"51.03174","longitude":"2.29292","bright_ti4":"305.26","scan":"0.43","track":"0.62","acq_date":"2026-08-04","acq_time":"306","satellite":"N21","instrument":"VIIRS","confidence":"n","version":"2.0NRT","bright_ti5":"288.75","frp":"1.91","daynight":"N","commune":"Grande-Synthe","code_insee":"59271","departement":"Nord","region":"Hauts-de-France"}},{"type":"Feature","geometry":{"type":"Point","coordinates":[2.29384,51.03299]},"properties":{"latitude":"51.03299","longitude":"2.29384","bright_ti4":"306.06","scan":"0.43","track":"0.62","acq_date":"2026-08-04","acq_time":"306","satellite":"N21","instrument":"VIIRS","confidence":"n","version":"2.0NRT","bright_ti5":"288.78","frp":"2.04","daynight":"N","commune":"Grande-Synthe","code_insee":"59271","departement":"Nord","region":"Hauts-de-France"}},{"type":"Feature","geometry":{"type":"Point","coordinates":[2.28749,51.03351]},"properties":{"latitude":"51.03351","longitude":"2.28749","bright_ti4":"326.17","scan":"0.43","track":"0.62","acq_date":"2026-08-04","acq_time":"306","satellite":"N21","instrument":"VIIRS","confidence":"n","version":"2.0NRT","bright_ti5":"290.59","frp":"4.92","daynight":"N","commune":"Grande-Synthe","code_insee":"59271","departement":"Nord","region":"Hauts-de-France"}},{"type":"Feature","geometry":{"type":"Point","coordinates":[2.28838,51.03474]},"properties":{"latitude":"51.03474","longitude":"2.28838","bright_ti4":"326.82","scan":"0.43","track":"0.62","acq_date":"2026-08-04","acq_time":"306","satellite":"N21","instrument":"VIIRS","confidence":"n","version":"2.0NRT","bright_ti5":"290.61","frp":"2.04","daynight":"N","commune":"Grande-Synthe","code_insee":"59271","departement":"Nord","region":"Hauts-de-France"}},{"type":"Feature","geometry":{"type":"Point","coordinates":[2.29259,51.03977]},"properties":{"latitude":"51.03977","longitude":"2.29259","bright_ti4":"300.71","scan":"0.43","track":"0.62","acq_date":"2026-08-04","acq_time":"306","satellite":"N21","instrument":"VIIRS","confidence":"n","version":"2.0NRT","bright_ti5":"290.08","frp":"1.79","daynight":"N","commune":"Grande-Synthe","code_insee":"59271","departement":"Nord","region":"Hauts-de-France"}},{"type":"Feature","geometry":{"type":"Point","coordinates":[2.30128,51.04182]},"properties":{"latitude":"51.04182","longitude":"2.30128","bright_ti4":"302.29","scan":"0.43","track":"0.62","acq_date":"2026-08-04","acq_time":"306","satellite":"N21","instrument":"VIIRS","confidence":"n","version":"2.0NRT","bright_ti5":"289.4","frp":"2.77","daynight":"N","commune":"Grande-Synthe","code_insee":"59271","departement":"Nord","region":"Hauts-de-France"}},{"type":"Feature","geometry":{"type":"Point","coordinates":[2.32286,51.04287]},"properties":{"latitude":"51.04287","longitude":"2.32286","bright_ti4":"300.26","scan":"0.43","track":"0.62","acq_date":"2026-08-04","acq_time":"306","satellite":"N21","instrument":"VIIRS","confidence":"n","version":"2.0NRT","bright_ti5":"288.82","frp":"1.86","daynight":"N","commune":"Dunkerque","code_insee":"59183","departement":"Nord","region":"Hauts-de-France"}},{"type":"Feature","geometry":{"type":"Point","coordinates":[2.30224,51.04307]},"properties":{"latitude":"51.04307","longitude":"2.30224","bright_ti4":"303.85","scan":"0.43","track":"0.62","acq_date":"2026-08-04","acq_time":"306","satellite":"N21","instrument":"VIIRS","confidence":"n","version":"2.0NRT","bright_ti5":"289.83","frp":"1.79","daynight":"N","commune":"Grande-Synthe","code_insee":"59271","departement":"Nord","region":"Hauts-de-France"}},{"type":"Feature","geometry":{"type":"Point","coordinates":[2.29584,51.04359]},"properties":{"latitude":"51.04359","longitude":"2.29584","bright_ti4":"334.56","scan":"0.43","track":"0.62","acq_date":"2026-08-04","acq_time":"306","satellite":"N21","instrument":"VIIRS","confidence":"n","version":"2.0NRT","bright_ti5":"291.08","frp":"5.3","daynight":"N","commune":"Grande-Synthe","code_insee":"59271","departement":"Nord","region":"Hauts-de-France"}},{"type":"Feature","geometry":{"type":"Point","coordinates":[2.31735,51.04463]},"properties":{"latitude":"51.04463","longitude":"2.31735","bright_ti4":"311.63","scan":"0.43","track":"0.62","acq_date":"2026-08-04","acq_time":"306","satellite":"N21","instrument":"VIIRS","confidence":"n","version":"2.0NRT","bright_ti5":"289.8","frp":"2.79","daynight":"N","commune":"Dunkerque","code_insee":"59183","departement":"Nord","region":"Hauts-de-France"}},{"type":"Feature","geometry":{"type":"Point","coordinates":[2.29678,51.04481]},"properties":{"latitude":"51.04481","longitude":"2.29678","bright_ti4":"333.27","scan":"0.43","track":"0.62","acq_date":"2026-08-04","acq_time":"306","satellite":"N21","instrument":"VIIRS","confidence":"n","version":"2.0NRT","bright_ti5":"290.66","frp":"1.79","daynight":"N","commune":"Grande-Synthe","code_insee":"59271","departement":"Nord","region":"Hauts-de-France"}},{"type":"Feature","geometry":{"type":"Point","coordinates":[2.32596,51.0466]},"properties":{"latitude":"51.0466","longitude":"2.32596","bright_ti4":"301.2","scan":"0.43","track":"0.62","acq_date":"2026-08-04","acq_time":"306","satellite":"N21","instrument":"VIIRS","confidence":"n","version":"2.0NRT","bright_ti5":"289.04","frp":"1.94","daynight":"N","commune":"Dunkerque","code_insee":"59183","departement":"Nord","region":"Hauts-de-France"}},{"type":"Feature","geometry":{"type":"Point","coordinates":[2.32054,51.04837]},"properties":{"latitude":"51.04837","longitude":"2.32054","bright_ti4":"316.67","scan":"0.43","track":"0.62","acq_date":"2026-08-04","acq_time":"306","satellite":"N21","instrument":"VIIRS","confidence":"n","version":"2.0NRT","bright_ti5":"290.29","frp":"1.94","daynight":"N","commune":"Dunkerque","code_insee":"59183","departement":"Nord","region":"Hauts-de-France"}},{"type":"Feature","geometry":{"type":"Point","coordinates":[2.44279,46.12493]},"properties":{"latitude":"46.12493","longitude":"2.44279","bright_ti4":"316.07","scan":"0.64","track":"0.72","acq_date":"2026-08-04","acq_time":"308","satellite":"N21","instrument":"VIIRS","confidence":"n","version":"2.0NRT","bright_ti5":"282.02","frp":"10.22","daynight":"N","commune":"Sannat","code_insee":"23167","departement":"Creuse","region":"Nouvelle-Aquitaine"}},{"type":"Feature","geometry":{"type":"Point","coordinates":[2.43875,46.12759]},"properties":{"latitude":"46.12759","longitude":"2.43875","bright_ti4":"330.98","scan":"0.64","track":"0.72","acq_date":"2026-08-04","acq_time":"308","satellite":"N21","instrument":"VIIRS","confidence":"n","version":"2.0NRT","bright_ti5":"280.63","frp":"10.42","daynight":"N","commune":"Sannat","code_insee":"23167","departement":"Creuse","region":"Nouvelle-Aquitaine"}},{"type":"Feature","geometry":{"type":"Point","coordinates":[2.43486,46.1277]},"properties":{"latitude":"46.1277","longitude":"2.43486","bright_ti4":"308.62","scan":"0.64","track":"0.72","acq_date":"2026-08-04","acq_time":"308","satellite":"N21","instrument":"VIIRS","confidence":"n","version":"2.0NRT","bright_ti5":"276.23","frp":"6.46","daynight":"N","commune":"Sannat","code_insee":"23167","departement":"Creuse","region":"Nouvelle-Aquitaine"}},{"type":"Feature","geometry":{"type":"Point","coordinates":[1.14618,42.79145]},"properties":{"latitude":"42.79145","longitude":"1.14618","bright_ti4":"333.42","scan":"0.33","track":"0.55","acq_date":"2026-08-04","acq_time":"1206","satellite":"N20","instrument":"VIIRS","confidence":"n","version":"2.0NRT","bright_ti5":"300.67","frp":"5.23","daynight":"D","commune":"Seix","code_insee":"09285","departement":"Ariège","region":"Occitanie"}},{"type":"Feature","geometry":{"type":"Point","coordinates":[1.15301,42.79888]},"properties":{"latitude":"42.79888","longitude":"1.15301","bright_ti4":"333.07","scan":"0.33","track":"0.55","acq_date":"2026-08-04","acq_time":"1206","satellite":"N20","instrument":"VIIRS","confidence":"n","version":"2.0NRT","bright_ti5":"300.21","frp":"3.99","daynight":"D","commune":"Seix","code_insee":"09285","departement":"Ariège","region":"Occitanie"}},{"type":"Feature","geometry":{"type":"Point","coordinates":[1.15582,42.79937]},"properties":{"latitude":"42.79937","longitude":"1.15582","bright_ti4":"341.02","scan":"0.33","track":"0.55","acq_date":"2026-08-04","acq_time":"1206","satellite":"N20","instrument":"VIIRS","confidence":"n","version":"2.0NRT","bright_ti5":"299.7","frp":"5.09","daynight":"D","commune":"Seix","code_insee":"09285","departement":"Ariège","region":"Occitanie"}},{"type":"Feature","geometry":{"type":"Point","coordinates":[-0.25171,42.93584]},"properties":{"latitude":"42.93584","longitude":"-0.25171","bright_ti4":"349.27","scan":"0.38","track":"0.59","acq_date":"2026-08-04","acq_time":"1206","satellite":"N20","instrument":"VIIRS","confidence":"n","version":"2.0NRT","bright_ti5":"298.47","frp":"8.61","daynight":"D","commune":"Arrens-Marsous","code_insee":"65032","departement":"Hautes-Pyrénées","region":"Occitanie"}},{"type":"Feature","geometry":{"type":"Point","coordinates":[-0.2486,42.93672]},"properties":{"latitude":"42.93672","longitude":"-0.2486","bright_ti4":"330.2","scan":"0.38","track":"0.59","acq_date":"2026-08-04","acq_time":"1206","satellite":"N20","instrument":"VIIRS","confidence":"n","version":"2.0NRT","bright_ti5":"293.62","frp":"6.64","daynight":"D","commune":"Arrens-Marsous","code_insee":"65032","departement":"Hautes-Pyrénées","region":"Occitanie"}},{"type":"Feature","geometry":{"type":"Point","coordinates":[4.89263,43.43362]},"properties":{"latitude":"43.43362","longitude":"4.89263","bright_ti4":"332.79","scan":"0.42","track":"0.45","acq_date":"2026-08-04","acq_time":"1206","satellite":"N20","instrument":"VIIRS","confidence":"n","version":"2.0NRT","bright_ti5":"300.66","frp":"8.05","daynight":"D","commune":"Fos-sur-Mer","code_insee":"13039","departement":"Bouches-du-Rhône","region":"Provence-Alpes-Côte d'Azur"}},{"type":"Feature","geometry":{"type":"Point","coordinates":[4.89915,43.44384]},"properties":{"latitude":"43.44384","longitude":"4.89915","bright_ti4":"344.87","scan":"0.42","track":"0.45","acq_date":"2026-08-04","acq_time":"1206","satellite":"N20","instrument":"VIIRS","confidence":"n","version":"2.0NRT","bright_ti5":"299.88","frp":"4.52","daynight":"D","commune":"Fos-sur-Mer","code_insee":"13039","departement":"Bouches-du-Rhône","region":"Provence-Alpes-Côte d'Azur"}},{"type":"Feature","geometry":{"type":"Point","coordinates":[4.89745,43.44782]},"properties":{"latitude":"43.44782","longitude":"4.89745","bright_ti4":"334.55","scan":"0.42","track":"0.45","acq_date":"2026-08-04","acq_time":"1206","satellite":"N20","instrument":"VIIRS","confidence":"n","version":"2.0NRT","bright_ti5":"298.63","frp":"4.52","daynight":"D","commune":"Fos-sur-Mer","code_insee":"13039","departement":"Bouches-du-Rhône","region":"Provence-Alpes-Côte d'Azur"}},{"type":"Feature","geometry":{"type":"Point","coordinates":[5.4652,44.52644]},"properties":{"latitude":"44.52644","longitude":"5.4652","bright_ti4":"338.5","scan":"0.56","track":"0.43","acq_date":"2026-08-04","acq_time":"1206","satellite":"N20","instrument":"VIIRS","confidence":"l","version":"2.0NRT","bright_ti5":"312.97","frp":"25.17","daynight":"D","commune":"Bellegarde-en-Diois","code_insee":"26047","departement":"Drôme","region":"Auvergne-Rhône-Alpes"}},{"type":"Feature","geometry":{"type":"Point","coordinates":[5.47278,44.52802]},"properties":{"latitude":"44.52802","longitude":"5.47278","bright_ti4":"347.99","scan":"0.56","track":"0.43","acq_date":"2026-08-04","acq_time":"1206","satellite":"N20","instrument":"VIIRS","confidence":"n","version":"2.0NRT","bright_ti5":"306.63","frp":"17.28","daynight":"D","commune":"Saint-Dizier-en-Diois","code_insee":"26300","departement":"Drôme","region":"Auvergne-Rhône-Alpes"}},{"type":"Feature","geometry":{"type":"Point","coordinates":[5.47272,44.52809]},"properties":{"latitude":"44.52809","longitude":"5.47272","bright_ti4":"347","scan":"0.56","track":"0.43","acq_date":"2026-08-04","acq_time":"1206","satellite":"N20","instrument":"VIIRS","confidence":"n","version":"2.0NRT","bright_ti5":"307.31","frp":"140.8","daynight":"D","commune":"Saint-Dizier-en-Diois","code_insee":"26300","departement":"Drôme","region":"Auvergne-Rhône-Alpes"}},{"type":"Feature","geometry":{"type":"Point","coordinates":[5.46376,44.53027]},"properties":{"latitude":"44.53027","longitude":"5.46376","bright_ti4":"339.69","scan":"0.56","track":"0.43","acq_date":"2026-08-04","acq_time":"1206","satellite":"N20","instrument":"VIIRS","confidence":"n","version":"2.0NRT","bright_ti5":"306.23","frp":"25.17","daynight":"D","commune":"Bellegarde-en-Diois","code_insee":"26047","departement":"Drôme","region":"Auvergne-Rhône-Alpes"}},{"type":"Feature","geometry":{"type":"Point","coordinates":[5.46976,44.53573]},"properties":{"latitude":"44.53573","longitude":"5.46976","bright_ti4":"351.67","scan":"0.56","track":"0.43","acq_date":"2026-08-04","acq_time":"1206","satellite":"N20","instrument":"VIIRS","confidence":"n","version":"2.0NRT","bright_ti5":"310.72","frp":"23.67","daynight":"D","commune":"Bellegarde-en-Diois","code_insee":"26047","departement":"Drôme","region":"Auvergne-Rhône-Alpes"}},{"type":"Feature","geometry":{"type":"Point","coordinates":[5.47668,44.53725]},"properties":{"latitude":"44.53725","longitude":"5.47668","bright_ti4":"335.73","scan":"0.56","track":"0.43","acq_date":"2026-08-04","acq_time":"1206","satellite":"N20","instrument":"VIIRS","confidence":"n","version":"2.0NRT","bright_ti5":"297.56","frp":"23.67","daynight":"D","commune":"Bellegarde-en-Diois","code_insee":"26047","departement":"Drôme","region":"Auvergne-Rhône-Alpes"}},{"type":"Feature","geometry":{"type":"Point","coordinates":[5.46779,44.53944]},"properties":{"latitude":"44.53944","longitude":"5.46779","bright_ti4":"346.06","scan":"0.56","track":"0.43","acq_date":"2026-08-04","acq_time":"1206","satellite":"N20","instrument":"VIIRS","confidence":"n","version":"2.0NRT","bright_ti5":"309.29","frp":"23.67","daynight":"D","commune":"Bellegarde-en-Diois","code_insee":"26047","departement":"Drôme","region":"Auvergne-Rhône-Alpes"}},{"type":"Feature","geometry":{"type":"Point","coordinates":[5.47442,44.54089]},"properties":{"latitude":"44.54089","longitude":"5.47442","bright_ti4":"343.73","scan":"0.56","track":"0.43","acq_date":"2026-08-04","acq_time":"1206","satellite":"N20","instrument":"VIIRS","confidence":"n","version":"2.0NRT","bright_ti5":"306.44","frp":"23.67","daynight":"D","commune":"Bellegarde-en-Diois","code_insee":"26047","departement":"Drôme","region":"Auvergne-Rhône-Alpes"}},{"type":"Feature","geometry":{"type":"Point","coordinates":[-0.53668,44.33381]},"properties":{"latitude":"44.33381","longitude":"-0.53668","bright_ti4":"332.88","scan":"0.35","track":"0.57","acq_date":"2026-08-04","acq_time":"1208","satellite":"N20","instrument":"VIIRS","confidence":"n","version":"2.0NRT","bright_ti5":"296.97","frp":"3.89","daynight":"D","commune":"Sore","code_insee":"40307","departement":"Landes","region":"Nouvelle-Aquitaine"}},{"type":"Feature","geometry":{"type":"Point","coordinates":[-1.01992,47.66538]},"properties":{"latitude":"47.66538","longitude":"-1.01992","bright_ti4":"342.81","scan":"0.59","track":"0.53","acq_date":"2026-08-04","acq_time":"1208","satellite":"N20","instrument":"VIIRS","confidence":"n","version":"2.0NRT","bright_ti5":"295.95","frp":"5.83","daynight":"D","commune":"Ombrée d'Anjou","code_insee":"49248","departement":"Maine-et-Loire","region":"Pays de la Loire"}},{"type":"Feature","geometry":{"type":"Point","coordinates":[7.56545,48.05062]},"properties":{"latitude":"48.05062","longitude":"7.56545","bright_ti4":"331.22","scan":"0.42","track":"0.38","acq_date":"2026-08-04","acq_time":"1208","satellite":"N20","instrument":"VIIRS","confidence":"l","version":"2.0NRT","bright_ti5":"304.79","frp":"3.13","daynight":"D","commune":"Biesheim","code_insee":"68036","departement":"Haut-Rhin","region":"Grand Est"}},{"type":"Feature","geometry":{"type":"Point","coordinates":[6.29287,48.38583]},"properties":{"latitude":"48.38583","longitude":"6.29287","bright_ti4":"332.89","scan":"0.45","track":"0.39","acq_date":"2026-08-04","acq_time":"1208","satellite":"N20","instrument":"VIIRS","confidence":"n","version":"2.0NRT","bright_ti5":"296.74","frp":"2.2","daynight":"D","commune":"Charmes","code_insee":"88090","departement":"Vosges","region":"Grand Est"}},{"type":"Feature","geometry":{"type":"Point","coordinates":[6.84231,49.10984]},"properties":{"latitude":"49.10984","longitude":"6.84231","bright_ti4":"336.57","scan":"0.42","track":"0.38","acq_date":"2026-08-04","acq_time":"1208","satellite":"N20","instrument":"VIIRS","confidence":"n","version":"2.0NRT","bright_ti5":"296.45","frp":"4.92","daynight":"D","commune":"Seingbouse","code_insee":"57644","departement":"Moselle","region":"Grand Est"}},{"type":"Feature","geometry":{"type":"Point","coordinates":[6.23997,49.11117]},"properties":{"latitude":"49.11117","longitude":"6.23997","bright_ti4":"331.88","scan":"0.44","track":"0.38","acq_date":"2026-08-04","acq_time":"1208","satellite":"N20","instrument":"VIIRS","confidence":"l","version":"2.0NRT","bright_ti5":"305.9","frp":"3.59","daynight":"D","commune":"Metz","code_insee":"57463","departement":"Moselle","region":"Grand Est"}},{"type":"Feature","geometry":{"type":"Point","coordinates":[4.883,43.4421]},"properties":{"latitude":"43.4421","longitude":"4.883","bright_ti4":"344.94","scan":"0.68","track":"0.74","acq_date":"2026-08-04","acq_time":"1348","satellite":"N20","instrument":"VIIRS","confidence":"n","version":"2.0NRT","bright_ti5":"291.68","frp":"15.1","daynight":"D","commune":"Fos-sur-Mer","code_insee":"13039","departement":"Bouches-du-Rhône","region":"Provence-Alpes-Côte d'Azur"}},{"type":"Feature","geometry":{"type":"Point","coordinates":[5.47492,44.52356]},"properties":{"latitude":"44.52356","longitude":"5.47492","bright_ti4":"349.27","scan":"0.74","track":"0.76","acq_date":"2026-08-04","acq_time":"1348","satellite":"N20","instrument":"VIIRS","confidence":"n","version":"2.0NRT","bright_ti5":"291.19","frp":"18.88","daynight":"D","commune":"Saint-Dizier-en-Diois","code_insee":"26300","departement":"Drôme","region":"Auvergne-Rhône-Alpes"}},{"type":"Feature","geometry":{"type":"Point","coordinates":[5.46701,44.52365]},"properties":{"latitude":"44.52365","longitude":"5.46701","bright_ti4":"353.62","scan":"0.74","track":"0.76","acq_date":"2026-08-04","acq_time":"1348","satellite":"N20","instrument":"VIIRS","confidence":"n","version":"2.0NRT","bright_ti5":"295.91","frp":"18.88","daynight":"D","commune":"Bellegarde-en-Diois","code_insee":"26047","departement":"Drôme","region":"Auvergne-Rhône-Alpes"}},{"type":"Feature","geometry":{"type":"Point","coordinates":[5.47328,44.5271]},"properties":{"latitude":"44.5271","longitude":"5.47328","bright_ti4":"367","scan":"0.74","track":"0.76","acq_date":"2026-08-04","acq_time":"1348","satellite":"N20","instrument":"VIIRS","confidence":"h","version":"2.0NRT","bright_ti5":"292.64","frp":"31.5","daynight":"D","commune":"Saint-Dizier-en-Diois","code_insee":"26300","departement":"Drôme","region":"Auvergne-Rhône-Alpes"}},{"type":"Feature","geometry":{"type":"Point","coordinates":[5.46586,44.52715]},"properties":{"latitude":"44.52715","longitude":"5.46586","bright_ti4":"352.7","scan":"0.74","track":"0.76","acq_date":"2026-08-04","acq_time":"1348","satellite":"N20","instrument":"VIIRS","confidence":"n","version":"2.0NRT","bright_ti5":"297.04","frp":"34.05","daynight":"D","commune":"Bellegarde-en-Diois","code_insee":"26047","departement":"Drôme","region":"Auvergne-Rhône-Alpes"}},{"type":"Feature","geometry":{"type":"Point","coordinates":[5.47276,44.53067]},"properties":{"latitude":"44.53067","longitude":"5.47276","bright_ti4":"329.8","scan":"0.74","track":"0.76","acq_date":"2026-08-04","acq_time":"1348","satellite":"N20","instrument":"VIIRS","confidence":"n","version":"2.0NRT","bright_ti5":"291.4","frp":"18.88","daynight":"D","commune":"Bellegarde-en-Diois","code_insee":"26047","departement":"Drôme","region":"Auvergne-Rhône-Alpes"}},{"type":"Feature","geometry":{"type":"Point","coordinates":[5.48109,44.53413]},"properties":{"latitude":"44.53413","longitude":"5.48109","bright_ti4":"367","scan":"0.74","track":"0.76","acq_date":"2026-08-04","acq_time":"1348","satellite":"N20","instrument":"VIIRS","confidence":"h","version":"2.0NRT","bright_ti5":"296.97","frp":"66.98","daynight":"D","commune":"Bellegarde-en-Diois","code_insee":"26047","departement":"Drôme","region":"Auvergne-Rhône-Alpes"}},{"type":"Feature","geometry":{"type":"Point","coordinates":[5.47208,44.53419]},"properties":{"latitude":"44.53419","longitude":"5.47208","bright_ti4":"352.07","scan":"0.74","track":"0.76","acq_date":"2026-08-04","acq_time":"1348","satellite":"N20","instrument":"VIIRS","confidence":"n","version":"2.0NRT","bright_ti5":"296.92","frp":"66.98","daynight":"D","commune":"Bellegarde-en-Diois","code_insee":"26047","departement":"Drôme","region":"Auvergne-Rhône-Alpes"}},{"type":"Feature","geometry":{"type":"Point","coordinates":[5.48168,44.53767]},"properties":{"latitude":"44.53767","longitude":"5.48168","bright_ti4":"367","scan":"0.74","track":"0.76","acq_date":"2026-08-04","acq_time":"1348","satellite":"N20","instrument":"VIIRS","confidence":"h","version":"2.0NRT","bright_ti5":"296.01","frp":"195.29","daynight":"D","commune":"Bellegarde-en-Diois","code_insee":"26047","departement":"Drôme","region":"Auvergne-Rhône-Alpes"}},{"type":"Feature","geometry":{"type":"Point","coordinates":[5.47272,44.53776]},"properties":{"latitude":"44.53776","longitude":"5.47272","bright_ti4":"330.38","scan":"0.74","track":"0.76","acq_date":"2026-08-04","acq_time":"1348","satellite":"N20","instrument":"VIIRS","confidence":"n","version":"2.0NRT","bright_ti5":"299.43","frp":"124.28","daynight":"D","commune":"Bellegarde-en-Diois","code_insee":"26047","departement":"Drôme","region":"Auvergne-Rhône-Alpes"}},{"type":"Feature","geometry":{"type":"Point","coordinates":[5.48435,44.54121]},"properties":{"latitude":"44.54121","longitude":"5.48435","bright_ti4":"348.67","scan":"0.74","track":"0.76","acq_date":"2026-08-04","acq_time":"1348","satellite":"N20","instrument":"VIIRS","confidence":"n","version":"2.0NRT","bright_ti5":"291.17","frp":"66.98","daynight":"D","commune":"Beaumont-en-Diois","code_insee":"26036","departement":"Drôme","region":"Auvergne-Rhône-Alpes"}},{"type":"Feature","geometry":{"type":"Point","coordinates":[1.1441,42.79272]},"properties":{"latitude":"42.79272","longitude":"1.1441","bright_ti4":"338.32","scan":"0.39","track":"0.36","acq_date":"2026-08-04","acq_time":"1253","satellite":"N21","instrument":"VIIRS","confidence":"n","version":"2.0NRT","bright_ti5":"307.06","frp":"6.49","daynight":"D","commune":"Seix","code_insee":"09285","departement":"Ariège","region":"Occitanie"}},{"type":"Feature","geometry":{"type":"Point","coordinates":[4.89565,43.43243]},"properties":{"latitude":"43.43243","longitude":"4.89565","bright_ti4":"331.11","scan":"0.48","track":"0.4","acq_date":"2026-08-04","acq_time":"1253","satellite":"N21","instrument":"VIIRS","confidence":"l","version":"2.0NRT","bright_ti5":"306.07","frp":"6.44","daynight":"D","commune":"Fos-sur-Mer","code_insee":"13039","departement":"Bouches-du-Rhône","region":"Provence-Alpes-Côte d'Azur"}},{"type":"Feature","geometry":{"type":"Point","coordinates":[4.88868,43.43449]},"properties":{"latitude":"43.43449","longitude":"4.88868","bright_ti4":"338.59","scan":"0.48","track":"0.4","acq_date":"2026-08-04","acq_time":"1253","satellite":"N21","instrument":"VIIRS","confidence":"n","version":"2.0NRT","bright_ti5":"303.47","frp":"10.09","daynight":"D","commune":"Fos-sur-Mer","code_insee":"13039","departement":"Bouches-du-Rhône","region":"Provence-Alpes-Côte d'Azur"}},{"type":"Feature","geometry":{"type":"Point","coordinates":[4.88894,43.43543]},"properties":{"latitude":"43.43543","longitude":"4.88894","bright_ti4":"337.62","scan":"0.48","track":"0.4","acq_date":"2026-08-04","acq_time":"1253","satellite":"N21","instrument":"VIIRS","confidence":"n","version":"2.0NRT","bright_ti5":"304.14","frp":"6.44","daynight":"D","commune":"Fos-sur-Mer","code_insee":"13039","departement":"Bouches-du-Rhône","region":"Provence-Alpes-Côte d'Azur"}},{"type":"Feature","geometry":{"type":"Point","coordinates":[4.89387,43.4388]},"properties":{"latitude":"43.4388","longitude":"4.89387","bright_ti4":"337.77","scan":"0.48","track":"0.4","acq_date":"2026-08-04","acq_time":"1253","satellite":"N21","instrument":"VIIRS","confidence":"n","version":"2.0NRT","bright_ti5":"306.02","frp":"6.14","daynight":"D","commune":"Fos-sur-Mer","code_insee":"13039","departement":"Bouches-du-Rhône","region":"Provence-Alpes-Côte d'Azur"}},{"type":"Feature","geometry":{"type":"Point","coordinates":[4.89411,43.43977]},"properties":{"latitude":"43.43977","longitude":"4.89411","bright_ti4":"337.27","scan":"0.48","track":"0.4","acq_date":"2026-08-04","acq_time":"1253","satellite":"N21","instrument":"VIIRS","confidence":"n","version":"2.0NRT","bright_ti5":"305.87","frp":"8.92","daynight":"D","commune":"Fos-sur-Mer","code_insee":"13039","departement":"Bouches-du-Rhône","region":"Provence-Alpes-Côte d'Azur"}},{"type":"Feature","geometry":{"type":"Point","coordinates":[4.88147,43.44209]},"properties":{"latitude":"43.44209","longitude":"4.88147","bright_ti4":"331.84","scan":"0.48","track":"0.4","acq_date":"2026-08-04","acq_time":"1253","satellite":"N21","instrument":"VIIRS","confidence":"l","version":"2.0NRT","bright_ti5":"303.68","frp":"4.77","daynight":"D","commune":"Fos-sur-Mer","code_insee":"13039","departement":"Bouches-du-Rhône","region":"Provence-Alpes-Côte d'Azur"}},{"type":"Feature","geometry":{"type":"Point","coordinates":[4.89906,43.44311]},"properties":{"latitude":"43.44311","longitude":"4.89906","bright_ti4":"330.47","scan":"0.49","track":"0.4","acq_date":"2026-08-04","acq_time":"1253","satellite":"N21","instrument":"VIIRS","confidence":"l","version":"2.0NRT","bright_ti5":"303.28","frp":"10.03","daynight":"D","commune":"Fos-sur-Mer","code_insee":"13039","departement":"Bouches-du-Rhône","region":"Provence-Alpes-Côte d'Azur"}},{"type":"Feature","geometry":{"type":"Point","coordinates":[4.8993,43.4441]},"properties":{"latitude":"43.4441","longitude":"4.8993","bright_ti4":"340.58","scan":"0.48","track":"0.4","acq_date":"2026-08-04","acq_time":"1253","satellite":"N21","instrument":"VIIRS","confidence":"n","version":"2.0NRT","bright_ti5":"304.39","frp":"6.46","daynight":"D","commune":"Fos-sur-Mer","code_insee":"13039","departement":"Bouches-du-Rhône","region":"Provence-Alpes-Côte d'Azur"}},{"type":"Feature","geometry":{"type":"Point","coordinates":[4.89829,43.44677]},"properties":{"latitude":"43.44677","longitude":"4.89829","bright_ti4":"343.74","scan":"0.49","track":"0.4","acq_date":"2026-08-04","acq_time":"1253","satellite":"N21","instrument":"VIIRS","confidence":"n","version":"2.0NRT","bright_ti5":"304.91","frp":"10.03","daynight":"D","commune":"Fos-sur-Mer","code_insee":"13039","departement":"Bouches-du-Rhône","region":"Provence-Alpes-Côte d'Azur"}},{"type":"Feature","geometry":{"type":"Point","coordinates":[3.89512,43.91433]},"properties":{"latitude":"43.91433","longitude":"3.89512","bright_ti4":"347.82","scan":"0.45","track":"0.39","acq_date":"2026-08-04","acq_time":"1253","satellite":"N21","instrument":"VIIRS","confidence":"n","version":"2.0NRT","bright_ti5":"304.68","frp":"9.06","daynight":"D","commune":"Conqueyrac","code_insee":"30093","departement":"Gard","region":"Occitanie"}},{"type":"Feature","geometry":{"type":"Point","coordinates":[-0.66097,44.10262]},"properties":{"latitude":"44.10262","longitude":"-0.66097","bright_ti4":"347.52","scan":"0.38","track":"0.36","acq_date":"2026-08-04","acq_time":"1253","satellite":"N21","instrument":"VIIRS","confidence":"n","version":"2.0NRT","bright_ti5":"300.78","frp":"5.89","daynight":"D","commune":"Vert","code_insee":"40323","departement":"Landes","region":"Nouvelle-Aquitaine"}},{"type":"Feature","geometry":{"type":"Point","coordinates":[-0.66196,44.10587]},"properties":{"latitude":"44.10587","longitude":"-0.66196","bright_ti4":"356.1","scan":"0.38","track":"0.36","acq_date":"2026-08-04","acq_time":"1253","satellite":"N21","instrument":"VIIRS","confidence":"l","version":"2.0NRT","bright_ti5":"305.3","frp":"19.23","daynight":"D","commune":"Vert","code_insee":"40323","departement":"Landes","region":"Nouvelle-Aquitaine"}},{"type":"Feature","geometry":{"type":"Point","coordinates":[-0.65723,44.10662]},"properties":{"latitude":"44.10662","longitude":"-0.65723","bright_ti4":"345.65","scan":"0.38","track":"0.36","acq_date":"2026-08-04","acq_time":"1253","satellite":"N21","instrument":"VIIRS","confidence":"n","version":"2.0NRT","bright_ti5":"302.04","frp":"4.79","daynight":"D","commune":"Vert","code_insee":"40323","departement":"Landes","region":"Nouvelle-Aquitaine"}},{"type":"Feature","geometry":{"type":"Point","coordinates":[-0.07211,44.49157]},"properties":{"latitude":"44.49157","longitude":"-0.07211","bright_ti4":"340.03","scan":"0.38","track":"0.36","acq_date":"2026-08-04","acq_time":"1253","satellite":"N21","instrument":"VIIRS","confidence":"n","version":"2.0NRT","bright_ti5":"302.1","frp":"5.61","daynight":"D","commune":"Aillas","code_insee":"33002","departement":"Gironde","region":"Nouvelle-Aquitaine"}},{"type":"Feature","geometry":{"type":"Point","coordinates":[5.46452,44.5252]},"properties":{"latitude":"44.5252","longitude":"5.46452","bright_ti4":"338.73","scan":"0.53","track":"0.42","acq_date":"2026-08-04","acq_time":"1253","satellite":"N21","instrument":"VIIRS","confidence":"n","version":"2.0NRT","bright_ti5":"303.46","frp":"16.45","daynight":"D","commune":"Bellegarde-en-Diois","code_insee":"26047","departement":"Drôme","region":"Auvergne-Rhône-Alpes"}},{"type":"Feature","geometry":{"type":"Point","coordinates":[5.4705,44.52581]},"properties":{"latitude":"44.52581","longitude":"5.4705","bright_ti4":"339.01","scan":"0.53","track":"0.42","acq_date":"2026-08-04","acq_time":"1253","satellite":"N21","instrument":"VIIRS","confidence":"n","version":"2.0NRT","bright_ti5":"298.98","frp":"16.45","daynight":"D","commune":"Bellegarde-en-Diois","code_insee":"26047","departement":"Drôme","region":"Auvergne-Rhône-Alpes"}},{"type":"Feature","geometry":{"type":"Point","coordinates":[5.4695,44.52959]},"properties":{"latitude":"44.52959","longitude":"5.4695","bright_ti4":"354.62","scan":"0.53","track":"0.42","acq_date":"2026-08-04","acq_time":"1253","satellite":"N21","instrument":"VIIRS","confidence":"n","version":"2.0NRT","bright_ti5":"317.07","frp":"16.45","daynight":"D","commune":"Bellegarde-en-Diois","code_insee":"26047","departement":"Drôme","region":"Auvergne-Rhône-Alpes"}},{"type":"Feature","geometry":{"type":"Point","coordinates":[5.46862,44.53339]},"properties":{"latitude":"44.53339","longitude":"5.46862","bright_ti4":"347.49","scan":"0.53","track":"0.42","acq_date":"2026-08-04","acq_time":"1253","satellite":"N21","instrument":"VIIRS","confidence":"n","version":"2.0NRT","bright_ti5":"310.75","frp":"23.27","daynight":"D","commune":"Bellegarde-en-Diois","code_insee":"26047","departement":"Drôme","region":"Auvergne-Rhône-Alpes"}},{"type":"Feature","geometry":{"type":"Point","coordinates":[5.47489,44.53403]},"properties":{"latitude":"44.53403","longitude":"5.47489","bright_ti4":"333.89","scan":"0.53","track":"0.42","acq_date":"2026-08-04","acq_time":"1253","satellite":"N21","instrument":"VIIRS","confidence":"n","version":"2.0NRT","bright_ti5":"296.13","frp":"66.42","daynight":"D","commune":"Bellegarde-en-Diois","code_insee":"26047","departement":"Drôme","region":"Auvergne-Rhône-Alpes"}},{"type":"Feature","geometry":{"type":"Point","coordinates":[5.46787,44.53719]},"properties":{"latitude":"44.53719","longitude":"5.46787","bright_ti4":"343.79","scan":"0.53","track":"0.42","acq_date":"2026-08-04","acq_time":"1253","satellite":"N21","instrument":"VIIRS","confidence":"n","version":"2.0NRT","bright_ti5":"308.89","frp":"23.27","daynight":"D","commune":"Bellegarde-en-Diois","code_insee":"26047","departement":"Drôme","region":"Auvergne-Rhône-Alpes"}},{"type":"Feature","geometry":{"type":"Point","coordinates":[5.48085,44.53852]},"properties":{"latitude":"44.53852","longitude":"5.48085","bright_ti4":"335.44","scan":"0.53","track":"0.42","acq_date":"2026-08-04","acq_time":"1253","satellite":"N21","instrument":"VIIRS","confidence":"n","version":"2.0NRT","bright_ti5":"295.24","frp":"66.42","daynight":"D","commune":"Bellegarde-en-Diois","code_insee":"26047","departement":"Drôme","region":"Auvergne-Rhône-Alpes"}},{"type":"Feature","geometry":{"type":"Point","coordinates":[5.47412,44.54171]},"properties":{"latitude":"44.54171","longitude":"5.47412","bright_ti4":"353.09","scan":"0.53","track":"0.42","acq_date":"2026-08-04","acq_time":"1253","satellite":"N21","instrument":"VIIRS","confidence":"n","version":"2.0NRT","bright_ti5":"304.51","frp":"17.85","daynight":"D","commune":"Beaumont-en-Diois","code_insee":"26036","departement":"Drôme","region":"Auvergne-Rhône-Alpes"}},{"type":"Feature","geometry":{"type":"Point","coordinates":[5.48093,44.54241]},"properties":{"latitude":"44.54241","longitude":"5.48093","bright_ti4":"334.23","scan":"0.53","track":"0.42","acq_date":"2026-08-04","acq_time":"1253","satellite":"N21","instrument":"VIIRS","confidence":"n","version":"2.0NRT","bright_ti5":"292.8","frp":"17.85","daynight":"D","commune":"Beaumont-en-Diois","code_insee":"26036","departement":"Drôme","region":"Auvergne-Rhône-Alpes"}},{"type":"Feature","geometry":{"type":"Point","coordinates":[-0.16225,45.07704]},"properties":{"latitude":"45.07704","longitude":"-0.16225","bright_ti4":"346.33","scan":"0.38","track":"0.36","acq_date":"2026-08-04","acq_time":"1253","satellite":"N21","instrument":"VIIRS","confidence":"n","version":"2.0NRT","bright_ti5":"310.05","frp":"22.23","daynight":"D","commune":"Lagorce","code_insee":"33218","departement":"Gironde","region":"Nouvelle-Aquitaine"}},{"type":"Feature","geometry":{"type":"Point","coordinates":[2.30094,51.04092]},"properties":{"latitude":"51.04092","longitude":"2.30094","bright_ti4":"336.95","scan":"0.48","track":"0.4","acq_date":"2026-08-04","acq_time":"1253","satellite":"N21","instrument":"VIIRS","confidence":"n","version":"2.0NRT","bright_ti5":"301.85","frp":"5.51","daynight":"D","commune":"Grande-Synthe","code_insee":"59271","departement":"Nord","region":"Hauts-de-France"}},{"type":"Feature","geometry":{"type":"Point","coordinates":[2.30195,51.04105]},"properties":{"latitude":"51.04105","longitude":"2.30195","bright_ti4":"334.87","scan":"0.48","track":"0.4","acq_date":"2026-08-04","acq_time":"1253","satellite":"N21","instrument":"VIIRS","confidence":"n","version":"2.0NRT","bright_ti5":"300.6","frp":"5.91","daynight":"D","commune":"Grande-Synthe","code_insee":"59271","departement":"Nord","region":"Hauts-de-France"}},{"type":"Feature","geometry":{"type":"Point","coordinates":[2.29996,51.04454]},"properties":{"latitude":"51.04454","longitude":"2.29996","bright_ti4":"337.26","scan":"0.48","track":"0.4","acq_date":"2026-08-04","acq_time":"1253","satellite":"N21","instrument":"VIIRS","confidence":"n","version":"2.0NRT","bright_ti5":"302.22","frp":"5.51","daynight":"D","commune":"Grande-Synthe","code_insee":"59271","departement":"Nord","region":"Hauts-de-France"}},{"type":"Feature","geometry":{"type":"Point","coordinates":[1.18454,47.49529]},"properties":{"latitude":"47.49529","longitude":"1.18454","bright_ti4":"335.88","scan":"0.41","track":"0.37","acq_date":"2026-08-04","acq_time":"1255","satellite":"N21","instrument":"VIIRS","confidence":"n","version":"2.0NRT","bright_ti5":"306.64","frp":"6.81","daynight":"D","commune":"Veuzain-sur-Loire","code_insee":"41167","departement":"Loir-et-Cher","region":"Centre-Val de Loire"}},{"type":"Feature","geometry":{"type":"Point","coordinates":[1.18993,47.49598]},"properties":{"latitude":"47.49598","longitude":"1.18993","bright_ti4":"334.36","scan":"0.41","track":"0.37","acq_date":"2026-08-04","acq_time":"1255","satellite":"N21","instrument":"VIIRS","confidence":"n","version":"2.0NRT","bright_ti5":"304.45","frp":"4.07","daynight":"D","commune":"Veuzain-sur-Loire","code_insee":"41167","departement":"Loir-et-Cher","region":"Centre-Val de Loire"}},{"type":"Feature","geometry":{"type":"Point","coordinates":[1.94099,47.87326]},"properties":{"latitude":"47.87326","longitude":"1.94099","bright_ti4":"336.15","scan":"0.43","track":"0.38","acq_date":"2026-08-04","acq_time":"1255","satellite":"N21","instrument":"VIIRS","confidence":"n","version":"2.0NRT","bright_ti5":"307.97","frp":"3.79","daynight":"D","commune":"Saint-Jean-le-Blanc","code_insee":"45286","departement":"Loiret","region":"Centre-Val de Loire"}},{"type":"Feature","geometry":{"type":"Point","coordinates":[-2.1168,48.44653]},"properties":{"latitude":"48.44653","longitude":"-2.1168","bright_ti4":"347.64","scan":"0.38","track":"0.36","acq_date":"2026-08-04","acq_time":"1255","satellite":"N21","instrument":"VIIRS","confidence":"n","version":"2.0NRT","bright_ti5":"302.29","frp":"10.91","daynight":"D","commune":"Aucaleuc","code_insee":"22003","departement":"Côtes-d'Armor","region":"Bretagne"}},{"type":"Feature","geometry":{"type":"Point","coordinates":[-2.11171,48.44732]},"properties":{"latitude":"48.44732","longitude":"-2.11171","bright_ti4":"342.45","scan":"0.38","track":"0.36","acq_date":"2026-08-04","acq_time":"1255","satellite":"N21","instrument":"VIIRS","confidence":"n","version":"2.0NRT","bright_ti5":"300.09","frp":"7.64","daynight":"D","commune":"Aucaleuc","code_insee":"22003","departement":"Côtes-d'Armor","region":"Bretagne"}},{"type":"Feature","geometry":{"type":"Point","coordinates":[-2.11795,48.44976]},"properties":{"latitude":"48.44976","longitude":"-2.11795","bright_ti4":"355.02","scan":"0.38","track":"0.36","acq_date":"2026-08-04","acq_time":"1255","satellite":"N21","instrument":"VIIRS","confidence":"l","version":"2.0NRT","bright_ti5":"300.29","frp":"10.67","daynight":"D","commune":"Aucaleuc","code_insee":"22003","departement":"Côtes-d'Armor","region":"Bretagne"}},{"type":"Feature","geometry":{"type":"Point","coordinates":[7.39379,49.14064]},"properties":{"latitude":"49.14064","longitude":"7.39379","bright_ti4":"352.73","scan":"0.48","track":"0.48","acq_date":"2026-08-04","acq_time":"1255","satellite":"N21","instrument":"VIIRS","confidence":"n","version":"2.0NRT","bright_ti5":"304.59","frp":"26.85","daynight":"D","commune":"Loutzviller","code_insee":"57421","departement":"Moselle","region":"Grand Est"}}]}