{"type":"FeatureCollection","features":[{"type":"Feature","geometry":{"type":"Point","coordinates":[4.89512,43.43436]},"properties":{"latitude":"43.43436","longitude":"4.89512","bright_ti4":"304.33","scan":"0.51","track":"0.49","acq_date":"2026-07-31","acq_time":"102","satellite":"N21","instrument":"VIIRS","confidence":"n","version":"2.0NRT","bright_ti5":"293.18","frp":"1.28","daynight":"N","commune":"Fos-sur-Mer","code_insee":"13039","departement":"Bouches-du-Rhône","region":"Provence-Alpes-Côte d'Azur"}},{"type":"Feature","geometry":{"type":"Point","coordinates":[4.88884,43.43483]},"properties":{"latitude":"43.43483","longitude":"4.88884","bright_ti4":"336.88","scan":"0.51","track":"0.49","acq_date":"2026-07-31","acq_time":"102","satellite":"N21","instrument":"VIIRS","confidence":"n","version":"2.0NRT","bright_ti5":"295.1","frp":"7.94","daynight":"N","commune":"Fos-sur-Mer","code_insee":"13039","departement":"Bouches-du-Rhône","region":"Provence-Alpes-Côte d'Azur"}},{"type":"Feature","geometry":{"type":"Point","coordinates":[4.89637,43.44342]},"properties":{"latitude":"43.44342","longitude":"4.89637","bright_ti4":"319.1","scan":"0.51","track":"0.49","acq_date":"2026-07-31","acq_time":"102","satellite":"N21","instrument":"VIIRS","confidence":"n","version":"2.0NRT","bright_ti5":"293.55","frp":"4.14","daynight":"N","commune":"Fos-sur-Mer","code_insee":"13039","departement":"Bouches-du-Rhône","region":"Provence-Alpes-Côte d'Azur"}},{"type":"Feature","geometry":{"type":"Point","coordinates":[4.89698,43.44795]},"properties":{"latitude":"43.44795","longitude":"4.89698","bright_ti4":"333.72","scan":"0.51","track":"0.49","acq_date":"2026-07-31","acq_time":"102","satellite":"N21","instrument":"VIIRS","confidence":"n","version":"2.0NRT","bright_ti5":"293.57","frp":"4.14","daynight":"N","commune":"Fos-sur-Mer","code_insee":"13039","departement":"Bouches-du-Rhône","region":"Provence-Alpes-Côte d'Azur"}},{"type":"Feature","geometry":{"type":"Point","coordinates":[0.51033,43.59266]},"properties":{"latitude":"43.59266","longitude":"0.51033","bright_ti4":"305.17","scan":"0.43","track":"0.62","acq_date":"2026-07-31","acq_time":"102","satellite":"N21","instrument":"VIIRS","confidence":"n","version":"2.0NRT","bright_ti5":"288.86","frp":"0.78","daynight":"N","commune":"Saint-Jean-le-Comtal","code_insee":"32381","departement":"Gers","region":"Occitanie"}},{"type":"Feature","geometry":{"type":"Point","coordinates":[0.50854,43.59493]},"properties":{"latitude":"43.59493","longitude":"0.50854","bright_ti4":"299.39","scan":"0.43","track":"0.62","acq_date":"2026-07-31","acq_time":"102","satellite":"N21","instrument":"VIIRS","confidence":"n","version":"2.0NRT","bright_ti5":"288.62","frp":"0.79","daynight":"N","commune":"Saint-Jean-le-Comtal","code_insee":"32381","departement":"Gers","region":"Occitanie"}},{"type":"Feature","geometry":{"type":"Point","coordinates":[7.37342,43.7928]},"properties":{"latitude":"43.7928","longitude":"7.37342","bright_ti4":"308.04","scan":"0.39","track":"0.44","acq_date":"2026-07-31","acq_time":"102","satellite":"N21","instrument":"VIIRS","confidence":"n","version":"2.0NRT","bright_ti5":"294.11","frp":"1.15","daynight":"N","commune":"Blausasc","code_insee":"06019","departement":"Alpes-Maritimes","region":"Provence-Alpes-Côte d'Azur"}},{"type":"Feature","geometry":{"type":"Point","coordinates":[7.37251,43.79411]},"properties":{"latitude":"43.79411","longitude":"7.37251","bright_ti4":"309.59","scan":"0.39","track":"0.44","acq_date":"2026-07-31","acq_time":"102","satellite":"N21","instrument":"VIIRS","confidence":"n","version":"2.0NRT","bright_ti5":"294.18","frp":"1.11","daynight":"N","commune":"Blausasc","code_insee":"06019","departement":"Alpes-Maritimes","region":"Provence-Alpes-Côte d'Azur"}},{"type":"Feature","geometry":{"type":"Point","coordinates":[1.05985,45.59184]},"properties":{"latitude":"45.59184","longitude":"1.05985","bright_ti4":"296.45","scan":"0.41","track":"0.61","acq_date":"2026-07-31","acq_time":"102","satellite":"N21","instrument":"VIIRS","confidence":"n","version":"2.0NRT","bright_ti5":"280.09","frp":"1.37","daynight":"N","commune":"Bussière-Galant","code_insee":"87027","departement":"Haute-Vienne","region":"Nouvelle-Aquitaine"}},{"type":"Feature","geometry":{"type":"Point","coordinates":[6.11068,48.61098]},"properties":{"latitude":"48.61098","longitude":"6.11068","bright_ti4":"304.78","scan":"0.5","track":"0.49","acq_date":"2026-07-31","acq_time":"102","satellite":"N21","instrument":"VIIRS","confidence":"n","version":"2.0NRT","bright_ti5":"290.7","frp":"1.51","daynight":"N","commune":"Neuves-Maisons","code_insee":"54397","departement":"Meurthe-et-Moselle","region":"Grand Est"}},{"type":"Feature","geometry":{"type":"Point","coordinates":[4.89517,43.4298]},"properties":{"latitude":"43.4298","longitude":"4.89517","bright_ti4":"307.16","scan":"0.53","track":"0.67","acq_date":"2026-07-31","acq_time":"241","satellite":"N21","instrument":"VIIRS","confidence":"n","version":"2.0NRT","bright_ti5":"290.94","frp":"1.84","daynight":"N","commune":"Fos-sur-Mer","code_insee":"13039","departement":"Bouches-du-Rhône","region":"Provence-Alpes-Côte d'Azur"}},{"type":"Feature","geometry":{"type":"Point","coordinates":[4.89589,43.431]},"properties":{"latitude":"43.431","longitude":"4.89589","bright_ti4":"308.33","scan":"0.53","track":"0.67","acq_date":"2026-07-31","acq_time":"241","satellite":"N21","instrument":"VIIRS","confidence":"n","version":"2.0NRT","bright_ti5":"290.98","frp":"2.67","daynight":"N","commune":"Fos-sur-Mer","code_insee":"13039","departement":"Bouches-du-Rhône","region":"Provence-Alpes-Côte d'Azur"}},{"type":"Feature","geometry":{"type":"Point","coordinates":[4.88912,43.43167]},"properties":{"latitude":"43.43167","longitude":"4.88912","bright_ti4":"314.42","scan":"0.53","track":"0.67","acq_date":"2026-07-31","acq_time":"241","satellite":"N21","instrument":"VIIRS","confidence":"n","version":"2.0NRT","bright_ti5":"291.29","frp":"1.84","daynight":"N","commune":"Fos-sur-Mer","code_insee":"13039","departement":"Bouches-du-Rhône","region":"Provence-Alpes-Côte d'Azur"}},{"type":"Feature","geometry":{"type":"Point","coordinates":[4.88987,43.4329]},"properties":{"latitude":"43.4329","longitude":"4.88987","bright_ti4":"316.93","scan":"0.53","track":"0.67","acq_date":"2026-07-31","acq_time":"241","satellite":"N21","instrument":"VIIRS","confidence":"n","version":"2.0NRT","bright_ti5":"291.49","frp":"2.89","daynight":"N","commune":"Fos-sur-Mer","code_insee":"13039","departement":"Bouches-du-Rhône","region":"Provence-Alpes-Côte d'Azur"}},{"type":"Feature","geometry":{"type":"Point","coordinates":[4.8839,43.43479]},"properties":{"latitude":"43.43479","longitude":"4.8839","bright_ti4":"302.03","scan":"0.53","track":"0.67","acq_date":"2026-07-31","acq_time":"241","satellite":"N21","instrument":"VIIRS","confidence":"n","version":"2.0NRT","bright_ti5":"290.63","frp":"2.89","daynight":"N","commune":"Fos-sur-Mer","code_insee":"13039","departement":"Bouches-du-Rhône","region":"Provence-Alpes-Côte d'Azur"}},{"type":"Feature","geometry":{"type":"Point","coordinates":[4.89257,43.43732]},"properties":{"latitude":"43.43732","longitude":"4.89257","bright_ti4":"304.96","scan":"0.53","track":"0.67","acq_date":"2026-07-31","acq_time":"241","satellite":"N21","instrument":"VIIRS","confidence":"n","version":"2.0NRT","bright_ti5":"290.8","frp":"1.84","daynight":"N","commune":"Fos-sur-Mer","code_insee":"13039","departement":"Bouches-du-Rhône","region":"Provence-Alpes-Côte d'Azur"}},{"type":"Feature","geometry":{"type":"Point","coordinates":[4.89672,43.44422]},"properties":{"latitude":"43.44422","longitude":"4.89672","bright_ti4":"310.89","scan":"0.53","track":"0.67","acq_date":"2026-07-31","acq_time":"241","satellite":"N21","instrument":"VIIRS","confidence":"n","version":"2.0NRT","bright_ti5":"291.18","frp":"4.35","daynight":"N","commune":"Fos-sur-Mer","code_insee":"13039","departement":"Bouches-du-Rhône","region":"Provence-Alpes-Côte d'Azur"}},{"type":"Feature","geometry":{"type":"Point","coordinates":[5.37116,46.57535]},"properties":{"latitude":"46.57535","longitude":"5.37116","bright_ti4":"339.54","scan":"0.44","track":"0.62","acq_date":"2026-07-31","acq_time":"241","satellite":"N21","instrument":"VIIRS","confidence":"n","version":"2.0NRT","bright_ti5":"288.2","frp":"10.94","daynight":"N","commune":"Augea","code_insee":"39025","departement":"Jura","region":"Bourgogne-Franche-Comté"}},{"type":"Feature","geometry":{"type":"Point","coordinates":[5.36592,46.57696]},"properties":{"latitude":"46.57696","longitude":"5.36592","bright_ti4":"342.45","scan":"0.44","track":"0.62","acq_date":"2026-07-31","acq_time":"241","satellite":"N21","instrument":"VIIRS","confidence":"n","version":"2.0NRT","bright_ti5":"288.28","frp":"11.35","daynight":"N","commune":"Augea","code_insee":"39025","departement":"Jura","region":"Bourgogne-Franche-Comté"}},{"type":"Feature","geometry":{"type":"Point","coordinates":[0.15828,46.80856]},"properties":{"latitude":"46.80856","longitude":"0.15828","bright_ti4":"295.72","scan":"0.51","track":"0.49","acq_date":"2026-07-31","acq_time":"241","satellite":"N21","instrument":"VIIRS","confidence":"n","version":"2.0NRT","bright_ti5":"271.83","frp":"0.59","daynight":"N","commune":"Chouppes","code_insee":"86075","departement":"Vienne","region":"Nouvelle-Aquitaine"}},{"type":"Feature","geometry":{"type":"Point","coordinates":[0.988,43.18388]},"properties":{"latitude":"43.18388","longitude":"0.988","bright_ti4":"302.29","scan":"0.35","track":"0.57","acq_date":"2026-07-31","acq_time":"243","satellite":"N21","instrument":"VIIRS","confidence":"n","version":"2.0NRT","bright_ti5":"290.77","frp":"0.81","daynight":"N","commune":"Martres-Tolosane","code_insee":"31324","departement":"Haute-Garonne","region":"Occitanie"}},{"type":"Feature","geometry":{"type":"Point","coordinates":[0.99065,43.18647]},"properties":{"latitude":"43.18647","longitude":"0.99065","bright_ti4":"301.52","scan":"0.35","track":"0.57","acq_date":"2026-07-31","acq_time":"243","satellite":"N21","instrument":"VIIRS","confidence":"n","version":"2.0NRT","bright_ti5":"290.9","frp":"0.82","daynight":"N","commune":"Martres-Tolosane","code_insee":"31324","departement":"Haute-Garonne","region":"Occitanie"}},{"type":"Feature","geometry":{"type":"Point","coordinates":[4.56477,48.76932]},"properties":{"latitude":"48.76932","longitude":"4.56477","bright_ti4":"299.23","scan":"0.35","track":"0.56","acq_date":"2026-07-31","acq_time":"243","satellite":"N21","instrument":"VIIRS","confidence":"n","version":"2.0NRT","bright_ti5":"287.16","frp":"0.62","daynight":"N","commune":"Couvrot","code_insee":"51195","departement":"Marne","region":"Grand Est"}},{"type":"Feature","geometry":{"type":"Point","coordinates":[6.09963,49.32552]},"properties":{"latitude":"49.32552","longitude":"6.09963","bright_ti4":"299.57","scan":"0.44","track":"0.38","acq_date":"2026-07-31","acq_time":"134","satellite":"N","instrument":"VIIRS","confidence":"n","version":"2.0NRT","bright_ti5":"280.48","frp":"0.66","daynight":"N","commune":"Serémange-Erzange","code_insee":"57647","departement":"Moselle","region":"Grand Est"}},{"type":"Feature","geometry":{"type":"Point","coordinates":[4.89763,43.43182]},"properties":{"latitude":"43.43182","longitude":"4.89763","bright_ti4":"307.01","scan":"0.42","track":"0.37","acq_date":"2026-07-31","acq_time":"137","satellite":"N","instrument":"VIIRS","confidence":"n","version":"2.0NRT","bright_ti5":"294.78","frp":"1.23","daynight":"N","commune":"Fos-sur-Mer","code_insee":"13039","departement":"Bouches-du-Rhône","region":"Provence-Alpes-Côte d'Azur"}},{"type":"Feature","geometry":{"type":"Point","coordinates":[4.88822,43.43661]},"properties":{"latitude":"43.43661","longitude":"4.88822","bright_ti4":"330.33","scan":"0.42","track":"0.37","acq_date":"2026-07-31","acq_time":"137","satellite":"N","instrument":"VIIRS","confidence":"n","version":"2.0NRT","bright_ti5":"295.91","frp":"2.26","daynight":"N","commune":"Fos-sur-Mer","code_insee":"13039","departement":"Bouches-du-Rhône","region":"Provence-Alpes-Côte d'Azur"}},{"type":"Feature","geometry":{"type":"Point","coordinates":[4.88908,43.44004]},"properties":{"latitude":"43.44004","longitude":"4.88908","bright_ti4":"304.36","scan":"0.42","track":"0.37","acq_date":"2026-07-31","acq_time":"137","satellite":"N","instrument":"VIIRS","confidence":"n","version":"2.0NRT","bright_ti5":"293.86","frp":"2.26","daynight":"N","commune":"Fos-sur-Mer","code_insee":"13039","departement":"Bouches-du-Rhône","region":"Provence-Alpes-Côte d'Azur"}},{"type":"Feature","geometry":{"type":"Point","coordinates":[4.90107,43.44553]},"properties":{"latitude":"43.44553","longitude":"4.90107","bright_ti4":"329.12","scan":"0.42","track":"0.37","acq_date":"2026-07-31","acq_time":"137","satellite":"N","instrument":"VIIRS","confidence":"n","version":"2.0NRT","bright_ti5":"294.61","frp":"2.4","daynight":"N","commune":"Fos-sur-Mer","code_insee":"13039","departement":"Bouches-du-Rhône","region":"Provence-Alpes-Côte d'Azur"}},{"type":"Feature","geometry":{"type":"Point","coordinates":[4.89594,43.44621]},"properties":{"latitude":"43.44621","longitude":"4.89594","bright_ti4":"326.31","scan":"0.42","track":"0.37","acq_date":"2026-07-31","acq_time":"137","satellite":"N","instrument":"VIIRS","confidence":"n","version":"2.0NRT","bright_ti5":"295.35","frp":"4.74","daynight":"N","commune":"Fos-sur-Mer","code_insee":"13039","departement":"Bouches-du-Rhône","region":"Provence-Alpes-Côte d'Azur"}},{"type":"Feature","geometry":{"type":"Point","coordinates":[0.51316,43.59327]},"properties":{"latitude":"43.59327","longitude":"0.51316","bright_ti4":"307.24","scan":"0.4","track":"0.45","acq_date":"2026-07-31","acq_time":"137","satellite":"N","instrument":"VIIRS","confidence":"n","version":"2.0NRT","bright_ti5":"289.83","frp":"0.82","daynight":"N","commune":"Lasséran","code_insee":"32200","departement":"Gers","region":"Occitanie"}},{"type":"Feature","geometry":{"type":"Point","coordinates":[7.37519,43.79383]},"properties":{"latitude":"43.79383","longitude":"7.37519","bright_ti4":"313.3","scan":"0.38","track":"0.36","acq_date":"2026-07-31","acq_time":"137","satellite":"N","instrument":"VIIRS","confidence":"n","version":"2.0NRT","bright_ti5":"294.84","frp":"1.46","daynight":"N","commune":"Blausasc","code_insee":"06019","departement":"Alpes-Maritimes","region":"Provence-Alpes-Côte d'Azur"}},{"type":"Feature","geometry":{"type":"Point","coordinates":[4.84894,43.9959]},"properties":{"latitude":"43.9959","longitude":"4.84894","bright_ti4":"305.9","scan":"0.42","track":"0.38","acq_date":"2026-07-31","acq_time":"137","satellite":"N","instrument":"VIIRS","confidence":"n","version":"2.0NRT","bright_ti5":"291.64","frp":"0.6","daynight":"N","commune":"Sorgues","code_insee":"84129","departement":"Vaucluse","region":"Provence-Alpes-Côte d'Azur"}},{"type":"Feature","geometry":{"type":"Point","coordinates":[-1.20414,44.76955]},"properties":{"latitude":"44.76955","longitude":"-1.20414","bright_ti4":"299.7","scan":"0.5","track":"0.49","acq_date":"2026-07-31","acq_time":"137","satellite":"N","instrument":"VIIRS","confidence":"n","version":"2.0NRT","bright_ti5":"287.95","frp":"1.45","daynight":"N","commune":"Lège-Cap-Ferret","code_insee":"33236","departement":"Gironde","region":"Nouvelle-Aquitaine"}},{"type":"Feature","geometry":{"type":"Point","coordinates":[-1.2033,44.76987]},"properties":{"latitude":"44.76987","longitude":"-1.2033","bright_ti4":"303.25","scan":"0.5","track":"0.49","acq_date":"2026-07-31","acq_time":"137","satellite":"N","instrument":"VIIRS","confidence":"n","version":"2.0NRT","bright_ti5":"287.95","frp":"0.56","daynight":"N","commune":"Lège-Cap-Ferret","code_insee":"33236","departement":"Gironde","region":"Nouvelle-Aquitaine"}},{"type":"Feature","geometry":{"type":"Point","coordinates":[1.05779,45.59178]},"properties":{"latitude":"45.59178","longitude":"1.05779","bright_ti4":"295.07","scan":"0.4","track":"0.44","acq_date":"2026-07-31","acq_time":"137","satellite":"N","instrument":"VIIRS","confidence":"n","version":"2.0NRT","bright_ti5":"265.9","frp":"0.61","daynight":"N","commune":"Bussière-Galant","code_insee":"87027","departement":"Haute-Vienne","region":"Nouvelle-Aquitaine"}},{"type":"Feature","geometry":{"type":"Point","coordinates":[5.36671,46.57473]},"properties":{"latitude":"46.57473","longitude":"5.36671","bright_ti4":"337.11","scan":"0.43","track":"0.38","acq_date":"2026-07-31","acq_time":"137","satellite":"N","instrument":"VIIRS","confidence":"n","version":"2.0NRT","bright_ti5":"293.99","frp":"22.77","daynight":"N","commune":"Augea","code_insee":"39025","departement":"Jura","region":"Bourgogne-Franche-Comté"}},{"type":"Feature","geometry":{"type":"Point","coordinates":[2.98234,48.38721]},"properties":{"latitude":"48.38721","longitude":"2.98234","bright_ti4":"295.06","scan":"0.54","track":"0.42","acq_date":"2026-07-31","acq_time":"137","satellite":"N","instrument":"VIIRS","confidence":"n","version":"2.0NRT","bright_ti5":"281.61","frp":"0.25","daynight":"N","commune":"Montereau-Fault-Yonne","code_insee":"77305","departement":"Seine-et-Marne","region":"Île-de-France"}},{"type":"Feature","geometry":{"type":"Point","coordinates":[6.11461,48.61077]},"properties":{"latitude":"48.61077","longitude":"6.11461","bright_ti4":"315.99","scan":"0.43","track":"0.38","acq_date":"2026-07-31","acq_time":"137","satellite":"N","instrument":"VIIRS","confidence":"n","version":"2.0NRT","bright_ti5":"290.81","frp":"3.04","daynight":"N","commune":"Neuves-Maisons","code_insee":"54397","departement":"Meurthe-et-Moselle","region":"Grand Est"}},{"type":"Feature","geometry":{"type":"Point","coordinates":[6.1088,48.61152]},"properties":{"latitude":"48.61152","longitude":"6.1088","bright_ti4":"328.71","scan":"0.43","track":"0.38","acq_date":"2026-07-31","acq_time":"137","satellite":"N","instrument":"VIIRS","confidence":"n","version":"2.0NRT","bright_ti5":"290.89","frp":"3.04","daynight":"N","commune":"Neuves-Maisons","code_insee":"54397","departement":"Meurthe-et-Moselle","region":"Grand Est"}},{"type":"Feature","geometry":{"type":"Point","coordinates":[6.96468,48.69128]},"properties":{"latitude":"48.69128","longitude":"6.96468","bright_ti4":"306.85","scan":"0.41","track":"0.37","acq_date":"2026-07-31","acq_time":"137","satellite":"N","instrument":"VIIRS","confidence":"n","version":"2.0NRT","bright_ti5":"289.02","frp":"0.79","daynight":"N","commune":"Héming","code_insee":"57314","departement":"Moselle","region":"Grand Est"}},{"type":"Feature","geometry":{"type":"Point","coordinates":[5.37356,46.57259]},"properties":{"latitude":"46.57259","longitude":"5.37356","bright_ti4":"308.04","scan":"0.79","track":"0.78","acq_date":"2026-07-31","acq_time":"319","satellite":"N","instrument":"VIIRS","confidence":"n","version":"2.0NRT","bright_ti5":"287.19","frp":"3.9","daynight":"N","commune":"Augea","code_insee":"39025","departement":"Jura","region":"Bourgogne-Franche-Comté"}},{"type":"Feature","geometry":{"type":"Point","coordinates":[5.36946,46.57581]},"properties":{"latitude":"46.57581","longitude":"5.36946","bright_ti4":"335.31","scan":"0.79","track":"0.78","acq_date":"2026-07-31","acq_time":"319","satellite":"N","instrument":"VIIRS","confidence":"n","version":"2.0NRT","bright_ti5":"287.79","frp":"7.38","daynight":"N","commune":"Augea","code_insee":"39025","departement":"Jura","region":"Bourgogne-Franche-Comté"}},{"type":"Feature","geometry":{"type":"Point","coordinates":[5.36425,46.57617]},"properties":{"latitude":"46.57617","longitude":"5.36425","bright_ti4":"321.94","scan":"0.79","track":"0.78","acq_date":"2026-07-31","acq_time":"319","satellite":"N","instrument":"VIIRS","confidence":"n","version":"2.0NRT","bright_ti5":"287.39","frp":"6.71","daynight":"N","commune":"Le Miroir","code_insee":"71300","departement":"Saône-et-Loire","region":"Bourgogne-Franche-Comté"}},{"type":"Feature","geometry":{"type":"Point","coordinates":[5.82211,45.91156]},"properties":{"latitude":"45.91156","longitude":"5.82211","bright_ti4":"302.72","scan":"0.43","track":"0.38","acq_date":"2026-07-31","acq_time":"156","satellite":"N20","instrument":"VIIRS","confidence":"n","version":"2.0NRT","bright_ti5":"292.28","frp":"0.78","daynight":"N","commune":"Anglefort","code_insee":"01010","departement":"Ain","region":"Auvergne-Rhône-Alpes"}},{"type":"Feature","geometry":{"type":"Point","coordinates":[5.37041,46.57505]},"properties":{"latitude":"46.57505","longitude":"5.37041","bright_ti4":"308.87","scan":"0.41","track":"0.37","acq_date":"2026-07-31","acq_time":"156","satellite":"N20","instrument":"VIIRS","confidence":"n","version":"2.0NRT","bright_ti5":"294.24","frp":"9.65","daynight":"N","commune":"Augea","code_insee":"39025","departement":"Jura","region":"Bourgogne-Franche-Comté"}},{"type":"Feature","geometry":{"type":"Point","coordinates":[5.36517,46.57602]},"properties":{"latitude":"46.57602","longitude":"5.36517","bright_ti4":"328.34","scan":"0.41","track":"0.37","acq_date":"2026-07-31","acq_time":"156","satellite":"N20","instrument":"VIIRS","confidence":"n","version":"2.0NRT","bright_ti5":"289.27","frp":"9.65","daynight":"N","commune":"Augea","code_insee":"39025","departement":"Jura","region":"Bourgogne-Franche-Comté"}},{"type":"Feature","geometry":{"type":"Point","coordinates":[2.98205,48.38847]},"properties":{"latitude":"48.38847","longitude":"2.98205","bright_ti4":"315.74","scan":"0.38","track":"0.36","acq_date":"2026-07-31","acq_time":"156","satellite":"N20","instrument":"VIIRS","confidence":"n","version":"2.0NRT","bright_ti5":"279.4","frp":"1.21","daynight":"N","commune":"Montereau-Fault-Yonne","code_insee":"77305","departement":"Seine-et-Marne","region":"Île-de-France"}},{"type":"Feature","geometry":{"type":"Point","coordinates":[6.11082,48.56418]},"properties":{"latitude":"48.56418","longitude":"6.11082","bright_ti4":"297.49","scan":"0.41","track":"0.37","acq_date":"2026-07-31","acq_time":"156","satellite":"N20","instrument":"VIIRS","confidence":"n","version":"2.0NRT","bright_ti5":"285.66","frp":"0.59","daynight":"N","commune":"Frolois","code_insee":"54214","departement":"Meurthe-et-Moselle","region":"Grand Est"}},{"type":"Feature","geometry":{"type":"Point","coordinates":[6.11266,48.6102]},"properties":{"latitude":"48.6102","longitude":"6.11266","bright_ti4":"301.74","scan":"0.41","track":"0.37","acq_date":"2026-07-31","acq_time":"156","satellite":"N20","instrument":"VIIRS","confidence":"n","version":"2.0NRT","bright_ti5":"289.78","frp":"1.11","daynight":"N","commune":"Neuves-Maisons","code_insee":"54397","departement":"Meurthe-et-Moselle","region":"Grand Est"}},{"type":"Feature","geometry":{"type":"Point","coordinates":[6.96868,48.69084]},"properties":{"latitude":"48.69084","longitude":"6.96868","bright_ti4":"308.86","scan":"0.43","track":"0.38","acq_date":"2026-07-31","acq_time":"156","satellite":"N20","instrument":"VIIRS","confidence":"n","version":"2.0NRT","bright_ti5":"290.51","frp":"0.87","daynight":"N","commune":"Héming","code_insee":"57314","departement":"Moselle","region":"Grand Est"}},{"type":"Feature","geometry":{"type":"Point","coordinates":[5.68467,48.71585]},"properties":{"latitude":"48.71585","longitude":"5.68467","bright_ti4":"298.08","scan":"0.4","track":"0.37","acq_date":"2026-07-31","acq_time":"156","satellite":"N20","instrument":"VIIRS","confidence":"n","version":"2.0NRT","bright_ti5":"286.94","frp":"0.42","daynight":"N","commune":"Sorcy-Saint-Martin","code_insee":"55496","departement":"Meuse","region":"Grand Est"}},{"type":"Feature","geometry":{"type":"Point","coordinates":[4.56369,48.76822]},"properties":{"latitude":"48.76822","longitude":"4.56369","bright_ti4":"301.99","scan":"0.39","track":"0.36","acq_date":"2026-07-31","acq_time":"156","satellite":"N20","instrument":"VIIRS","confidence":"n","version":"2.0NRT","bright_ti5":"290.61","frp":"0.66","daynight":"N","commune":"Couvrot","code_insee":"51195","departement":"Marne","region":"Grand Est"}},{"type":"Feature","geometry":{"type":"Point","coordinates":[6.10303,49.32503]},"properties":{"latitude":"49.32503","longitude":"6.10303","bright_ti4":"306.1","scan":"0.4","track":"0.37","acq_date":"2026-07-31","acq_time":"156","satellite":"N20","instrument":"VIIRS","confidence":"n","version":"2.0NRT","bright_ti5":"288.02","frp":"1.18","daynight":"N","commune":"Serémange-Erzange","code_insee":"57647","departement":"Moselle","region":"Grand Est"}},{"type":"Feature","geometry":{"type":"Point","coordinates":[2.2713,51.02779]},"properties":{"latitude":"51.02779","longitude":"2.2713","bright_ti4":"302.9","scan":"0.4","track":"0.37","acq_date":"2026-07-31","acq_time":"156","satellite":"N20","instrument":"VIIRS","confidence":"n","version":"2.0NRT","bright_ti5":"282.84","frp":"0.74","daynight":"N","commune":"Grande-Synthe","code_insee":"59271","departement":"Nord","region":"Hauts-de-France"}},{"type":"Feature","geometry":{"type":"Point","coordinates":[2.29049,51.03209]},"properties":{"latitude":"51.03209","longitude":"2.29049","bright_ti4":"296.2","scan":"0.4","track":"0.37","acq_date":"2026-07-31","acq_time":"156","satellite":"N20","instrument":"VIIRS","confidence":"n","version":"2.0NRT","bright_ti5":"282.61","frp":"0.61","daynight":"N","commune":"Grande-Synthe","code_insee":"59271","departement":"Nord","region":"Hauts-de-France"}},{"type":"Feature","geometry":{"type":"Point","coordinates":[2.28487,51.03287]},"properties":{"latitude":"51.03287","longitude":"2.28487","bright_ti4":"304.52","scan":"0.4","track":"0.37","acq_date":"2026-07-31","acq_time":"156","satellite":"N20","instrument":"VIIRS","confidence":"n","version":"2.0NRT","bright_ti5":"283.04","frp":"0.81","daynight":"N","commune":"Grande-Synthe","code_insee":"59271","departement":"Nord","region":"Hauts-de-France"}},{"type":"Feature","geometry":{"type":"Point","coordinates":[2.27925,51.03365]},"properties":{"latitude":"51.03365","longitude":"2.27925","bright_ti4":"303.63","scan":"0.4","track":"0.37","acq_date":"2026-07-31","acq_time":"156","satellite":"N20","instrument":"VIIRS","confidence":"n","version":"2.0NRT","bright_ti5":"282.91","frp":"0.81","daynight":"N","commune":"Grande-Synthe","code_insee":"59271","departement":"Nord","region":"Hauts-de-France"}},{"type":"Feature","geometry":{"type":"Point","coordinates":[2.29165,51.03541]},"properties":{"latitude":"51.03541","longitude":"2.29165","bright_ti4":"299.83","scan":"0.4","track":"0.37","acq_date":"2026-07-31","acq_time":"156","satellite":"N20","instrument":"VIIRS","confidence":"n","version":"2.0NRT","bright_ti5":"283","frp":"0.74","daynight":"N","commune":"Grande-Synthe","code_insee":"59271","departement":"Nord","region":"Hauts-de-France"}},{"type":"Feature","geometry":{"type":"Point","coordinates":[2.28604,51.03619]},"properties":{"latitude":"51.03619","longitude":"2.28604","bright_ti4":"310.11","scan":"0.4","track":"0.37","acq_date":"2026-07-31","acq_time":"156","satellite":"N20","instrument":"VIIRS","confidence":"n","version":"2.0NRT","bright_ti5":"282.51","frp":"0.95","daynight":"N","commune":"Grande-Synthe","code_insee":"59271","departement":"Nord","region":"Hauts-de-France"}},{"type":"Feature","geometry":{"type":"Point","coordinates":[2.29398,51.04205]},"properties":{"latitude":"51.04205","longitude":"2.29398","bright_ti4":"302.85","scan":"0.4","track":"0.37","acq_date":"2026-07-31","acq_time":"156","satellite":"N20","instrument":"VIIRS","confidence":"n","version":"2.0NRT","bright_ti5":"284.98","frp":"3.58","daynight":"N","commune":"Grande-Synthe","code_insee":"59271","departement":"Nord","region":"Hauts-de-France"}},{"type":"Feature","geometry":{"type":"Point","coordinates":[2.30076,51.04458]},"properties":{"latitude":"51.04458","longitude":"2.30076","bright_ti4":"310.69","scan":"0.4","track":"0.37","acq_date":"2026-07-31","acq_time":"156","satellite":"N20","instrument":"VIIRS","confidence":"n","version":"2.0NRT","bright_ti5":"283.71","frp":"3.58","daynight":"N","commune":"Grande-Synthe","code_insee":"59271","departement":"Nord","region":"Hauts-de-France"}},{"type":"Feature","geometry":{"type":"Point","coordinates":[2.29514,51.04536]},"properties":{"latitude":"51.04536","longitude":"2.29514","bright_ti4":"331.27","scan":"0.4","track":"0.37","acq_date":"2026-07-31","acq_time":"156","satellite":"N20","instrument":"VIIRS","confidence":"n","version":"2.0NRT","bright_ti5":"287.65","frp":"3.58","daynight":"N","commune":"Grande-Synthe","code_insee":"59271","departement":"Nord","region":"Hauts-de-France"}},{"type":"Feature","geometry":{"type":"Point","coordinates":[3.02924,43.02467]},"properties":{"latitude":"43.02467","longitude":"3.02924","bright_ti4":"307.18","scan":"0.4","track":"0.37","acq_date":"2026-07-31","acq_time":"158","satellite":"N20","instrument":"VIIRS","confidence":"n","version":"2.0NRT","bright_ti5":"294.76","frp":"0.88","daynight":"N","commune":"Port-la-Nouvelle","code_insee":"11266","departement":"Aude","region":"Occitanie"}},{"type":"Feature","geometry":{"type":"Point","coordinates":[4.89785,43.43141]},"properties":{"latitude":"43.43141","longitude":"4.89785","bright_ti4":"306.55","scan":"0.44","track":"0.38","acq_date":"2026-07-31","acq_time":"158","satellite":"N20","instrument":"VIIRS","confidence":"n","version":"2.0NRT","bright_ti5":"294.39","frp":"0.97","daynight":"N","commune":"Fos-sur-Mer","code_insee":"13039","departement":"Bouches-du-Rhône","region":"Provence-Alpes-Côte d'Azur"}},{"type":"Feature","geometry":{"type":"Point","coordinates":[4.88857,43.43681]},"properties":{"latitude":"43.43681","longitude":"4.88857","bright_ti4":"329.7","scan":"0.44","track":"0.38","acq_date":"2026-07-31","acq_time":"158","satellite":"N20","instrument":"VIIRS","confidence":"n","version":"2.0NRT","bright_ti5":"295.39","frp":"2.81","daynight":"N","commune":"Fos-sur-Mer","code_insee":"13039","departement":"Bouches-du-Rhône","region":"Provence-Alpes-Côte d'Azur"}},{"type":"Feature","geometry":{"type":"Point","coordinates":[4.89084,43.43752]},"properties":{"latitude":"43.43752","longitude":"4.89084","bright_ti4":"312.13","scan":"0.44","track":"0.38","acq_date":"2026-07-31","acq_time":"158","satellite":"N20","instrument":"VIIRS","confidence":"n","version":"2.0NRT","bright_ti5":"293.45","frp":"1.08","daynight":"N","commune":"Fos-sur-Mer","code_insee":"13039","departement":"Bouches-du-Rhône","region":"Provence-Alpes-Côte d'Azur"}},{"type":"Feature","geometry":{"type":"Point","coordinates":[4.88561,43.43853]},"properties":{"latitude":"43.43853","longitude":"4.88561","bright_ti4":"304.09","scan":"0.44","track":"0.38","acq_date":"2026-07-31","acq_time":"158","satellite":"N20","instrument":"VIIRS","confidence":"n","version":"2.0NRT","bright_ti5":"293.23","frp":"1.08","daynight":"N","commune":"Fos-sur-Mer","code_insee":"13039","departement":"Bouches-du-Rhône","region":"Provence-Alpes-Côte d'Azur"}},{"type":"Feature","geometry":{"type":"Point","coordinates":[4.8898,43.44024]},"properties":{"latitude":"43.44024","longitude":"4.8898","bright_ti4":"321.4","scan":"0.44","track":"0.38","acq_date":"2026-07-31","acq_time":"158","satellite":"N20","instrument":"VIIRS","confidence":"n","version":"2.0NRT","bright_ti5":"294.12","frp":"2.81","daynight":"N","commune":"Fos-sur-Mer","code_insee":"13039","departement":"Bouches-du-Rhône","region":"Provence-Alpes-Côte d'Azur"}},{"type":"Feature","geometry":{"type":"Point","coordinates":[4.89207,43.44094]},"properties":{"latitude":"43.44094","longitude":"4.89207","bright_ti4":"312.36","scan":"0.44","track":"0.38","acq_date":"2026-07-31","acq_time":"158","satellite":"N20","instrument":"VIIRS","confidence":"n","version":"2.0NRT","bright_ti5":"294.26","frp":"1.08","daynight":"N","commune":"Fos-sur-Mer","code_insee":"13039","departement":"Bouches-du-Rhône","region":"Provence-Alpes-Côte d'Azur"}},{"type":"Feature","geometry":{"type":"Point","coordinates":[4.89977,43.44677]},"properties":{"latitude":"43.44677","longitude":"4.89977","bright_ti4":"332","scan":"0.44","track":"0.38","acq_date":"2026-07-31","acq_time":"158","satellite":"N20","instrument":"VIIRS","confidence":"n","version":"2.0NRT","bright_ti5":"294.85","frp":"8.33","daynight":"N","commune":"Fos-sur-Mer","code_insee":"13039","departement":"Bouches-du-Rhône","region":"Provence-Alpes-Côte d'Azur"}},{"type":"Feature","geometry":{"type":"Point","coordinates":[4.89452,43.44778]},"properties":{"latitude":"43.44778","longitude":"4.89452","bright_ti4":"331.07","scan":"0.44","track":"0.38","acq_date":"2026-07-31","acq_time":"158","satellite":"N20","instrument":"VIIRS","confidence":"n","version":"2.0NRT","bright_ti5":"295.21","frp":"13.53","daynight":"N","commune":"Fos-sur-Mer","code_insee":"13039","departement":"Bouches-du-Rhône","region":"Provence-Alpes-Côte d'Azur"}},{"type":"Feature","geometry":{"type":"Point","coordinates":[0.51118,43.59552]},"properties":{"latitude":"43.59552","longitude":"0.51118","bright_ti4":"307.71","scan":"0.39","track":"0.36","acq_date":"2026-07-31","acq_time":"158","satellite":"N20","instrument":"VIIRS","confidence":"n","version":"2.0NRT","bright_ti5":"290.3","frp":"0.52","daynight":"N","commune":"Lasséran","code_insee":"32200","departement":"Gers","region":"Occitanie"}},{"type":"Feature","geometry":{"type":"Point","coordinates":[7.37094,43.79432]},"properties":{"latitude":"43.79432","longitude":"7.37094","bright_ti4":"307.4","scan":"0.53","track":"0.42","acq_date":"2026-07-31","acq_time":"158","satellite":"N20","instrument":"VIIRS","confidence":"n","version":"2.0NRT","bright_ti5":"293.89","frp":"1.2","daynight":"N","commune":"Blausasc","code_insee":"06019","departement":"Alpes-Maritimes","region":"Provence-Alpes-Côte d'Azur"}},{"type":"Feature","geometry":{"type":"Point","coordinates":[4.84785,43.99768]},"properties":{"latitude":"43.99768","longitude":"4.84785","bright_ti4":"321.84","scan":"0.43","track":"0.38","acq_date":"2026-07-31","acq_time":"158","satellite":"N20","instrument":"VIIRS","confidence":"n","version":"2.0NRT","bright_ti5":"292.01","frp":"2.5","daynight":"N","commune":"Sorgues","code_insee":"84129","departement":"Vaucluse","region":"Provence-Alpes-Côte d'Azur"}},{"type":"Feature","geometry":{"type":"Point","coordinates":[4.84996,43.99913]},"properties":{"latitude":"43.99913","longitude":"4.84996","bright_ti4":"304.69","scan":"0.43","track":"0.38","acq_date":"2026-07-31","acq_time":"158","satellite":"N20","instrument":"VIIRS","confidence":"n","version":"2.0NRT","bright_ti5":"291.3","frp":"1.04","daynight":"N","commune":"Sorgues","code_insee":"84129","departement":"Vaucluse","region":"Provence-Alpes-Côte d'Azur"}},{"type":"Feature","geometry":{"type":"Point","coordinates":[4.84477,44.00011]},"properties":{"latitude":"44.00011","longitude":"4.84477","bright_ti4":"312.79","scan":"0.43","track":"0.38","acq_date":"2026-07-31","acq_time":"158","satellite":"N20","instrument":"VIIRS","confidence":"n","version":"2.0NRT","bright_ti5":"292.13","frp":"1.04","daynight":"N","commune":"Sorgues","code_insee":"84129","departement":"Vaucluse","region":"Provence-Alpes-Côte d'Azur"}},{"type":"Feature","geometry":{"type":"Point","coordinates":[1.06236,45.59133]},"properties":{"latitude":"45.59133","longitude":"1.06236","bright_ti4":"295.93","scan":"0.39","track":"0.36","acq_date":"2026-07-31","acq_time":"158","satellite":"N20","instrument":"VIIRS","confidence":"n","version":"2.0NRT","bright_ti5":"265.37","frp":"0.65","daynight":"N","commune":"Bussière-Galant","code_insee":"87027","departement":"Haute-Vienne","region":"Nouvelle-Aquitaine"}},{"type":"Feature","geometry":{"type":"Point","coordinates":[1.05749,45.59205]},"properties":{"latitude":"45.59205","longitude":"1.05749","bright_ti4":"299.03","scan":"0.39","track":"0.36","acq_date":"2026-07-31","acq_time":"158","satellite":"N20","instrument":"VIIRS","confidence":"n","version":"2.0NRT","bright_ti5":"264.91","frp":"0.35","daynight":"N","commune":"Bussière-Galant","code_insee":"87027","departement":"Haute-Vienne","region":"Nouvelle-Aquitaine"}},{"type":"Feature","geometry":{"type":"Point","coordinates":[2.2902,51.03614]},"properties":{"latitude":"51.03614","longitude":"2.2902","bright_ti4":"300.33","scan":"0.74","track":"0.76","acq_date":"2026-07-31","acq_time":"336","satellite":"N20","instrument":"VIIRS","confidence":"n","version":"2.0NRT","bright_ti5":"282.94","frp":"2.49","daynight":"N","commune":"Grande-Synthe","code_insee":"59271","departement":"Nord","region":"Hauts-de-France"}}]}