{"type":"FeatureCollection","features":[{"type":"Feature","geometry":{"type":"Point","coordinates":[7.23572,47.62976]},"properties":{"latitude":"47.62976","longitude":"7.23572","bright_ti4":"300.63","scan":"0.38","track":"0.36","acq_date":"2026-07-04","acq_time":"141","satellite":"N","instrument":"VIIRS","confidence":"n","version":"2.0NRT","bright_ti5":"287.73","frp":"0.71","daynight":"N","commune":"Altkirch","code_insee":"68004","departement":"Haut-Rhin","region":"Grand Est"}},{"type":"Feature","geometry":{"type":"Point","coordinates":[7.35349,47.90216]},"properties":{"latitude":"47.90216","longitude":"7.35349","bright_ti4":"308.8","scan":"0.38","track":"0.36","acq_date":"2026-07-04","acq_time":"141","satellite":"N","instrument":"VIIRS","confidence":"n","version":"2.0NRT","bright_ti5":"286.07","frp":"0.8","daynight":"N","commune":"Réguisheim","code_insee":"68266","departement":"Haut-Rhin","region":"Grand Est"}},{"type":"Feature","geometry":{"type":"Point","coordinates":[2.9831,48.38671]},"properties":{"latitude":"48.38671","longitude":"2.9831","bright_ti4":"320.2","scan":"0.47","track":"0.4","acq_date":"2026-07-04","acq_time":"141","satellite":"N","instrument":"VIIRS","confidence":"n","version":"2.0NRT","bright_ti5":"290.58","frp":"2.14","daynight":"N","commune":"Montereau-Fault-Yonne","code_insee":"77305","departement":"Seine-et-Marne","region":"Île-de-France"}},{"type":"Feature","geometry":{"type":"Point","coordinates":[2.98223,48.38812]},"properties":{"latitude":"48.38812","longitude":"2.98223","bright_ti4":"313.62","scan":"0.47","track":"0.4","acq_date":"2026-07-04","acq_time":"141","satellite":"N","instrument":"VIIRS","confidence":"n","version":"2.0NRT","bright_ti5":"290.26","frp":"1.85","daynight":"N","commune":"Montereau-Fault-Yonne","code_insee":"77305","departement":"Seine-et-Marne","region":"Île-de-France"}},{"type":"Feature","geometry":{"type":"Point","coordinates":[6.11431,48.60921]},"properties":{"latitude":"48.60921","longitude":"6.11431","bright_ti4":"310.89","scan":"0.4","track":"0.37","acq_date":"2026-07-04","acq_time":"141","satellite":"N","instrument":"VIIRS","confidence":"n","version":"2.0NRT","bright_ti5":"289.03","frp":"1.19","daynight":"N","commune":"Neuves-Maisons","code_insee":"54397","departement":"Meurthe-et-Moselle","region":"Grand Est"}},{"type":"Feature","geometry":{"type":"Point","coordinates":[6.10894,48.60997]},"properties":{"latitude":"48.60997","longitude":"6.10894","bright_ti4":"306.53","scan":"0.4","track":"0.37","acq_date":"2026-07-04","acq_time":"141","satellite":"N","instrument":"VIIRS","confidence":"n","version":"2.0NRT","bright_ti5":"288.43","frp":"0.87","daynight":"N","commune":"Neuves-Maisons","code_insee":"54397","departement":"Meurthe-et-Moselle","region":"Grand Est"}},{"type":"Feature","geometry":{"type":"Point","coordinates":[6.1154,48.61256]},"properties":{"latitude":"48.61256","longitude":"6.1154","bright_ti4":"302.21","scan":"0.4","track":"0.37","acq_date":"2026-07-04","acq_time":"141","satellite":"N","instrument":"VIIRS","confidence":"n","version":"2.0NRT","bright_ti5":"287.59","frp":"1.19","daynight":"N","commune":"Neuves-Maisons","code_insee":"54397","departement":"Meurthe-et-Moselle","region":"Grand Est"}},{"type":"Feature","geometry":{"type":"Point","coordinates":[0.53368,49.47633]},"properties":{"latitude":"49.47633","longitude":"0.53368","bright_ti4":"309.48","scan":"0.4","track":"0.44","acq_date":"2026-07-04","acq_time":"141","satellite":"N","instrument":"VIIRS","confidence":"n","version":"2.0NRT","bright_ti5":"286.96","frp":"1.21","daynight":"N","commune":"Lillebonne","code_insee":"76384","departement":"Seine-Maritime","region":"Normandie"}},{"type":"Feature","geometry":{"type":"Point","coordinates":[2.24146,49.87731]},"properties":{"latitude":"49.87731","longitude":"2.24146","bright_ti4":"296.66","scan":"0.52","track":"0.42","acq_date":"2026-07-04","acq_time":"141","satellite":"N","instrument":"VIIRS","confidence":"n","version":"2.0NRT","bright_ti5":"282.75","frp":"0.74","daynight":"N","commune":"Pont-de-Metz","code_insee":"80632","departement":"Somme","region":"Hauts-de-France"}},{"type":"Feature","geometry":{"type":"Point","coordinates":[2.19337,49.92535]},"properties":{"latitude":"49.92535","longitude":"2.19337","bright_ti4":"299.21","scan":"0.52","track":"0.42","acq_date":"2026-07-04","acq_time":"141","satellite":"N","instrument":"VIIRS","confidence":"n","version":"2.0NRT","bright_ti5":"283.25","frp":"0.75","daynight":"N","commune":"Ailly-sur-Somme","code_insee":"80011","departement":"Somme","region":"Hauts-de-France"}},{"type":"Feature","geometry":{"type":"Point","coordinates":[2.55665,50.6897]},"properties":{"latitude":"50.6897","longitude":"2.55665","bright_ti4":"327.96","scan":"0.52","track":"0.41","acq_date":"2026-07-04","acq_time":"141","satellite":"N","instrument":"VIIRS","confidence":"n","version":"2.0NRT","bright_ti5":"283.87","frp":"2.13","daynight":"N","commune":"Morbecque","code_insee":"59416","departement":"Nord","region":"Hauts-de-France"}},{"type":"Feature","geometry":{"type":"Point","coordinates":[2.5576,50.69351]},"properties":{"latitude":"50.69351","longitude":"2.5576","bright_ti4":"308.07","scan":"0.52","track":"0.41","acq_date":"2026-07-04","acq_time":"141","satellite":"N","instrument":"VIIRS","confidence":"n","version":"2.0NRT","bright_ti5":"282.21","frp":"2.13","daynight":"N","commune":"Morbecque","code_insee":"59416","departement":"Nord","region":"Hauts-de-France"}},{"type":"Feature","geometry":{"type":"Point","coordinates":[2.28545,51.03315]},"properties":{"latitude":"51.03315","longitude":"2.28545","bright_ti4":"324.35","scan":"0.53","track":"0.42","acq_date":"2026-07-04","acq_time":"141","satellite":"N","instrument":"VIIRS","confidence":"n","version":"2.0NRT","bright_ti5":"287.76","frp":"3.32","daynight":"N","commune":"Grande-Synthe","code_insee":"59271","departement":"Nord","region":"Hauts-de-France"}},{"type":"Feature","geometry":{"type":"Point","coordinates":[2.28659,51.03316]},"properties":{"latitude":"51.03316","longitude":"2.28659","bright_ti4":"321.93","scan":"0.53","track":"0.42","acq_date":"2026-07-04","acq_time":"141","satellite":"N","instrument":"VIIRS","confidence":"n","version":"2.0NRT","bright_ti5":"287.25","frp":"3.07","daynight":"N","commune":"Grande-Synthe","code_insee":"59271","departement":"Nord","region":"Hauts-de-France"}},{"type":"Feature","geometry":{"type":"Point","coordinates":[2.28641,51.03702]},"properties":{"latitude":"51.03702","longitude":"2.28641","bright_ti4":"321.11","scan":"0.53","track":"0.42","acq_date":"2026-07-04","acq_time":"141","satellite":"N","instrument":"VIIRS","confidence":"n","version":"2.0NRT","bright_ti5":"288.92","frp":"3.19","daynight":"N","commune":"Grande-Synthe","code_insee":"59271","departement":"Nord","region":"Hauts-de-France"}},{"type":"Feature","geometry":{"type":"Point","coordinates":[2.28754,51.03704]},"properties":{"latitude":"51.03704","longitude":"2.28754","bright_ti4":"318.52","scan":"0.53","track":"0.42","acq_date":"2026-07-04","acq_time":"141","satellite":"N","instrument":"VIIRS","confidence":"n","version":"2.0NRT","bright_ti5":"289.19","frp":"3.07","daynight":"N","commune":"Grande-Synthe","code_insee":"59271","departement":"Nord","region":"Hauts-de-France"}},{"type":"Feature","geometry":{"type":"Point","coordinates":[2.29602,51.04403]},"properties":{"latitude":"51.04403","longitude":"2.29602","bright_ti4":"331.06","scan":"0.53","track":"0.42","acq_date":"2026-07-04","acq_time":"141","satellite":"N","instrument":"VIIRS","confidence":"n","version":"2.0NRT","bright_ti5":"290.25","frp":"4.13","daynight":"N","commune":"Grande-Synthe","code_insee":"59271","departement":"Nord","region":"Hauts-de-France"}},{"type":"Feature","geometry":{"type":"Point","coordinates":[2.32001,51.04568]},"properties":{"latitude":"51.04568","longitude":"2.32001","bright_ti4":"306.62","scan":"0.53","track":"0.42","acq_date":"2026-07-04","acq_time":"141","satellite":"N","instrument":"VIIRS","confidence":"n","version":"2.0NRT","bright_ti5":"287.5","frp":"1.08","daynight":"N","commune":"Dunkerque","code_insee":"59183","departement":"Nord","region":"Hauts-de-France"}},{"type":"Feature","geometry":{"type":"Point","coordinates":[2.29697,51.04791]},"properties":{"latitude":"51.04791","longitude":"2.29697","bright_ti4":"318.13","scan":"0.53","track":"0.42","acq_date":"2026-07-04","acq_time":"141","satellite":"N","instrument":"VIIRS","confidence":"n","version":"2.0NRT","bright_ti5":"289.25","frp":"4.13","daynight":"N","commune":"Grande-Synthe","code_insee":"59271","departement":"Nord","region":"Hauts-de-France"}},{"type":"Feature","geometry":{"type":"Point","coordinates":[2.32095,51.04955]},"properties":{"latitude":"51.04955","longitude":"2.32095","bright_ti4":"303.64","scan":"0.53","track":"0.42","acq_date":"2026-07-04","acq_time":"141","satellite":"N","instrument":"VIIRS","confidence":"n","version":"2.0NRT","bright_ti5":"288.59","frp":"1.12","daynight":"N","commune":"Dunkerque","code_insee":"59183","departement":"Nord","region":"Hauts-de-France"}},{"type":"Feature","geometry":{"type":"Point","coordinates":[4.8896,43.43742]},"properties":{"latitude":"43.43742","longitude":"4.8896","bright_ti4":"307.91","scan":"0.39","track":"0.36","acq_date":"2026-07-04","acq_time":"143","satellite":"N","instrument":"VIIRS","confidence":"n","version":"2.0NRT","bright_ti5":"294.84","frp":"1.65","daynight":"N","commune":"Fos-sur-Mer","code_insee":"13039","departement":"Bouches-du-Rhône","region":"Provence-Alpes-Côte d'Azur"}},{"type":"Feature","geometry":{"type":"Point","coordinates":[4.89052,43.44073]},"properties":{"latitude":"43.44073","longitude":"4.89052","bright_ti4":"328.39","scan":"0.39","track":"0.36","acq_date":"2026-07-04","acq_time":"143","satellite":"N","instrument":"VIIRS","confidence":"n","version":"2.0NRT","bright_ti5":"296.85","frp":"1.65","daynight":"N","commune":"Fos-sur-Mer","code_insee":"13039","departement":"Bouches-du-Rhône","region":"Provence-Alpes-Côte d'Azur"}},{"type":"Feature","geometry":{"type":"Point","coordinates":[4.89716,43.44666]},"properties":{"latitude":"43.44666","longitude":"4.89716","bright_ti4":"353.73","scan":"0.39","track":"0.36","acq_date":"2026-07-04","acq_time":"143","satellite":"N","instrument":"VIIRS","confidence":"n","version":"2.0NRT","bright_ti5":"298.28","frp":"10.62","daynight":"N","commune":"Fos-sur-Mer","code_insee":"13039","departement":"Bouches-du-Rhône","region":"Provence-Alpes-Côte d'Azur"}},{"type":"Feature","geometry":{"type":"Point","coordinates":[4.89237,43.44736]},"properties":{"latitude":"43.44736","longitude":"4.89237","bright_ti4":"310.5","scan":"0.39","track":"0.36","acq_date":"2026-07-04","acq_time":"143","satellite":"N","instrument":"VIIRS","confidence":"n","version":"2.0NRT","bright_ti5":"294.94","frp":"2.54","daynight":"N","commune":"Fos-sur-Mer","code_insee":"13039","departement":"Bouches-du-Rhône","region":"Provence-Alpes-Côte d'Azur"}},{"type":"Feature","geometry":{"type":"Point","coordinates":[4.89808,43.44997]},"properties":{"latitude":"43.44997","longitude":"4.89808","bright_ti4":"337.18","scan":"0.39","track":"0.36","acq_date":"2026-07-04","acq_time":"143","satellite":"N","instrument":"VIIRS","confidence":"n","version":"2.0NRT","bright_ti5":"296.01","frp":"5.81","daynight":"N","commune":"Fos-sur-Mer","code_insee":"13039","departement":"Bouches-du-Rhône","region":"Provence-Alpes-Côte d'Azur"}},{"type":"Feature","geometry":{"type":"Point","coordinates":[7.37464,43.79594]},"properties":{"latitude":"43.79594","longitude":"7.37464","bright_ti4":"305.57","scan":"0.39","track":"0.36","acq_date":"2026-07-04","acq_time":"143","satellite":"N","instrument":"VIIRS","confidence":"n","version":"2.0NRT","bright_ti5":"292.61","frp":"0.72","daynight":"N","commune":"Blausasc","code_insee":"06019","departement":"Alpes-Maritimes","region":"Provence-Alpes-Côte d'Azur"}},{"type":"Feature","geometry":{"type":"Point","coordinates":[5.47882,45.59993]},"properties":{"latitude":"45.59993","longitude":"5.47882","bright_ti4":"327.68","scan":"0.39","track":"0.36","acq_date":"2026-07-04","acq_time":"143","satellite":"N","instrument":"VIIRS","confidence":"n","version":"2.0NRT","bright_ti5":"286.65","frp":"2.24","daynight":"N","commune":"La Chapelle-de-la-Tour","code_insee":"38076","departement":"Isère","region":"Auvergne-Rhône-Alpes"}},{"type":"Feature","geometry":{"type":"Point","coordinates":[6.45154,45.61809]},"properties":{"latitude":"45.61809","longitude":"6.45154","bright_ti4":"298.69","scan":"0.38","track":"0.36","acq_date":"2026-07-04","acq_time":"143","satellite":"N","instrument":"VIIRS","confidence":"n","version":"2.0NRT","bright_ti5":"288.41","frp":"0.49","daynight":"N","commune":"La Bâthie","code_insee":"73032","departement":"Savoie","region":"Auvergne-Rhône-Alpes"}},{"type":"Feature","geometry":{"type":"Point","coordinates":[4.03933,49.46251]},"properties":{"latitude":"49.46251","longitude":"4.03933","bright_ti4":"295.83","scan":"0.63","track":"0.72","acq_date":"2026-07-04","acq_time":"321","satellite":"N","instrument":"VIIRS","confidence":"n","version":"2.0NRT","bright_ti5":"280.55","frp":"0.89","daynight":"N","commune":"Évergnicourt","code_insee":"02299","departement":"Aisne","region":"Hauts-de-France"}},{"type":"Feature","geometry":{"type":"Point","coordinates":[0.53553,49.48046]},"properties":{"latitude":"49.48046","longitude":"0.53553","bright_ti4":"295.24","scan":"0.46","track":"0.64","acq_date":"2026-07-04","acq_time":"321","satellite":"N","instrument":"VIIRS","confidence":"n","version":"2.0NRT","bright_ti5":"283.41","frp":"1.03","daynight":"N","commune":"Port-Jérôme-sur-Seine","code_insee":"76476","departement":"Seine-Maritime","region":"Normandie"}},{"type":"Feature","geometry":{"type":"Point","coordinates":[2.27109,51.02996]},"properties":{"latitude":"51.02996","longitude":"2.27109","bright_ti4":"297.69","scan":"0.48","track":"0.65","acq_date":"2026-07-04","acq_time":"321","satellite":"N","instrument":"VIIRS","confidence":"n","version":"2.0NRT","bright_ti5":"284.94","frp":"1.17","daynight":"N","commune":"Grande-Synthe","code_insee":"59271","departement":"Nord","region":"Hauts-de-France"}},{"type":"Feature","geometry":{"type":"Point","coordinates":[2.28658,51.03844]},"properties":{"latitude":"51.03844","longitude":"2.28658","bright_ti4":"312.85","scan":"0.48","track":"0.65","acq_date":"2026-07-04","acq_time":"321","satellite":"N","instrument":"VIIRS","confidence":"n","version":"2.0NRT","bright_ti5":"286.66","frp":"1.77","daynight":"N","commune":"Grande-Synthe","code_insee":"59271","departement":"Nord","region":"Hauts-de-France"}},{"type":"Feature","geometry":{"type":"Point","coordinates":[2.29122,51.04377]},"properties":{"latitude":"51.04377","longitude":"2.29122","bright_ti4":"303.38","scan":"0.48","track":"0.65","acq_date":"2026-07-04","acq_time":"321","satellite":"N","instrument":"VIIRS","confidence":"n","version":"2.0NRT","bright_ti5":"286.1","frp":"1.77","daynight":"N","commune":"Grande-Synthe","code_insee":"59271","departement":"Nord","region":"Hauts-de-France"}},{"type":"Feature","geometry":{"type":"Point","coordinates":[2.31922,51.04795]},"properties":{"latitude":"51.04795","longitude":"2.31922","bright_ti4":"297.88","scan":"0.48","track":"0.65","acq_date":"2026-07-04","acq_time":"321","satellite":"N","instrument":"VIIRS","confidence":"n","version":"2.0NRT","bright_ti5":"286.36","frp":"1.06","daynight":"N","commune":"Dunkerque","code_insee":"59183","departement":"Nord","region":"Hauts-de-France"}},{"type":"Feature","geometry":{"type":"Point","coordinates":[5.38022,46.30294]},"properties":{"latitude":"46.30294","longitude":"5.38022","bright_ti4":"346.19","scan":"0.51","track":"0.66","acq_date":"2026-07-04","acq_time":"1128","satellite":"N","instrument":"VIIRS","confidence":"n","version":"2.0NRT","bright_ti5":"301.21","frp":"6.54","daynight":"D","commune":"Val-Revermont","code_insee":"01426","departement":"Ain","region":"Auvergne-Rhône-Alpes"}},{"type":"Feature","geometry":{"type":"Point","coordinates":[5.37885,46.30301]},"properties":{"latitude":"46.30301","longitude":"5.37885","bright_ti4":"345.74","scan":"0.51","track":"0.66","acq_date":"2026-07-04","acq_time":"1128","satellite":"N","instrument":"VIIRS","confidence":"n","version":"2.0NRT","bright_ti5":"300.29","frp":"6.69","daynight":"D","commune":"Val-Revermont","code_insee":"01426","departement":"Ain","region":"Auvergne-Rhône-Alpes"}},{"type":"Feature","geometry":{"type":"Point","coordinates":[5.38606,46.30534]},"properties":{"latitude":"46.30534","longitude":"5.38606","bright_ti4":"340","scan":"0.51","track":"0.66","acq_date":"2026-07-04","acq_time":"1128","satellite":"N","instrument":"VIIRS","confidence":"n","version":"2.0NRT","bright_ti5":"300.01","frp":"6.69","daynight":"D","commune":"Val-Revermont","code_insee":"01426","departement":"Ain","region":"Auvergne-Rhône-Alpes"}},{"type":"Feature","geometry":{"type":"Point","coordinates":[5.37617,46.30849]},"properties":{"latitude":"46.30849","longitude":"5.37617","bright_ti4":"367","scan":"0.51","track":"0.66","acq_date":"2026-07-04","acq_time":"1128","satellite":"N","instrument":"VIIRS","confidence":"h","version":"2.0NRT","bright_ti5":"300.54","frp":"6.54","daynight":"D","commune":"Val-Revermont","code_insee":"01426","departement":"Ain","region":"Auvergne-Rhône-Alpes"}},{"type":"Feature","geometry":{"type":"Point","coordinates":[3.59701,47.14039]},"properties":{"latitude":"47.14039","longitude":"3.59701","bright_ti4":"348.34","scan":"0.57","track":"0.69","acq_date":"2026-07-04","acq_time":"1130","satellite":"N","instrument":"VIIRS","confidence":"n","version":"2.0NRT","bright_ti5":"303.24","frp":"4.27","daynight":"D","commune":"Bazolles","code_insee":"58024","departement":"Nièvre","region":"Bourgogne-Franche-Comté"}},{"type":"Feature","geometry":{"type":"Point","coordinates":[2.97873,47.67299]},"properties":{"latitude":"47.67299","longitude":"2.97873","bright_ti4":"345.27","scan":"0.57","track":"0.69","acq_date":"2026-07-04","acq_time":"1130","satellite":"N","instrument":"VIIRS","confidence":"n","version":"2.0NRT","bright_ti5":"302.36","frp":"5.96","daynight":"D","commune":"Saint-Privé","code_insee":"89365","departement":"Yonne","region":"Bourgogne-Franche-Comté"}},{"type":"Feature","geometry":{"type":"Point","coordinates":[2.95874,42.59115]},"properties":{"latitude":"42.59115","longitude":"2.95874","bright_ti4":"337.22","scan":"0.47","track":"0.4","acq_date":"2026-07-04","acq_time":"1308","satellite":"N","instrument":"VIIRS","confidence":"l","version":"2.0NRT","bright_ti5":"310.36","frp":"2.08","daynight":"D","commune":"Elne","code_insee":"66065","departement":"Pyrénées-Orientales","region":"Occitanie"}},{"type":"Feature","geometry":{"type":"Point","coordinates":[5.18021,43.38826]},"properties":{"latitude":"43.38826","longitude":"5.18021","bright_ti4":"342.56","scan":"0.39","track":"0.44","acq_date":"2026-07-04","acq_time":"1308","satellite":"N","instrument":"VIIRS","confidence":"n","version":"2.0NRT","bright_ti5":"313.86","frp":"8.67","daynight":"D","commune":"Châteauneuf-les-Martigues","code_insee":"13026","departement":"Bouches-du-Rhône","region":"Provence-Alpes-Côte d'Azur"}},{"type":"Feature","geometry":{"type":"Point","coordinates":[5.18513,43.38873]},"properties":{"latitude":"43.38873","longitude":"5.18513","bright_ti4":"331.87","scan":"0.39","track":"0.44","acq_date":"2026-07-04","acq_time":"1308","satellite":"N","instrument":"VIIRS","confidence":"l","version":"2.0NRT","bright_ti5":"306.6","frp":"8.67","daynight":"D","commune":"Châteauneuf-les-Martigues","code_insee":"13026","departement":"Bouches-du-Rhône","region":"Provence-Alpes-Côte d'Azur"}},{"type":"Feature","geometry":{"type":"Point","coordinates":[5.17956,43.39234]},"properties":{"latitude":"43.39234","longitude":"5.17956","bright_ti4":"340.14","scan":"0.39","track":"0.44","acq_date":"2026-07-04","acq_time":"1308","satellite":"N","instrument":"VIIRS","confidence":"n","version":"2.0NRT","bright_ti5":"306.59","frp":"4.97","daynight":"D","commune":"Châteauneuf-les-Martigues","code_insee":"13026","departement":"Bouches-du-Rhône","region":"Provence-Alpes-Côte d'Azur"}},{"type":"Feature","geometry":{"type":"Point","coordinates":[4.8959,43.4475]},"properties":{"latitude":"43.4475","longitude":"4.8959","bright_ti4":"340.96","scan":"0.38","track":"0.43","acq_date":"2026-07-04","acq_time":"1308","satellite":"N","instrument":"VIIRS","confidence":"l","version":"2.0NRT","bright_ti5":"313.16","frp":"5.49","daynight":"D","commune":"Fos-sur-Mer","code_insee":"13039","departement":"Bouches-du-Rhône","region":"Provence-Alpes-Côte d'Azur"}},{"type":"Feature","geometry":{"type":"Point","coordinates":[3.40948,45.19876]},"properties":{"latitude":"45.19876","longitude":"3.40948","bright_ti4":"333.03","scan":"0.52","track":"0.42","acq_date":"2026-07-04","acq_time":"1308","satellite":"N","instrument":"VIIRS","confidence":"l","version":"2.0NRT","bright_ti5":"306.49","frp":"6.48","daynight":"D","commune":"Saint-Ilpize","code_insee":"43195","departement":"Haute-Loire","region":"Auvergne-Rhône-Alpes"}},{"type":"Feature","geometry":{"type":"Point","coordinates":[4.9854,45.31615]},"properties":{"latitude":"45.31615","longitude":"4.9854","bright_ti4":"348.82","scan":"0.41","track":"0.45","acq_date":"2026-07-04","acq_time":"1308","satellite":"N","instrument":"VIIRS","confidence":"n","version":"2.0NRT","bright_ti5":"311.02","frp":"5.4","daynight":"D","commune":"Lapeyrouse-Mornay","code_insee":"26155","departement":"Drôme","region":"Auvergne-Rhône-Alpes"}},{"type":"Feature","geometry":{"type":"Point","coordinates":[0.49154,46.04301]},"properties":{"latitude":"46.04301","longitude":"0.49154","bright_ti4":"342.62","scan":"0.42","track":"0.38","acq_date":"2026-07-04","acq_time":"1310","satellite":"N","instrument":"VIIRS","confidence":"l","version":"2.0NRT","bright_ti5":"316.79","frp":"3.86","daynight":"D","commune":"Alloue","code_insee":"16007","departement":"Charente","region":"Nouvelle-Aquitaine"}},{"type":"Feature","geometry":{"type":"Point","coordinates":[2.74572,46.55589]},"properties":{"latitude":"46.55589","longitude":"2.74572","bright_ti4":"341.7","scan":"0.51","track":"0.41","acq_date":"2026-07-04","acq_time":"1310","satellite":"N","instrument":"VIIRS","confidence":"n","version":"2.0NRT","bright_ti5":"312.39","frp":"4.32","daynight":"D","commune":"Saint-Caprais","code_insee":"03222","departement":"Allier","region":"Auvergne-Rhône-Alpes"}},{"type":"Feature","geometry":{"type":"Point","coordinates":[2.74493,46.55968]},"properties":{"latitude":"46.55968","longitude":"2.74493","bright_ti4":"342.6","scan":"0.51","track":"0.41","acq_date":"2026-07-04","acq_time":"1310","satellite":"N","instrument":"VIIRS","confidence":"n","version":"2.0NRT","bright_ti5":"313.04","frp":"4.94","daynight":"D","commune":"Saint-Caprais","code_insee":"03222","departement":"Allier","region":"Auvergne-Rhône-Alpes"}},{"type":"Feature","geometry":{"type":"Point","coordinates":[3.42637,47.3841]},"properties":{"latitude":"47.3841","longitude":"3.42637","bright_ti4":"337.02","scan":"0.55","track":"0.43","acq_date":"2026-07-04","acq_time":"1310","satellite":"N","instrument":"VIIRS","confidence":"n","version":"2.0NRT","bright_ti5":"311.82","frp":"3.6","daynight":"D","commune":"Saint-Pierre-du-Mont","code_insee":"58263","departement":"Nièvre","region":"Bourgogne-Franche-Comté"}},{"type":"Feature","geometry":{"type":"Point","coordinates":[3.31284,48.19862]},"properties":{"latitude":"48.19862","longitude":"3.31284","bright_ti4":"337.04","scan":"0.56","track":"0.43","acq_date":"2026-07-04","acq_time":"1310","satellite":"N","instrument":"VIIRS","confidence":"l","version":"2.0NRT","bright_ti5":"311.44","frp":"7.18","daynight":"D","commune":"Sens","code_insee":"89387","departement":"Yonne","region":"Bourgogne-Franche-Comté"}},{"type":"Feature","geometry":{"type":"Point","coordinates":[0.12509,48.46248]},"properties":{"latitude":"48.46248","longitude":"0.12509","bright_ti4":"335.28","scan":"0.44","track":"0.38","acq_date":"2026-07-04","acq_time":"1310","satellite":"N","instrument":"VIIRS","confidence":"n","version":"2.0NRT","bright_ti5":"309.53","frp":"8.17","daynight":"D","commune":"Valframbert","code_insee":"61497","departement":"Orne","region":"Normandie"}},{"type":"Feature","geometry":{"type":"Point","coordinates":[0.13102,48.46318]},"properties":{"latitude":"48.46318","longitude":"0.13102","bright_ti4":"336.73","scan":"0.44","track":"0.38","acq_date":"2026-07-04","acq_time":"1310","satellite":"N","instrument":"VIIRS","confidence":"n","version":"2.0NRT","bright_ti5":"307.12","frp":"8.17","daynight":"D","commune":"Valframbert","code_insee":"61497","departement":"Orne","region":"Normandie"}},{"type":"Feature","geometry":{"type":"Point","coordinates":[0.12413,48.46599]},"properties":{"latitude":"48.46599","longitude":"0.12413","bright_ti4":"332.62","scan":"0.44","track":"0.38","acq_date":"2026-07-04","acq_time":"1310","satellite":"N","instrument":"VIIRS","confidence":"n","version":"2.0NRT","bright_ti5":"305.64","frp":"8.17","daynight":"D","commune":"Valframbert","code_insee":"61497","departement":"Orne","region":"Normandie"}},{"type":"Feature","geometry":{"type":"Point","coordinates":[0.13007,48.46669]},"properties":{"latitude":"48.46669","longitude":"0.13007","bright_ti4":"342.64","scan":"0.44","track":"0.38","acq_date":"2026-07-04","acq_time":"1310","satellite":"N","instrument":"VIIRS","confidence":"n","version":"2.0NRT","bright_ti5":"307.52","frp":"8.17","daynight":"D","commune":"Valframbert","code_insee":"61497","departement":"Orne","region":"Normandie"}},{"type":"Feature","geometry":{"type":"Point","coordinates":[3.74379,48.50028]},"properties":{"latitude":"48.50028","longitude":"3.74379","bright_ti4":"335.8","scan":"0.39","track":"0.44","acq_date":"2026-07-04","acq_time":"1310","satellite":"N","instrument":"VIIRS","confidence":"n","version":"2.0NRT","bright_ti5":"306.87","frp":"1.31","daynight":"D","commune":"Romilly-sur-Seine","code_insee":"10323","departement":"Aube","region":"Grand Est"}},{"type":"Feature","geometry":{"type":"Point","coordinates":[2.33025,48.91127]},"properties":{"latitude":"48.91127","longitude":"2.33025","bright_ti4":"340.19","scan":"0.52","track":"0.42","acq_date":"2026-07-04","acq_time":"1310","satellite":"N","instrument":"VIIRS","confidence":"n","version":"2.0NRT","bright_ti5":"306.94","frp":"7.95","daynight":"D","commune":"Saint-Ouen-sur-Seine","code_insee":"93070","departement":"Seine-Saint-Denis","region":"Île-de-France"}},{"type":"Feature","geometry":{"type":"Point","coordinates":[4.21373,49.34555]},"properties":{"latitude":"49.34555","longitude":"4.21373","bright_ti4":"340.61","scan":"0.42","track":"0.45","acq_date":"2026-07-04","acq_time":"1310","satellite":"N","instrument":"VIIRS","confidence":"n","version":"2.0NRT","bright_ti5":"307.08","frp":"12.82","daynight":"D","commune":"Warmeriville","code_insee":"51660","departement":"Marne","region":"Grand Est"}},{"type":"Feature","geometry":{"type":"Point","coordinates":[4.21955,49.34604]},"properties":{"latitude":"49.34604","longitude":"4.21955","bright_ti4":"343.3","scan":"0.42","track":"0.45","acq_date":"2026-07-04","acq_time":"1310","satellite":"N","instrument":"VIIRS","confidence":"n","version":"2.0NRT","bright_ti5":"310.41","frp":"12.82","daynight":"D","commune":"Warmeriville","code_insee":"51660","departement":"Marne","region":"Grand Est"}},{"type":"Feature","geometry":{"type":"Point","coordinates":[3.11754,50.04976]},"properties":{"latitude":"50.04976","longitude":"3.11754","bright_ti4":"352.27","scan":"0.38","track":"0.43","acq_date":"2026-07-04","acq_time":"1310","satellite":"N","instrument":"VIIRS","confidence":"n","version":"2.0NRT","bright_ti5":"298.21","frp":"5.88","daynight":"D","commune":"Gouzeaucourt","code_insee":"59269","departement":"Nord","region":"Hauts-de-France"}},{"type":"Feature","geometry":{"type":"Point","coordinates":[2.3003,51.04314]},"properties":{"latitude":"51.04314","longitude":"2.3003","bright_ti4":"337.19","scan":"0.55","track":"0.43","acq_date":"2026-07-04","acq_time":"1310","satellite":"N","instrument":"VIIRS","confidence":"n","version":"2.0NRT","bright_ti5":"303.8","frp":"8.47","daynight":"D","commune":"Grande-Synthe","code_insee":"59271","departement":"Nord","region":"Hauts-de-France"}},{"type":"Feature","geometry":{"type":"Point","coordinates":[2.29982,51.04451]},"properties":{"latitude":"51.04451","longitude":"2.29982","bright_ti4":"342.87","scan":"0.55","track":"0.43","acq_date":"2026-07-04","acq_time":"1310","satellite":"N","instrument":"VIIRS","confidence":"n","version":"2.0NRT","bright_ti5":"303.52","frp":"4.84","daynight":"D","commune":"Grande-Synthe","code_insee":"59271","departement":"Nord","region":"Hauts-de-France"}},{"type":"Feature","geometry":{"type":"Point","coordinates":[2.32402,51.04528]},"properties":{"latitude":"51.04528","longitude":"2.32402","bright_ti4":"338.05","scan":"0.55","track":"0.43","acq_date":"2026-07-04","acq_time":"1310","satellite":"N","instrument":"VIIRS","confidence":"n","version":"2.0NRT","bright_ti5":"303.56","frp":"8","daynight":"D","commune":"Dunkerque","code_insee":"59183","departement":"Nord","region":"Hauts-de-France"}},{"type":"Feature","geometry":{"type":"Point","coordinates":[2.32352,51.04675]},"properties":{"latitude":"51.04675","longitude":"2.32352","bright_ti4":"337.03","scan":"0.55","track":"0.43","acq_date":"2026-07-04","acq_time":"1310","satellite":"N","instrument":"VIIRS","confidence":"n","version":"2.0NRT","bright_ti5":"303.15","frp":"5.07","daynight":"D","commune":"Dunkerque","code_insee":"59183","departement":"Nord","region":"Hauts-de-France"}},{"type":"Feature","geometry":{"type":"Point","coordinates":[7.35096,47.90491]},"properties":{"latitude":"47.90491","longitude":"7.35096","bright_ti4":"295.61","scan":"0.71","track":"0.75","acq_date":"2026-07-04","acq_time":"20","satellite":"N20","instrument":"VIIRS","confidence":"n","version":"2.0NRT","bright_ti5":"284.42","frp":"0.64","daynight":"N","commune":"Réguisheim","code_insee":"68266","departement":"Haut-Rhin","region":"Grand Est"}},{"type":"Feature","geometry":{"type":"Point","coordinates":[7.353,47.90686]},"properties":{"latitude":"47.90686","longitude":"7.353","bright_ti4":"295.15","scan":"0.71","track":"0.75","acq_date":"2026-07-04","acq_time":"20","satellite":"N20","instrument":"VIIRS","confidence":"n","version":"2.0NRT","bright_ti5":"283.6","frp":"0.53","daynight":"N","commune":"Réguisheim","code_insee":"68266","departement":"Haut-Rhin","region":"Grand Est"}},{"type":"Feature","geometry":{"type":"Point","coordinates":[4.8942,43.43889]},"properties":{"latitude":"43.43889","longitude":"4.8942","bright_ti4":"323.15","scan":"0.49","track":"0.4","acq_date":"2026-07-04","acq_time":"202","satellite":"N20","instrument":"VIIRS","confidence":"n","version":"2.0NRT","bright_ti5":"296","frp":"3.95","daynight":"N","commune":"Fos-sur-Mer","code_insee":"13039","departement":"Bouches-du-Rhône","region":"Provence-Alpes-Côte d'Azur"}},{"type":"Feature","geometry":{"type":"Point","coordinates":[4.89697,43.44609]},"properties":{"latitude":"43.44609","longitude":"4.89697","bright_ti4":"345.93","scan":"0.49","track":"0.4","acq_date":"2026-07-04","acq_time":"202","satellite":"N20","instrument":"VIIRS","confidence":"n","version":"2.0NRT","bright_ti5":"298.57","frp":"8.61","daynight":"N","commune":"Fos-sur-Mer","code_insee":"13039","departement":"Bouches-du-Rhône","region":"Provence-Alpes-Côte d'Azur"}},{"type":"Feature","geometry":{"type":"Point","coordinates":[4.89837,43.44968]},"properties":{"latitude":"43.44968","longitude":"4.89837","bright_ti4":"305.99","scan":"0.49","track":"0.4","acq_date":"2026-07-04","acq_time":"202","satellite":"N20","instrument":"VIIRS","confidence":"n","version":"2.0NRT","bright_ti5":"294.2","frp":"0.61","daynight":"N","commune":"Fos-sur-Mer","code_insee":"13039","departement":"Bouches-du-Rhône","region":"Provence-Alpes-Côte d'Azur"}},{"type":"Feature","geometry":{"type":"Point","coordinates":[5.66809,45.23146]},"properties":{"latitude":"45.23146","longitude":"5.66809","bright_ti4":"301.23","scan":"0.49","track":"0.4","acq_date":"2026-07-04","acq_time":"202","satellite":"N20","instrument":"VIIRS","confidence":"n","version":"2.0NRT","bright_ti5":"290.33","frp":"0.64","daynight":"N","commune":"Saint-Égrève","code_insee":"38382","departement":"Isère","region":"Auvergne-Rhône-Alpes"}},{"type":"Feature","geometry":{"type":"Point","coordinates":[5.47934,45.59996]},"properties":{"latitude":"45.59996","longitude":"5.47934","bright_ti4":"303","scan":"0.47","track":"0.4","acq_date":"2026-07-04","acq_time":"202","satellite":"N20","instrument":"VIIRS","confidence":"n","version":"2.0NRT","bright_ti5":"285.43","frp":"0.7","daynight":"N","commune":"La Chapelle-de-la-Tour","code_insee":"38076","departement":"Isère","region":"Auvergne-Rhône-Alpes"}},{"type":"Feature","geometry":{"type":"Point","coordinates":[5.82004,45.91123]},"properties":{"latitude":"45.91123","longitude":"5.82004","bright_ti4":"300.68","scan":"0.48","track":"0.4","acq_date":"2026-07-04","acq_time":"202","satellite":"N20","instrument":"VIIRS","confidence":"n","version":"2.0NRT","bright_ti5":"290.47","frp":"0.55","daynight":"N","commune":"Anglefort","code_insee":"01010","departement":"Ain","region":"Auvergne-Rhône-Alpes"}},{"type":"Feature","geometry":{"type":"Point","coordinates":[7.35755,47.90269]},"properties":{"latitude":"47.90269","longitude":"7.35755","bright_ti4":"302.12","scan":"0.5","track":"0.41","acq_date":"2026-07-04","acq_time":"202","satellite":"N20","instrument":"VIIRS","confidence":"n","version":"2.0NRT","bright_ti5":"285.01","frp":"0.52","daynight":"N","commune":"Réguisheim","code_insee":"68266","departement":"Haut-Rhin","region":"Grand Est"}},{"type":"Feature","geometry":{"type":"Point","coordinates":[-1.03367,48.10768]},"properties":{"latitude":"48.10768","longitude":"-1.03367","bright_ti4":"299.75","scan":"0.41","track":"0.37","acq_date":"2026-07-04","acq_time":"202","satellite":"N20","instrument":"VIIRS","confidence":"n","version":"2.0NRT","bright_ti5":"289.15","frp":"0.53","daynight":"N","commune":"Saint-Pierre-la-Cour","code_insee":"53247","departement":"Mayenne","region":"Pays de la Loire"}},{"type":"Feature","geometry":{"type":"Point","coordinates":[2.98425,48.38708]},"properties":{"latitude":"48.38708","longitude":"2.98425","bright_ti4":"328.81","scan":"0.39","track":"0.36","acq_date":"2026-07-04","acq_time":"202","satellite":"N20","instrument":"VIIRS","confidence":"n","version":"2.0NRT","bright_ti5":"291.11","frp":"1.61","daynight":"N","commune":"Montereau-Fault-Yonne","code_insee":"77305","departement":"Seine-et-Marne","region":"Île-de-France"}},{"type":"Feature","geometry":{"type":"Point","coordinates":[6.11278,48.56186]},"properties":{"latitude":"48.56186","longitude":"6.11278","bright_ti4":"300.27","scan":"0.44","track":"0.39","acq_date":"2026-07-04","acq_time":"202","satellite":"N20","instrument":"VIIRS","confidence":"n","version":"2.0NRT","bright_ti5":"285.5","frp":"0.4","daynight":"N","commune":"Xeuilley","code_insee":"54596","departement":"Meurthe-et-Moselle","region":"Grand Est"}},{"type":"Feature","geometry":{"type":"Point","coordinates":[6.11569,48.60966]},"properties":{"latitude":"48.60966","longitude":"6.11569","bright_ti4":"314.72","scan":"0.44","track":"0.39","acq_date":"2026-07-04","acq_time":"202","satellite":"N20","instrument":"VIIRS","confidence":"n","version":"2.0NRT","bright_ti5":"289.32","frp":"2.14","daynight":"N","commune":"Neuves-Maisons","code_insee":"54397","departement":"Meurthe-et-Moselle","region":"Grand Est"}},{"type":"Feature","geometry":{"type":"Point","coordinates":[6.1154,48.60981]},"properties":{"latitude":"48.60981","longitude":"6.1154","bright_ti4":"318.72","scan":"0.44","track":"0.39","acq_date":"2026-07-04","acq_time":"202","satellite":"N20","instrument":"VIIRS","confidence":"n","version":"2.0NRT","bright_ti5":"288.85","frp":"1.43","daynight":"N","commune":"Neuves-Maisons","code_insee":"54397","departement":"Meurthe-et-Moselle","region":"Grand Est"}},{"type":"Feature","geometry":{"type":"Point","coordinates":[6.10988,48.61082]},"properties":{"latitude":"48.61082","longitude":"6.10988","bright_ti4":"309.86","scan":"0.44","track":"0.39","acq_date":"2026-07-04","acq_time":"202","satellite":"N20","instrument":"VIIRS","confidence":"n","version":"2.0NRT","bright_ti5":"287.34","frp":"1.19","daynight":"N","commune":"Neuves-Maisons","code_insee":"54397","departement":"Meurthe-et-Moselle","region":"Grand Est"}},{"type":"Feature","geometry":{"type":"Point","coordinates":[6.10957,48.61095]},"properties":{"latitude":"48.61095","longitude":"6.10957","bright_ti4":"311.41","scan":"0.44","track":"0.39","acq_date":"2026-07-04","acq_time":"202","satellite":"N20","instrument":"VIIRS","confidence":"n","version":"2.0NRT","bright_ti5":"286.99","frp":"1.43","daynight":"N","commune":"Neuves-Maisons","code_insee":"54397","departement":"Meurthe-et-Moselle","region":"Grand Est"}},{"type":"Feature","geometry":{"type":"Point","coordinates":[0.5367,49.47622]},"properties":{"latitude":"49.47622","longitude":"0.5367","bright_ti4":"312.11","scan":"0.39","track":"0.36","acq_date":"2026-07-04","acq_time":"202","satellite":"N20","instrument":"VIIRS","confidence":"n","version":"2.0NRT","bright_ti5":"286.18","frp":"1.08","daynight":"N","commune":"Port-Jérôme-sur-Seine","code_insee":"76476","departement":"Seine-Maritime","region":"Normandie"}},{"type":"Feature","geometry":{"type":"Point","coordinates":[2.24175,49.87457]},"properties":{"latitude":"49.87457","longitude":"2.24175","bright_ti4":"304.36","scan":"0.38","track":"0.36","acq_date":"2026-07-04","acq_time":"202","satellite":"N20","instrument":"VIIRS","confidence":"n","version":"2.0NRT","bright_ti5":"281.13","frp":"0.8","daynight":"N","commune":"Pont-de-Metz","code_insee":"80632","departement":"Somme","region":"Hauts-de-France"}},{"type":"Feature","geometry":{"type":"Point","coordinates":[2.19454,49.92667]},"properties":{"latitude":"49.92667","longitude":"2.19454","bright_ti4":"302.18","scan":"0.38","track":"0.36","acq_date":"2026-07-04","acq_time":"202","satellite":"N20","instrument":"VIIRS","confidence":"n","version":"2.0NRT","bright_ti5":"283.11","frp":"0.57","daynight":"N","commune":"Ailly-sur-Somme","code_insee":"80011","departement":"Somme","region":"Hauts-de-France"}},{"type":"Feature","geometry":{"type":"Point","coordinates":[2.58819,49.9607]},"properties":{"latitude":"49.9607","longitude":"2.58819","bright_ti4":"296.25","scan":"0.38","track":"0.36","acq_date":"2026-07-04","acq_time":"202","satellite":"N20","instrument":"VIIRS","confidence":"n","version":"2.0NRT","bright_ti5":"282.32","frp":"0.29","daynight":"N","commune":"Buire-sur-l'Ancre","code_insee":"80151","departement":"Somme","region":"Hauts-de-France"}},{"type":"Feature","geometry":{"type":"Point","coordinates":[3.48839,50.33039]},"properties":{"latitude":"50.33039","longitude":"3.48839","bright_ti4":"296","scan":"0.39","track":"0.36","acq_date":"2026-07-04","acq_time":"202","satellite":"N20","instrument":"VIIRS","confidence":"n","version":"2.0NRT","bright_ti5":"285.03","frp":"0.45","daynight":"N","commune":"Trith-Saint-Léger","code_insee":"59603","departement":"Nord","region":"Hauts-de-France"}},{"type":"Feature","geometry":{"type":"Point","coordinates":[3.56263,50.40111]},"properties":{"latitude":"50.40111","longitude":"3.56263","bright_ti4":"330.05","scan":"0.39","track":"0.36","acq_date":"2026-07-04","acq_time":"202","satellite":"N20","instrument":"VIIRS","confidence":"n","version":"2.0NRT","bright_ti5":"286.98","frp":"4.69","daynight":"N","commune":"Saint-Saulve","code_insee":"59544","departement":"Nord","region":"Hauts-de-France"}},{"type":"Feature","geometry":{"type":"Point","coordinates":[2.55969,50.69072]},"properties":{"latitude":"50.69072","longitude":"2.55969","bright_ti4":"317.94","scan":"0.38","track":"0.36","acq_date":"2026-07-04","acq_time":"202","satellite":"N20","instrument":"VIIRS","confidence":"n","version":"2.0NRT","bright_ti5":"283.54","frp":"1.38","daynight":"N","commune":"Morbecque","code_insee":"59416","departement":"Nord","region":"Hauts-de-France"}},{"type":"Feature","geometry":{"type":"Point","coordinates":[3.08235,50.69369]},"properties":{"latitude":"50.69369","longitude":"3.08235","bright_ti4":"296.18","scan":"0.38","track":"0.36","acq_date":"2026-07-04","acq_time":"202","satellite":"N20","instrument":"VIIRS","confidence":"n","version":"2.0NRT","bright_ti5":"283.07","frp":"0.17","daynight":"N","commune":"Bondues","code_insee":"59090","departement":"Nord","region":"Hauts-de-France"}},{"type":"Feature","geometry":{"type":"Point","coordinates":[1.8945,50.97144]},"properties":{"latitude":"50.97144","longitude":"1.8945","bright_ti4":"310.66","scan":"0.39","track":"0.36","acq_date":"2026-07-04","acq_time":"202","satellite":"N20","instrument":"VIIRS","confidence":"n","version":"2.0NRT","bright_ti5":"287.2","frp":"1.18","daynight":"N","commune":"Calais","code_insee":"62193","departement":"Pas-de-Calais","region":"Hauts-de-France"}},{"type":"Feature","geometry":{"type":"Point","coordinates":[2.28295,51.02917]},"properties":{"latitude":"51.02917","longitude":"2.28295","bright_ti4":"299.99","scan":"0.39","track":"0.36","acq_date":"2026-07-04","acq_time":"202","satellite":"N20","instrument":"VIIRS","confidence":"n","version":"2.0NRT","bright_ti5":"287.36","frp":"0.8","daynight":"N","commune":"Grande-Synthe","code_insee":"59271","departement":"Nord","region":"Hauts-de-France"}},{"type":"Feature","geometry":{"type":"Point","coordinates":[2.28956,51.03161]},"properties":{"latitude":"51.03161","longitude":"2.28956","bright_ti4":"310.37","scan":"0.39","track":"0.36","acq_date":"2026-07-04","acq_time":"202","satellite":"N20","instrument":"VIIRS","confidence":"n","version":"2.0NRT","bright_ti5":"287.27","frp":"1.9","daynight":"N","commune":"Grande-Synthe","code_insee":"59271","departement":"Nord","region":"Hauts-de-France"}},{"type":"Feature","geometry":{"type":"Point","coordinates":[2.2842,51.03243]},"properties":{"latitude":"51.03243","longitude":"2.2842","bright_ti4":"299.3","scan":"0.39","track":"0.36","acq_date":"2026-07-04","acq_time":"202","satellite":"N20","instrument":"VIIRS","confidence":"n","version":"2.0NRT","bright_ti5":"287.1","frp":"1.72","daynight":"N","commune":"Grande-Synthe","code_insee":"59271","departement":"Nord","region":"Hauts-de-France"}},{"type":"Feature","geometry":{"type":"Point","coordinates":[2.29081,51.03486]},"properties":{"latitude":"51.03486","longitude":"2.29081","bright_ti4":"326.29","scan":"0.39","track":"0.36","acq_date":"2026-07-04","acq_time":"202","satellite":"N20","instrument":"VIIRS","confidence":"n","version":"2.0NRT","bright_ti5":"290.83","frp":"1.9","daynight":"N","commune":"Grande-Synthe","code_insee":"59271","departement":"Nord","region":"Hauts-de-France"}},{"type":"Feature","geometry":{"type":"Point","coordinates":[2.28545,51.03568]},"properties":{"latitude":"51.03568","longitude":"2.28545","bright_ti4":"321.46","scan":"0.39","track":"0.36","acq_date":"2026-07-04","acq_time":"202","satellite":"N20","instrument":"VIIRS","confidence":"n","version":"2.0NRT","bright_ti5":"287.38","frp":"1.72","daynight":"N","commune":"Grande-Synthe","code_insee":"59271","departement":"Nord","region":"Hauts-de-France"}},{"type":"Feature","geometry":{"type":"Point","coordinates":[2.29331,51.04137]},"properties":{"latitude":"51.04137","longitude":"2.29331","bright_ti4":"314.11","scan":"0.39","track":"0.36","acq_date":"2026-07-04","acq_time":"202","satellite":"N20","instrument":"VIIRS","confidence":"n","version":"2.0NRT","bright_ti5":"289.64","frp":"1.29","daynight":"N","commune":"Grande-Synthe","code_insee":"59271","departement":"Nord","region":"Hauts-de-France"}},{"type":"Feature","geometry":{"type":"Point","coordinates":[2.29997,51.04379]},"properties":{"latitude":"51.04379","longitude":"2.29997","bright_ti4":"311.55","scan":"0.39","track":"0.36","acq_date":"2026-07-04","acq_time":"202","satellite":"N20","instrument":"VIIRS","confidence":"n","version":"2.0NRT","bright_ti5":"290.53","frp":"2.81","daynight":"N","commune":"Grande-Synthe","code_insee":"59271","departement":"Nord","region":"Hauts-de-France"}},{"type":"Feature","geometry":{"type":"Point","coordinates":[2.29457,51.04462]},"properties":{"latitude":"51.04462","longitude":"2.29457","bright_ti4":"327.81","scan":"0.39","track":"0.36","acq_date":"2026-07-04","acq_time":"202","satellite":"N20","instrument":"VIIRS","confidence":"n","version":"2.0NRT","bright_ti5":"288.36","frp":"2.81","daynight":"N","commune":"Grande-Synthe","code_insee":"59271","departement":"Nord","region":"Hauts-de-France"}},{"type":"Feature","geometry":{"type":"Point","coordinates":[2.30662,51.04622]},"properties":{"latitude":"51.04622","longitude":"2.30662","bright_ti4":"305.19","scan":"0.39","track":"0.36","acq_date":"2026-07-04","acq_time":"202","satellite":"N20","instrument":"VIIRS","confidence":"n","version":"2.0NRT","bright_ti5":"287.67","frp":"0.84","daynight":"N","commune":"Dunkerque","code_insee":"59183","departement":"Nord","region":"Hauts-de-France"}},{"type":"Feature","geometry":{"type":"Point","coordinates":[2.32025,51.04733]},"properties":{"latitude":"51.04733","longitude":"2.32025","bright_ti4":"329.76","scan":"0.39","track":"0.36","acq_date":"2026-07-04","acq_time":"202","satellite":"N20","instrument":"VIIRS","confidence":"n","version":"2.0NRT","bright_ti5":"292.49","frp":"2.63","daynight":"N","commune":"Dunkerque","code_insee":"59183","departement":"Nord","region":"Hauts-de-France"}},{"type":"Feature","geometry":{"type":"Point","coordinates":[2.29582,51.04787]},"properties":{"latitude":"51.04787","longitude":"2.29582","bright_ti4":"328.54","scan":"0.39","track":"0.36","acq_date":"2026-07-04","acq_time":"202","satellite":"N20","instrument":"VIIRS","confidence":"n","version":"2.0NRT","bright_ti5":"291.23","frp":"2.81","daynight":"N","commune":"Grande-Synthe","code_insee":"59271","departement":"Nord","region":"Hauts-de-France"}},{"type":"Feature","geometry":{"type":"Point","coordinates":[2.31484,51.04815]},"properties":{"latitude":"51.04815","longitude":"2.31484","bright_ti4":"300.22","scan":"0.39","track":"0.36","acq_date":"2026-07-04","acq_time":"202","satellite":"N20","instrument":"VIIRS","confidence":"n","version":"2.0NRT","bright_ti5":"288.03","frp":"2.63","daynight":"N","commune":"Dunkerque","code_insee":"59183","departement":"Nord","region":"Hauts-de-France"}},{"type":"Feature","geometry":{"type":"Point","coordinates":[0.9887,43.18627]},"properties":{"latitude":"43.18627","longitude":"0.9887","bright_ti4":"307.15","scan":"0.39","track":"0.36","acq_date":"2026-07-04","acq_time":"204","satellite":"N20","instrument":"VIIRS","confidence":"n","version":"2.0NRT","bright_ti5":"290.64","frp":"0.92","daynight":"N","commune":"Martres-Tolosane","code_insee":"31324","departement":"Haute-Garonne","region":"Occitanie"}},{"type":"Feature","geometry":{"type":"Point","coordinates":[4.89953,43.44669]},"properties":{"latitude":"43.44669","longitude":"4.89953","bright_ti4":"339.13","scan":"0.35","track":"0.57","acq_date":"2026-07-04","acq_time":"1147","satellite":"N20","instrument":"VIIRS","confidence":"n","version":"2.0NRT","bright_ti5":"307.83","frp":"4.1","daynight":"D","commune":"Fos-sur-Mer","code_insee":"13039","departement":"Bouches-du-Rhône","region":"Provence-Alpes-Côte d'Azur"}},{"type":"Feature","geometry":{"type":"Point","coordinates":[-0.26755,45.63096]},"properties":{"latitude":"45.63096","longitude":"-0.26755","bright_ti4":"347.23","scan":"0.52","track":"0.67","acq_date":"2026-07-04","acq_time":"1147","satellite":"N20","instrument":"VIIRS","confidence":"n","version":"2.0NRT","bright_ti5":"305.53","frp":"4.68","daynight":"D","commune":"Angeac-Champagne","code_insee":"16012","departement":"Charente","region":"Nouvelle-Aquitaine"}},{"type":"Feature","geometry":{"type":"Point","coordinates":[-0.68449,45.63256]},"properties":{"latitude":"45.63256","longitude":"-0.68449","bright_ti4":"367","scan":"0.54","track":"0.68","acq_date":"2026-07-04","acq_time":"1147","satellite":"N20","instrument":"VIIRS","confidence":"h","version":"2.0NRT","bright_ti5":"304.92","frp":"13.72","daynight":"D","commune":"Rioux","code_insee":"17298","departement":"Charente-Maritime","region":"Nouvelle-Aquitaine"}},{"type":"Feature","geometry":{"type":"Point","coordinates":[0.49051,46.04061]},"properties":{"latitude":"46.04061","longitude":"0.49051","bright_ti4":"340.62","scan":"0.47","track":"0.64","acq_date":"2026-07-04","acq_time":"1147","satellite":"N20","instrument":"VIIRS","confidence":"n","version":"2.0NRT","bright_ti5":"308.79","frp":"5.37","daynight":"D","commune":"Alloue","code_insee":"16007","departement":"Charente","region":"Nouvelle-Aquitaine"}},{"type":"Feature","geometry":{"type":"Point","coordinates":[0.49625,46.04239]},"properties":{"latitude":"46.04239","longitude":"0.49625","bright_ti4":"340.93","scan":"0.47","track":"0.64","acq_date":"2026-07-04","acq_time":"1147","satellite":"N20","instrument":"VIIRS","confidence":"n","version":"2.0NRT","bright_ti5":"304.21","frp":"4.36","daynight":"D","commune":"Alloue","code_insee":"16007","departement":"Charente","region":"Nouvelle-Aquitaine"}},{"type":"Feature","geometry":{"type":"Point","coordinates":[3.59751,47.13416]},"properties":{"latitude":"47.13416","longitude":"3.59751","bright_ti4":"340.91","scan":"0.63","track":"0.54","acq_date":"2026-07-04","acq_time":"1147","satellite":"N20","instrument":"VIIRS","confidence":"n","version":"2.0NRT","bright_ti5":"308.31","frp":"67.64","daynight":"D","commune":"Bazolles","code_insee":"58024","departement":"Nièvre","region":"Bourgogne-Franche-Comté"}},{"type":"Feature","geometry":{"type":"Point","coordinates":[3.59477,47.13881]},"properties":{"latitude":"47.13881","longitude":"3.59477","bright_ti4":"367","scan":"0.63","track":"0.54","acq_date":"2026-07-04","acq_time":"1147","satellite":"N20","instrument":"VIIRS","confidence":"h","version":"2.0NRT","bright_ti5":"309.45","frp":"16.71","daynight":"D","commune":"Bazolles","code_insee":"58024","departement":"Nièvre","region":"Bourgogne-Franche-Comté"}},{"type":"Feature","geometry":{"type":"Point","coordinates":[3.43169,47.38348]},"properties":{"latitude":"47.38348","longitude":"3.43169","bright_ti4":"336.49","scan":"0.63","track":"0.54","acq_date":"2026-07-04","acq_time":"1147","satellite":"N20","instrument":"VIIRS","confidence":"n","version":"2.0NRT","bright_ti5":"305.31","frp":"3.58","daynight":"D","commune":"Saint-Pierre-du-Mont","code_insee":"58263","departement":"Nièvre","region":"Bourgogne-Franche-Comté"}},{"type":"Feature","geometry":{"type":"Point","coordinates":[2.74079,47.69675]},"properties":{"latitude":"47.69675","longitude":"2.74079","bright_ti4":"367","scan":"0.33","track":"0.55","acq_date":"2026-07-04","acq_time":"1147","satellite":"N20","instrument":"VIIRS","confidence":"h","version":"2.0NRT","bright_ti5":"308.17","frp":"6.06","daynight":"D","commune":"Gien","code_insee":"45155","departement":"Loiret","region":"Centre-Val de Loire"}},{"type":"Feature","geometry":{"type":"Point","coordinates":[3.1382,47.69794]},"properties":{"latitude":"47.69794","longitude":"3.1382","bright_ti4":"348.93","scan":"0.63","track":"0.54","acq_date":"2026-07-04","acq_time":"1147","satellite":"N20","instrument":"VIIRS","confidence":"n","version":"2.0NRT","bright_ti5":"304.06","frp":"9.02","daynight":"D","commune":"Mézilles","code_insee":"89254","departement":"Yonne","region":"Bourgogne-Franche-Comté"}},{"type":"Feature","geometry":{"type":"Point","coordinates":[3.0574,48.04322]},"properties":{"latitude":"48.04322","longitude":"3.0574","bright_ti4":"341.11","scan":"0.62","track":"0.54","acq_date":"2026-07-04","acq_time":"1147","satellite":"N20","instrument":"VIIRS","confidence":"n","version":"2.0NRT","bright_ti5":"302.92","frp":"5.11","daynight":"D","commune":"Courtenay","code_insee":"45115","departement":"Loiret","region":"Centre-Val de Loire"}},{"type":"Feature","geometry":{"type":"Point","coordinates":[3.81755,48.39524]},"properties":{"latitude":"48.39524","longitude":"3.81755","bright_ti4":"340.87","scan":"0.56","track":"0.52","acq_date":"2026-07-04","acq_time":"1147","satellite":"N20","instrument":"VIIRS","confidence":"n","version":"2.0NRT","bright_ti5":"306.45","frp":"7.12","daynight":"D","commune":"Échemines","code_insee":"10134","departement":"Aube","region":"Grand Est"}},{"type":"Feature","geometry":{"type":"Point","coordinates":[4.54198,48.59396]},"properties":{"latitude":"48.59396","longitude":"4.54198","bright_ti4":"354.54","scan":"0.52","track":"0.5","acq_date":"2026-07-04","acq_time":"1147","satellite":"N20","instrument":"VIIRS","confidence":"n","version":"2.0NRT","bright_ti5":"308.55","frp":"14.15","daynight":"D","commune":"Lignon","code_insee":"51322","departement":"Marne","region":"Grand Est"}},{"type":"Feature","geometry":{"type":"Point","coordinates":[4.5417,48.59473]},"properties":{"latitude":"48.59473","longitude":"4.5417","bright_ti4":"351.64","scan":"0.52","track":"0.5","acq_date":"2026-07-04","acq_time":"1147","satellite":"N20","instrument":"VIIRS","confidence":"n","version":"2.0NRT","bright_ti5":"311.01","frp":"23.79","daynight":"D","commune":"Lignon","code_insee":"51322","departement":"Marne","region":"Grand Est"}},{"type":"Feature","geometry":{"type":"Point","coordinates":[4.53954,48.59827]},"properties":{"latitude":"48.59827","longitude":"4.53954","bright_ti4":"348.84","scan":"0.52","track":"0.5","acq_date":"2026-07-04","acq_time":"1147","satellite":"N20","instrument":"VIIRS","confidence":"n","version":"2.0NRT","bright_ti5":"302.37","frp":"7.88","daynight":"D","commune":"Lignon","code_insee":"51322","departement":"Marne","region":"Grand Est"}},{"type":"Feature","geometry":{"type":"Point","coordinates":[4.29801,49.04]},"properties":{"latitude":"49.04","longitude":"4.29801","bright_ti4":"349.25","scan":"0.52","track":"0.5","acq_date":"2026-07-04","acq_time":"1147","satellite":"N20","instrument":"VIIRS","confidence":"n","version":"2.0NRT","bright_ti5":"314.5","frp":"29.73","daynight":"D","commune":"Juvigny","code_insee":"51312","departement":"Marne","region":"Grand Est"}},{"type":"Feature","geometry":{"type":"Point","coordinates":[3.34416,49.16894]},"properties":{"latitude":"49.16894","longitude":"3.34416","bright_ti4":"348.78","scan":"0.56","track":"0.52","acq_date":"2026-07-04","acq_time":"1147","satellite":"N20","instrument":"VIIRS","confidence":"n","version":"2.0NRT","bright_ti5":"306.62","frp":"107.15","daynight":"D","commune":"La Croix-sur-Ourcq","code_insee":"02241","departement":"Aisne","region":"Hauts-de-France"}},{"type":"Feature","geometry":{"type":"Point","coordinates":[5.37875,46.30806]},"properties":{"latitude":"46.30806","longitude":"5.37875","bright_ti4":"333.57","scan":"0.55","track":"0.51","acq_date":"2026-07-04","acq_time":"1149","satellite":"N20","instrument":"VIIRS","confidence":"n","version":"2.0NRT","bright_ti5":"305.05","frp":"3.29","daynight":"D","commune":"Val-Revermont","code_insee":"01426","departement":"Ain","region":"Auvergne-Rhône-Alpes"}},{"type":"Feature","geometry":{"type":"Point","coordinates":[2.29716,51.04422]},"properties":{"latitude":"51.04422","longitude":"2.29716","bright_ti4":"341","scan":"0.54","track":"0.51","acq_date":"2026-07-04","acq_time":"1149","satellite":"N20","instrument":"VIIRS","confidence":"n","version":"2.0NRT","bright_ti5":"298.91","frp":"7.07","daynight":"D","commune":"Grande-Synthe","code_insee":"59271","departement":"Nord","region":"Hauts-de-France"}},{"type":"Feature","geometry":{"type":"Point","coordinates":[5.18167,43.38918]},"properties":{"latitude":"43.38918","longitude":"5.18167","bright_ti4":"333.02","scan":"0.4","track":"0.6","acq_date":"2026-07-04","acq_time":"1327","satellite":"N20","instrument":"VIIRS","confidence":"l","version":"2.0NRT","bright_ti5":"304.97","frp":"2.83","daynight":"D","commune":"Châteauneuf-les-Martigues","code_insee":"13026","departement":"Bouches-du-Rhône","region":"Provence-Alpes-Côte d'Azur"}},{"type":"Feature","geometry":{"type":"Point","coordinates":[4.68262,43.9868]},"properties":{"latitude":"43.9868","longitude":"4.68262","bright_ti4":"207.93","scan":"0.38","track":"0.59","acq_date":"2026-07-04","acq_time":"1327","satellite":"N20","instrument":"VIIRS","confidence":"l","version":"2.0NRT","bright_ti5":"321.92","frp":"93.67","daynight":"D","commune":"Rochefort-du-Gard","code_insee":"30217","departement":"Gard","region":"Occitanie"}},{"type":"Feature","geometry":{"type":"Point","coordinates":[4.68765,43.98701]},"properties":{"latitude":"43.98701","longitude":"4.68765","bright_ti4":"367","scan":"0.38","track":"0.59","acq_date":"2026-07-04","acq_time":"1327","satellite":"N20","instrument":"VIIRS","confidence":"h","version":"2.0NRT","bright_ti5":"319.68","frp":"110.74","daynight":"D","commune":"Rochefort-du-Gard","code_insee":"30217","departement":"Gard","region":"Occitanie"}},{"type":"Feature","geometry":{"type":"Point","coordinates":[4.98645,45.31587]},"properties":{"latitude":"45.31587","longitude":"4.98645","bright_ti4":"348.28","scan":"0.41","track":"0.6","acq_date":"2026-07-04","acq_time":"1327","satellite":"N20","instrument":"VIIRS","confidence":"n","version":"2.0NRT","bright_ti5":"307.1","frp":"6.03","daynight":"D","commune":"Manthes","code_insee":"26172","departement":"Drôme","region":"Auvergne-Rhône-Alpes"}},{"type":"Feature","geometry":{"type":"Point","coordinates":[4.9843,45.31787]},"properties":{"latitude":"45.31787","longitude":"4.9843","bright_ti4":"335.9","scan":"0.41","track":"0.6","acq_date":"2026-07-04","acq_time":"1327","satellite":"N20","instrument":"VIIRS","confidence":"n","version":"2.0NRT","bright_ti5":"307.68","frp":"3.14","daynight":"D","commune":"Lapeyrouse-Mornay","code_insee":"26155","departement":"Drôme","region":"Auvergne-Rhône-Alpes"}},{"type":"Feature","geometry":{"type":"Point","coordinates":[4.98953,45.31807]},"properties":{"latitude":"45.31807","longitude":"4.98953","bright_ti4":"335.2","scan":"0.41","track":"0.6","acq_date":"2026-07-04","acq_time":"1327","satellite":"N20","instrument":"VIIRS","confidence":"n","version":"2.0NRT","bright_ti5":"306.67","frp":"3.14","daynight":"D","commune":"Lapeyrouse-Mornay","code_insee":"26155","departement":"Drôme","region":"Auvergne-Rhône-Alpes"}},{"type":"Feature","geometry":{"type":"Point","coordinates":[5.23815,45.41147]},"properties":{"latitude":"45.41147","longitude":"5.23815","bright_ti4":"367","scan":"0.42","track":"0.61","acq_date":"2026-07-04","acq_time":"1327","satellite":"N20","instrument":"VIIRS","confidence":"h","version":"2.0NRT","bright_ti5":"305.71","frp":"7.16","daynight":"D","commune":"La Côte-Saint-André","code_insee":"38130","departement":"Isère","region":"Auvergne-Rhône-Alpes"}},{"type":"Feature","geometry":{"type":"Point","coordinates":[5.23963,45.4148]},"properties":{"latitude":"45.4148","longitude":"5.23963","bright_ti4":"367","scan":"0.42","track":"0.61","acq_date":"2026-07-04","acq_time":"1327","satellite":"N20","instrument":"VIIRS","confidence":"h","version":"2.0NRT","bright_ti5":"304.17","frp":"10.47","daynight":"D","commune":"Porte-des-Bonnevaux","code_insee":"38479","departement":"Isère","region":"Auvergne-Rhône-Alpes"}},{"type":"Feature","geometry":{"type":"Point","coordinates":[5.23817,45.41715]},"properties":{"latitude":"45.41715","longitude":"5.23817","bright_ti4":"334.22","scan":"0.42","track":"0.61","acq_date":"2026-07-04","acq_time":"1327","satellite":"N20","instrument":"VIIRS","confidence":"n","version":"2.0NRT","bright_ti5":"301.35","frp":"2.38","daynight":"D","commune":"Porte-des-Bonnevaux","code_insee":"38479","departement":"Isère","region":"Auvergne-Rhône-Alpes"}},{"type":"Feature","geometry":{"type":"Point","coordinates":[2.74165,46.55597]},"properties":{"latitude":"46.55597","longitude":"2.74165","bright_ti4":"344.9","scan":"0.32","track":"0.55","acq_date":"2026-07-04","acq_time":"1327","satellite":"N20","instrument":"VIIRS","confidence":"n","version":"2.0NRT","bright_ti5":"309.99","frp":"4.44","daynight":"D","commune":"Saint-Caprais","code_insee":"03222","departement":"Allier","region":"Auvergne-Rhône-Alpes"}},{"type":"Feature","geometry":{"type":"Point","coordinates":[2.74576,46.55618]},"properties":{"latitude":"46.55618","longitude":"2.74576","bright_ti4":"349.85","scan":"0.32","track":"0.55","acq_date":"2026-07-04","acq_time":"1327","satellite":"N20","instrument":"VIIRS","confidence":"n","version":"2.0NRT","bright_ti5":"310.7","frp":"5.78","daynight":"D","commune":"Saint-Caprais","code_insee":"03222","departement":"Allier","region":"Auvergne-Rhône-Alpes"}},{"type":"Feature","geometry":{"type":"Point","coordinates":[3.59627,47.13671]},"properties":{"latitude":"47.13671","longitude":"3.59627","bright_ti4":"336.33","scan":"0.36","track":"0.57","acq_date":"2026-07-04","acq_time":"1327","satellite":"N20","instrument":"VIIRS","confidence":"n","version":"2.0NRT","bright_ti5":"310.47","frp":"1.68","daynight":"D","commune":"Bazolles","code_insee":"58024","departement":"Nièvre","region":"Bourgogne-Franche-Comté"}},{"type":"Feature","geometry":{"type":"Point","coordinates":[2.73941,47.69888]},"properties":{"latitude":"47.69888","longitude":"2.73941","bright_ti4":"367","scan":"0.33","track":"0.55","acq_date":"2026-07-04","acq_time":"1327","satellite":"N20","instrument":"VIIRS","confidence":"h","version":"2.0NRT","bright_ti5":"311.79","frp":"4.69","daynight":"D","commune":"Gien","code_insee":"45155","departement":"Loiret","region":"Centre-Val de Loire"}},{"type":"Feature","geometry":{"type":"Point","coordinates":[3.31753,48.19672]},"properties":{"latitude":"48.19672","longitude":"3.31753","bright_ti4":"341.33","scan":"0.35","track":"0.57","acq_date":"2026-07-04","acq_time":"1327","satellite":"N20","instrument":"VIIRS","confidence":"n","version":"2.0NRT","bright_ti5":"309.97","frp":"5.01","daynight":"D","commune":"Sens","code_insee":"89387","departement":"Yonne","region":"Bourgogne-Franche-Comté"}},{"type":"Feature","geometry":{"type":"Point","coordinates":[2.99799,48.40459]},"properties":{"latitude":"48.40459","longitude":"2.99799","bright_ti4":"367","scan":"0.34","track":"0.56","acq_date":"2026-07-04","acq_time":"1327","satellite":"N20","instrument":"VIIRS","confidence":"h","version":"2.0NRT","bright_ti5":"310.01","frp":"13.81","daynight":"D","commune":"Saint-Germain-Laval","code_insee":"77409","departement":"Seine-et-Marne","region":"Île-de-France"}},{"type":"Feature","geometry":{"type":"Point","coordinates":[3.74423,48.49763]},"properties":{"latitude":"48.49763","longitude":"3.74423","bright_ti4":"337.93","scan":"0.37","track":"0.58","acq_date":"2026-07-04","acq_time":"1327","satellite":"N20","instrument":"VIIRS","confidence":"n","version":"2.0NRT","bright_ti5":"303.71","frp":"2.28","daynight":"D","commune":"Romilly-sur-Seine","code_insee":"10323","departement":"Aube","region":"Grand Est"}},{"type":"Feature","geometry":{"type":"Point","coordinates":[3.74235,48.49958]},"properties":{"latitude":"48.49958","longitude":"3.74235","bright_ti4":"367","scan":"0.37","track":"0.58","acq_date":"2026-07-04","acq_time":"1327","satellite":"N20","instrument":"VIIRS","confidence":"h","version":"2.0NRT","bright_ti5":"307.14","frp":"9.94","daynight":"D","commune":"Romilly-sur-Seine","code_insee":"10323","departement":"Aube","region":"Grand Est"}},{"type":"Feature","geometry":{"type":"Point","coordinates":[3.74386,48.50303]},"properties":{"latitude":"48.50303","longitude":"3.74386","bright_ti4":"348.89","scan":"0.37","track":"0.58","acq_date":"2026-07-04","acq_time":"1327","satellite":"N20","instrument":"VIIRS","confidence":"n","version":"2.0NRT","bright_ti5":"305.26","frp":"4.92","daynight":"D","commune":"Romilly-sur-Seine","code_insee":"10323","departement":"Aube","region":"Grand Est"}},{"type":"Feature","geometry":{"type":"Point","coordinates":[2.39465,48.62453]},"properties":{"latitude":"48.62453","longitude":"2.39465","bright_ti4":"352.48","scan":"0.32","track":"0.55","acq_date":"2026-07-04","acq_time":"1327","satellite":"N20","instrument":"VIIRS","confidence":"n","version":"2.0NRT","bright_ti5":"309.96","frp":"7.38","daynight":"D","commune":"Bondoufle","code_insee":"91086","departement":"Essonne","region":"Île-de-France"}},{"type":"Feature","geometry":{"type":"Point","coordinates":[2.3991,48.62474]},"properties":{"latitude":"48.62474","longitude":"2.3991","bright_ti4":"341.01","scan":"0.32","track":"0.55","acq_date":"2026-07-04","acq_time":"1327","satellite":"N20","instrument":"VIIRS","confidence":"n","version":"2.0NRT","bright_ti5":"301.76","frp":"7.38","daynight":"D","commune":"Évry-Courcouronnes","code_insee":"91228","departement":"Essonne","region":"Île-de-France"}},{"type":"Feature","geometry":{"type":"Point","coordinates":[1.62679,48.68155]},"properties":{"latitude":"48.68155","longitude":"1.62679","bright_ti4":"352.34","scan":"0.6","track":"0.53","acq_date":"2026-07-04","acq_time":"1327","satellite":"N20","instrument":"VIIRS","confidence":"n","version":"2.0NRT","bright_ti5":"305.07","frp":"18.35","daynight":"D","commune":"La Boissière-École","code_insee":"78077","departement":"Yvelines","region":"Île-de-France"}},{"type":"Feature","geometry":{"type":"Point","coordinates":[4.99687,48.88061]},"properties":{"latitude":"48.88061","longitude":"4.99687","bright_ti4":"367","scan":"0.43","track":"0.62","acq_date":"2026-07-04","acq_time":"1327","satellite":"N20","instrument":"VIIRS","confidence":"h","version":"2.0NRT","bright_ti5":"302.12","frp":"5.2","daynight":"D","commune":"Noyers-Auzécourt","code_insee":"55388","departement":"Meuse","region":"Grand Est"}},{"type":"Feature","geometry":{"type":"Point","coordinates":[3.11776,50.04746]},"properties":{"latitude":"50.04746","longitude":"3.11776","bright_ti4":"367","scan":"0.36","track":"0.57","acq_date":"2026-07-04","acq_time":"1329","satellite":"N20","instrument":"VIIRS","confidence":"h","version":"2.0NRT","bright_ti5":"293.88","frp":"5.29","daynight":"D","commune":"Gouzeaucourt","code_insee":"59269","departement":"Nord","region":"Hauts-de-France"}},{"type":"Feature","geometry":{"type":"Point","coordinates":[3.11428,50.05095]},"properties":{"latitude":"50.05095","longitude":"3.11428","bright_ti4":"331.91","scan":"0.36","track":"0.57","acq_date":"2026-07-04","acq_time":"1329","satellite":"N20","instrument":"VIIRS","confidence":"n","version":"2.0NRT","bright_ti5":"295.09","frp":"3.4","daynight":"D","commune":"Gouzeaucourt","code_insee":"59269","departement":"Nord","region":"Hauts-de-France"}},{"type":"Feature","geometry":{"type":"Point","coordinates":[3.11942,50.05112]},"properties":{"latitude":"50.05112","longitude":"3.11942","bright_ti4":"329.8","scan":"0.36","track":"0.57","acq_date":"2026-07-04","acq_time":"1329","satellite":"N20","instrument":"VIIRS","confidence":"n","version":"2.0NRT","bright_ti5":"295.38","frp":"4.06","daynight":"D","commune":"Gouzeaucourt","code_insee":"59269","departement":"Nord","region":"Hauts-de-France"}},{"type":"Feature","geometry":{"type":"Point","coordinates":[2.28938,51.03348]},"properties":{"latitude":"51.03348","longitude":"2.28938","bright_ti4":"337.37","scan":"0.33","track":"0.56","acq_date":"2026-07-04","acq_time":"1329","satellite":"N20","instrument":"VIIRS","confidence":"n","version":"2.0NRT","bright_ti5":"301.34","frp":"3.65","daynight":"D","commune":"Grande-Synthe","code_insee":"59271","departement":"Nord","region":"Hauts-de-France"}},{"type":"Feature","geometry":{"type":"Point","coordinates":[2.29812,51.04418]},"properties":{"latitude":"51.04418","longitude":"2.29812","bright_ti4":"344.44","scan":"0.33","track":"0.56","acq_date":"2026-07-04","acq_time":"1329","satellite":"N20","instrument":"VIIRS","confidence":"n","version":"2.0NRT","bright_ti5":"299.21","frp":"3.67","daynight":"D","commune":"Grande-Synthe","code_insee":"59271","departement":"Nord","region":"Hauts-de-France"}},{"type":"Feature","geometry":{"type":"Point","coordinates":[2.32232,51.04516]},"properties":{"latitude":"51.04516","longitude":"2.32232","bright_ti4":"345.96","scan":"0.33","track":"0.56","acq_date":"2026-07-04","acq_time":"1329","satellite":"N20","instrument":"VIIRS","confidence":"n","version":"2.0NRT","bright_ti5":"300.12","frp":"3.02","daynight":"D","commune":"Dunkerque","code_insee":"59183","departement":"Nord","region":"Hauts-de-France"}},{"type":"Feature","geometry":{"type":"Point","coordinates":[2.24189,49.87585]},"properties":{"latitude":"49.87585","longitude":"2.24189","bright_ti4":"308.4","scan":"0.33","track":"0.55","acq_date":"2026-07-04","acq_time":"105","satellite":"N21","instrument":"VIIRS","confidence":"n","version":"2.0NRT","bright_ti5":"282.37","frp":"0.85","daynight":"N","commune":"Pont-de-Metz","code_insee":"80632","departement":"Somme","region":"Hauts-de-France"}},{"type":"Feature","geometry":{"type":"Point","coordinates":[2.19543,49.92403]},"properties":{"latitude":"49.92403","longitude":"2.19543","bright_ti4":"304.91","scan":"0.33","track":"0.56","acq_date":"2026-07-04","acq_time":"105","satellite":"N21","instrument":"VIIRS","confidence":"n","version":"2.0NRT","bright_ti5":"283.31","frp":"0.46","daynight":"N","commune":"Ailly-sur-Somme","code_insee":"80011","departement":"Somme","region":"Hauts-de-France"}},{"type":"Feature","geometry":{"type":"Point","coordinates":[2.58774,49.96125]},"properties":{"latitude":"49.96125","longitude":"2.58774","bright_ti4":"296.48","scan":"0.32","track":"0.55","acq_date":"2026-07-04","acq_time":"105","satellite":"N21","instrument":"VIIRS","confidence":"n","version":"2.0NRT","bright_ti5":"282.48","frp":"0.44","daynight":"N","commune":"Buire-sur-l'Ancre","code_insee":"80151","departement":"Somme","region":"Hauts-de-France"}},{"type":"Feature","geometry":{"type":"Point","coordinates":[3.56264,50.40025]},"properties":{"latitude":"50.40025","longitude":"3.56264","bright_ti4":"298.2","scan":"0.58","track":"0.52","acq_date":"2026-07-04","acq_time":"105","satellite":"N21","instrument":"VIIRS","confidence":"n","version":"2.0NRT","bright_ti5":"284.97","frp":"1.56","daynight":"N","commune":"Saint-Saulve","code_insee":"59544","departement":"Nord","region":"Hauts-de-France"}},{"type":"Feature","geometry":{"type":"Point","coordinates":[2.55869,50.69022]},"properties":{"latitude":"50.69022","longitude":"2.55869","bright_ti4":"346.06","scan":"0.33","track":"0.55","acq_date":"2026-07-04","acq_time":"105","satellite":"N21","instrument":"VIIRS","confidence":"n","version":"2.0NRT","bright_ti5":"284.55","frp":"5.43","daynight":"N","commune":"Morbecque","code_insee":"59416","departement":"Nord","region":"Hauts-de-France"}},{"type":"Feature","geometry":{"type":"Point","coordinates":[2.55405,50.69041]},"properties":{"latitude":"50.69041","longitude":"2.55405","bright_ti4":"304.07","scan":"0.33","track":"0.55","acq_date":"2026-07-04","acq_time":"105","satellite":"N21","instrument":"VIIRS","confidence":"n","version":"2.0NRT","bright_ti5":"283.16","frp":"4.15","daynight":"N","commune":"Morbecque","code_insee":"59416","departement":"Nord","region":"Hauts-de-France"}},{"type":"Feature","geometry":{"type":"Point","coordinates":[2.27148,51.02769]},"properties":{"latitude":"51.02769","longitude":"2.27148","bright_ti4":"307.01","scan":"0.34","track":"0.56","acq_date":"2026-07-04","acq_time":"105","satellite":"N21","instrument":"VIIRS","confidence":"n","version":"2.0NRT","bright_ti5":"286.48","frp":"0.93","daynight":"N","commune":"Grande-Synthe","code_insee":"59271","departement":"Nord","region":"Hauts-de-France"}},{"type":"Feature","geometry":{"type":"Point","coordinates":[2.28654,51.03228]},"properties":{"latitude":"51.03228","longitude":"2.28654","bright_ti4":"328.18","scan":"0.34","track":"0.56","acq_date":"2026-07-04","acq_time":"105","satellite":"N21","instrument":"VIIRS","confidence":"n","version":"2.0NRT","bright_ti5":"288.39","frp":"2.17","daynight":"N","commune":"Grande-Synthe","code_insee":"59271","departement":"Nord","region":"Hauts-de-France"}},{"type":"Feature","geometry":{"type":"Point","coordinates":[2.28701,51.03742]},"properties":{"latitude":"51.03742","longitude":"2.28701","bright_ti4":"317.34","scan":"0.34","track":"0.56","acq_date":"2026-07-04","acq_time":"105","satellite":"N21","instrument":"VIIRS","confidence":"n","version":"2.0NRT","bright_ti5":"288.13","frp":"2.17","daynight":"N","commune":"Grande-Synthe","code_insee":"59271","departement":"Nord","region":"Hauts-de-France"}},{"type":"Feature","geometry":{"type":"Point","coordinates":[2.29719,51.04219]},"properties":{"latitude":"51.04219","longitude":"2.29719","bright_ti4":"328.67","scan":"0.34","track":"0.56","acq_date":"2026-07-04","acq_time":"105","satellite":"N21","instrument":"VIIRS","confidence":"n","version":"2.0NRT","bright_ti5":"290.53","frp":"2.07","daynight":"N","commune":"Grande-Synthe","code_insee":"59271","departement":"Nord","region":"Hauts-de-France"}},{"type":"Feature","geometry":{"type":"Point","coordinates":[2.29233,51.04238]},"properties":{"latitude":"51.04238","longitude":"2.29233","bright_ti4":"309.6","scan":"0.34","track":"0.56","acq_date":"2026-07-04","acq_time":"105","satellite":"N21","instrument":"VIIRS","confidence":"n","version":"2.0NRT","bright_ti5":"288.03","frp":"2.07","daynight":"N","commune":"Grande-Synthe","code_insee":"59271","departement":"Nord","region":"Hauts-de-France"}},{"type":"Feature","geometry":{"type":"Point","coordinates":[2.32184,51.04638]},"properties":{"latitude":"51.04638","longitude":"2.32184","bright_ti4":"322.57","scan":"0.34","track":"0.56","acq_date":"2026-07-04","acq_time":"105","satellite":"N21","instrument":"VIIRS","confidence":"n","version":"2.0NRT","bright_ti5":"289.48","frp":"1.75","daynight":"N","commune":"Dunkerque","code_insee":"59183","departement":"Nord","region":"Hauts-de-France"}},{"type":"Feature","geometry":{"type":"Point","coordinates":[2.29765,51.04733]},"properties":{"latitude":"51.04733","longitude":"2.29765","bright_ti4":"306","scan":"0.34","track":"0.56","acq_date":"2026-07-04","acq_time":"105","satellite":"N21","instrument":"VIIRS","confidence":"n","version":"2.0NRT","bright_ti5":"288.3","frp":"2.07","daynight":"N","commune":"Grande-Synthe","code_insee":"59271","departement":"Nord","region":"Hauts-de-France"}},{"type":"Feature","geometry":{"type":"Point","coordinates":[4.88966,43.42945]},"properties":{"latitude":"43.42945","longitude":"4.88966","bright_ti4":"306.88","scan":"0.43","track":"0.46","acq_date":"2026-07-04","acq_time":"107","satellite":"N21","instrument":"VIIRS","confidence":"n","version":"2.0NRT","bright_ti5":"296.5","frp":"2.46","daynight":"N","commune":"Fos-sur-Mer","code_insee":"13039","departement":"Bouches-du-Rhône","region":"Provence-Alpes-Côte d'Azur"}},{"type":"Feature","geometry":{"type":"Point","coordinates":[4.89104,43.43784]},"properties":{"latitude":"43.43784","longitude":"4.89104","bright_ti4":"327.68","scan":"0.43","track":"0.46","acq_date":"2026-07-04","acq_time":"107","satellite":"N21","instrument":"VIIRS","confidence":"n","version":"2.0NRT","bright_ti5":"295.83","frp":"5.11","daynight":"N","commune":"Fos-sur-Mer","code_insee":"13039","departement":"Bouches-du-Rhône","region":"Provence-Alpes-Côte d'Azur"}},{"type":"Feature","geometry":{"type":"Point","coordinates":[4.85369,43.44104]},"properties":{"latitude":"43.44104","longitude":"4.85369","bright_ti4":"306.13","scan":"0.43","track":"0.46","acq_date":"2026-07-04","acq_time":"107","satellite":"N21","instrument":"VIIRS","confidence":"n","version":"2.0NRT","bright_ti5":"294.36","frp":"0.27","daynight":"N","commune":"Fos-sur-Mer","code_insee":"13039","departement":"Bouches-du-Rhône","region":"Provence-Alpes-Côte d'Azur"}},{"type":"Feature","geometry":{"type":"Point","coordinates":[4.89772,43.44579]},"properties":{"latitude":"43.44579","longitude":"4.89772","bright_ti4":"343.14","scan":"0.43","track":"0.46","acq_date":"2026-07-04","acq_time":"107","satellite":"N21","instrument":"VIIRS","confidence":"n","version":"2.0NRT","bright_ti5":"297.48","frp":"6.06","daynight":"N","commune":"Fos-sur-Mer","code_insee":"13039","departement":"Bouches-du-Rhône","region":"Provence-Alpes-Côte d'Azur"}},{"type":"Feature","geometry":{"type":"Point","coordinates":[4.89238,43.44625]},"properties":{"latitude":"43.44625","longitude":"4.89238","bright_ti4":"305.32","scan":"0.43","track":"0.46","acq_date":"2026-07-04","acq_time":"107","satellite":"N21","instrument":"VIIRS","confidence":"n","version":"2.0NRT","bright_ti5":"294.31","frp":"1.77","daynight":"N","commune":"Fos-sur-Mer","code_insee":"13039","departement":"Bouches-du-Rhône","region":"Provence-Alpes-Côte d'Azur"}},{"type":"Feature","geometry":{"type":"Point","coordinates":[7.37517,43.79275]},"properties":{"latitude":"43.79275","longitude":"7.37517","bright_ti4":"306.42","scan":"0.51","track":"0.41","acq_date":"2026-07-04","acq_time":"107","satellite":"N21","instrument":"VIIRS","confidence":"n","version":"2.0NRT","bright_ti5":"292.66","frp":"1.32","daynight":"N","commune":"Blausasc","code_insee":"06019","departement":"Alpes-Maritimes","region":"Provence-Alpes-Côte d'Azur"}},{"type":"Feature","geometry":{"type":"Point","coordinates":[7.17736,43.96402]},"properties":{"latitude":"43.96402","longitude":"7.17736","bright_ti4":"303.1","scan":"0.52","track":"0.41","acq_date":"2026-07-04","acq_time":"107","satellite":"N21","instrument":"VIIRS","confidence":"n","version":"2.0NRT","bright_ti5":"289.4","frp":"0.83","daynight":"N","commune":"La Tour","code_insee":"06144","departement":"Alpes-Maritimes","region":"Provence-Alpes-Côte d'Azur"}},{"type":"Feature","geometry":{"type":"Point","coordinates":[5.82188,45.91188]},"properties":{"latitude":"45.91188","longitude":"5.82188","bright_ti4":"303.1","scan":"0.42","track":"0.45","acq_date":"2026-07-04","acq_time":"107","satellite":"N21","instrument":"VIIRS","confidence":"n","version":"2.0NRT","bright_ti5":"292.55","frp":"0.86","daynight":"N","commune":"Anglefort","code_insee":"01010","departement":"Ain","region":"Auvergne-Rhône-Alpes"}},{"type":"Feature","geometry":{"type":"Point","coordinates":[7.35676,47.90215]},"properties":{"latitude":"47.90215","longitude":"7.35676","bright_ti4":"303.31","scan":"0.56","track":"0.43","acq_date":"2026-07-04","acq_time":"107","satellite":"N21","instrument":"VIIRS","confidence":"n","version":"2.0NRT","bright_ti5":"284.95","frp":"1.36","daynight":"N","commune":"Réguisheim","code_insee":"68266","departement":"Haut-Rhin","region":"Grand Est"}},{"type":"Feature","geometry":{"type":"Point","coordinates":[7.35755,47.90317]},"properties":{"latitude":"47.90317","longitude":"7.35755","bright_ti4":"298.57","scan":"0.56","track":"0.43","acq_date":"2026-07-04","acq_time":"107","satellite":"N21","instrument":"VIIRS","confidence":"n","version":"2.0NRT","bright_ti5":"284.54","frp":"0.41","daynight":"N","commune":"Réguisheim","code_insee":"68266","departement":"Haut-Rhin","region":"Grand Est"}},{"type":"Feature","geometry":{"type":"Point","coordinates":[6.11911,48.61017]},"properties":{"latitude":"48.61017","longitude":"6.11911","bright_ti4":"304.77","scan":"0.43","track":"0.46","acq_date":"2026-07-04","acq_time":"107","satellite":"N21","instrument":"VIIRS","confidence":"n","version":"2.0NRT","bright_ti5":"288.08","frp":"1.02","daynight":"N","commune":"Neuves-Maisons","code_insee":"54397","departement":"Meurthe-et-Moselle","region":"Grand Est"}},{"type":"Feature","geometry":{"type":"Point","coordinates":[6.11321,48.61065]},"properties":{"latitude":"48.61065","longitude":"6.11321","bright_ti4":"314.44","scan":"0.43","track":"0.46","acq_date":"2026-07-04","acq_time":"107","satellite":"N21","instrument":"VIIRS","confidence":"n","version":"2.0NRT","bright_ti5":"288.81","frp":"3.12","daynight":"N","commune":"Neuves-Maisons","code_insee":"54397","departement":"Meurthe-et-Moselle","region":"Grand Est"}},{"type":"Feature","geometry":{"type":"Point","coordinates":[3.48691,50.33004]},"properties":{"latitude":"50.33004","longitude":"3.48691","bright_ti4":"295.73","scan":"0.32","track":"0.55","acq_date":"2026-07-04","acq_time":"245","satellite":"N21","instrument":"VIIRS","confidence":"n","version":"2.0NRT","bright_ti5":"283.65","frp":"0.92","daynight":"N","commune":"Trith-Saint-Léger","code_insee":"59603","departement":"Nord","region":"Hauts-de-France"}},{"type":"Feature","geometry":{"type":"Point","coordinates":[2.2736,51.02831]},"properties":{"latitude":"51.02831","longitude":"2.2736","bright_ti4":"298.16","scan":"0.55","track":"0.51","acq_date":"2026-07-04","acq_time":"245","satellite":"N21","instrument":"VIIRS","confidence":"n","version":"2.0NRT","bright_ti5":"286.03","frp":"1.8","daynight":"N","commune":"Grande-Synthe","code_insee":"59271","departement":"Nord","region":"Hauts-de-France"}},{"type":"Feature","geometry":{"type":"Point","coordinates":[2.2867,51.03497]},"properties":{"latitude":"51.03497","longitude":"2.2867","bright_ti4":"320.39","scan":"0.55","track":"0.51","acq_date":"2026-07-04","acq_time":"245","satellite":"N21","instrument":"VIIRS","confidence":"n","version":"2.0NRT","bright_ti5":"287.92","frp":"2.56","daynight":"N","commune":"Grande-Synthe","code_insee":"59271","departement":"Nord","region":"Hauts-de-France"}},{"type":"Feature","geometry":{"type":"Point","coordinates":[2.28981,51.03547]},"properties":{"latitude":"51.03547","longitude":"2.28981","bright_ti4":"323.48","scan":"0.55","track":"0.51","acq_date":"2026-07-04","acq_time":"245","satellite":"N21","instrument":"VIIRS","confidence":"n","version":"2.0NRT","bright_ti5":"288.43","frp":"5.04","daynight":"N","commune":"Grande-Synthe","code_insee":"59271","departement":"Nord","region":"Hauts-de-France"}},{"type":"Feature","geometry":{"type":"Point","coordinates":[2.28969,51.03928]},"properties":{"latitude":"51.03928","longitude":"2.28969","bright_ti4":"298.81","scan":"0.55","track":"0.51","acq_date":"2026-07-04","acq_time":"245","satellite":"N21","instrument":"VIIRS","confidence":"n","version":"2.0NRT","bright_ti5":"286.8","frp":"2.56","daynight":"N","commune":"Grande-Synthe","code_insee":"59271","departement":"Nord","region":"Hauts-de-France"}},{"type":"Feature","geometry":{"type":"Point","coordinates":[2.29984,51.04163]},"properties":{"latitude":"51.04163","longitude":"2.29984","bright_ti4":"306.2","scan":"0.55","track":"0.51","acq_date":"2026-07-04","acq_time":"245","satellite":"N21","instrument":"VIIRS","confidence":"n","version":"2.0NRT","bright_ti5":"287.71","frp":"4.06","daynight":"N","commune":"Grande-Synthe","code_insee":"59271","departement":"Nord","region":"Hauts-de-France"}},{"type":"Feature","geometry":{"type":"Point","coordinates":[2.29266,51.04359]},"properties":{"latitude":"51.04359","longitude":"2.29266","bright_ti4":"333.44","scan":"0.55","track":"0.51","acq_date":"2026-07-04","acq_time":"245","satellite":"N21","instrument":"VIIRS","confidence":"n","version":"2.0NRT","bright_ti5":"288.91","frp":"4.06","daynight":"N","commune":"Grande-Synthe","code_insee":"59271","departement":"Nord","region":"Hauts-de-France"}},{"type":"Feature","geometry":{"type":"Point","coordinates":[2.32018,51.04634]},"properties":{"latitude":"51.04634","longitude":"2.32018","bright_ti4":"336.88","scan":"0.55","track":"0.51","acq_date":"2026-07-04","acq_time":"245","satellite":"N21","instrument":"VIIRS","confidence":"n","version":"2.0NRT","bright_ti5":"288.77","frp":"8.06","daynight":"N","commune":"Dunkerque","code_insee":"59183","departement":"Nord","region":"Hauts-de-France"}},{"type":"Feature","geometry":{"type":"Point","coordinates":[2.29566,51.04789]},"properties":{"latitude":"51.04789","longitude":"2.29566","bright_ti4":"317.24","scan":"0.55","track":"0.51","acq_date":"2026-07-04","acq_time":"245","satellite":"N21","instrument":"VIIRS","confidence":"n","version":"2.0NRT","bright_ti5":"288.88","frp":"4.06","daynight":"N","commune":"Grande-Synthe","code_insee":"59271","departement":"Nord","region":"Hauts-de-France"}},{"type":"Feature","geometry":{"type":"Point","coordinates":[4.88954,43.43873]},"properties":{"latitude":"43.43873","longitude":"4.88954","bright_ti4":"305.05","scan":"0.62","track":"0.71","acq_date":"2026-07-04","acq_time":"247","satellite":"N21","instrument":"VIIRS","confidence":"n","version":"2.0NRT","bright_ti5":"293.09","frp":"3.04","daynight":"N","commune":"Fos-sur-Mer","code_insee":"13039","departement":"Bouches-du-Rhône","region":"Provence-Alpes-Côte d'Azur"}},{"type":"Feature","geometry":{"type":"Point","coordinates":[4.89336,43.44468]},"properties":{"latitude":"43.44468","longitude":"4.89336","bright_ti4":"316.5","scan":"0.62","track":"0.71","acq_date":"2026-07-04","acq_time":"247","satellite":"N21","instrument":"VIIRS","confidence":"n","version":"2.0NRT","bright_ti5":"293.01","frp":"3.52","daynight":"N","commune":"Fos-sur-Mer","code_insee":"13039","departement":"Bouches-du-Rhône","region":"Provence-Alpes-Côte d'Azur"}},{"type":"Feature","geometry":{"type":"Point","coordinates":[-0.00732,44.64721]},"properties":{"latitude":"44.64721","longitude":"-0.00732","bright_ti4":"304.64","scan":"0.34","track":"0.56","acq_date":"2026-07-04","acq_time":"247","satellite":"N21","instrument":"VIIRS","confidence":"n","version":"2.0NRT","bright_ti5":"287.58","frp":"0.47","daynight":"N","commune":"Mesterrieux","code_insee":"33283","departement":"Gironde","region":"Nouvelle-Aquitaine"}},{"type":"Feature","geometry":{"type":"Point","coordinates":[-1.03762,48.1078]},"properties":{"latitude":"48.1078","longitude":"-1.03762","bright_ti4":"300.58","scan":"0.48","track":"0.48","acq_date":"2026-07-04","acq_time":"247","satellite":"N21","instrument":"VIIRS","confidence":"n","version":"2.0NRT","bright_ti5":"288.46","frp":"0.83","daynight":"N","commune":"Saint-Pierre-la-Cour","code_insee":"53247","departement":"Mayenne","region":"Pays de la Loire"}},{"type":"Feature","geometry":{"type":"Point","coordinates":[6.11417,48.61042]},"properties":{"latitude":"48.61042","longitude":"6.11417","bright_ti4":"299.89","scan":"0.47","track":"0.64","acq_date":"2026-07-04","acq_time":"247","satellite":"N21","instrument":"VIIRS","confidence":"n","version":"2.0NRT","bright_ti5":"286.17","frp":"1.52","daynight":"N","commune":"Neuves-Maisons","code_insee":"54397","departement":"Meurthe-et-Moselle","region":"Grand Est"}},{"type":"Feature","geometry":{"type":"Point","coordinates":[6.11487,48.61051]},"properties":{"latitude":"48.61051","longitude":"6.11487","bright_ti4":"301.2","scan":"0.47","track":"0.64","acq_date":"2026-07-04","acq_time":"247","satellite":"N21","instrument":"VIIRS","confidence":"n","version":"2.0NRT","bright_ti5":"286.19","frp":"1.54","daynight":"N","commune":"Neuves-Maisons","code_insee":"54397","departement":"Meurthe-et-Moselle","region":"Grand Est"}},{"type":"Feature","geometry":{"type":"Point","coordinates":[6.10031,49.32376]},"properties":{"latitude":"49.32376","longitude":"6.10031","bright_ti4":"298.41","scan":"0.44","track":"0.63","acq_date":"2026-07-04","acq_time":"247","satellite":"N21","instrument":"VIIRS","confidence":"n","version":"2.0NRT","bright_ti5":"284.8","frp":"0.54","daynight":"N","commune":"Serémange-Erzange","code_insee":"57647","departement":"Moselle","region":"Grand Est"}},{"type":"Feature","geometry":{"type":"Point","coordinates":[6.10269,49.32606]},"properties":{"latitude":"49.32606","longitude":"6.10269","bright_ti4":"296.11","scan":"0.44","track":"0.63","acq_date":"2026-07-04","acq_time":"247","satellite":"N21","instrument":"VIIRS","confidence":"n","version":"2.0NRT","bright_ti5":"284.4","frp":"0.73","daynight":"N","commune":"Serémange-Erzange","code_insee":"57647","departement":"Moselle","region":"Grand Est"}},{"type":"Feature","geometry":{"type":"Point","coordinates":[4.03935,49.46324]},"properties":{"latitude":"49.46324","longitude":"4.03935","bright_ti4":"317.81","scan":"0.36","track":"0.57","acq_date":"2026-07-04","acq_time":"247","satellite":"N21","instrument":"VIIRS","confidence":"n","version":"2.0NRT","bright_ti5":"281.55","frp":"1.55","daynight":"N","commune":"Évergnicourt","code_insee":"02299","departement":"Aisne","region":"Hauts-de-France"}},{"type":"Feature","geometry":{"type":"Point","coordinates":[0.53533,49.47599]},"properties":{"latitude":"49.47599","longitude":"0.53533","bright_ti4":"301.09","scan":"0.52","track":"0.5","acq_date":"2026-07-04","acq_time":"247","satellite":"N21","instrument":"VIIRS","confidence":"n","version":"2.0NRT","bright_ti5":"284.87","frp":"1.83","daynight":"N","commune":"Lillebonne","code_insee":"76384","departement":"Seine-Maritime","region":"Normandie"}},{"type":"Feature","geometry":{"type":"Point","coordinates":[0.98895,43.18365]},"properties":{"latitude":"43.18365","longitude":"0.98895","bright_ti4":"303.91","scan":"0.41","track":"0.61","acq_date":"2026-07-04","acq_time":"249","satellite":"N21","instrument":"VIIRS","confidence":"n","version":"2.0NRT","bright_ti5":"288.66","frp":"1.03","daynight":"N","commune":"Martres-Tolosane","code_insee":"31324","departement":"Haute-Garonne","region":"Occitanie"}},{"type":"Feature","geometry":{"type":"Point","coordinates":[0.98872,43.18417]},"properties":{"latitude":"43.18417","longitude":"0.98872","bright_ti4":"305.02","scan":"0.41","track":"0.61","acq_date":"2026-07-04","acq_time":"249","satellite":"N21","instrument":"VIIRS","confidence":"n","version":"2.0NRT","bright_ti5":"289.21","frp":"1.03","daynight":"N","commune":"Martres-Tolosane","code_insee":"31324","departement":"Haute-Garonne","region":"Occitanie"}},{"type":"Feature","geometry":{"type":"Point","coordinates":[1.36306,45.13729]},"properties":{"latitude":"45.13729","longitude":"1.36306","bright_ti4":"335.23","scan":"0.42","track":"0.37","acq_date":"2026-07-04","acq_time":"1234","satellite":"N21","instrument":"VIIRS","confidence":"l","version":"2.0NRT","bright_ti5":"308.35","frp":"1.28","daynight":"D","commune":"Mansac","code_insee":"19124","departement":"Corrèze","region":"Nouvelle-Aquitaine"}},{"type":"Feature","geometry":{"type":"Point","coordinates":[2.7417,46.55781]},"properties":{"latitude":"46.55781","longitude":"2.7417","bright_ti4":"351.39","scan":"0.39","track":"0.36","acq_date":"2026-07-04","acq_time":"1234","satellite":"N21","instrument":"VIIRS","confidence":"n","version":"2.0NRT","bright_ti5":"316.5","frp":"21.07","daynight":"D","commune":"Saint-Caprais","code_insee":"03222","departement":"Allier","region":"Auvergne-Rhône-Alpes"}},{"type":"Feature","geometry":{"type":"Point","coordinates":[3.59397,47.13888]},"properties":{"latitude":"47.13888","longitude":"3.59397","bright_ti4":"346.57","scan":"0.38","track":"0.36","acq_date":"2026-07-04","acq_time":"1234","satellite":"N21","instrument":"VIIRS","confidence":"l","version":"2.0NRT","bright_ti5":"316.61","frp":"3.91","daynight":"D","commune":"Bazolles","code_insee":"58024","departement":"Nièvre","region":"Bourgogne-Franche-Comté"}},{"type":"Feature","geometry":{"type":"Point","coordinates":[3.33526,48.23754]},"properties":{"latitude":"48.23754","longitude":"3.33526","bright_ti4":"338.56","scan":"0.38","track":"0.36","acq_date":"2026-07-04","acq_time":"1234","satellite":"N21","instrument":"VIIRS","confidence":"n","version":"2.0NRT","bright_ti5":"310.35","frp":"2.03","daynight":"D","commune":"Soucy","code_insee":"89399","departement":"Yonne","region":"Bourgogne-Franche-Comté"}},{"type":"Feature","geometry":{"type":"Point","coordinates":[3.88807,48.39159]},"properties":{"latitude":"48.39159","longitude":"3.88807","bright_ti4":"350.04","scan":"0.39","track":"0.36","acq_date":"2026-07-04","acq_time":"1234","satellite":"N21","instrument":"VIIRS","confidence":"n","version":"2.0NRT","bright_ti5":"316.75","frp":"11.48","daynight":"D","commune":"Le Pavillon-Sainte-Julie","code_insee":"10281","departement":"Aube","region":"Grand Est"}},{"type":"Feature","geometry":{"type":"Point","coordinates":[2.39541,48.62779]},"properties":{"latitude":"48.62779","longitude":"2.39541","bright_ti4":"338.97","scan":"0.38","track":"0.36","acq_date":"2026-07-04","acq_time":"1234","satellite":"N21","instrument":"VIIRS","confidence":"l","version":"2.0NRT","bright_ti5":"310.38","frp":"4.81","daynight":"D","commune":"Ris-Orangis","code_insee":"91521","departement":"Essonne","region":"Île-de-France"}},{"type":"Feature","geometry":{"type":"Point","coordinates":[3.35053,49.16522]},"properties":{"latitude":"49.16522","longitude":"3.35053","bright_ti4":"338.74","scan":"0.39","track":"0.36","acq_date":"2026-07-04","acq_time":"1234","satellite":"N21","instrument":"VIIRS","confidence":"n","version":"2.0NRT","bright_ti5":"307.31","frp":"5.98","daynight":"D","commune":"La Croix-sur-Ourcq","code_insee":"02241","departement":"Aisne","region":"Hauts-de-France"}},{"type":"Feature","geometry":{"type":"Point","coordinates":[3.34421,49.16771]},"properties":{"latitude":"49.16771","longitude":"3.34421","bright_ti4":"341.52","scan":"0.39","track":"0.36","acq_date":"2026-07-04","acq_time":"1234","satellite":"N21","instrument":"VIIRS","confidence":"n","version":"2.0NRT","bright_ti5":"313.65","frp":"5.98","daynight":"D","commune":"La Croix-sur-Ourcq","code_insee":"02241","departement":"Aisne","region":"Hauts-de-France"}},{"type":"Feature","geometry":{"type":"Point","coordinates":[3.34942,49.16848]},"properties":{"latitude":"49.16848","longitude":"3.34942","bright_ti4":"345.46","scan":"0.39","track":"0.36","acq_date":"2026-07-04","acq_time":"1234","satellite":"N21","instrument":"VIIRS","confidence":"n","version":"2.0NRT","bright_ti5":"315.28","frp":"5.98","daynight":"D","commune":"La Croix-sur-Ourcq","code_insee":"02241","departement":"Aisne","region":"Hauts-de-France"}},{"type":"Feature","geometry":{"type":"Point","coordinates":[3.35462,49.16925]},"properties":{"latitude":"49.16925","longitude":"3.35462","bright_ti4":"346.14","scan":"0.39","track":"0.36","acq_date":"2026-07-04","acq_time":"1234","satellite":"N21","instrument":"VIIRS","confidence":"n","version":"2.0NRT","bright_ti5":"309.73","frp":"6.86","daynight":"D","commune":"La Croix-sur-Ourcq","code_insee":"02241","departement":"Aisne","region":"Hauts-de-France"}},{"type":"Feature","geometry":{"type":"Point","coordinates":[2.88341,49.48643]},"properties":{"latitude":"49.48643","longitude":"2.88341","bright_ti4":"336.26","scan":"0.38","track":"0.36","acq_date":"2026-07-04","acq_time":"1234","satellite":"N21","instrument":"VIIRS","confidence":"l","version":"2.0NRT","bright_ti5":"310.33","frp":"3.67","daynight":"D","commune":"Thourotte","code_insee":"60636","departement":"Oise","region":"Hauts-de-France"}},{"type":"Feature","geometry":{"type":"Point","coordinates":[2.28898,51.03474]},"properties":{"latitude":"51.03474","longitude":"2.28898","bright_ti4":"339.85","scan":"0.38","track":"0.36","acq_date":"2026-07-04","acq_time":"1234","satellite":"N21","instrument":"VIIRS","confidence":"n","version":"2.0NRT","bright_ti5":"308.63","frp":"5.18","daynight":"D","commune":"Grande-Synthe","code_insee":"59271","departement":"Nord","region":"Hauts-de-France"}},{"type":"Feature","geometry":{"type":"Point","coordinates":[2.29608,51.0461]},"properties":{"latitude":"51.0461","longitude":"2.29608","bright_ti4":"344.73","scan":"0.38","track":"0.36","acq_date":"2026-07-04","acq_time":"1234","satellite":"N21","instrument":"VIIRS","confidence":"n","version":"2.0NRT","bright_ti5":"301.74","frp":"4.8","daynight":"D","commune":"Grande-Synthe","code_insee":"59271","departement":"Nord","region":"Hauts-de-France"}},{"type":"Feature","geometry":{"type":"Point","coordinates":[2.32427,51.04689]},"properties":{"latitude":"51.04689","longitude":"2.32427","bright_ti4":"335.99","scan":"0.38","track":"0.36","acq_date":"2026-07-04","acq_time":"1234","satellite":"N21","instrument":"VIIRS","confidence":"l","version":"2.0NRT","bright_ti5":"307.25","frp":"6.99","daynight":"D","commune":"Dunkerque","code_insee":"59183","departement":"Nord","region":"Hauts-de-France"}}]}