{"type":"FeatureCollection","features":[{"type":"Feature","geometry":{"type":"Point","coordinates":[4.88782,43.4376]},"properties":{"latitude":"43.4376","longitude":"4.88782","bright_ti4":"337.73","scan":"0.42","track":"0.45","acq_date":"2026-07-12","acq_time":"111","satellite":"N20","instrument":"VIIRS","confidence":"n","version":"2.0NRT","bright_ti5":"292.49","frp":"3.27","daynight":"N","commune":"Fos-sur-Mer","code_insee":"13039","departement":"Bouches-du-Rhône","region":"Provence-Alpes-Côte d'Azur"}},{"type":"Feature","geometry":{"type":"Point","coordinates":[4.89526,43.44966]},"properties":{"latitude":"43.44966","longitude":"4.89526","bright_ti4":"322.87","scan":"0.42","track":"0.45","acq_date":"2026-07-12","acq_time":"111","satellite":"N20","instrument":"VIIRS","confidence":"n","version":"2.0NRT","bright_ti5":"291","frp":"2.93","daynight":"N","commune":"Fos-sur-Mer","code_insee":"13039","departement":"Bouches-du-Rhône","region":"Provence-Alpes-Côte d'Azur"}},{"type":"Feature","geometry":{"type":"Point","coordinates":[7.37296,43.79593]},"properties":{"latitude":"43.79593","longitude":"7.37296","bright_ti4":"307.56","scan":"0.5","track":"0.41","acq_date":"2026-07-12","acq_time":"111","satellite":"N20","instrument":"VIIRS","confidence":"n","version":"2.0NRT","bright_ti5":"291.71","frp":"0.94","daynight":"N","commune":"Blausasc","code_insee":"06019","departement":"Alpes-Maritimes","region":"Provence-Alpes-Côte d'Azur"}},{"type":"Feature","geometry":{"type":"Point","coordinates":[2.77776,44.24916]},"properties":{"latitude":"44.24916","longitude":"2.77776","bright_ti4":"305.84","scan":"0.55","track":"0.51","acq_date":"2026-07-12","acq_time":"111","satellite":"N20","instrument":"VIIRS","confidence":"n","version":"2.0NRT","bright_ti5":"288.18","frp":"1.37","daynight":"N","commune":"Prades-Salars","code_insee":"12188","departement":"Aveyron","region":"Occitanie"}},{"type":"Feature","geometry":{"type":"Point","coordinates":[4.32695,44.737]},"properties":{"latitude":"44.737","longitude":"4.32695","bright_ti4":"304.3","scan":"0.46","track":"0.47","acq_date":"2026-07-12","acq_time":"111","satellite":"N20","instrument":"VIIRS","confidence":"n","version":"2.0NRT","bright_ti5":"291.58","frp":"1.29","daynight":"N","commune":"Aizac","code_insee":"07003","departement":"Ardèche","region":"Auvergne-Rhône-Alpes"}},{"type":"Feature","geometry":{"type":"Point","coordinates":[4.32725,44.73734]},"properties":{"latitude":"44.73734","longitude":"4.32725","bright_ti4":"303.59","scan":"0.46","track":"0.47","acq_date":"2026-07-12","acq_time":"111","satellite":"N20","instrument":"VIIRS","confidence":"n","version":"2.0NRT","bright_ti5":"290.86","frp":"1.43","daynight":"N","commune":"Aizac","code_insee":"07003","departement":"Ardèche","region":"Auvergne-Rhône-Alpes"}},{"type":"Feature","geometry":{"type":"Point","coordinates":[5.6688,45.23005]},"properties":{"latitude":"45.23005","longitude":"5.6688","bright_ti4":"297.72","scan":"0.41","track":"0.45","acq_date":"2026-07-12","acq_time":"111","satellite":"N20","instrument":"VIIRS","confidence":"n","version":"2.0NRT","bright_ti5":"281.12","frp":"0.42","daynight":"N","commune":"Saint-Égrève","code_insee":"38382","departement":"Isère","region":"Auvergne-Rhône-Alpes"}},{"type":"Feature","geometry":{"type":"Point","coordinates":[5.82243,45.91415]},"properties":{"latitude":"45.91415","longitude":"5.82243","bright_ti4":"303.27","scan":"0.41","track":"0.45","acq_date":"2026-07-12","acq_time":"111","satellite":"N20","instrument":"VIIRS","confidence":"n","version":"2.0NRT","bright_ti5":"291.08","frp":"0.88","daynight":"N","commune":"Anglefort","code_insee":"01010","departement":"Ain","region":"Auvergne-Rhône-Alpes"}},{"type":"Feature","geometry":{"type":"Point","coordinates":[4.66929,47.01171]},"properties":{"latitude":"47.01171","longitude":"4.66929","bright_ti4":"302.05","scan":"0.47","track":"0.48","acq_date":"2026-07-12","acq_time":"111","satellite":"N20","instrument":"VIIRS","confidence":"n","version":"2.0NRT","bright_ti5":"288.27","frp":"0.55","daynight":"N","commune":"Saint-Romain","code_insee":"21569","departement":"Côte-d'Or","region":"Bourgogne-Franche-Comté"}},{"type":"Feature","geometry":{"type":"Point","coordinates":[-4.167,48.66915]},"properties":{"latitude":"48.66915","longitude":"-4.167","bright_ti4":"297.45","scan":"0.63","track":"0.72","acq_date":"2026-07-12","acq_time":"111","satellite":"N20","instrument":"VIIRS","confidence":"n","version":"2.0NRT","bright_ti5":"286.46","frp":"0.6","daynight":"N","commune":"Plouescat","code_insee":"29185","departement":"Finistère","region":"Bretagne"}},{"type":"Feature","geometry":{"type":"Point","coordinates":[6.96879,48.69024]},"properties":{"latitude":"48.69024","longitude":"6.96879","bright_ti4":"304.2","scan":"0.39","track":"0.44","acq_date":"2026-07-12","acq_time":"111","satellite":"N20","instrument":"VIIRS","confidence":"n","version":"2.0NRT","bright_ti5":"291.73","frp":"1.11","daynight":"N","commune":"Héming","code_insee":"57314","departement":"Moselle","region":"Grand Est"}},{"type":"Feature","geometry":{"type":"Point","coordinates":[6.5452,48.85037]},"properties":{"latitude":"48.85037","longitude":"6.5452","bright_ti4":"300.82","scan":"0.41","track":"0.45","acq_date":"2026-07-12","acq_time":"111","satellite":"N20","instrument":"VIIRS","confidence":"n","version":"2.0NRT","bright_ti5":"289.61","frp":"0.57","daynight":"N","commune":"Puttigny","code_insee":"57558","departement":"Moselle","region":"Grand Est"}},{"type":"Feature","geometry":{"type":"Point","coordinates":[6.14591,49.31861]},"properties":{"latitude":"49.31861","longitude":"6.14591","bright_ti4":"301.36","scan":"0.43","track":"0.46","acq_date":"2026-07-12","acq_time":"111","satellite":"N20","instrument":"VIIRS","confidence":"n","version":"2.0NRT","bright_ti5":"291.15","frp":"0.64","daynight":"N","commune":"Florange","code_insee":"57221","departement":"Moselle","region":"Grand Est"}},{"type":"Feature","geometry":{"type":"Point","coordinates":[0.53347,49.4796]},"properties":{"latitude":"49.4796","longitude":"0.53347","bright_ti4":"302.62","scan":"0.39","track":"0.59","acq_date":"2026-07-12","acq_time":"111","satellite":"N20","instrument":"VIIRS","confidence":"n","version":"2.0NRT","bright_ti5":"285.87","frp":"0.69","daynight":"N","commune":"Port-Jérôme-sur-Seine","code_insee":"76476","departement":"Seine-Maritime","region":"Normandie"}},{"type":"Feature","geometry":{"type":"Point","coordinates":[4.89728,43.43555]},"properties":{"latitude":"43.43555","longitude":"4.89728","bright_ti4":"300.29","scan":"0.62","track":"0.72","acq_date":"2026-07-12","acq_time":"251","satellite":"N20","instrument":"VIIRS","confidence":"n","version":"2.0NRT","bright_ti5":"289.38","frp":"1.31","daynight":"N","commune":"Fos-sur-Mer","code_insee":"13039","departement":"Bouches-du-Rhône","region":"Provence-Alpes-Côte d'Azur"}},{"type":"Feature","geometry":{"type":"Point","coordinates":[2.32389,48.92343]},"properties":{"latitude":"48.92343","longitude":"2.32389","bright_ti4":"351","scan":"0.32","track":"0.55","acq_date":"2026-07-12","acq_time":"251","satellite":"N20","instrument":"VIIRS","confidence":"n","version":"2.0NRT","bright_ti5":"292.57","frp":"4.67","daynight":"N","commune":"Gennevilliers","code_insee":"92036","departement":"Hauts-de-Seine","region":"Île-de-France"}},{"type":"Feature","geometry":{"type":"Point","coordinates":[2.7362,48.94851]},"properties":{"latitude":"48.94851","longitude":"2.7362","bright_ti4":"299.99","scan":"0.33","track":"0.56","acq_date":"2026-07-12","acq_time":"251","satellite":"N20","instrument":"VIIRS","confidence":"n","version":"2.0NRT","bright_ti5":"289.47","frp":"0.48","daynight":"N","commune":"Fresnes-sur-Marne","code_insee":"77196","departement":"Seine-et-Marne","region":"Île-de-France"}},{"type":"Feature","geometry":{"type":"Point","coordinates":[0.53542,49.47704]},"properties":{"latitude":"49.47704","longitude":"0.53542","bright_ti4":"301.38","scan":"0.52","track":"0.5","acq_date":"2026-07-12","acq_time":"251","satellite":"N20","instrument":"VIIRS","confidence":"n","version":"2.0NRT","bright_ti5":"291.3","frp":"1.17","daynight":"N","commune":"Port-Jérôme-sur-Seine","code_insee":"76476","departement":"Seine-Maritime","region":"Normandie"}},{"type":"Feature","geometry":{"type":"Point","coordinates":[-0.42678,42.95564]},"properties":{"latitude":"42.95564","longitude":"-0.42678","bright_ti4":"303.53","scan":"0.36","track":"0.58","acq_date":"2026-07-12","acq_time":"253","satellite":"N20","instrument":"VIIRS","confidence":"n","version":"2.0NRT","bright_ti5":"289.23","frp":"1","daynight":"N","commune":"Laruns","code_insee":"64320","departement":"Pyrénées-Atlantiques","region":"Nouvelle-Aquitaine"}},{"type":"Feature","geometry":{"type":"Point","coordinates":[-0.42791,42.95596]},"properties":{"latitude":"42.95596","longitude":"-0.42791","bright_ti4":"308.48","scan":"0.36","track":"0.58","acq_date":"2026-07-12","acq_time":"253","satellite":"N20","instrument":"VIIRS","confidence":"n","version":"2.0NRT","bright_ti5":"290.14","frp":"0.66","daynight":"N","commune":"Laruns","code_insee":"64320","departement":"Pyrénées-Atlantiques","region":"Nouvelle-Aquitaine"}},{"type":"Feature","geometry":{"type":"Point","coordinates":[4.84438,49.32642]},"properties":{"latitude":"49.32642","longitude":"4.84438","bright_ti4":"367","scan":"0.78","track":"0.78","acq_date":"2026-07-12","acq_time":"1058","satellite":"N20","instrument":"VIIRS","confidence":"h","version":"2.0NRT","bright_ti5":"301.47","frp":"11.61","daynight":"D","commune":"Grandpré","code_insee":"08198","departement":"Ardennes","region":"Grand Est"}},{"type":"Feature","geometry":{"type":"Point","coordinates":[4.83911,49.32787]},"properties":{"latitude":"49.32787","longitude":"4.83911","bright_ti4":"330.64","scan":"0.78","track":"0.78","acq_date":"2026-07-12","acq_time":"1058","satellite":"N20","instrument":"VIIRS","confidence":"n","version":"2.0NRT","bright_ti5":"299.88","frp":"12.79","daynight":"D","commune":"Grandpré","code_insee":"08198","departement":"Ardennes","region":"Grand Est"}},{"type":"Feature","geometry":{"type":"Point","coordinates":[4.85358,49.33008]},"properties":{"latitude":"49.33008","longitude":"4.85358","bright_ti4":"330.05","scan":"0.78","track":"0.78","acq_date":"2026-07-12","acq_time":"1058","satellite":"N20","instrument":"VIIRS","confidence":"n","version":"2.0NRT","bright_ti5":"298.52","frp":"11.61","daynight":"D","commune":"Grandpré","code_insee":"08198","departement":"Ardennes","region":"Grand Est"}},{"type":"Feature","geometry":{"type":"Point","coordinates":[4.84839,49.3315]},"properties":{"latitude":"49.3315","longitude":"4.84839","bright_ti4":"367","scan":"0.78","track":"0.78","acq_date":"2026-07-12","acq_time":"1058","satellite":"N20","instrument":"VIIRS","confidence":"h","version":"2.0NRT","bright_ti5":"299.91","frp":"17.7","daynight":"D","commune":"Grandpré","code_insee":"08198","departement":"Ardennes","region":"Grand Est"}},{"type":"Feature","geometry":{"type":"Point","coordinates":[4.89294,43.43388]},"properties":{"latitude":"43.43388","longitude":"4.89294","bright_ti4":"350.64","scan":"0.38","track":"0.36","acq_date":"2026-07-12","acq_time":"1238","satellite":"N20","instrument":"VIIRS","confidence":"n","version":"2.0NRT","bright_ti5":"315.13","frp":"10.29","daynight":"D","commune":"Fos-sur-Mer","code_insee":"13039","departement":"Bouches-du-Rhône","region":"Provence-Alpes-Côte d'Azur"}},{"type":"Feature","geometry":{"type":"Point","coordinates":[4.89857,43.44838]},"properties":{"latitude":"43.44838","longitude":"4.89857","bright_ti4":"337.29","scan":"0.38","track":"0.36","acq_date":"2026-07-12","acq_time":"1238","satellite":"N20","instrument":"VIIRS","confidence":"l","version":"2.0NRT","bright_ti5":"309.01","frp":"9.2","daynight":"D","commune":"Fos-sur-Mer","code_insee":"13039","departement":"Bouches-du-Rhône","region":"Provence-Alpes-Côte d'Azur"}},{"type":"Feature","geometry":{"type":"Point","coordinates":[0.23757,44.09385]},"properties":{"latitude":"44.09385","longitude":"0.23757","bright_ti4":"367","scan":"0.45","track":"0.39","acq_date":"2026-07-12","acq_time":"1238","satellite":"N20","instrument":"VIIRS","confidence":"h","version":"2.0NRT","bright_ti5":"331.26","frp":"71.59","daynight":"D","commune":"Réaup-Lisse","code_insee":"47221","departement":"Lot-et-Garonne","region":"Nouvelle-Aquitaine"}},{"type":"Feature","geometry":{"type":"Point","coordinates":[0.24306,44.09492]},"properties":{"latitude":"44.09492","longitude":"0.24306","bright_ti4":"346.67","scan":"0.45","track":"0.39","acq_date":"2026-07-12","acq_time":"1238","satellite":"N20","instrument":"VIIRS","confidence":"n","version":"2.0NRT","bright_ti5":"305.94","frp":"71.59","daynight":"D","commune":"Réaup-Lisse","code_insee":"47221","departement":"Lot-et-Garonne","region":"Nouvelle-Aquitaine"}},{"type":"Feature","geometry":{"type":"Point","coordinates":[0.23914,44.09545]},"properties":{"latitude":"44.09545","longitude":"0.23914","bright_ti4":"367","scan":"0.45","track":"0.39","acq_date":"2026-07-12","acq_time":"1238","satellite":"N20","instrument":"VIIRS","confidence":"h","version":"2.0NRT","bright_ti5":"340.49","frp":"230.91","daynight":"D","commune":"Réaup-Lisse","code_insee":"47221","departement":"Lot-et-Garonne","region":"Nouvelle-Aquitaine"}},{"type":"Feature","geometry":{"type":"Point","coordinates":[0.23081,44.09628]},"properties":{"latitude":"44.09628","longitude":"0.23081","bright_ti4":"331.98","scan":"0.45","track":"0.39","acq_date":"2026-07-12","acq_time":"1238","satellite":"N20","instrument":"VIIRS","confidence":"n","version":"2.0NRT","bright_ti5":"301.98","frp":"12.35","daynight":"D","commune":"Réaup-Lisse","code_insee":"47221","departement":"Lot-et-Garonne","region":"Nouvelle-Aquitaine"}},{"type":"Feature","geometry":{"type":"Point","coordinates":[0.24463,44.0965]},"properties":{"latitude":"44.0965","longitude":"0.24463","bright_ti4":"337.24","scan":"0.45","track":"0.39","acq_date":"2026-07-12","acq_time":"1238","satellite":"N20","instrument":"VIIRS","confidence":"n","version":"2.0NRT","bright_ti5":"301.66","frp":"7.19","daynight":"D","commune":"Réaup-Lisse","code_insee":"47221","departement":"Lot-et-Garonne","region":"Nouvelle-Aquitaine"}},{"type":"Feature","geometry":{"type":"Point","coordinates":[0.24178,44.09841]},"properties":{"latitude":"44.09841","longitude":"0.24178","bright_ti4":"340.4","scan":"0.45","track":"0.39","acq_date":"2026-07-12","acq_time":"1238","satellite":"N20","instrument":"VIIRS","confidence":"n","version":"2.0NRT","bright_ti5":"297.23","frp":"97.95","daynight":"D","commune":"Réaup-Lisse","code_insee":"47221","departement":"Lot-et-Garonne","region":"Nouvelle-Aquitaine"}},{"type":"Feature","geometry":{"type":"Point","coordinates":[4.32101,44.73312]},"properties":{"latitude":"44.73312","longitude":"4.32101","bright_ti4":"345.66","scan":"0.38","track":"0.36","acq_date":"2026-07-12","acq_time":"1238","satellite":"N20","instrument":"VIIRS","confidence":"n","version":"2.0NRT","bright_ti5":"310.87","frp":"11.36","daynight":"D","commune":"Aizac","code_insee":"07003","departement":"Ardèche","region":"Auvergne-Rhône-Alpes"}},{"type":"Feature","geometry":{"type":"Point","coordinates":[4.33061,44.73459]},"properties":{"latitude":"44.73459","longitude":"4.33061","bright_ti4":"330.45","scan":"0.38","track":"0.36","acq_date":"2026-07-12","acq_time":"1238","satellite":"N20","instrument":"VIIRS","confidence":"l","version":"2.0NRT","bright_ti5":"304.81","frp":"2.35","daynight":"D","commune":"Aizac","code_insee":"07003","departement":"Ardèche","region":"Auvergne-Rhône-Alpes"}},{"type":"Feature","geometry":{"type":"Point","coordinates":[4.51905,45.7733]},"properties":{"latitude":"45.7733","longitude":"4.51905","bright_ti4":"345.32","scan":"0.39","track":"0.36","acq_date":"2026-07-12","acq_time":"1238","satellite":"N20","instrument":"VIIRS","confidence":"n","version":"2.0NRT","bright_ti5":"317.16","frp":"14.42","daynight":"D","commune":"Bessenay","code_insee":"69021","departement":"Rhône","region":"Auvergne-Rhône-Alpes"}},{"type":"Feature","geometry":{"type":"Point","coordinates":[3.1155,46.81114]},"properties":{"latitude":"46.81114","longitude":"3.1155","bright_ti4":"349","scan":"0.38","track":"0.36","acq_date":"2026-07-12","acq_time":"1238","satellite":"N20","instrument":"VIIRS","confidence":"n","version":"2.0NRT","bright_ti5":"318.06","frp":"6.66","daynight":"D","commune":"Langeron","code_insee":"58138","departement":"Nièvre","region":"Bourgogne-Franche-Comté"}},{"type":"Feature","geometry":{"type":"Point","coordinates":[3.12046,46.81191]},"properties":{"latitude":"46.81191","longitude":"3.12046","bright_ti4":"349.91","scan":"0.38","track":"0.36","acq_date":"2026-07-12","acq_time":"1238","satellite":"N20","instrument":"VIIRS","confidence":"n","version":"2.0NRT","bright_ti5":"317.2","frp":"6.31","daynight":"D","commune":"Langeron","code_insee":"58138","departement":"Nièvre","region":"Bourgogne-Franche-Comté"}},{"type":"Feature","geometry":{"type":"Point","coordinates":[1.96449,47.7973]},"properties":{"latitude":"47.7973","longitude":"1.96449","bright_ti4":"355.59","scan":"0.39","track":"0.36","acq_date":"2026-07-12","acq_time":"1238","satellite":"N20","instrument":"VIIRS","confidence":"n","version":"2.0NRT","bright_ti5":"315.9","frp":"32.83","daynight":"D","commune":"Saint-Cyr-en-Val","code_insee":"45272","departement":"Loiret","region":"Centre-Val de Loire"}},{"type":"Feature","geometry":{"type":"Point","coordinates":[1.96957,47.79813]},"properties":{"latitude":"47.79813","longitude":"1.96957","bright_ti4":"344.9","scan":"0.39","track":"0.36","acq_date":"2026-07-12","acq_time":"1238","satellite":"N20","instrument":"VIIRS","confidence":"l","version":"2.0NRT","bright_ti5":"315.01","frp":"10.53","daynight":"D","commune":"Marcilly-en-Villette","code_insee":"45193","departement":"Loiret","region":"Centre-Val de Loire"}},{"type":"Feature","geometry":{"type":"Point","coordinates":[1.9684,47.80139]},"properties":{"latitude":"47.80139","longitude":"1.9684","bright_ti4":"348.3","scan":"0.39","track":"0.36","acq_date":"2026-07-12","acq_time":"1238","satellite":"N20","instrument":"VIIRS","confidence":"n","version":"2.0NRT","bright_ti5":"313.65","frp":"10.53","daynight":"D","commune":"Saint-Cyr-en-Val","code_insee":"45272","departement":"Loiret","region":"Centre-Val de Loire"}},{"type":"Feature","geometry":{"type":"Point","coordinates":[1.97348,47.80222]},"properties":{"latitude":"47.80222","longitude":"1.97348","bright_ti4":"341.94","scan":"0.39","track":"0.36","acq_date":"2026-07-12","acq_time":"1238","satellite":"N20","instrument":"VIIRS","confidence":"n","version":"2.0NRT","bright_ti5":"309.23","frp":"10.53","daynight":"D","commune":"Saint-Cyr-en-Val","code_insee":"45272","departement":"Loiret","region":"Centre-Val de Loire"}},{"type":"Feature","geometry":{"type":"Point","coordinates":[0.63084,47.91332]},"properties":{"latitude":"47.91332","longitude":"0.63084","bright_ti4":"340.37","scan":"0.4","track":"0.37","acq_date":"2026-07-12","acq_time":"1238","satellite":"N20","instrument":"VIIRS","confidence":"l","version":"2.0NRT","bright_ti5":"313.48","frp":"2.16","daynight":"D","commune":"Écorpain","code_insee":"72125","departement":"Sarthe","region":"Pays de la Loire"}},{"type":"Feature","geometry":{"type":"Point","coordinates":[-4.5648,48.44941]},"properties":{"latitude":"48.44941","longitude":"-4.5648","bright_ti4":"334.8","scan":"0.56","track":"0.43","acq_date":"2026-07-12","acq_time":"1238","satellite":"N20","instrument":"VIIRS","confidence":"n","version":"2.0NRT","bright_ti5":"299.74","frp":"4.73","daynight":"D","commune":"Milizac-Guipronvel","code_insee":"29076","departement":"Finistère","region":"Bretagne"}},{"type":"Feature","geometry":{"type":"Point","coordinates":[-3.25411,48.46255]},"properties":{"latitude":"48.46255","longitude":"-3.25411","bright_ti4":"332.48","scan":"0.5","track":"0.41","acq_date":"2026-07-12","acq_time":"1238","satellite":"N20","instrument":"VIIRS","confidence":"n","version":"2.0NRT","bright_ti5":"301.12","frp":"2.72","daynight":"D","commune":"Pont-Melvez","code_insee":"22249","departement":"Côtes-d'Armor","region":"Bretagne"}},{"type":"Feature","geometry":{"type":"Point","coordinates":[2.81406,48.49113]},"properties":{"latitude":"48.49113","longitude":"2.81406","bright_ti4":"350.71","scan":"0.38","track":"0.36","acq_date":"2026-07-12","acq_time":"1238","satellite":"N20","instrument":"VIIRS","confidence":"n","version":"2.0NRT","bright_ti5":"321.27","frp":"13.73","daynight":"D","commune":"Le Châtelet-en-Brie","code_insee":"77100","departement":"Seine-et-Marne","region":"Île-de-France"}},{"type":"Feature","geometry":{"type":"Point","coordinates":[2.81918,48.49192]},"properties":{"latitude":"48.49192","longitude":"2.81918","bright_ti4":"350.24","scan":"0.38","track":"0.36","acq_date":"2026-07-12","acq_time":"1238","satellite":"N20","instrument":"VIIRS","confidence":"n","version":"2.0NRT","bright_ti5":"313.01","frp":"13.73","daynight":"D","commune":"Le Châtelet-en-Brie","code_insee":"77100","departement":"Seine-et-Marne","region":"Île-de-France"}},{"type":"Feature","geometry":{"type":"Point","coordinates":[2.81293,48.49439]},"properties":{"latitude":"48.49439","longitude":"2.81293","bright_ti4":"367","scan":"0.38","track":"0.36","acq_date":"2026-07-12","acq_time":"1238","satellite":"N20","instrument":"VIIRS","confidence":"l","version":"2.0NRT","bright_ti5":"372.67","frp":"202.96","daynight":"D","commune":"Le Châtelet-en-Brie","code_insee":"77100","departement":"Seine-et-Marne","region":"Île-de-France"}},{"type":"Feature","geometry":{"type":"Point","coordinates":[2.81805,48.49518]},"properties":{"latitude":"48.49518","longitude":"2.81805","bright_ti4":"367","scan":"0.38","track":"0.36","acq_date":"2026-07-12","acq_time":"1238","satellite":"N20","instrument":"VIIRS","confidence":"h","version":"2.0NRT","bright_ti5":"350.76","frp":"202.96","daynight":"D","commune":"Le Châtelet-en-Brie","code_insee":"77100","departement":"Seine-et-Marne","region":"Île-de-France"}},{"type":"Feature","geometry":{"type":"Point","coordinates":[2.82318,48.49596]},"properties":{"latitude":"48.49596","longitude":"2.82318","bright_ti4":"355.73","scan":"0.38","track":"0.36","acq_date":"2026-07-12","acq_time":"1238","satellite":"N20","instrument":"VIIRS","confidence":"n","version":"2.0NRT","bright_ti5":"321.58","frp":"12.54","daynight":"D","commune":"Le Châtelet-en-Brie","code_insee":"77100","departement":"Seine-et-Marne","region":"Île-de-France"}},{"type":"Feature","geometry":{"type":"Point","coordinates":[2.8283,48.49674]},"properties":{"latitude":"48.49674","longitude":"2.8283","bright_ti4":"349.3","scan":"0.38","track":"0.36","acq_date":"2026-07-12","acq_time":"1238","satellite":"N20","instrument":"VIIRS","confidence":"n","version":"2.0NRT","bright_ti5":"314.17","frp":"12.54","daynight":"D","commune":"Le Châtelet-en-Brie","code_insee":"77100","departement":"Seine-et-Marne","region":"Île-de-France"}},{"type":"Feature","geometry":{"type":"Point","coordinates":[2.80667,48.49686]},"properties":{"latitude":"48.49686","longitude":"2.80667","bright_ti4":"333.35","scan":"0.38","track":"0.36","acq_date":"2026-07-12","acq_time":"1238","satellite":"N20","instrument":"VIIRS","confidence":"l","version":"2.0NRT","bright_ti5":"307.08","frp":"68.8","daynight":"D","commune":"Le Châtelet-en-Brie","code_insee":"77100","departement":"Seine-et-Marne","region":"Île-de-France"}},{"type":"Feature","geometry":{"type":"Point","coordinates":[2.8118,48.49765]},"properties":{"latitude":"48.49765","longitude":"2.8118","bright_ti4":"355.58","scan":"0.38","track":"0.36","acq_date":"2026-07-12","acq_time":"1238","satellite":"N20","instrument":"VIIRS","confidence":"n","version":"2.0NRT","bright_ti5":"312.35","frp":"202.96","daynight":"D","commune":"Le Châtelet-en-Brie","code_insee":"77100","departement":"Seine-et-Marne","region":"Île-de-France"}},{"type":"Feature","geometry":{"type":"Point","coordinates":[2.81692,48.49843]},"properties":{"latitude":"48.49843","longitude":"2.81692","bright_ti4":"349.37","scan":"0.38","track":"0.36","acq_date":"2026-07-12","acq_time":"1238","satellite":"N20","instrument":"VIIRS","confidence":"n","version":"2.0NRT","bright_ti5":"317.26","frp":"202.96","daynight":"D","commune":"Le Châtelet-en-Brie","code_insee":"77100","departement":"Seine-et-Marne","region":"Île-de-France"}},{"type":"Feature","geometry":{"type":"Point","coordinates":[2.82205,48.49922]},"properties":{"latitude":"48.49922","longitude":"2.82205","bright_ti4":"355.45","scan":"0.38","track":"0.36","acq_date":"2026-07-12","acq_time":"1238","satellite":"N20","instrument":"VIIRS","confidence":"n","version":"2.0NRT","bright_ti5":"316.82","frp":"12.54","daynight":"D","commune":"Le Châtelet-en-Brie","code_insee":"77100","departement":"Seine-et-Marne","region":"Île-de-France"}},{"type":"Feature","geometry":{"type":"Point","coordinates":[2.82717,48.5]},"properties":{"latitude":"48.5","longitude":"2.82717","bright_ti4":"345.4","scan":"0.38","track":"0.36","acq_date":"2026-07-12","acq_time":"1238","satellite":"N20","instrument":"VIIRS","confidence":"n","version":"2.0NRT","bright_ti5":"316.89","frp":"12.54","daynight":"D","commune":"Le Châtelet-en-Brie","code_insee":"77100","departement":"Seine-et-Marne","region":"Île-de-France"}},{"type":"Feature","geometry":{"type":"Point","coordinates":[2.8323,48.50079]},"properties":{"latitude":"48.50079","longitude":"2.8323","bright_ti4":"351.85","scan":"0.38","track":"0.36","acq_date":"2026-07-12","acq_time":"1238","satellite":"N20","instrument":"VIIRS","confidence":"n","version":"2.0NRT","bright_ti5":"316","frp":"4.9","daynight":"D","commune":"Les Écrennes","code_insee":"77165","departement":"Seine-et-Marne","region":"Île-de-France"}},{"type":"Feature","geometry":{"type":"Point","coordinates":[2.83742,48.50157]},"properties":{"latitude":"48.50157","longitude":"2.83742","bright_ti4":"339.89","scan":"0.38","track":"0.36","acq_date":"2026-07-12","acq_time":"1238","satellite":"N20","instrument":"VIIRS","confidence":"l","version":"2.0NRT","bright_ti5":"314.77","frp":"4.9","daynight":"D","commune":"Les Écrennes","code_insee":"77165","departement":"Seine-et-Marne","region":"Île-de-France"}},{"type":"Feature","geometry":{"type":"Point","coordinates":[2.82604,48.50326]},"properties":{"latitude":"48.50326","longitude":"2.82604","bright_ti4":"341.65","scan":"0.38","track":"0.36","acq_date":"2026-07-12","acq_time":"1238","satellite":"N20","instrument":"VIIRS","confidence":"n","version":"2.0NRT","bright_ti5":"313.06","frp":"3.48","daynight":"D","commune":"Le Châtelet-en-Brie","code_insee":"77100","departement":"Seine-et-Marne","region":"Île-de-France"}},{"type":"Feature","geometry":{"type":"Point","coordinates":[2.83117,48.50404]},"properties":{"latitude":"48.50404","longitude":"2.83117","bright_ti4":"345.78","scan":"0.38","track":"0.36","acq_date":"2026-07-12","acq_time":"1238","satellite":"N20","instrument":"VIIRS","confidence":"l","version":"2.0NRT","bright_ti5":"317.6","frp":"10.96","daynight":"D","commune":"Le Châtelet-en-Brie","code_insee":"77100","departement":"Seine-et-Marne","region":"Île-de-France"}},{"type":"Feature","geometry":{"type":"Point","coordinates":[2.51665,48.5136]},"properties":{"latitude":"48.5136","longitude":"2.51665","bright_ti4":"349.43","scan":"0.38","track":"0.36","acq_date":"2026-07-12","acq_time":"1238","satellite":"N20","instrument":"VIIRS","confidence":"n","version":"2.0NRT","bright_ti5":"313.92","frp":"40.79","daynight":"D","commune":"Saint-Fargeau-Ponthierry","code_insee":"77407","departement":"Seine-et-Marne","region":"Île-de-France"}},{"type":"Feature","geometry":{"type":"Point","coordinates":[3.62226,49.99769]},"properties":{"latitude":"49.99769","longitude":"3.62226","bright_ti4":"346.44","scan":"0.39","track":"0.36","acq_date":"2026-07-12","acq_time":"1238","satellite":"N20","instrument":"VIIRS","confidence":"n","version":"2.0NRT","bright_ti5":"312.1","frp":"6.67","daynight":"D","commune":"Vénérolles","code_insee":"02779","departement":"Aisne","region":"Hauts-de-France"}},{"type":"Feature","geometry":{"type":"Point","coordinates":[2.27209,51.02692]},"properties":{"latitude":"51.02692","longitude":"2.27209","bright_ti4":"339.11","scan":"0.39","track":"0.36","acq_date":"2026-07-12","acq_time":"1240","satellite":"N20","instrument":"VIIRS","confidence":"n","version":"2.0NRT","bright_ti5":"307.68","frp":"3.61","daynight":"D","commune":"Grande-Synthe","code_insee":"59271","departement":"Nord","region":"Hauts-de-France"}},{"type":"Feature","geometry":{"type":"Point","coordinates":[2.2817,51.03179]},"properties":{"latitude":"51.03179","longitude":"2.2817","bright_ti4":"334.81","scan":"0.39","track":"0.36","acq_date":"2026-07-12","acq_time":"1240","satellite":"N20","instrument":"VIIRS","confidence":"l","version":"2.0NRT","bright_ti5":"308.28","frp":"36.95","daynight":"D","commune":"Grande-Synthe","code_insee":"59271","departement":"Nord","region":"Hauts-de-France"}},{"type":"Feature","geometry":{"type":"Point","coordinates":[2.28712,51.0326]},"properties":{"latitude":"51.0326","longitude":"2.28712","bright_ti4":"337.83","scan":"0.39","track":"0.36","acq_date":"2026-07-12","acq_time":"1240","satellite":"N20","instrument":"VIIRS","confidence":"l","version":"2.0NRT","bright_ti5":"309.86","frp":"7","daynight":"D","commune":"Grande-Synthe","code_insee":"59271","departement":"Nord","region":"Hauts-de-France"}},{"type":"Feature","geometry":{"type":"Point","coordinates":[2.29432,51.04399]},"properties":{"latitude":"51.04399","longitude":"2.29432","bright_ti4":"334.4","scan":"0.39","track":"0.36","acq_date":"2026-07-12","acq_time":"1240","satellite":"N20","instrument":"VIIRS","confidence":"l","version":"2.0NRT","bright_ti5":"307.39","frp":"3.82","daynight":"D","commune":"Grande-Synthe","code_insee":"59271","departement":"Nord","region":"Hauts-de-France"}},{"type":"Feature","geometry":{"type":"Point","coordinates":[2.29974,51.04479]},"properties":{"latitude":"51.04479","longitude":"2.29974","bright_ti4":"336.09","scan":"0.39","track":"0.36","acq_date":"2026-07-12","acq_time":"1240","satellite":"N20","instrument":"VIIRS","confidence":"l","version":"2.0NRT","bright_ti5":"307.18","frp":"3.82","daynight":"D","commune":"Grande-Synthe","code_insee":"59271","departement":"Nord","region":"Hauts-de-France"}},{"type":"Feature","geometry":{"type":"Point","coordinates":[7.52722,47.63771]},"properties":{"latitude":"47.63771","longitude":"7.52722","bright_ti4":"299.32","scan":"0.72","track":"0.75","acq_date":"2026-07-12","acq_time":"16","satellite":"N21","instrument":"VIIRS","confidence":"n","version":"2.0NRT","bright_ti5":"288.87","frp":"1.78","daynight":"N","commune":"Rosenau","code_insee":"68286","departement":"Haut-Rhin","region":"Grand Est"}},{"type":"Feature","geometry":{"type":"Point","coordinates":[7.52697,47.64466]},"properties":{"latitude":"47.64466","longitude":"7.52697","bright_ti4":"306.7","scan":"0.72","track":"0.75","acq_date":"2026-07-12","acq_time":"16","satellite":"N21","instrument":"VIIRS","confidence":"n","version":"2.0NRT","bright_ti5":"288.71","frp":"4.5","daynight":"N","commune":"Rosenau","code_insee":"68286","departement":"Haut-Rhin","region":"Grand Est"}},{"type":"Feature","geometry":{"type":"Point","coordinates":[4.89578,43.43305]},"properties":{"latitude":"43.43305","longitude":"4.89578","bright_ti4":"305.04","scan":"0.49","track":"0.4","acq_date":"2026-07-12","acq_time":"158","satellite":"N21","instrument":"VIIRS","confidence":"n","version":"2.0NRT","bright_ti5":"292.34","frp":"3.68","daynight":"N","commune":"Fos-sur-Mer","code_insee":"13039","departement":"Bouches-du-Rhône","region":"Provence-Alpes-Côte d'Azur"}},{"type":"Feature","geometry":{"type":"Point","coordinates":[4.88996,43.43422]},"properties":{"latitude":"43.43422","longitude":"4.88996","bright_ti4":"336.56","scan":"0.49","track":"0.4","acq_date":"2026-07-12","acq_time":"158","satellite":"N21","instrument":"VIIRS","confidence":"n","version":"2.0NRT","bright_ti5":"294.18","frp":"3.68","daynight":"N","commune":"Fos-sur-Mer","code_insee":"13039","departement":"Bouches-du-Rhône","region":"Provence-Alpes-Côte d'Azur"}},{"type":"Feature","geometry":{"type":"Point","coordinates":[4.89678,43.44778]},"properties":{"latitude":"43.44778","longitude":"4.89678","bright_ti4":"314.61","scan":"0.49","track":"0.4","acq_date":"2026-07-12","acq_time":"158","satellite":"N21","instrument":"VIIRS","confidence":"n","version":"2.0NRT","bright_ti5":"292.22","frp":"2.49","daynight":"N","commune":"Fos-sur-Mer","code_insee":"13039","departement":"Bouches-du-Rhône","region":"Provence-Alpes-Côte d'Azur"}},{"type":"Feature","geometry":{"type":"Point","coordinates":[4.89546,43.44852]},"properties":{"latitude":"43.44852","longitude":"4.89546","bright_ti4":"313.08","scan":"0.49","track":"0.4","acq_date":"2026-07-12","acq_time":"158","satellite":"N21","instrument":"VIIRS","confidence":"n","version":"2.0NRT","bright_ti5":"291.58","frp":"2.72","daynight":"N","commune":"Fos-sur-Mer","code_insee":"13039","departement":"Bouches-du-Rhône","region":"Provence-Alpes-Côte d'Azur"}},{"type":"Feature","geometry":{"type":"Point","coordinates":[2.77824,44.24963]},"properties":{"latitude":"44.24963","longitude":"2.77824","bright_ti4":"319.73","scan":"0.41","track":"0.37","acq_date":"2026-07-12","acq_time":"158","satellite":"N21","instrument":"VIIRS","confidence":"n","version":"2.0NRT","bright_ti5":"288.98","frp":"1.39","daynight":"N","commune":"Prades-Salars","code_insee":"12188","departement":"Aveyron","region":"Occitanie"}},{"type":"Feature","geometry":{"type":"Point","coordinates":[4.73793,44.53537]},"properties":{"latitude":"44.53537","longitude":"4.73793","bright_ti4":"304.56","scan":"0.46","track":"0.39","acq_date":"2026-07-12","acq_time":"158","satellite":"N21","instrument":"VIIRS","confidence":"n","version":"2.0NRT","bright_ti5":"291.04","frp":"0.47","daynight":"N","commune":"Montélimar","code_insee":"26198","departement":"Drôme","region":"Auvergne-Rhône-Alpes"}},{"type":"Feature","geometry":{"type":"Point","coordinates":[5.82129,45.91025]},"properties":{"latitude":"45.91025","longitude":"5.82129","bright_ti4":"302.02","scan":"0.48","track":"0.4","acq_date":"2026-07-12","acq_time":"158","satellite":"N21","instrument":"VIIRS","confidence":"n","version":"2.0NRT","bright_ti5":"291.44","frp":"1.06","daynight":"N","commune":"Anglefort","code_insee":"01010","departement":"Ain","region":"Auvergne-Rhône-Alpes"}},{"type":"Feature","geometry":{"type":"Point","coordinates":[4.66686,47.01098]},"properties":{"latitude":"47.01098","longitude":"4.66686","bright_ti4":"326.68","scan":"0.43","track":"0.38","acq_date":"2026-07-12","acq_time":"158","satellite":"N21","instrument":"VIIRS","confidence":"n","version":"2.0NRT","bright_ti5":"293.68","frp":"2.44","daynight":"N","commune":"Baubigny","code_insee":"21050","departement":"Côte-d'Or","region":"Bourgogne-Franche-Comté"}},{"type":"Feature","geometry":{"type":"Point","coordinates":[7.53593,47.64053]},"properties":{"latitude":"47.64053","longitude":"7.53593","bright_ti4":"305.86","scan":"0.51","track":"0.41","acq_date":"2026-07-12","acq_time":"158","satellite":"N21","instrument":"VIIRS","confidence":"n","version":"2.0NRT","bright_ti5":"291.88","frp":"1.62","daynight":"N","commune":"Rosenau","code_insee":"68286","departement":"Haut-Rhin","region":"Grand Est"}},{"type":"Feature","geometry":{"type":"Point","coordinates":[2.98151,48.3866]},"properties":{"latitude":"48.3866","longitude":"2.98151","bright_ti4":"319.14","scan":"0.39","track":"0.36","acq_date":"2026-07-12","acq_time":"158","satellite":"N21","instrument":"VIIRS","confidence":"n","version":"2.0NRT","bright_ti5":"295.28","frp":"2","daynight":"N","commune":"Montereau-Fault-Yonne","code_insee":"77305","departement":"Seine-et-Marne","region":"Île-de-France"}},{"type":"Feature","geometry":{"type":"Point","coordinates":[6.96397,48.6922]},"properties":{"latitude":"48.6922","longitude":"6.96397","bright_ti4":"302.96","scan":"0.47","track":"0.4","acq_date":"2026-07-12","acq_time":"158","satellite":"N21","instrument":"VIIRS","confidence":"n","version":"2.0NRT","bright_ti5":"291.92","frp":"1.04","daynight":"N","commune":"Héming","code_insee":"57314","departement":"Moselle","region":"Grand Est"}},{"type":"Feature","geometry":{"type":"Point","coordinates":[0.5334,49.47797]},"properties":{"latitude":"49.47797","longitude":"0.5334","bright_ti4":"302.05","scan":"0.39","track":"0.37","acq_date":"2026-07-12","acq_time":"158","satellite":"N21","instrument":"VIIRS","confidence":"n","version":"2.0NRT","bright_ti5":"284.34","frp":"0.76","daynight":"N","commune":"Lillebonne","code_insee":"76384","departement":"Seine-Maritime","region":"Normandie"}},{"type":"Feature","geometry":{"type":"Point","coordinates":[1.04491,42.84836]},"properties":{"latitude":"42.84836","longitude":"1.04491","bright_ti4":"302.3","scan":"0.39","track":"0.36","acq_date":"2026-07-12","acq_time":"200","satellite":"N21","instrument":"VIIRS","confidence":"n","version":"2.0NRT","bright_ti5":"286.1","frp":"0.49","daynight":"N","commune":"Bordes-Uchentein","code_insee":"09062","departement":"Ariège","region":"Occitanie"}},{"type":"Feature","geometry":{"type":"Point","coordinates":[-0.42999,42.95596]},"properties":{"latitude":"42.95596","longitude":"-0.42999","bright_ti4":"295.99","scan":"0.38","track":"0.36","acq_date":"2026-07-12","acq_time":"200","satellite":"N21","instrument":"VIIRS","confidence":"n","version":"2.0NRT","bright_ti5":"270.14","frp":"0.56","daynight":"N","commune":"Laruns","code_insee":"64320","departement":"Pyrénées-Atlantiques","region":"Nouvelle-Aquitaine"}},{"type":"Feature","geometry":{"type":"Point","coordinates":[0.99085,43.18415]},"properties":{"latitude":"43.18415","longitude":"0.99085","bright_ti4":"307.18","scan":"0.39","track":"0.36","acq_date":"2026-07-12","acq_time":"200","satellite":"N21","instrument":"VIIRS","confidence":"n","version":"2.0NRT","bright_ti5":"293.37","frp":"1.09","daynight":"N","commune":"Martres-Tolosane","code_insee":"31324","departement":"Haute-Garonne","region":"Occitanie"}},{"type":"Feature","geometry":{"type":"Point","coordinates":[4.88893,43.43513]},"properties":{"latitude":"43.43513","longitude":"4.88893","bright_ti4":"339.25","scan":"0.36","track":"0.57","acq_date":"2026-07-12","acq_time":"1145","satellite":"N21","instrument":"VIIRS","confidence":"n","version":"2.0NRT","bright_ti5":"306.3","frp":"6.94","daynight":"D","commune":"Fos-sur-Mer","code_insee":"13039","departement":"Bouches-du-Rhône","region":"Provence-Alpes-Côte d'Azur"}},{"type":"Feature","geometry":{"type":"Point","coordinates":[4.89214,43.43516]},"properties":{"latitude":"43.43516","longitude":"4.89214","bright_ti4":"336.31","scan":"0.36","track":"0.57","acq_date":"2026-07-12","acq_time":"1145","satellite":"N21","instrument":"VIIRS","confidence":"l","version":"2.0NRT","bright_ti5":"308.89","frp":"8.71","daynight":"D","commune":"Fos-sur-Mer","code_insee":"13039","departement":"Bouches-du-Rhône","region":"Provence-Alpes-Côte d'Azur"}},{"type":"Feature","geometry":{"type":"Point","coordinates":[4.89896,43.44361]},"properties":{"latitude":"43.44361","longitude":"4.89896","bright_ti4":"336.2","scan":"0.36","track":"0.57","acq_date":"2026-07-12","acq_time":"1145","satellite":"N21","instrument":"VIIRS","confidence":"n","version":"2.0NRT","bright_ti5":"305.56","frp":"3.62","daynight":"D","commune":"Fos-sur-Mer","code_insee":"13039","departement":"Bouches-du-Rhône","region":"Provence-Alpes-Côte d'Azur"}},{"type":"Feature","geometry":{"type":"Point","coordinates":[4.89643,43.44857]},"properties":{"latitude":"43.44857","longitude":"4.89643","bright_ti4":"367","scan":"0.36","track":"0.57","acq_date":"2026-07-12","acq_time":"1145","satellite":"N21","instrument":"VIIRS","confidence":"h","version":"2.0NRT","bright_ti5":"304.7","frp":"8.29","daynight":"D","commune":"Fos-sur-Mer","code_insee":"13039","departement":"Bouches-du-Rhône","region":"Provence-Alpes-Côte d'Azur"}},{"type":"Feature","geometry":{"type":"Point","coordinates":[4.65541,43.76392]},"properties":{"latitude":"43.76392","longitude":"4.65541","bright_ti4":"340.91","scan":"0.36","track":"0.58","acq_date":"2026-07-12","acq_time":"1145","satellite":"N21","instrument":"VIIRS","confidence":"n","version":"2.0NRT","bright_ti5":"306.42","frp":"4.26","daynight":"D","commune":"Tarascon","code_insee":"13108","departement":"Bouches-du-Rhône","region":"Provence-Alpes-Côte d'Azur"}},{"type":"Feature","geometry":{"type":"Point","coordinates":[0.62021,45.74885]},"properties":{"latitude":"45.74885","longitude":"0.62021","bright_ti4":"335.31","scan":"0.48","track":"0.65","acq_date":"2026-07-12","acq_time":"1145","satellite":"N21","instrument":"VIIRS","confidence":"n","version":"2.0NRT","bright_ti5":"305.34","frp":"4.7","daynight":"D","commune":"Roussines","code_insee":"16289","departement":"Charente","region":"Nouvelle-Aquitaine"}},{"type":"Feature","geometry":{"type":"Point","coordinates":[6.34125,47.74548]},"properties":{"latitude":"47.74548","longitude":"6.34125","bright_ti4":"340.31","scan":"0.47","track":"0.48","acq_date":"2026-07-12","acq_time":"1145","satellite":"N21","instrument":"VIIRS","confidence":"n","version":"2.0NRT","bright_ti5":"305.14","frp":"9.78","daynight":"D","commune":"Betoncourt-lès-Brotte","code_insee":"70067","departement":"Haute-Saône","region":"Bourgogne-Franche-Comté"}},{"type":"Feature","geometry":{"type":"Point","coordinates":[1.96573,47.79709]},"properties":{"latitude":"47.79709","longitude":"1.96573","bright_ti4":"353.11","scan":"0.36","track":"0.58","acq_date":"2026-07-12","acq_time":"1145","satellite":"N21","instrument":"VIIRS","confidence":"n","version":"2.0NRT","bright_ti5":"305.17","frp":"9.52","daynight":"D","commune":"Saint-Cyr-en-Val","code_insee":"45272","departement":"Loiret","region":"Centre-Val de Loire"}},{"type":"Feature","geometry":{"type":"Point","coordinates":[1.97016,47.79839]},"properties":{"latitude":"47.79839","longitude":"1.97016","bright_ti4":"346.43","scan":"0.36","track":"0.58","acq_date":"2026-07-12","acq_time":"1145","satellite":"N21","instrument":"VIIRS","confidence":"n","version":"2.0NRT","bright_ti5":"307.24","frp":"8.99","daynight":"D","commune":"Marcilly-en-Villette","code_insee":"45193","departement":"Loiret","region":"Centre-Val de Loire"}},{"type":"Feature","geometry":{"type":"Point","coordinates":[1.96264,47.80198]},"properties":{"latitude":"47.80198","longitude":"1.96264","bright_ti4":"367","scan":"0.36","track":"0.58","acq_date":"2026-07-12","acq_time":"1145","satellite":"N21","instrument":"VIIRS","confidence":"h","version":"2.0NRT","bright_ti5":"302.49","frp":"9.52","daynight":"D","commune":"Saint-Cyr-en-Val","code_insee":"45272","departement":"Loiret","region":"Centre-Val de Loire"}},{"type":"Feature","geometry":{"type":"Point","coordinates":[1.96709,47.80328]},"properties":{"latitude":"47.80328","longitude":"1.96709","bright_ti4":"331.05","scan":"0.36","track":"0.58","acq_date":"2026-07-12","acq_time":"1145","satellite":"N21","instrument":"VIIRS","confidence":"n","version":"2.0NRT","bright_ti5":"301.15","frp":"8.99","daynight":"D","commune":"Saint-Cyr-en-Val","code_insee":"45272","departement":"Loiret","region":"Centre-Val de Loire"}},{"type":"Feature","geometry":{"type":"Point","coordinates":[4.12921,48.28871]},"properties":{"latitude":"48.28871","longitude":"4.12921","bright_ti4":"341.97","scan":"0.57","track":"0.52","acq_date":"2026-07-12","acq_time":"1145","satellite":"N21","instrument":"VIIRS","confidence":"n","version":"2.0NRT","bright_ti5":"309.73","frp":"22.88","daynight":"D","commune":"Saint-Parres-aux-Tertres","code_insee":"10357","departement":"Aube","region":"Grand Est"}},{"type":"Feature","geometry":{"type":"Point","coordinates":[1.15803,48.6904]},"properties":{"latitude":"48.6904","longitude":"1.15803","bright_ti4":"349.06","scan":"0.37","track":"0.58","acq_date":"2026-07-12","acq_time":"1145","satellite":"N21","instrument":"VIIRS","confidence":"n","version":"2.0NRT","bright_ti5":"306.47","frp":"4.17","daynight":"D","commune":"Crucey-Villages","code_insee":"28120","departement":"Eure-et-Loir","region":"Centre-Val de Loire"}},{"type":"Feature","geometry":{"type":"Point","coordinates":[1.16261,48.69175]},"properties":{"latitude":"48.69175","longitude":"1.16261","bright_ti4":"367","scan":"0.37","track":"0.58","acq_date":"2026-07-12","acq_time":"1145","satellite":"N21","instrument":"VIIRS","confidence":"h","version":"2.0NRT","bright_ti5":"308.86","frp":"14.21","daynight":"D","commune":"Laons","code_insee":"28206","departement":"Eure-et-Loir","region":"Centre-Val de Loire"}},{"type":"Feature","geometry":{"type":"Point","coordinates":[1.1672,48.6931]},"properties":{"latitude":"48.6931","longitude":"1.1672","bright_ti4":"367","scan":"0.37","track":"0.58","acq_date":"2026-07-12","acq_time":"1145","satellite":"N21","instrument":"VIIRS","confidence":"h","version":"2.0NRT","bright_ti5":"312.27","frp":"14.21","daynight":"D","commune":"Laons","code_insee":"28206","departement":"Eure-et-Loir","region":"Centre-Val de Loire"}},{"type":"Feature","geometry":{"type":"Point","coordinates":[1.17177,48.69444]},"properties":{"latitude":"48.69444","longitude":"1.17177","bright_ti4":"344.8","scan":"0.37","track":"0.58","acq_date":"2026-07-12","acq_time":"1145","satellite":"N21","instrument":"VIIRS","confidence":"n","version":"2.0NRT","bright_ti5":"309.01","frp":"11.56","daynight":"D","commune":"Laons","code_insee":"28206","departement":"Eure-et-Loir","region":"Centre-Val de Loire"}},{"type":"Feature","geometry":{"type":"Point","coordinates":[1.1548,48.6953]},"properties":{"latitude":"48.6953","longitude":"1.1548","bright_ti4":"330.66","scan":"0.37","track":"0.58","acq_date":"2026-07-12","acq_time":"1145","satellite":"N21","instrument":"VIIRS","confidence":"n","version":"2.0NRT","bright_ti5":"304.33","frp":"4.17","daynight":"D","commune":"Crucey-Villages","code_insee":"28120","departement":"Eure-et-Loir","region":"Centre-Val de Loire"}},{"type":"Feature","geometry":{"type":"Point","coordinates":[1.17634,48.69579]},"properties":{"latitude":"48.69579","longitude":"1.17634","bright_ti4":"352.57","scan":"0.37","track":"0.58","acq_date":"2026-07-12","acq_time":"1145","satellite":"N21","instrument":"VIIRS","confidence":"n","version":"2.0NRT","bright_ti5":"309.85","frp":"11.56","daynight":"D","commune":"Laons","code_insee":"28206","departement":"Eure-et-Loir","region":"Centre-Val de Loire"}},{"type":"Feature","geometry":{"type":"Point","coordinates":[1.18091,48.69712]},"properties":{"latitude":"48.69712","longitude":"1.18091","bright_ti4":"367","scan":"0.37","track":"0.58","acq_date":"2026-07-12","acq_time":"1145","satellite":"N21","instrument":"VIIRS","confidence":"h","version":"2.0NRT","bright_ti5":"311.22","frp":"12.82","daynight":"D","commune":"Laons","code_insee":"28206","departement":"Eure-et-Loir","region":"Centre-Val de Loire"}},{"type":"Feature","geometry":{"type":"Point","coordinates":[1.16395,48.69799]},"properties":{"latitude":"48.69799","longitude":"1.16395","bright_ti4":"343.13","scan":"0.37","track":"0.58","acq_date":"2026-07-12","acq_time":"1145","satellite":"N21","instrument":"VIIRS","confidence":"n","version":"2.0NRT","bright_ti5":"305.67","frp":"14.21","daynight":"D","commune":"Laons","code_insee":"28206","departement":"Eure-et-Loir","region":"Centre-Val de Loire"}},{"type":"Feature","geometry":{"type":"Point","coordinates":[1.18546,48.69846]},"properties":{"latitude":"48.69846","longitude":"1.18546","bright_ti4":"367","scan":"0.37","track":"0.58","acq_date":"2026-07-12","acq_time":"1145","satellite":"N21","instrument":"VIIRS","confidence":"h","version":"2.0NRT","bright_ti5":"309.17","frp":"12.82","daynight":"D","commune":"Laons","code_insee":"28206","departement":"Eure-et-Loir","region":"Centre-Val de Loire"}},{"type":"Feature","geometry":{"type":"Point","coordinates":[1.16853,48.69933]},"properties":{"latitude":"48.69933","longitude":"1.16853","bright_ti4":"344.01","scan":"0.37","track":"0.58","acq_date":"2026-07-12","acq_time":"1145","satellite":"N21","instrument":"VIIRS","confidence":"n","version":"2.0NRT","bright_ti5":"306.21","frp":"11.56","daynight":"D","commune":"Laons","code_insee":"28206","departement":"Eure-et-Loir","region":"Centre-Val de Loire"}},{"type":"Feature","geometry":{"type":"Point","coordinates":[1.1731,48.70067]},"properties":{"latitude":"48.70067","longitude":"1.1731","bright_ti4":"367","scan":"0.37","track":"0.58","acq_date":"2026-07-12","acq_time":"1145","satellite":"N21","instrument":"VIIRS","confidence":"h","version":"2.0NRT","bright_ti5":"309.7","frp":"11.56","daynight":"D","commune":"Laons","code_insee":"28206","departement":"Eure-et-Loir","region":"Centre-Val de Loire"}},{"type":"Feature","geometry":{"type":"Point","coordinates":[1.17766,48.70201]},"properties":{"latitude":"48.70201","longitude":"1.17766","bright_ti4":"367","scan":"0.37","track":"0.58","acq_date":"2026-07-12","acq_time":"1145","satellite":"N21","instrument":"VIIRS","confidence":"h","version":"2.0NRT","bright_ti5":"309.17","frp":"12.82","daynight":"D","commune":"Laons","code_insee":"28206","departement":"Eure-et-Loir","region":"Centre-Val de Loire"}},{"type":"Feature","geometry":{"type":"Point","coordinates":[1.29439,49.39069]},"properties":{"latitude":"49.39069","longitude":"1.29439","bright_ti4":"353.34","scan":"0.35","track":"0.56","acq_date":"2026-07-12","acq_time":"1145","satellite":"N21","instrument":"VIIRS","confidence":"n","version":"2.0NRT","bright_ti5":"302.67","frp":"8.28","daynight":"D","commune":"Bourg-Beaudouin","code_insee":"27104","departement":"Eure","region":"Normandie"}},{"type":"Feature","geometry":{"type":"Point","coordinates":[1.29873,49.39196]},"properties":{"latitude":"49.39196","longitude":"1.29873","bright_ti4":"367","scan":"0.34","track":"0.56","acq_date":"2026-07-12","acq_time":"1145","satellite":"N21","instrument":"VIIRS","confidence":"h","version":"2.0NRT","bright_ti5":"307.43","frp":"8.28","daynight":"D","commune":"Bourg-Beaudouin","code_insee":"27104","departement":"Eure","region":"Normandie"}},{"type":"Feature","geometry":{"type":"Point","coordinates":[4.23324,49.54296]},"properties":{"latitude":"49.54296","longitude":"4.23324","bright_ti4":"341.67","scan":"0.52","track":"0.5","acq_date":"2026-07-12","acq_time":"1145","satellite":"N21","instrument":"VIIRS","confidence":"n","version":"2.0NRT","bright_ti5":"310.04","frp":"9.98","daynight":"D","commune":"Château-Porcien","code_insee":"08107","departement":"Ardennes","region":"Grand Est"}},{"type":"Feature","geometry":{"type":"Point","coordinates":[2.78061,50.47569]},"properties":{"latitude":"50.47569","longitude":"2.78061","bright_ti4":"330.59","scan":"0.55","track":"0.51","acq_date":"2026-07-12","acq_time":"1145","satellite":"N21","instrument":"VIIRS","confidence":"l","version":"2.0NRT","bright_ti5":"305.46","frp":"4.23","daynight":"D","commune":"Loos-en-Gohelle","code_insee":"62528","departement":"Pas-de-Calais","region":"Hauts-de-France"}},{"type":"Feature","geometry":{"type":"Point","coordinates":[2.28765,51.03436]},"properties":{"latitude":"51.03436","longitude":"2.28765","bright_ti4":"340.76","scan":"0.56","track":"0.51","acq_date":"2026-07-12","acq_time":"1147","satellite":"N21","instrument":"VIIRS","confidence":"n","version":"2.0NRT","bright_ti5":"304.3","frp":"10.38","daynight":"D","commune":"Grande-Synthe","code_insee":"59271","departement":"Nord","region":"Hauts-de-France"}},{"type":"Feature","geometry":{"type":"Point","coordinates":[4.59646,45.47591]},"properties":{"latitude":"45.47591","longitude":"4.59646","bright_ti4":"337.19","scan":"0.38","track":"0.59","acq_date":"2026-07-12","acq_time":"1323","satellite":"N21","instrument":"VIIRS","confidence":"n","version":"2.0NRT","bright_ti5":"303.16","frp":"18.45","daynight":"D","commune":"Saint-Paul-en-Jarez","code_insee":"42271","departement":"Loire","region":"Auvergne-Rhône-Alpes"}},{"type":"Feature","geometry":{"type":"Point","coordinates":[4.60098,45.47607]},"properties":{"latitude":"45.47607","longitude":"4.60098","bright_ti4":"367","scan":"0.38","track":"0.59","acq_date":"2026-07-12","acq_time":"1323","satellite":"N21","instrument":"VIIRS","confidence":"h","version":"2.0NRT","bright_ti5":"310.25","frp":"20.97","daynight":"D","commune":"Farnay","code_insee":"42093","departement":"Loire","region":"Auvergne-Rhône-Alpes"}},{"type":"Feature","geometry":{"type":"Point","coordinates":[4.60136,45.48154]},"properties":{"latitude":"45.48154","longitude":"4.60136","bright_ti4":"367","scan":"0.38","track":"0.59","acq_date":"2026-07-12","acq_time":"1323","satellite":"N21","instrument":"VIIRS","confidence":"h","version":"2.0NRT","bright_ti5":"308.85","frp":"20.97","daynight":"D","commune":"Farnay","code_insee":"42093","departement":"Loire","region":"Auvergne-Rhône-Alpes"}},{"type":"Feature","geometry":{"type":"Point","coordinates":[4.51665,45.77171]},"properties":{"latitude":"45.77171","longitude":"4.51665","bright_ti4":"338.92","scan":"0.38","track":"0.59","acq_date":"2026-07-12","acq_time":"1323","satellite":"N21","instrument":"VIIRS","confidence":"n","version":"2.0NRT","bright_ti5":"304.97","frp":"4.48","daynight":"D","commune":"Brullioles","code_insee":"69030","departement":"Rhône","region":"Auvergne-Rhône-Alpes"}},{"type":"Feature","geometry":{"type":"Point","coordinates":[1.05565,45.88011]},"properties":{"latitude":"45.88011","longitude":"1.05565","bright_ti4":"343.25","scan":"0.52","track":"0.5","acq_date":"2026-07-12","acq_time":"1323","satellite":"N21","instrument":"VIIRS","confidence":"n","version":"2.0NRT","bright_ti5":"311.42","frp":"8.35","daynight":"D","commune":"Saint-Victurnien","code_insee":"87185","departement":"Haute-Vienne","region":"Nouvelle-Aquitaine"}},{"type":"Feature","geometry":{"type":"Point","coordinates":[-1.4776,46.75066]},"properties":{"latitude":"46.75066","longitude":"-1.4776","bright_ti4":"340.95","scan":"0.4","track":"0.45","acq_date":"2026-07-12","acq_time":"1323","satellite":"N21","instrument":"VIIRS","confidence":"n","version":"2.0NRT","bright_ti5":"312.92","frp":"4.71","daynight":"D","commune":"Le Poiré-sur-Vie","code_insee":"85178","departement":"Vendée","region":"Pays de la Loire"}},{"type":"Feature","geometry":{"type":"Point","coordinates":[3.45005,47.20151]},"properties":{"latitude":"47.20151","longitude":"3.45005","bright_ti4":"347.17","scan":"0.35","track":"0.57","acq_date":"2026-07-12","acq_time":"1323","satellite":"N21","instrument":"VIIRS","confidence":"n","version":"2.0NRT","bright_ti5":"310.29","frp":"7.9","daynight":"D","commune":"Moussy","code_insee":"58184","departement":"Nièvre","region":"Bourgogne-Franche-Comté"}},{"type":"Feature","geometry":{"type":"Point","coordinates":[3.45455,47.20169]},"properties":{"latitude":"47.20169","longitude":"3.45455","bright_ti4":"342.26","scan":"0.35","track":"0.57","acq_date":"2026-07-12","acq_time":"1323","satellite":"N21","instrument":"VIIRS","confidence":"n","version":"2.0NRT","bright_ti5":"309.91","frp":"5.74","daynight":"D","commune":"Moussy","code_insee":"58184","departement":"Nièvre","region":"Bourgogne-Franche-Comté"}},{"type":"Feature","geometry":{"type":"Point","coordinates":[3.45414,47.20691]},"properties":{"latitude":"47.20691","longitude":"3.45414","bright_ti4":"367","scan":"0.35","track":"0.57","acq_date":"2026-07-12","acq_time":"1323","satellite":"N21","instrument":"VIIRS","confidence":"h","version":"2.0NRT","bright_ti5":"310.75","frp":"6.41","daynight":"D","commune":"Moussy","code_insee":"58184","departement":"Nièvre","region":"Bourgogne-Franche-Comté"}},{"type":"Feature","geometry":{"type":"Point","coordinates":[-1.65137,47.49297]},"properties":{"latitude":"47.49297","longitude":"-1.65137","bright_ti4":"345.89","scan":"0.4","track":"0.45","acq_date":"2026-07-12","acq_time":"1323","satellite":"N21","instrument":"VIIRS","confidence":"n","version":"2.0NRT","bright_ti5":"310.48","frp":"10.43","daynight":"D","commune":"Puceul","code_insee":"44138","departement":"Loire-Atlantique","region":"Pays de la Loire"}},{"type":"Feature","geometry":{"type":"Point","coordinates":[-1.65215,47.49706]},"properties":{"latitude":"47.49706","longitude":"-1.65215","bright_ti4":"347.2","scan":"0.4","track":"0.45","acq_date":"2026-07-12","acq_time":"1323","satellite":"N21","instrument":"VIIRS","confidence":"n","version":"2.0NRT","bright_ti5":"310.55","frp":"10.43","daynight":"D","commune":"Puceul","code_insee":"44138","departement":"Loire-Atlantique","region":"Pays de la Loire"}},{"type":"Feature","geometry":{"type":"Point","coordinates":[-1.64677,47.49751]},"properties":{"latitude":"47.49751","longitude":"-1.64677","bright_ti4":"353.3","scan":"0.4","track":"0.45","acq_date":"2026-07-12","acq_time":"1323","satellite":"N21","instrument":"VIIRS","confidence":"n","version":"2.0NRT","bright_ti5":"310.39","frp":"10.43","daynight":"D","commune":"Puceul","code_insee":"44138","departement":"Loire-Atlantique","region":"Pays de la Loire"}},{"type":"Feature","geometry":{"type":"Point","coordinates":[1.40997,47.583]},"properties":{"latitude":"47.583","longitude":"1.40997","bright_ti4":"342.63","scan":"0.56","track":"0.51","acq_date":"2026-07-12","acq_time":"1323","satellite":"N21","instrument":"VIIRS","confidence":"n","version":"2.0NRT","bright_ti5":"308.91","frp":"10.85","daynight":"D","commune":"Huisseau-sur-Cosson","code_insee":"41104","departement":"Loir-et-Cher","region":"Centre-Val de Loire"}},{"type":"Feature","geometry":{"type":"Point","coordinates":[1.40952,47.58399]},"properties":{"latitude":"47.58399","longitude":"1.40952","bright_ti4":"342.7","scan":"0.56","track":"0.51","acq_date":"2026-07-12","acq_time":"1323","satellite":"N21","instrument":"VIIRS","confidence":"n","version":"2.0NRT","bright_ti5":"309.3","frp":"14.94","daynight":"D","commune":"Vineuil","code_insee":"41295","departement":"Loir-et-Cher","region":"Centre-Val de Loire"}},{"type":"Feature","geometry":{"type":"Point","coordinates":[1.96531,47.79818]},"properties":{"latitude":"47.79818","longitude":"1.96531","bright_ti4":"346.87","scan":"0.6","track":"0.53","acq_date":"2026-07-12","acq_time":"1323","satellite":"N21","instrument":"VIIRS","confidence":"n","version":"2.0NRT","bright_ti5":"308.37","frp":"15.01","daynight":"D","commune":"Saint-Cyr-en-Val","code_insee":"45272","departement":"Loiret","region":"Centre-Val de Loire"}},{"type":"Feature","geometry":{"type":"Point","coordinates":[1.96476,47.80305]},"properties":{"latitude":"47.80305","longitude":"1.96476","bright_ti4":"352.34","scan":"0.6","track":"0.53","acq_date":"2026-07-12","acq_time":"1323","satellite":"N21","instrument":"VIIRS","confidence":"n","version":"2.0NRT","bright_ti5":"303.59","frp":"15.01","daynight":"D","commune":"Saint-Cyr-en-Val","code_insee":"45272","departement":"Loiret","region":"Centre-Val de Loire"}},{"type":"Feature","geometry":{"type":"Point","coordinates":[2.81717,48.48964]},"properties":{"latitude":"48.48964","longitude":"2.81717","bright_ti4":"367","scan":"0.33","track":"0.55","acq_date":"2026-07-12","acq_time":"1323","satellite":"N21","instrument":"VIIRS","confidence":"h","version":"2.0NRT","bright_ti5":"302.43","frp":"10.55","daynight":"D","commune":"Le Châtelet-en-Brie","code_insee":"77100","departement":"Seine-et-Marne","region":"Île-de-France"}},{"type":"Feature","geometry":{"type":"Point","coordinates":[2.82164,48.48984]},"properties":{"latitude":"48.48984","longitude":"2.82164","bright_ti4":"367","scan":"0.33","track":"0.55","acq_date":"2026-07-12","acq_time":"1323","satellite":"N21","instrument":"VIIRS","confidence":"h","version":"2.0NRT","bright_ti5":"308.52","frp":"10.55","daynight":"D","commune":"Le Châtelet-en-Brie","code_insee":"77100","departement":"Seine-et-Marne","region":"Île-de-France"}},{"type":"Feature","geometry":{"type":"Point","coordinates":[2.79877,48.49392]},"properties":{"latitude":"48.49392","longitude":"2.79877","bright_ti4":"354.83","scan":"0.33","track":"0.55","acq_date":"2026-07-12","acq_time":"1323","satellite":"N21","instrument":"VIIRS","confidence":"n","version":"2.0NRT","bright_ti5":"305.24","frp":"8.32","daynight":"D","commune":"Le Châtelet-en-Brie","code_insee":"77100","departement":"Seine-et-Marne","region":"Île-de-France"}},{"type":"Feature","geometry":{"type":"Point","coordinates":[2.80321,48.49413]},"properties":{"latitude":"48.49413","longitude":"2.80321","bright_ti4":"367","scan":"0.33","track":"0.55","acq_date":"2026-07-12","acq_time":"1323","satellite":"N21","instrument":"VIIRS","confidence":"h","version":"2.0NRT","bright_ti5":"308.29","frp":"8.32","daynight":"D","commune":"Le Châtelet-en-Brie","code_insee":"77100","departement":"Seine-et-Marne","region":"Île-de-France"}},{"type":"Feature","geometry":{"type":"Point","coordinates":[2.80769,48.49433]},"properties":{"latitude":"48.49433","longitude":"2.80769","bright_ti4":"332.31","scan":"0.33","track":"0.55","acq_date":"2026-07-12","acq_time":"1323","satellite":"N21","instrument":"VIIRS","confidence":"n","version":"2.0NRT","bright_ti5":"304.88","frp":"8.73","daynight":"D","commune":"Le Châtelet-en-Brie","code_insee":"77100","departement":"Seine-et-Marne","region":"Île-de-France"}},{"type":"Feature","geometry":{"type":"Point","coordinates":[2.81665,48.49475]},"properties":{"latitude":"48.49475","longitude":"2.81665","bright_ti4":"338.49","scan":"0.33","track":"0.55","acq_date":"2026-07-12","acq_time":"1323","satellite":"N21","instrument":"VIIRS","confidence":"n","version":"2.0NRT","bright_ti5":"309.16","frp":"10.45","daynight":"D","commune":"Le Châtelet-en-Brie","code_insee":"77100","departement":"Seine-et-Marne","region":"Île-de-France"}},{"type":"Feature","geometry":{"type":"Point","coordinates":[2.82114,48.49495]},"properties":{"latitude":"48.49495","longitude":"2.82114","bright_ti4":"367","scan":"0.33","track":"0.55","acq_date":"2026-07-12","acq_time":"1323","satellite":"N21","instrument":"VIIRS","confidence":"h","version":"2.0NRT","bright_ti5":"313.12","frp":"10.45","daynight":"D","commune":"Le Châtelet-en-Brie","code_insee":"77100","departement":"Seine-et-Marne","region":"Île-de-France"}},{"type":"Feature","geometry":{"type":"Point","coordinates":[2.82564,48.49516]},"properties":{"latitude":"48.49516","longitude":"2.82564","bright_ti4":"367","scan":"0.33","track":"0.55","acq_date":"2026-07-12","acq_time":"1323","satellite":"N21","instrument":"VIIRS","confidence":"h","version":"2.0NRT","bright_ti5":"313.23","frp":"12.83","daynight":"D","commune":"Le Châtelet-en-Brie","code_insee":"77100","departement":"Seine-et-Marne","region":"Île-de-France"}},{"type":"Feature","geometry":{"type":"Point","coordinates":[2.82963,48.50048]},"properties":{"latitude":"48.50048","longitude":"2.82963","bright_ti4":"345.95","scan":"0.33","track":"0.55","acq_date":"2026-07-12","acq_time":"1323","satellite":"N21","instrument":"VIIRS","confidence":"n","version":"2.0NRT","bright_ti5":"311.05","frp":"12.83","daynight":"D","commune":"Les Écrennes","code_insee":"77165","departement":"Seine-et-Marne","region":"Île-de-France"}},{"type":"Feature","geometry":{"type":"Point","coordinates":[2.83413,48.50069]},"properties":{"latitude":"48.50069","longitude":"2.83413","bright_ti4":"338.2","scan":"0.33","track":"0.55","acq_date":"2026-07-12","acq_time":"1323","satellite":"N21","instrument":"VIIRS","confidence":"n","version":"2.0NRT","bright_ti5":"307.49","frp":"7.04","daynight":"D","commune":"Les Écrennes","code_insee":"77165","departement":"Seine-et-Marne","region":"Île-de-France"}},{"type":"Feature","geometry":{"type":"Point","coordinates":[4.89322,43.43461]},"properties":{"latitude":"43.43461","longitude":"4.89322","bright_ti4":"334.91","scan":"0.38","track":"0.59","acq_date":"2026-07-12","acq_time":"1325","satellite":"N21","instrument":"VIIRS","confidence":"l","version":"2.0NRT","bright_ti5":"306.01","frp":"8","daynight":"D","commune":"Fos-sur-Mer","code_insee":"13039","departement":"Bouches-du-Rhône","region":"Provence-Alpes-Côte d'Azur"}},{"type":"Feature","geometry":{"type":"Point","coordinates":[4.89043,43.43602]},"properties":{"latitude":"43.43602","longitude":"4.89043","bright_ti4":"332.16","scan":"0.38","track":"0.59","acq_date":"2026-07-12","acq_time":"1325","satellite":"N21","instrument":"VIIRS","confidence":"l","version":"2.0NRT","bright_ti5":"303.08","frp":"7.19","daynight":"D","commune":"Fos-sur-Mer","code_insee":"13039","departement":"Bouches-du-Rhône","region":"Provence-Alpes-Côte d'Azur"}},{"type":"Feature","geometry":{"type":"Point","coordinates":[4.89707,43.44569]},"properties":{"latitude":"43.44569","longitude":"4.89707","bright_ti4":"331.71","scan":"0.38","track":"0.59","acq_date":"2026-07-12","acq_time":"1325","satellite":"N21","instrument":"VIIRS","confidence":"n","version":"2.0NRT","bright_ti5":"301.07","frp":"3.64","daynight":"D","commune":"Fos-sur-Mer","code_insee":"13039","departement":"Bouches-du-Rhône","region":"Provence-Alpes-Côte d'Azur"}},{"type":"Feature","geometry":{"type":"Point","coordinates":[2.0948,44.07489]},"properties":{"latitude":"44.07489","longitude":"2.0948","bright_ti4":"342.08","scan":"0.56","track":"0.51","acq_date":"2026-07-12","acq_time":"1325","satellite":"N21","instrument":"VIIRS","confidence":"n","version":"2.0NRT","bright_ti5":"300.43","frp":"13.19","daynight":"D","commune":"Monestiés","code_insee":"81170","departement":"Tarn","region":"Occitanie"}},{"type":"Feature","geometry":{"type":"Point","coordinates":[2.10164,44.07533]},"properties":{"latitude":"44.07533","longitude":"2.10164","bright_ti4":"335.56","scan":"0.56","track":"0.51","acq_date":"2026-07-12","acq_time":"1325","satellite":"N21","instrument":"VIIRS","confidence":"n","version":"2.0NRT","bright_ti5":"302.62","frp":"9.75","daynight":"D","commune":"Monestiés","code_insee":"81170","departement":"Tarn","region":"Occitanie"}},{"type":"Feature","geometry":{"type":"Point","coordinates":[2.09397,44.07961]},"properties":{"latitude":"44.07961","longitude":"2.09397","bright_ti4":"353.73","scan":"0.56","track":"0.51","acq_date":"2026-07-12","acq_time":"1325","satellite":"N21","instrument":"VIIRS","confidence":"n","version":"2.0NRT","bright_ti5":"302.86","frp":"21.85","daynight":"D","commune":"Monestiés","code_insee":"81170","departement":"Tarn","region":"Occitanie"}},{"type":"Feature","geometry":{"type":"Point","coordinates":[0.2357,44.0941]},"properties":{"latitude":"44.0941","longitude":"0.2357","bright_ti4":"367","scan":"0.45","track":"0.47","acq_date":"2026-07-12","acq_time":"1325","satellite":"N21","instrument":"VIIRS","confidence":"h","version":"2.0NRT","bright_ti5":"311.09","frp":"18","daynight":"D","commune":"Réaup-Lisse","code_insee":"47221","departement":"Lot-et-Garonne","region":"Nouvelle-Aquitaine"}},{"type":"Feature","geometry":{"type":"Point","coordinates":[0.24141,44.09457]},"properties":{"latitude":"44.09457","longitude":"0.24141","bright_ti4":"338.15","scan":"0.45","track":"0.47","acq_date":"2026-07-12","acq_time":"1325","satellite":"N21","instrument":"VIIRS","confidence":"n","version":"2.0NRT","bright_ti5":"303.15","frp":"6.86","daynight":"D","commune":"Réaup-Lisse","code_insee":"47221","departement":"Lot-et-Garonne","region":"Nouvelle-Aquitaine"}},{"type":"Feature","geometry":{"type":"Point","coordinates":[0.22737,44.0958]},"properties":{"latitude":"44.0958","longitude":"0.22737","bright_ti4":"347.43","scan":"0.45","track":"0.47","acq_date":"2026-07-12","acq_time":"1325","satellite":"N21","instrument":"VIIRS","confidence":"n","version":"2.0NRT","bright_ti5":"305.15","frp":"12.68","daynight":"D","commune":"Réaup-Lisse","code_insee":"47221","departement":"Lot-et-Garonne","region":"Nouvelle-Aquitaine"}},{"type":"Feature","geometry":{"type":"Point","coordinates":[0.23306,44.09625]},"properties":{"latitude":"44.09625","longitude":"0.23306","bright_ti4":"355.48","scan":"0.45","track":"0.47","acq_date":"2026-07-12","acq_time":"1325","satellite":"N21","instrument":"VIIRS","confidence":"n","version":"2.0NRT","bright_ti5":"313.35","frp":"15.28","daynight":"D","commune":"Réaup-Lisse","code_insee":"47221","departement":"Lot-et-Garonne","region":"Nouvelle-Aquitaine"}},{"type":"Feature","geometry":{"type":"Point","coordinates":[0.23879,44.09669]},"properties":{"latitude":"44.09669","longitude":"0.23879","bright_ti4":"349.74","scan":"0.45","track":"0.47","acq_date":"2026-07-12","acq_time":"1325","satellite":"N21","instrument":"VIIRS","confidence":"n","version":"2.0NRT","bright_ti5":"301.28","frp":"15.28","daynight":"D","commune":"Réaup-Lisse","code_insee":"47221","departement":"Lot-et-Garonne","region":"Nouvelle-Aquitaine"}},{"type":"Feature","geometry":{"type":"Point","coordinates":[0.22931,44.09792]},"properties":{"latitude":"44.09792","longitude":"0.22931","bright_ti4":"367","scan":"0.45","track":"0.47","acq_date":"2026-07-12","acq_time":"1325","satellite":"N21","instrument":"VIIRS","confidence":"h","version":"2.0NRT","bright_ti5":"308.12","frp":"18","daynight":"D","commune":"Réaup-Lisse","code_insee":"47221","departement":"Lot-et-Garonne","region":"Nouvelle-Aquitaine"}},{"type":"Feature","geometry":{"type":"Point","coordinates":[0.23501,44.0984]},"properties":{"latitude":"44.0984","longitude":"0.23501","bright_ti4":"349.21","scan":"0.45","track":"0.47","acq_date":"2026-07-12","acq_time":"1325","satellite":"N21","instrument":"VIIRS","confidence":"n","version":"2.0NRT","bright_ti5":"303.6","frp":"18","daynight":"D","commune":"Réaup-Lisse","code_insee":"47221","departement":"Lot-et-Garonne","region":"Nouvelle-Aquitaine"}},{"type":"Feature","geometry":{"type":"Point","coordinates":[0.23242,44.10055]},"properties":{"latitude":"44.10055","longitude":"0.23242","bright_ti4":"330.74","scan":"0.45","track":"0.47","acq_date":"2026-07-12","acq_time":"1325","satellite":"N21","instrument":"VIIRS","confidence":"n","version":"2.0NRT","bright_ti5":"297.91","frp":"15.28","daynight":"D","commune":"Réaup-Lisse","code_insee":"47221","departement":"Lot-et-Garonne","region":"Nouvelle-Aquitaine"}},{"type":"Feature","geometry":{"type":"Point","coordinates":[4.32315,44.73384]},"properties":{"latitude":"44.73384","longitude":"4.32315","bright_ti4":"367","scan":"0.37","track":"0.58","acq_date":"2026-07-12","acq_time":"1325","satellite":"N21","instrument":"VIIRS","confidence":"h","version":"2.0NRT","bright_ti5":"305.26","frp":"9.33","daynight":"D","commune":"Aizac","code_insee":"07003","departement":"Ardèche","region":"Auvergne-Rhône-Alpes"}},{"type":"Feature","geometry":{"type":"Point","coordinates":[2.82845,48.49818]},"properties":{"latitude":"48.49818","longitude":"2.82845","bright_ti4":"367","scan":"0.33","track":"0.55","acq_date":"2026-07-12","acq_time":"1325","satellite":"N21","instrument":"VIIRS","confidence":"h","version":"2.0NRT","bright_ti5":"310.9","frp":"5.95","daynight":"D","commune":"Le Châtelet-en-Brie","code_insee":"77100","departement":"Seine-et-Marne","region":"Île-de-France"}},{"type":"Feature","geometry":{"type":"Point","coordinates":[2.83294,48.49836]},"properties":{"latitude":"48.49836","longitude":"2.83294","bright_ti4":"333.41","scan":"0.33","track":"0.55","acq_date":"2026-07-12","acq_time":"1325","satellite":"N21","instrument":"VIIRS","confidence":"n","version":"2.0NRT","bright_ti5":"305.73","frp":"5.95","daynight":"D","commune":"Les Écrennes","code_insee":"77165","departement":"Seine-et-Marne","region":"Île-de-France"}},{"type":"Feature","geometry":{"type":"Point","coordinates":[2.83743,48.49855]},"properties":{"latitude":"48.49855","longitude":"2.83743","bright_ti4":"342.52","scan":"0.33","track":"0.55","acq_date":"2026-07-12","acq_time":"1325","satellite":"N21","instrument":"VIIRS","confidence":"n","version":"2.0NRT","bright_ti5":"307.43","frp":"3.83","daynight":"D","commune":"Les Écrennes","code_insee":"77165","departement":"Seine-et-Marne","region":"Île-de-France"}},{"type":"Feature","geometry":{"type":"Point","coordinates":[2.51059,48.50994]},"properties":{"latitude":"48.50994","longitude":"2.51059","bright_ti4":"367","scan":"0.32","track":"0.55","acq_date":"2026-07-12","acq_time":"1325","satellite":"N21","instrument":"VIIRS","confidence":"h","version":"2.0NRT","bright_ti5":"310.45","frp":"10.99","daynight":"D","commune":"Saint-Fargeau-Ponthierry","code_insee":"77407","departement":"Seine-et-Marne","region":"Île-de-France"}},{"type":"Feature","geometry":{"type":"Point","coordinates":[2.51496,48.51014]},"properties":{"latitude":"48.51014","longitude":"2.51496","bright_ti4":"342.43","scan":"0.32","track":"0.55","acq_date":"2026-07-12","acq_time":"1325","satellite":"N21","instrument":"VIIRS","confidence":"n","version":"2.0NRT","bright_ti5":"307.59","frp":"8.42","daynight":"D","commune":"Saint-Sauveur-sur-École","code_insee":"77435","departement":"Seine-et-Marne","region":"Île-de-France"}},{"type":"Feature","geometry":{"type":"Point","coordinates":[2.5188,48.51538]},"properties":{"latitude":"48.51538","longitude":"2.5188","bright_ti4":"332.27","scan":"0.32","track":"0.55","acq_date":"2026-07-12","acq_time":"1325","satellite":"N21","instrument":"VIIRS","confidence":"l","version":"2.0NRT","bright_ti5":"306.96","frp":"3.64","daynight":"D","commune":"Saint-Fargeau-Ponthierry","code_insee":"77407","departement":"Seine-et-Marne","region":"Île-de-France"}},{"type":"Feature","geometry":{"type":"Point","coordinates":[3.08231,48.87597]},"properties":{"latitude":"48.87597","longitude":"3.08231","bright_ti4":"338.58","scan":"0.34","track":"0.56","acq_date":"2026-07-12","acq_time":"1325","satellite":"N21","instrument":"VIIRS","confidence":"n","version":"2.0NRT","bright_ti5":"283.13","frp":"73.85","daynight":"D","commune":"Jouarre","code_insee":"77238","departement":"Seine-et-Marne","region":"Île-de-France"}},{"type":"Feature","geometry":{"type":"Point","coordinates":[3.08698,48.87616]},"properties":{"latitude":"48.87616","longitude":"3.08698","bright_ti4":"367","scan":"0.34","track":"0.56","acq_date":"2026-07-12","acq_time":"1325","satellite":"N21","instrument":"VIIRS","confidence":"h","version":"2.0NRT","bright_ti5":"339","frp":"73.85","daynight":"D","commune":"Jouarre","code_insee":"77238","departement":"Seine-et-Marne","region":"Île-de-France"}},{"type":"Feature","geometry":{"type":"Point","coordinates":[3.09169,48.87635]},"properties":{"latitude":"48.87635","longitude":"3.09169","bright_ti4":"367","scan":"0.34","track":"0.56","acq_date":"2026-07-12","acq_time":"1325","satellite":"N21","instrument":"VIIRS","confidence":"h","version":"2.0NRT","bright_ti5":"305.78","frp":"60.95","daynight":"D","commune":"Jouarre","code_insee":"77238","departement":"Seine-et-Marne","region":"Île-de-France"}},{"type":"Feature","geometry":{"type":"Point","coordinates":[4.39159,49.02611]},"properties":{"latitude":"49.02611","longitude":"4.39159","bright_ti4":"367","scan":"0.4","track":"0.6","acq_date":"2026-07-12","acq_time":"1325","satellite":"N21","instrument":"VIIRS","confidence":"h","version":"2.0NRT","bright_ti5":"299.71","frp":"10.68","daynight":"D","commune":"La Neuville-au-Temple","code_insee":"51485","departement":"Marne","region":"Grand Est"}},{"type":"Feature","geometry":{"type":"Point","coordinates":[4.39709,49.02627]},"properties":{"latitude":"49.02627","longitude":"4.39709","bright_ti4":"334.02","scan":"0.4","track":"0.6","acq_date":"2026-07-12","acq_time":"1325","satellite":"N21","instrument":"VIIRS","confidence":"n","version":"2.0NRT","bright_ti5":"300.21","frp":"9.56","daynight":"D","commune":"La Neuville-au-Temple","code_insee":"51485","departement":"Marne","region":"Grand Est"}},{"type":"Feature","geometry":{"type":"Point","coordinates":[-1.73487,49.34523]},"properties":{"latitude":"49.34523","longitude":"-1.73487","bright_ti4":"343.33","scan":"0.42","track":"0.45","acq_date":"2026-07-12","acq_time":"1325","satellite":"N21","instrument":"VIIRS","confidence":"n","version":"2.0NRT","bright_ti5":"304.79","frp":"9.56","daynight":"D","commune":"Port-Bail-sur-Mer","code_insee":"50412","departement":"Manche","region":"Normandie"}},{"type":"Feature","geometry":{"type":"Point","coordinates":[3.48748,50.22527]},"properties":{"latitude":"50.22527","longitude":"3.48748","bright_ti4":"207.38","scan":"0.37","track":"0.58","acq_date":"2026-07-12","acq_time":"1325","satellite":"N21","instrument":"VIIRS","confidence":"l","version":"2.0NRT","bright_ti5":"304.59","frp":"73.14","daynight":"D","commune":"Haussy","code_insee":"59289","departement":"Nord","region":"Hauts-de-France"}},{"type":"Feature","geometry":{"type":"Point","coordinates":[3.49253,50.22543]},"properties":{"latitude":"50.22543","longitude":"3.49253","bright_ti4":"367","scan":"0.37","track":"0.58","acq_date":"2026-07-12","acq_time":"1325","satellite":"N21","instrument":"VIIRS","confidence":"h","version":"2.0NRT","bright_ti5":"323.48","frp":"73.14","daynight":"D","commune":"Haussy","code_insee":"59289","departement":"Nord","region":"Hauts-de-France"}},{"type":"Feature","geometry":{"type":"Point","coordinates":[3.49209,50.23076]},"properties":{"latitude":"50.23076","longitude":"3.49209","bright_ti4":"367","scan":"0.37","track":"0.58","acq_date":"2026-07-12","acq_time":"1325","satellite":"N21","instrument":"VIIRS","confidence":"h","version":"2.0NRT","bright_ti5":"315.24","frp":"73.14","daynight":"D","commune":"Haussy","code_insee":"59289","departement":"Nord","region":"Hauts-de-France"}},{"type":"Feature","geometry":{"type":"Point","coordinates":[2.2719,51.02875]},"properties":{"latitude":"51.02875","longitude":"2.2719","bright_ti4":"330.13","scan":"0.33","track":"0.55","acq_date":"2026-07-12","acq_time":"1325","satellite":"N21","instrument":"VIIRS","confidence":"l","version":"2.0NRT","bright_ti5":"302.5","frp":"3.84","daynight":"D","commune":"Grande-Synthe","code_insee":"59271","departement":"Nord","region":"Hauts-de-France"}},{"type":"Feature","geometry":{"type":"Point","coordinates":[2.28128,51.02912]},"properties":{"latitude":"51.02912","longitude":"2.28128","bright_ti4":"367","scan":"0.33","track":"0.55","acq_date":"2026-07-12","acq_time":"1325","satellite":"N21","instrument":"VIIRS","confidence":"h","version":"2.0NRT","bright_ti5":"304.17","frp":"10.94","daynight":"D","commune":"Grande-Synthe","code_insee":"59271","departement":"Nord","region":"Hauts-de-France"}},{"type":"Feature","geometry":{"type":"Point","coordinates":[2.29017,51.03458]},"properties":{"latitude":"51.03458","longitude":"2.29017","bright_ti4":"335.65","scan":"0.33","track":"0.55","acq_date":"2026-07-12","acq_time":"1325","satellite":"N21","instrument":"VIIRS","confidence":"n","version":"2.0NRT","bright_ti5":"302.43","frp":"7.2","daynight":"D","commune":"Grande-Synthe","code_insee":"59271","departement":"Nord","region":"Hauts-de-France"}},{"type":"Feature","geometry":{"type":"Point","coordinates":[2.29382,51.04494]},"properties":{"latitude":"51.04494","longitude":"2.29382","bright_ti4":"330.72","scan":"0.33","track":"0.55","acq_date":"2026-07-12","acq_time":"1325","satellite":"N21","instrument":"VIIRS","confidence":"n","version":"2.0NRT","bright_ti5":"299.45","frp":"1.75","daynight":"D","commune":"Grande-Synthe","code_insee":"59271","departement":"Nord","region":"Hauts-de-France"}},{"type":"Feature","geometry":{"type":"Point","coordinates":[2.29853,51.04512]},"properties":{"latitude":"51.04512","longitude":"2.29853","bright_ti4":"336.06","scan":"0.33","track":"0.55","acq_date":"2026-07-12","acq_time":"1325","satellite":"N21","instrument":"VIIRS","confidence":"n","version":"2.0NRT","bright_ti5":"301.34","frp":"1.75","daynight":"D","commune":"Grande-Synthe","code_insee":"59271","departement":"Nord","region":"Hauts-de-France"}}]}