{"type":"FeatureCollection","features":[{"type":"Feature","geometry":{"type":"Point","coordinates":[2.26954,51.02873]},"properties":{"latitude":"51.02873","longitude":"2.26954","bright_ti4":"316.68","scan":"0.54","track":"0.42","acq_date":"2026-08-05","acq_time":"141","satellite":"N","instrument":"VIIRS","confidence":"n","version":"2.0NRT","bright_ti5":"285.28","frp":"3.27","daynight":"N","commune":"Grande-Synthe","code_insee":"59271","departement":"Nord","region":"Hauts-de-France"}},{"type":"Feature","geometry":{"type":"Point","coordinates":[2.27821,51.03185]},"properties":{"latitude":"51.03185","longitude":"2.27821","bright_ti4":"306.65","scan":"0.54","track":"0.42","acq_date":"2026-08-05","acq_time":"141","satellite":"N","instrument":"VIIRS","confidence":"n","version":"2.0NRT","bright_ti5":"287.78","frp":"2.62","daynight":"N","commune":"Grande-Synthe","code_insee":"59271","departement":"Nord","region":"Hauts-de-France"}},{"type":"Feature","geometry":{"type":"Point","coordinates":[2.29454,51.03421]},"properties":{"latitude":"51.03421","longitude":"2.29454","bright_ti4":"306.53","scan":"0.54","track":"0.42","acq_date":"2026-08-05","acq_time":"141","satellite":"N","instrument":"VIIRS","confidence":"n","version":"2.0NRT","bright_ti5":"288.08","frp":"0.93","daynight":"N","commune":"Grande-Synthe","code_insee":"59271","departement":"Nord","region":"Hauts-de-France"}},{"type":"Feature","geometry":{"type":"Point","coordinates":[2.28686,51.03497]},"properties":{"latitude":"51.03497","longitude":"2.28686","bright_ti4":"310.59","scan":"0.54","track":"0.42","acq_date":"2026-08-05","acq_time":"141","satellite":"N","instrument":"VIIRS","confidence":"n","version":"2.0NRT","bright_ti5":"287.03","frp":"2.63","daynight":"N","commune":"Grande-Synthe","code_insee":"59271","departement":"Nord","region":"Hauts-de-France"}},{"type":"Feature","geometry":{"type":"Point","coordinates":[2.2955,51.03808]},"properties":{"latitude":"51.03808","longitude":"2.2955","bright_ti4":"301.39","scan":"0.54","track":"0.42","acq_date":"2026-08-05","acq_time":"141","satellite":"N","instrument":"VIIRS","confidence":"n","version":"2.0NRT","bright_ti5":"287.65","frp":"0.93","daynight":"N","commune":"Grande-Synthe","code_insee":"59271","departement":"Nord","region":"Hauts-de-France"}},{"type":"Feature","geometry":{"type":"Point","coordinates":[2.29646,51.04195]},"properties":{"latitude":"51.04195","longitude":"2.29646","bright_ti4":"315.64","scan":"0.54","track":"0.42","acq_date":"2026-08-05","acq_time":"141","satellite":"N","instrument":"VIIRS","confidence":"n","version":"2.0NRT","bright_ti5":"288.58","frp":"4.04","daynight":"N","commune":"Grande-Synthe","code_insee":"59271","departement":"Nord","region":"Hauts-de-France"}},{"type":"Feature","geometry":{"type":"Point","coordinates":[2.30382,51.04511]},"properties":{"latitude":"51.04511","longitude":"2.30382","bright_ti4":"302.85","scan":"0.54","track":"0.42","acq_date":"2026-08-05","acq_time":"141","satellite":"N","instrument":"VIIRS","confidence":"n","version":"2.0NRT","bright_ti5":"288.68","frp":"1.22","daynight":"N","commune":"Grande-Synthe","code_insee":"59271","departement":"Nord","region":"Hauts-de-France"}},{"type":"Feature","geometry":{"type":"Point","coordinates":[2.2974,51.04583]},"properties":{"latitude":"51.04583","longitude":"2.2974","bright_ti4":"339.2","scan":"0.54","track":"0.42","acq_date":"2026-08-05","acq_time":"141","satellite":"N","instrument":"VIIRS","confidence":"n","version":"2.0NRT","bright_ti5":"289.61","frp":"4.04","daynight":"N","commune":"Grande-Synthe","code_insee":"59271","departement":"Nord","region":"Hauts-de-France"}},{"type":"Feature","geometry":{"type":"Point","coordinates":[2.2961,51.04584]},"properties":{"latitude":"51.04584","longitude":"2.2961","bright_ti4":"330.79","scan":"0.54","track":"0.42","acq_date":"2026-08-05","acq_time":"141","satellite":"N","instrument":"VIIRS","confidence":"n","version":"2.0NRT","bright_ti5":"290","frp":"6.86","daynight":"N","commune":"Grande-Synthe","code_insee":"59271","departement":"Nord","region":"Hauts-de-France"}},{"type":"Feature","geometry":{"type":"Point","coordinates":[2.32144,51.04741]},"properties":{"latitude":"51.04741","longitude":"2.32144","bright_ti4":"329.86","scan":"0.53","track":"0.42","acq_date":"2026-08-05","acq_time":"141","satellite":"N","instrument":"VIIRS","confidence":"n","version":"2.0NRT","bright_ti5":"290.59","frp":"3.86","daynight":"N","commune":"Dunkerque","code_insee":"59183","departement":"Nord","region":"Hauts-de-France"}},{"type":"Feature","geometry":{"type":"Point","coordinates":[2.32017,51.04752]},"properties":{"latitude":"51.04752","longitude":"2.32017","bright_ti4":"325.72","scan":"0.54","track":"0.42","acq_date":"2026-08-05","acq_time":"141","satellite":"N","instrument":"VIIRS","confidence":"n","version":"2.0NRT","bright_ti5":"290.8","frp":"3.31","daynight":"N","commune":"Dunkerque","code_insee":"59183","departement":"Nord","region":"Hauts-de-France"}},{"type":"Feature","geometry":{"type":"Point","coordinates":[4.88915,43.43163]},"properties":{"latitude":"43.43163","longitude":"4.88915","bright_ti4":"312.71","scan":"0.39","track":"0.36","acq_date":"2026-08-05","acq_time":"143","satellite":"N","instrument":"VIIRS","confidence":"n","version":"2.0NRT","bright_ti5":"294.82","frp":"2.5","daynight":"N","commune":"Fos-sur-Mer","code_insee":"13039","departement":"Bouches-du-Rhône","region":"Provence-Alpes-Côte d'Azur"}},{"type":"Feature","geometry":{"type":"Point","coordinates":[4.89485,43.43423]},"properties":{"latitude":"43.43423","longitude":"4.89485","bright_ti4":"309.95","scan":"0.39","track":"0.36","acq_date":"2026-08-05","acq_time":"143","satellite":"N","instrument":"VIIRS","confidence":"n","version":"2.0NRT","bright_ti5":"294.28","frp":"2","daynight":"N","commune":"Fos-sur-Mer","code_insee":"13039","departement":"Bouches-du-Rhône","region":"Provence-Alpes-Côte d'Azur"}},{"type":"Feature","geometry":{"type":"Point","coordinates":[4.89007,43.43494]},"properties":{"latitude":"43.43494","longitude":"4.89007","bright_ti4":"337.06","scan":"0.39","track":"0.36","acq_date":"2026-08-05","acq_time":"143","satellite":"N","instrument":"VIIRS","confidence":"n","version":"2.0NRT","bright_ti5":"296.01","frp":"2.88","daynight":"N","commune":"Fos-sur-Mer","code_insee":"13039","departement":"Bouches-du-Rhône","region":"Provence-Alpes-Côte d'Azur"}},{"type":"Feature","geometry":{"type":"Point","coordinates":[4.88049,43.43634]},"properties":{"latitude":"43.43634","longitude":"4.88049","bright_ti4":"306.16","scan":"0.39","track":"0.36","acq_date":"2026-08-05","acq_time":"143","satellite":"N","instrument":"VIIRS","confidence":"n","version":"2.0NRT","bright_ti5":"294.19","frp":"1.53","daynight":"N","commune":"Fos-sur-Mer","code_insee":"13039","departement":"Bouches-du-Rhône","region":"Provence-Alpes-Côte d'Azur"}},{"type":"Feature","geometry":{"type":"Point","coordinates":[4.89099,43.43825]},"properties":{"latitude":"43.43825","longitude":"4.89099","bright_ti4":"330.56","scan":"0.39","track":"0.36","acq_date":"2026-08-05","acq_time":"143","satellite":"N","instrument":"VIIRS","confidence":"n","version":"2.0NRT","bright_ti5":"295.21","frp":"2.88","daynight":"N","commune":"Fos-sur-Mer","code_insee":"13039","departement":"Bouches-du-Rhône","region":"Provence-Alpes-Côte d'Azur"}},{"type":"Feature","geometry":{"type":"Point","coordinates":[4.88619,43.43895]},"properties":{"latitude":"43.43895","longitude":"4.88619","bright_ti4":"308.27","scan":"0.39","track":"0.36","acq_date":"2026-08-05","acq_time":"143","satellite":"N","instrument":"VIIRS","confidence":"n","version":"2.0NRT","bright_ti5":"294.32","frp":"2.88","daynight":"N","commune":"Fos-sur-Mer","code_insee":"13039","departement":"Bouches-du-Rhône","region":"Provence-Alpes-Côte d'Azur"}},{"type":"Feature","geometry":{"type":"Point","coordinates":[4.89669,43.44085]},"properties":{"latitude":"43.44085","longitude":"4.89669","bright_ti4":"306.54","scan":"0.39","track":"0.36","acq_date":"2026-08-05","acq_time":"143","satellite":"N","instrument":"VIIRS","confidence":"n","version":"2.0NRT","bright_ti5":"293.48","frp":"1.77","daynight":"N","commune":"Fos-sur-Mer","code_insee":"13039","departement":"Bouches-du-Rhône","region":"Provence-Alpes-Côte d'Azur"}},{"type":"Feature","geometry":{"type":"Point","coordinates":[4.8919,43.44156]},"properties":{"latitude":"43.44156","longitude":"4.8919","bright_ti4":"311.55","scan":"0.39","track":"0.36","acq_date":"2026-08-05","acq_time":"143","satellite":"N","instrument":"VIIRS","confidence":"n","version":"2.0NRT","bright_ti5":"294.67","frp":"1.26","daynight":"N","commune":"Fos-sur-Mer","code_insee":"13039","departement":"Bouches-du-Rhône","region":"Provence-Alpes-Côte d'Azur"}},{"type":"Feature","geometry":{"type":"Point","coordinates":[4.87753,43.44367]},"properties":{"latitude":"43.44367","longitude":"4.87753","bright_ti4":"320","scan":"0.39","track":"0.36","acq_date":"2026-08-05","acq_time":"143","satellite":"N","instrument":"VIIRS","confidence":"n","version":"2.0NRT","bright_ti5":"294.95","frp":"2.2","daynight":"N","commune":"Fos-sur-Mer","code_insee":"13039","departement":"Bouches-du-Rhône","region":"Provence-Alpes-Côte d'Azur"}},{"type":"Feature","geometry":{"type":"Point","coordinates":[4.89761,43.44416]},"properties":{"latitude":"43.44416","longitude":"4.89761","bright_ti4":"328.13","scan":"0.39","track":"0.36","acq_date":"2026-08-05","acq_time":"143","satellite":"N","instrument":"VIIRS","confidence":"n","version":"2.0NRT","bright_ti5":"295.26","frp":"1.77","daynight":"N","commune":"Fos-sur-Mer","code_insee":"13039","departement":"Bouches-du-Rhône","region":"Provence-Alpes-Côte d'Azur"}},{"type":"Feature","geometry":{"type":"Point","coordinates":[4.88803,43.44557]},"properties":{"latitude":"43.44557","longitude":"4.88803","bright_ti4":"306.77","scan":"0.39","track":"0.36","acq_date":"2026-08-05","acq_time":"143","satellite":"N","instrument":"VIIRS","confidence":"n","version":"2.0NRT","bright_ti5":"293.79","frp":"1.26","daynight":"N","commune":"Fos-sur-Mer","code_insee":"13039","departement":"Bouches-du-Rhône","region":"Provence-Alpes-Côte d'Azur"}},{"type":"Feature","geometry":{"type":"Point","coordinates":[4.89853,43.44748]},"properties":{"latitude":"43.44748","longitude":"4.89853","bright_ti4":"320.18","scan":"0.39","track":"0.36","acq_date":"2026-08-05","acq_time":"143","satellite":"N","instrument":"VIIRS","confidence":"n","version":"2.0NRT","bright_ti5":"295.23","frp":"6.45","daynight":"N","commune":"Fos-sur-Mer","code_insee":"13039","departement":"Bouches-du-Rhône","region":"Provence-Alpes-Côte d'Azur"}},{"type":"Feature","geometry":{"type":"Point","coordinates":[4.89374,43.44818]},"properties":{"latitude":"43.44818","longitude":"4.89374","bright_ti4":"330.64","scan":"0.39","track":"0.36","acq_date":"2026-08-05","acq_time":"143","satellite":"N","instrument":"VIIRS","confidence":"n","version":"2.0NRT","bright_ti5":"295.11","frp":"10.18","daynight":"N","commune":"Fos-sur-Mer","code_insee":"13039","departement":"Bouches-du-Rhône","region":"Provence-Alpes-Côte d'Azur"}},{"type":"Feature","geometry":{"type":"Point","coordinates":[4.8497,43.45121]},"properties":{"latitude":"43.45121","longitude":"4.8497","bright_ti4":"305.63","scan":"0.39","track":"0.36","acq_date":"2026-08-05","acq_time":"143","satellite":"N","instrument":"VIIRS","confidence":"n","version":"2.0NRT","bright_ti5":"294.15","frp":"1.16","daynight":"N","commune":"Fos-sur-Mer","code_insee":"13039","departement":"Bouches-du-Rhône","region":"Provence-Alpes-Côte d'Azur"}},{"type":"Feature","geometry":{"type":"Point","coordinates":[7.37526,43.79516]},"properties":{"latitude":"43.79516","longitude":"7.37526","bright_ti4":"309.16","scan":"0.39","track":"0.36","acq_date":"2026-08-05","acq_time":"143","satellite":"N","instrument":"VIIRS","confidence":"n","version":"2.0NRT","bright_ti5":"293.76","frp":"1.24","daynight":"N","commune":"Blausasc","code_insee":"06019","departement":"Alpes-Maritimes","region":"Provence-Alpes-Côte d'Azur"}},{"type":"Feature","geometry":{"type":"Point","coordinates":[1.22859,43.98835]},"properties":{"latitude":"43.98835","longitude":"1.22859","bright_ti4":"300.07","scan":"0.49","track":"0.4","acq_date":"2026-08-05","acq_time":"143","satellite":"N","instrument":"VIIRS","confidence":"n","version":"2.0NRT","bright_ti5":"289.02","frp":"2.01","daynight":"N","commune":"Montech","code_insee":"82125","departement":"Tarn-et-Garonne","region":"Occitanie"}},{"type":"Feature","geometry":{"type":"Point","coordinates":[5.47829,44.53963]},"properties":{"latitude":"44.53963","longitude":"5.47829","bright_ti4":"305.94","scan":"0.39","track":"0.36","acq_date":"2026-08-05","acq_time":"143","satellite":"N","instrument":"VIIRS","confidence":"n","version":"2.0NRT","bright_ti5":"289.7","frp":"1.04","daynight":"N","commune":"Bellegarde-en-Diois","code_insee":"26047","departement":"Drôme","region":"Auvergne-Rhône-Alpes"}},{"type":"Feature","geometry":{"type":"Point","coordinates":[3.20883,45.79391]},"properties":{"latitude":"45.79391","longitude":"3.20883","bright_ti4":"338.94","scan":"0.44","track":"0.38","acq_date":"2026-08-05","acq_time":"143","satellite":"N","instrument":"VIIRS","confidence":"n","version":"2.0NRT","bright_ti5":"292.17","frp":"16.49","daynight":"N","commune":"Pont-du-Château","code_insee":"63284","departement":"Puy-de-Dôme","region":"Auvergne-Rhône-Alpes"}},{"type":"Feature","geometry":{"type":"Point","coordinates":[3.21046,45.79651]},"properties":{"latitude":"45.79651","longitude":"3.21046","bright_ti4":"329.15","scan":"0.44","track":"0.38","acq_date":"2026-08-05","acq_time":"143","satellite":"N","instrument":"VIIRS","confidence":"n","version":"2.0NRT","bright_ti5":"289.95","frp":"3.23","daynight":"N","commune":"Pont-du-Château","code_insee":"63284","departement":"Puy-de-Dôme","region":"Auvergne-Rhône-Alpes"}},{"type":"Feature","geometry":{"type":"Point","coordinates":[4.76242,46.16784]},"properties":{"latitude":"46.16784","longitude":"4.76242","bright_ti4":"302.74","scan":"0.41","track":"0.37","acq_date":"2026-08-05","acq_time":"143","satellite":"N","instrument":"VIIRS","confidence":"n","version":"2.0NRT","bright_ti5":"290.37","frp":"0.38","daynight":"N","commune":"Dracé","code_insee":"69077","departement":"Rhône","region":"Auvergne-Rhône-Alpes"}},{"type":"Feature","geometry":{"type":"Point","coordinates":[0.15314,46.80937]},"properties":{"latitude":"46.80937","longitude":"0.15314","bright_ti4":"313.75","scan":"0.39","track":"0.44","acq_date":"2026-08-05","acq_time":"143","satellite":"N","instrument":"VIIRS","confidence":"n","version":"2.0NRT","bright_ti5":"288.46","frp":"1.23","daynight":"N","commune":"Chouppes","code_insee":"86075","departement":"Vienne","region":"Nouvelle-Aquitaine"}},{"type":"Feature","geometry":{"type":"Point","coordinates":[5.25543,48.29251]},"properties":{"latitude":"48.29251","longitude":"5.25543","bright_ti4":"308.23","scan":"0.41","track":"0.37","acq_date":"2026-08-05","acq_time":"143","satellite":"N","instrument":"VIIRS","confidence":"n","version":"2.0NRT","bright_ti5":"287.92","frp":"0.88","daynight":"N","commune":"Roches-Bettaincourt","code_insee":"52044","departement":"Haute-Marne","region":"Grand Est"}},{"type":"Feature","geometry":{"type":"Point","coordinates":[6.10855,48.56416]},"properties":{"latitude":"48.56416","longitude":"6.10855","bright_ti4":"301.9","scan":"0.4","track":"0.37","acq_date":"2026-08-05","acq_time":"143","satellite":"N","instrument":"VIIRS","confidence":"n","version":"2.0NRT","bright_ti5":"291.17","frp":"0.8","daynight":"N","commune":"Xeuilley","code_insee":"54596","departement":"Meurthe-et-Moselle","region":"Grand Est"}},{"type":"Feature","geometry":{"type":"Point","coordinates":[6.96605,48.68994]},"properties":{"latitude":"48.68994","longitude":"6.96605","bright_ti4":"308.36","scan":"0.39","track":"0.36","acq_date":"2026-08-05","acq_time":"143","satellite":"N","instrument":"VIIRS","confidence":"n","version":"2.0NRT","bright_ti5":"289.98","frp":"1.14","daynight":"N","commune":"Héming","code_insee":"57314","departement":"Moselle","region":"Grand Est"}},{"type":"Feature","geometry":{"type":"Point","coordinates":[5.68226,48.71756]},"properties":{"latitude":"48.71756","longitude":"5.68226","bright_ti4":"309.72","scan":"0.41","track":"0.37","acq_date":"2026-08-05","acq_time":"143","satellite":"N","instrument":"VIIRS","confidence":"n","version":"2.0NRT","bright_ti5":"289.8","frp":"1.23","daynight":"N","commune":"Sorcy-Saint-Martin","code_insee":"55496","departement":"Meuse","region":"Grand Est"}},{"type":"Feature","geometry":{"type":"Point","coordinates":[4.56458,48.76788]},"properties":{"latitude":"48.76788","longitude":"4.56458","bright_ti4":"301.66","scan":"0.43","track":"0.38","acq_date":"2026-08-05","acq_time":"143","satellite":"N","instrument":"VIIRS","confidence":"n","version":"2.0NRT","bright_ti5":"290.85","frp":"0.93","daynight":"N","commune":"Couvrot","code_insee":"51195","departement":"Marne","region":"Grand Est"}},{"type":"Feature","geometry":{"type":"Point","coordinates":[5.99196,49.19357]},"properties":{"latitude":"49.19357","longitude":"5.99196","bright_ti4":"311.09","scan":"0.4","track":"0.37","acq_date":"2026-08-05","acq_time":"143","satellite":"N","instrument":"VIIRS","confidence":"n","version":"2.0NRT","bright_ti5":"290.26","frp":"1.07","daynight":"N","commune":"Sainte-Marie-aux-Chênes","code_insee":"57620","departement":"Moselle","region":"Grand Est"}},{"type":"Feature","geometry":{"type":"Point","coordinates":[5.255,48.2925]},"properties":{"latitude":"48.2925","longitude":"5.255","bright_ti4":"304.43","scan":"0.43","track":"0.38","acq_date":"2026-08-05","acq_time":"202","satellite":"N20","instrument":"VIIRS","confidence":"n","version":"2.0NRT","bright_ti5":"287.7","frp":"0.52","daynight":"N","commune":"Roches-Bettaincourt","code_insee":"52044","departement":"Haute-Marne","region":"Grand Est"}},{"type":"Feature","geometry":{"type":"Point","coordinates":[6.11097,48.56421]},"properties":{"latitude":"48.56421","longitude":"6.11097","bright_ti4":"300.78","scan":"0.45","track":"0.39","acq_date":"2026-08-05","acq_time":"202","satellite":"N20","instrument":"VIIRS","confidence":"n","version":"2.0NRT","bright_ti5":"290.22","frp":"0.7","daynight":"N","commune":"Frolois","code_insee":"54214","departement":"Meurthe-et-Moselle","region":"Grand Est"}},{"type":"Feature","geometry":{"type":"Point","coordinates":[6.96681,48.69217]},"properties":{"latitude":"48.69217","longitude":"6.96681","bright_ti4":"307.27","scan":"0.47","track":"0.4","acq_date":"2026-08-05","acq_time":"202","satellite":"N20","instrument":"VIIRS","confidence":"n","version":"2.0NRT","bright_ti5":"289.53","frp":"1.16","daynight":"N","commune":"Héming","code_insee":"57314","departement":"Moselle","region":"Grand Est"}},{"type":"Feature","geometry":{"type":"Point","coordinates":[5.68387,48.71567]},"properties":{"latitude":"48.71567","longitude":"5.68387","bright_ti4":"310.46","scan":"0.43","track":"0.38","acq_date":"2026-08-05","acq_time":"202","satellite":"N20","instrument":"VIIRS","confidence":"n","version":"2.0NRT","bright_ti5":"289.29","frp":"1.49","daynight":"N","commune":"Sorcy-Saint-Martin","code_insee":"55496","departement":"Meuse","region":"Grand Est"}},{"type":"Feature","geometry":{"type":"Point","coordinates":[4.56665,48.76951]},"properties":{"latitude":"48.76951","longitude":"4.56665","bright_ti4":"301.43","scan":"0.41","track":"0.37","acq_date":"2026-08-05","acq_time":"202","satellite":"N20","instrument":"VIIRS","confidence":"n","version":"2.0NRT","bright_ti5":"290.95","frp":"0.68","daynight":"N","commune":"Couvrot","code_insee":"51195","departement":"Marne","region":"Grand Est"}},{"type":"Feature","geometry":{"type":"Point","coordinates":[6.10198,49.32589]},"properties":{"latitude":"49.32589","longitude":"6.10198","bright_ti4":"304.23","scan":"0.44","track":"0.38","acq_date":"2026-08-05","acq_time":"202","satellite":"N20","instrument":"VIIRS","confidence":"n","version":"2.0NRT","bright_ti5":"290.03","frp":"0.81","daynight":"N","commune":"Serémange-Erzange","code_insee":"57647","departement":"Moselle","region":"Grand Est"}},{"type":"Feature","geometry":{"type":"Point","coordinates":[0.5382,49.46854]},"properties":{"latitude":"49.46854","longitude":"0.5382","bright_ti4":"295.94","scan":"0.39","track":"0.36","acq_date":"2026-08-05","acq_time":"202","satellite":"N20","instrument":"VIIRS","confidence":"n","version":"2.0NRT","bright_ti5":"285.45","frp":"0.77","daynight":"N","commune":"Lillebonne","code_insee":"76384","departement":"Seine-Maritime","region":"Normandie"}},{"type":"Feature","geometry":{"type":"Point","coordinates":[2.27037,51.02687]},"properties":{"latitude":"51.02687","longitude":"2.27037","bright_ti4":"297.28","scan":"0.39","track":"0.36","acq_date":"2026-08-05","acq_time":"202","satellite":"N20","instrument":"VIIRS","confidence":"n","version":"2.0NRT","bright_ti5":"282.68","frp":"0.52","daynight":"N","commune":"Grande-Synthe","code_insee":"59271","departement":"Nord","region":"Hauts-de-France"}},{"type":"Feature","geometry":{"type":"Point","coordinates":[2.28241,51.02846]},"properties":{"latitude":"51.02846","longitude":"2.28241","bright_ti4":"304.4","scan":"0.39","track":"0.36","acq_date":"2026-08-05","acq_time":"202","satellite":"N20","instrument":"VIIRS","confidence":"n","version":"2.0NRT","bright_ti5":"286.26","frp":"5.06","daynight":"N","commune":"Grande-Synthe","code_insee":"59271","departement":"Nord","region":"Hauts-de-France"}},{"type":"Feature","geometry":{"type":"Point","coordinates":[2.27702,51.02929]},"properties":{"latitude":"51.02929","longitude":"2.27702","bright_ti4":"330.06","scan":"0.39","track":"0.36","acq_date":"2026-08-05","acq_time":"202","satellite":"N20","instrument":"VIIRS","confidence":"n","version":"2.0NRT","bright_ti5":"288.36","frp":"5.06","daynight":"N","commune":"Grande-Synthe","code_insee":"59271","departement":"Nord","region":"Hauts-de-France"}},{"type":"Feature","geometry":{"type":"Point","coordinates":[2.27163,51.03012]},"properties":{"latitude":"51.03012","longitude":"2.27163","bright_ti4":"302.12","scan":"0.39","track":"0.36","acq_date":"2026-08-05","acq_time":"202","satellite":"N20","instrument":"VIIRS","confidence":"n","version":"2.0NRT","bright_ti5":"285.34","frp":"0.52","daynight":"N","commune":"Grande-Synthe","code_insee":"59271","departement":"Nord","region":"Hauts-de-France"}},{"type":"Feature","geometry":{"type":"Point","coordinates":[2.28367,51.03171]},"properties":{"latitude":"51.03171","longitude":"2.28367","bright_ti4":"298.18","scan":"0.39","track":"0.36","acq_date":"2026-08-05","acq_time":"202","satellite":"N20","instrument":"VIIRS","confidence":"n","version":"2.0NRT","bright_ti5":"286.19","frp":"0.58","daynight":"N","commune":"Grande-Synthe","code_insee":"59271","departement":"Nord","region":"Hauts-de-France"}},{"type":"Feature","geometry":{"type":"Point","coordinates":[2.27827,51.03254]},"properties":{"latitude":"51.03254","longitude":"2.27827","bright_ti4":"304.71","scan":"0.39","track":"0.36","acq_date":"2026-08-05","acq_time":"202","satellite":"N20","instrument":"VIIRS","confidence":"n","version":"2.0NRT","bright_ti5":"285.82","frp":"0.58","daynight":"N","commune":"Grande-Synthe","code_insee":"59271","departement":"Nord","region":"Hauts-de-France"}},{"type":"Feature","geometry":{"type":"Point","coordinates":[2.29821,51.03979]},"properties":{"latitude":"51.03979","longitude":"2.29821","bright_ti4":"309.39","scan":"0.39","track":"0.36","acq_date":"2026-08-05","acq_time":"202","satellite":"N20","instrument":"VIIRS","confidence":"n","version":"2.0NRT","bright_ti5":"285.01","frp":"0.88","daynight":"N","commune":"Grande-Synthe","code_insee":"59271","departement":"Nord","region":"Hauts-de-France"}},{"type":"Feature","geometry":{"type":"Point","coordinates":[2.29947,51.04304]},"properties":{"latitude":"51.04304","longitude":"2.29947","bright_ti4":"310.9","scan":"0.39","track":"0.36","acq_date":"2026-08-05","acq_time":"202","satellite":"N20","instrument":"VIIRS","confidence":"n","version":"2.0NRT","bright_ti5":"284.95","frp":"3.87","daynight":"N","commune":"Grande-Synthe","code_insee":"59271","departement":"Nord","region":"Hauts-de-France"}},{"type":"Feature","geometry":{"type":"Point","coordinates":[2.29408,51.04387]},"properties":{"latitude":"51.04387","longitude":"2.29408","bright_ti4":"305.06","scan":"0.39","track":"0.36","acq_date":"2026-08-05","acq_time":"202","satellite":"N20","instrument":"VIIRS","confidence":"n","version":"2.0NRT","bright_ti5":"282.87","frp":"3.87","daynight":"N","commune":"Grande-Synthe","code_insee":"59271","departement":"Nord","region":"Hauts-de-France"}},{"type":"Feature","geometry":{"type":"Point","coordinates":[2.30612,51.04546]},"properties":{"latitude":"51.04546","longitude":"2.30612","bright_ti4":"298.3","scan":"0.39","track":"0.36","acq_date":"2026-08-05","acq_time":"202","satellite":"N20","instrument":"VIIRS","confidence":"n","version":"2.0NRT","bright_ti5":"286.24","frp":"0.52","daynight":"N","commune":"Dunkerque","code_insee":"59183","departement":"Nord","region":"Hauts-de-France"}},{"type":"Feature","geometry":{"type":"Point","coordinates":[2.32355,51.04622]},"properties":{"latitude":"51.04622","longitude":"2.32355","bright_ti4":"327.06","scan":"0.38","track":"0.36","acq_date":"2026-08-05","acq_time":"202","satellite":"N20","instrument":"VIIRS","confidence":"n","version":"2.0NRT","bright_ti5":"293.36","frp":"4.17","daynight":"N","commune":"Dunkerque","code_insee":"59183","departement":"Nord","region":"Hauts-de-France"}},{"type":"Feature","geometry":{"type":"Point","coordinates":[2.30073,51.04629]},"properties":{"latitude":"51.04629","longitude":"2.30073","bright_ti4":"305.4","scan":"0.39","track":"0.36","acq_date":"2026-08-05","acq_time":"202","satellite":"N20","instrument":"VIIRS","confidence":"n","version":"2.0NRT","bright_ti5":"289.32","frp":"3.87","daynight":"N","commune":"Grande-Synthe","code_insee":"59271","departement":"Nord","region":"Hauts-de-France"}},{"type":"Feature","geometry":{"type":"Point","coordinates":[2.31816,51.04705]},"properties":{"latitude":"51.04705","longitude":"2.31816","bright_ti4":"302.28","scan":"0.38","track":"0.36","acq_date":"2026-08-05","acq_time":"202","satellite":"N20","instrument":"VIIRS","confidence":"n","version":"2.0NRT","bright_ti5":"288.37","frp":"4.17","daynight":"N","commune":"Dunkerque","code_insee":"59183","departement":"Nord","region":"Hauts-de-France"}},{"type":"Feature","geometry":{"type":"Point","coordinates":[2.29533,51.04712]},"properties":{"latitude":"51.04712","longitude":"2.29533","bright_ti4":"331.71","scan":"0.39","track":"0.36","acq_date":"2026-08-05","acq_time":"202","satellite":"N20","instrument":"VIIRS","confidence":"n","version":"2.0NRT","bright_ti5":"291.07","frp":"3.87","daynight":"N","commune":"Grande-Synthe","code_insee":"59271","departement":"Nord","region":"Hauts-de-France"}},{"type":"Feature","geometry":{"type":"Point","coordinates":[4.88939,43.43197]},"properties":{"latitude":"43.43197","longitude":"4.88939","bright_ti4":"332.57","scan":"0.49","track":"0.4","acq_date":"2026-08-05","acq_time":"204","satellite":"N20","instrument":"VIIRS","confidence":"n","version":"2.0NRT","bright_ti5":"294.77","frp":"5.99","daynight":"N","commune":"Fos-sur-Mer","code_insee":"13039","departement":"Bouches-du-Rhône","region":"Provence-Alpes-Côte d'Azur"}},{"type":"Feature","geometry":{"type":"Point","coordinates":[4.89668,43.43435]},"properties":{"latitude":"43.43435","longitude":"4.89668","bright_ti4":"306.24","scan":"0.49","track":"0.4","acq_date":"2026-08-05","acq_time":"204","satellite":"N20","instrument":"VIIRS","confidence":"n","version":"2.0NRT","bright_ti5":"293.83","frp":"2.46","daynight":"N","commune":"Fos-sur-Mer","code_insee":"13039","departement":"Bouches-du-Rhône","region":"Provence-Alpes-Côte d'Azur"}},{"type":"Feature","geometry":{"type":"Point","coordinates":[4.89078,43.43558]},"properties":{"latitude":"43.43558","longitude":"4.89078","bright_ti4":"331.85","scan":"0.49","track":"0.4","acq_date":"2026-08-05","acq_time":"204","satellite":"N20","instrument":"VIIRS","confidence":"n","version":"2.0NRT","bright_ti5":"294.36","frp":"2.46","daynight":"N","commune":"Fos-sur-Mer","code_insee":"13039","departement":"Bouches-du-Rhône","region":"Provence-Alpes-Côte d'Azur"}},{"type":"Feature","geometry":{"type":"Point","coordinates":[4.89217,43.43918]},"properties":{"latitude":"43.43918","longitude":"4.89217","bright_ti4":"325.3","scan":"0.49","track":"0.4","acq_date":"2026-08-05","acq_time":"204","satellite":"N20","instrument":"VIIRS","confidence":"n","version":"2.0NRT","bright_ti5":"295.45","frp":"2.46","daynight":"N","commune":"Fos-sur-Mer","code_insee":"13039","departement":"Bouches-du-Rhône","region":"Provence-Alpes-Côte d'Azur"}},{"type":"Feature","geometry":{"type":"Point","coordinates":[4.88629,43.44039]},"properties":{"latitude":"43.44039","longitude":"4.88629","bright_ti4":"314.07","scan":"0.49","track":"0.4","acq_date":"2026-08-05","acq_time":"204","satellite":"N20","instrument":"VIIRS","confidence":"n","version":"2.0NRT","bright_ti5":"294.04","frp":"1.87","daynight":"N","commune":"Fos-sur-Mer","code_insee":"13039","departement":"Bouches-du-Rhône","region":"Provence-Alpes-Côte d'Azur"}},{"type":"Feature","geometry":{"type":"Point","coordinates":[4.8804,43.44161]},"properties":{"latitude":"43.44161","longitude":"4.8804","bright_ti4":"311.71","scan":"0.49","track":"0.4","acq_date":"2026-08-05","acq_time":"204","satellite":"N20","instrument":"VIIRS","confidence":"n","version":"2.0NRT","bright_ti5":"294.51","frp":"1.87","daynight":"N","commune":"Fos-sur-Mer","code_insee":"13039","departement":"Bouches-du-Rhône","region":"Provence-Alpes-Côte d'Azur"}},{"type":"Feature","geometry":{"type":"Point","coordinates":[4.90086,43.44517]},"properties":{"latitude":"43.44517","longitude":"4.90086","bright_ti4":"320.12","scan":"0.49","track":"0.4","acq_date":"2026-08-05","acq_time":"204","satellite":"N20","instrument":"VIIRS","confidence":"n","version":"2.0NRT","bright_ti5":"294.78","frp":"5.04","daynight":"N","commune":"Fos-sur-Mer","code_insee":"13039","departement":"Bouches-du-Rhône","region":"Provence-Alpes-Côte d'Azur"}},{"type":"Feature","geometry":{"type":"Point","coordinates":[4.89496,43.44638]},"properties":{"latitude":"43.44638","longitude":"4.89496","bright_ti4":"340.36","scan":"0.49","track":"0.4","acq_date":"2026-08-05","acq_time":"204","satellite":"N20","instrument":"VIIRS","confidence":"n","version":"2.0NRT","bright_ti5":"294.83","frp":"5.04","daynight":"N","commune":"Fos-sur-Mer","code_insee":"13039","departement":"Bouches-du-Rhône","region":"Provence-Alpes-Côte d'Azur"}},{"type":"Feature","geometry":{"type":"Point","coordinates":[-0.91912,43.97873]},"properties":{"latitude":"43.97873","longitude":"-0.91912","bright_ti4":"305.06","scan":"0.39","track":"0.36","acq_date":"2026-08-05","acq_time":"204","satellite":"N20","instrument":"VIIRS","confidence":"n","version":"2.0NRT","bright_ti5":"289.61","frp":"0.81","daynight":"N","commune":"Rion-des-Landes","code_insee":"40243","departement":"Landes","region":"Nouvelle-Aquitaine"}},{"type":"Feature","geometry":{"type":"Point","coordinates":[1.22803,43.98732]},"properties":{"latitude":"43.98732","longitude":"1.22803","bright_ti4":"302.08","scan":"0.39","track":"0.36","acq_date":"2026-08-05","acq_time":"204","satellite":"N20","instrument":"VIIRS","confidence":"n","version":"2.0NRT","bright_ti5":"290.12","frp":"0.48","daynight":"N","commune":"Montech","code_insee":"82125","departement":"Tarn-et-Garonne","region":"Occitanie"}},{"type":"Feature","geometry":{"type":"Point","coordinates":[5.4769,44.53983]},"properties":{"latitude":"44.53983","longitude":"5.4769","bright_ti4":"301.26","scan":"0.5","track":"0.41","acq_date":"2026-08-05","acq_time":"204","satellite":"N20","instrument":"VIIRS","confidence":"n","version":"2.0NRT","bright_ti5":"288.48","frp":"1.12","daynight":"N","commune":"Bellegarde-en-Diois","code_insee":"26047","departement":"Drôme","region":"Auvergne-Rhône-Alpes"}},{"type":"Feature","geometry":{"type":"Point","coordinates":[0.15566,46.80872]},"properties":{"latitude":"46.80872","longitude":"0.15566","bright_ti4":"323.15","scan":"0.39","track":"0.36","acq_date":"2026-08-05","acq_time":"204","satellite":"N20","instrument":"VIIRS","confidence":"n","version":"2.0NRT","bright_ti5":"289.84","frp":"1.91","daynight":"N","commune":"Chouppes","code_insee":"86075","departement":"Vienne","region":"Nouvelle-Aquitaine"}},{"type":"Feature","geometry":{"type":"Point","coordinates":[2.27447,51.02707]},"properties":{"latitude":"51.02707","longitude":"2.27447","bright_ti4":"299.49","scan":"0.33","track":"0.55","acq_date":"2026-08-05","acq_time":"105","satellite":"N21","instrument":"VIIRS","confidence":"n","version":"2.0NRT","bright_ti5":"284.97","frp":"0.9","daynight":"N","commune":"Grande-Synthe","code_insee":"59271","departement":"Nord","region":"Hauts-de-France"}},{"type":"Feature","geometry":{"type":"Point","coordinates":[2.2697,51.02726]},"properties":{"latitude":"51.02726","longitude":"2.2697","bright_ti4":"298.89","scan":"0.33","track":"0.55","acq_date":"2026-08-05","acq_time":"105","satellite":"N21","instrument":"VIIRS","confidence":"n","version":"2.0NRT","bright_ti5":"284.3","frp":"1.04","daynight":"N","commune":"Grande-Synthe","code_insee":"59271","departement":"Nord","region":"Hauts-de-France"}},{"type":"Feature","geometry":{"type":"Point","coordinates":[2.27497,51.03218]},"properties":{"latitude":"51.03218","longitude":"2.27497","bright_ti4":"297.06","scan":"0.33","track":"0.55","acq_date":"2026-08-05","acq_time":"105","satellite":"N21","instrument":"VIIRS","confidence":"n","version":"2.0NRT","bright_ti5":"283.84","frp":"0.75","daynight":"N","commune":"Grande-Synthe","code_insee":"59271","departement":"Nord","region":"Hauts-de-France"}},{"type":"Feature","geometry":{"type":"Point","coordinates":[2.27018,51.03237]},"properties":{"latitude":"51.03237","longitude":"2.27018","bright_ti4":"296.79","scan":"0.33","track":"0.55","acq_date":"2026-08-05","acq_time":"105","satellite":"N21","instrument":"VIIRS","confidence":"n","version":"2.0NRT","bright_ti5":"284.21","frp":"1.2","daynight":"N","commune":"Grande-Synthe","code_insee":"59271","departement":"Nord","region":"Hauts-de-France"}},{"type":"Feature","geometry":{"type":"Point","coordinates":[2.28026,51.03711]},"properties":{"latitude":"51.03711","longitude":"2.28026","bright_ti4":"296.01","scan":"0.33","track":"0.55","acq_date":"2026-08-05","acq_time":"105","satellite":"N21","instrument":"VIIRS","confidence":"n","version":"2.0NRT","bright_ti5":"283.72","frp":"0.75","daynight":"N","commune":"Grande-Synthe","code_insee":"59271","departement":"Nord","region":"Hauts-de-France"}},{"type":"Feature","geometry":{"type":"Point","coordinates":[2.29985,51.04145]},"properties":{"latitude":"51.04145","longitude":"2.29985","bright_ti4":"297.36","scan":"0.33","track":"0.55","acq_date":"2026-08-05","acq_time":"105","satellite":"N21","instrument":"VIIRS","confidence":"n","version":"2.0NRT","bright_ti5":"285.46","frp":"1.23","daynight":"N","commune":"Grande-Synthe","code_insee":"59271","departement":"Nord","region":"Hauts-de-France"}},{"type":"Feature","geometry":{"type":"Point","coordinates":[4.89078,43.43261]},"properties":{"latitude":"43.43261","longitude":"4.89078","bright_ti4":"308.9","scan":"0.42","track":"0.45","acq_date":"2026-08-05","acq_time":"107","satellite":"N21","instrument":"VIIRS","confidence":"n","version":"2.0NRT","bright_ti5":"294.16","frp":"2.21","daynight":"N","commune":"Fos-sur-Mer","code_insee":"13039","departement":"Bouches-du-Rhône","region":"Provence-Alpes-Côte d'Azur"}},{"type":"Feature","geometry":{"type":"Point","coordinates":[4.89148,43.43678]},"properties":{"latitude":"43.43678","longitude":"4.89148","bright_ti4":"331","scan":"0.42","track":"0.45","acq_date":"2026-08-05","acq_time":"107","satellite":"N21","instrument":"VIIRS","confidence":"n","version":"2.0NRT","bright_ti5":"294.55","frp":"2.21","daynight":"N","commune":"Fos-sur-Mer","code_insee":"13039","departement":"Bouches-du-Rhône","region":"Provence-Alpes-Côte d'Azur"}},{"type":"Feature","geometry":{"type":"Point","coordinates":[4.88622,43.43724]},"properties":{"latitude":"43.43724","longitude":"4.88622","bright_ti4":"305.69","scan":"0.42","track":"0.46","acq_date":"2026-08-05","acq_time":"107","satellite":"N21","instrument":"VIIRS","confidence":"n","version":"2.0NRT","bright_ti5":"293.77","frp":"2.21","daynight":"N","commune":"Fos-sur-Mer","code_insee":"13039","departement":"Bouches-du-Rhône","region":"Provence-Alpes-Côte d'Azur"}},{"type":"Feature","geometry":{"type":"Point","coordinates":[4.88097,43.4377]},"properties":{"latitude":"43.4377","longitude":"4.88097","bright_ti4":"305.87","scan":"0.42","track":"0.46","acq_date":"2026-08-05","acq_time":"107","satellite":"N21","instrument":"VIIRS","confidence":"n","version":"2.0NRT","bright_ti5":"294.03","frp":"1.72","daynight":"N","commune":"Fos-sur-Mer","code_insee":"13039","departement":"Bouches-du-Rhône","region":"Provence-Alpes-Côte d'Azur"}},{"type":"Feature","geometry":{"type":"Point","coordinates":[4.89741,43.4405]},"properties":{"latitude":"43.4405","longitude":"4.89741","bright_ti4":"306.35","scan":"0.42","track":"0.45","acq_date":"2026-08-05","acq_time":"107","satellite":"N21","instrument":"VIIRS","confidence":"n","version":"2.0NRT","bright_ti5":"293.17","frp":"1.57","daynight":"N","commune":"Fos-sur-Mer","code_insee":"13039","departement":"Bouches-du-Rhône","region":"Provence-Alpes-Côte d'Azur"}},{"type":"Feature","geometry":{"type":"Point","coordinates":[4.89215,43.44096]},"properties":{"latitude":"43.44096","longitude":"4.89215","bright_ti4":"314.88","scan":"0.42","track":"0.45","acq_date":"2026-08-05","acq_time":"107","satellite":"N21","instrument":"VIIRS","confidence":"n","version":"2.0NRT","bright_ti5":"293.82","frp":"2.15","daynight":"N","commune":"Fos-sur-Mer","code_insee":"13039","departement":"Bouches-du-Rhône","region":"Provence-Alpes-Côte d'Azur"}},{"type":"Feature","geometry":{"type":"Point","coordinates":[4.88165,43.44188]},"properties":{"latitude":"43.44188","longitude":"4.88165","bright_ti4":"308.38","scan":"0.42","track":"0.46","acq_date":"2026-08-05","acq_time":"107","satellite":"N21","instrument":"VIIRS","confidence":"n","version":"2.0NRT","bright_ti5":"294.13","frp":"2.44","daynight":"N","commune":"Fos-sur-Mer","code_insee":"13039","departement":"Bouches-du-Rhône","region":"Provence-Alpes-Côte d'Azur"}},{"type":"Feature","geometry":{"type":"Point","coordinates":[4.89808,43.44467]},"properties":{"latitude":"43.44467","longitude":"4.89808","bright_ti4":"313.77","scan":"0.42","track":"0.45","acq_date":"2026-08-05","acq_time":"107","satellite":"N21","instrument":"VIIRS","confidence":"n","version":"2.0NRT","bright_ti5":"294.36","frp":"1.57","daynight":"N","commune":"Fos-sur-Mer","code_insee":"13039","departement":"Bouches-du-Rhône","region":"Provence-Alpes-Côte d'Azur"}},{"type":"Feature","geometry":{"type":"Point","coordinates":[4.88757,43.44559]},"properties":{"latitude":"43.44559","longitude":"4.88757","bright_ti4":"305.17","scan":"0.42","track":"0.46","acq_date":"2026-08-05","acq_time":"107","satellite":"N21","instrument":"VIIRS","confidence":"n","version":"2.0NRT","bright_ti5":"293.18","frp":"2.15","daynight":"N","commune":"Fos-sur-Mer","code_insee":"13039","departement":"Bouches-du-Rhône","region":"Provence-Alpes-Côte d'Azur"}},{"type":"Feature","geometry":{"type":"Point","coordinates":[5.46271,43.45145]},"properties":{"latitude":"43.45145","longitude":"5.46271","bright_ti4":"303.74","scan":"0.4","track":"0.44","acq_date":"2026-08-05","acq_time":"107","satellite":"N21","instrument":"VIIRS","confidence":"n","version":"2.0NRT","bright_ti5":"293.02","frp":"0.75","daynight":"N","commune":"Gardanne","code_insee":"13041","departement":"Bouches-du-Rhône","region":"Provence-Alpes-Côte d'Azur"}},{"type":"Feature","geometry":{"type":"Point","coordinates":[4.85149,43.45298]},"properties":{"latitude":"43.45298","longitude":"4.85149","bright_ti4":"304.96","scan":"0.43","track":"0.46","acq_date":"2026-08-05","acq_time":"107","satellite":"N21","instrument":"VIIRS","confidence":"n","version":"2.0NRT","bright_ti5":"293.41","frp":"1.08","daynight":"N","commune":"Fos-sur-Mer","code_insee":"13039","departement":"Bouches-du-Rhône","region":"Provence-Alpes-Côte d'Azur"}},{"type":"Feature","geometry":{"type":"Point","coordinates":[7.3763,43.79539]},"properties":{"latitude":"43.79539","longitude":"7.3763","bright_ti4":"303.41","scan":"0.5","track":"0.41","acq_date":"2026-08-05","acq_time":"107","satellite":"N21","instrument":"VIIRS","confidence":"n","version":"2.0NRT","bright_ti5":"292.62","frp":"0.65","daynight":"N","commune":"Blausasc","code_insee":"06019","departement":"Alpes-Maritimes","region":"Provence-Alpes-Côte d'Azur"}},{"type":"Feature","geometry":{"type":"Point","coordinates":[4.69425,44.09035]},"properties":{"latitude":"44.09035","longitude":"4.69425","bright_ti4":"303.53","scan":"0.44","track":"0.46","acq_date":"2026-08-05","acq_time":"107","satellite":"N21","instrument":"VIIRS","confidence":"n","version":"2.0NRT","bright_ti5":"293.23","frp":"1.23","daynight":"N","commune":"Laudun-l'Ardoise","code_insee":"30141","departement":"Gard","region":"Occitanie"}},{"type":"Feature","geometry":{"type":"Point","coordinates":[5.47669,44.53709]},"properties":{"latitude":"44.53709","longitude":"5.47669","bright_ti4":"301.21","scan":"0.41","track":"0.45","acq_date":"2026-08-05","acq_time":"107","satellite":"N21","instrument":"VIIRS","confidence":"n","version":"2.0NRT","bright_ti5":"288.86","frp":"1.17","daynight":"N","commune":"Bellegarde-en-Diois","code_insee":"26047","departement":"Drôme","region":"Auvergne-Rhône-Alpes"}},{"type":"Feature","geometry":{"type":"Point","coordinates":[5.47482,44.53856]},"properties":{"latitude":"44.53856","longitude":"5.47482","bright_ti4":"304.04","scan":"0.41","track":"0.45","acq_date":"2026-08-05","acq_time":"107","satellite":"N21","instrument":"VIIRS","confidence":"n","version":"2.0NRT","bright_ti5":"289.06","frp":"1.29","daynight":"N","commune":"Bellegarde-en-Diois","code_insee":"26047","departement":"Drôme","region":"Auvergne-Rhône-Alpes"}},{"type":"Feature","geometry":{"type":"Point","coordinates":[5.47643,44.54127]},"properties":{"latitude":"44.54127","longitude":"5.47643","bright_ti4":"301.01","scan":"0.41","track":"0.45","acq_date":"2026-08-05","acq_time":"107","satellite":"N21","instrument":"VIIRS","confidence":"n","version":"2.0NRT","bright_ti5":"289.23","frp":"0.88","daynight":"N","commune":"Beaumont-en-Diois","code_insee":"26036","departement":"Drôme","region":"Auvergne-Rhône-Alpes"}},{"type":"Feature","geometry":{"type":"Point","coordinates":[4.44562,45.48795]},"properties":{"latitude":"45.48795","longitude":"4.44562","bright_ti4":"300.36","scan":"0.47","track":"0.48","acq_date":"2026-08-05","acq_time":"107","satellite":"N21","instrument":"VIIRS","confidence":"n","version":"2.0NRT","bright_ti5":"289.88","frp":"0.58","daynight":"N","commune":"Sorbiers","code_insee":"42302","departement":"Loire","region":"Auvergne-Rhône-Alpes"}},{"type":"Feature","geometry":{"type":"Point","coordinates":[0.154,46.80614]},"properties":{"latitude":"46.80614","longitude":"0.154","bright_ti4":"314","scan":"0.39","track":"0.59","acq_date":"2026-08-05","acq_time":"107","satellite":"N21","instrument":"VIIRS","confidence":"n","version":"2.0NRT","bright_ti5":"287.64","frp":"1.39","daynight":"N","commune":"Chouppes","code_insee":"86075","departement":"Vienne","region":"Nouvelle-Aquitaine"}},{"type":"Feature","geometry":{"type":"Point","coordinates":[6.96513,48.69258]},"properties":{"latitude":"48.69258","longitude":"6.96513","bright_ti4":"305.13","scan":"0.39","track":"0.44","acq_date":"2026-08-05","acq_time":"107","satellite":"N21","instrument":"VIIRS","confidence":"n","version":"2.0NRT","bright_ti5":"285.25","frp":"1.27","daynight":"N","commune":"Héming","code_insee":"57314","departement":"Moselle","region":"Grand Est"}},{"type":"Feature","geometry":{"type":"Point","coordinates":[5.68247,48.71592]},"properties":{"latitude":"48.71592","longitude":"5.68247","bright_ti4":"303.26","scan":"0.45","track":"0.47","acq_date":"2026-08-05","acq_time":"107","satellite":"N21","instrument":"VIIRS","confidence":"n","version":"2.0NRT","bright_ti5":"288.88","frp":"1.11","daynight":"N","commune":"Sorcy-Saint-Martin","code_insee":"55496","departement":"Meuse","region":"Grand Est"}},{"type":"Feature","geometry":{"type":"Point","coordinates":[-1.03779,48.1087]},"properties":{"latitude":"48.1087","longitude":"-1.03779","bright_ti4":"298.54","scan":"0.45","track":"0.63","acq_date":"2026-08-05","acq_time":"323","satellite":"N","instrument":"VIIRS","confidence":"n","version":"2.0NRT","bright_ti5":"288.11","frp":"0.84","daynight":"N","commune":"Saint-Pierre-la-Cour","code_insee":"53247","departement":"Mayenne","region":"Pays de la Loire"}},{"type":"Feature","geometry":{"type":"Point","coordinates":[-1.03706,48.10898]},"properties":{"latitude":"48.10898","longitude":"-1.03706","bright_ti4":"298.86","scan":"0.45","track":"0.63","acq_date":"2026-08-05","acq_time":"323","satellite":"N","instrument":"VIIRS","confidence":"n","version":"2.0NRT","bright_ti5":"287.86","frp":"0.51","daynight":"N","commune":"Saint-Pierre-la-Cour","code_insee":"53247","departement":"Mayenne","region":"Pays de la Loire"}},{"type":"Feature","geometry":{"type":"Point","coordinates":[1.28976,49.14825]},"properties":{"latitude":"49.14825","longitude":"1.28976","bright_ti4":"304.98","scan":"0.51","track":"0.66","acq_date":"2026-08-05","acq_time":"323","satellite":"N","instrument":"VIIRS","confidence":"n","version":"2.0NRT","bright_ti5":"285.88","frp":"1.29","daynight":"N","commune":"Saint-Julien-de-la-Liègue","code_insee":"27553","departement":"Eure","region":"Normandie"}},{"type":"Feature","geometry":{"type":"Point","coordinates":[1.28328,49.15047]},"properties":{"latitude":"49.15047","longitude":"1.28328","bright_ti4":"308.14","scan":"0.51","track":"0.66","acq_date":"2026-08-05","acq_time":"323","satellite":"N","instrument":"VIIRS","confidence":"n","version":"2.0NRT","bright_ti5":"285.92","frp":"1.29","daynight":"N","commune":"Saint-Julien-de-la-Liègue","code_insee":"27553","departement":"Eure","region":"Normandie"}},{"type":"Feature","geometry":{"type":"Point","coordinates":[3.20965,45.79071]},"properties":{"latitude":"45.79071","longitude":"3.20965","bright_ti4":"308.97","scan":"0.44","track":"0.62","acq_date":"2026-08-05","acq_time":"247","satellite":"N21","instrument":"VIIRS","confidence":"n","version":"2.0NRT","bright_ti5":"286.66","frp":"3.53","daynight":"N","commune":"Pont-du-Château","code_insee":"63284","departement":"Puy-de-Dôme","region":"Auvergne-Rhône-Alpes"}},{"type":"Feature","geometry":{"type":"Point","coordinates":[3.20446,45.79229]},"properties":{"latitude":"45.79229","longitude":"3.20446","bright_ti4":"328.8","scan":"0.44","track":"0.62","acq_date":"2026-08-05","acq_time":"247","satellite":"N21","instrument":"VIIRS","confidence":"n","version":"2.0NRT","bright_ti5":"287.53","frp":"3.53","daynight":"N","commune":"Pont-du-Château","code_insee":"63284","departement":"Puy-de-Dôme","region":"Auvergne-Rhône-Alpes"}},{"type":"Feature","geometry":{"type":"Point","coordinates":[6.09686,49.32529]},"properties":{"latitude":"49.32529","longitude":"6.09686","bright_ti4":"298.96","scan":"0.45","track":"0.63","acq_date":"2026-08-05","acq_time":"247","satellite":"N21","instrument":"VIIRS","confidence":"n","version":"2.0NRT","bright_ti5":"288.14","frp":"1.36","daynight":"N","commune":"Serémange-Erzange","code_insee":"57647","departement":"Moselle","region":"Grand Est"}},{"type":"Feature","geometry":{"type":"Point","coordinates":[2.27152,51.02513]},"properties":{"latitude":"51.02513","longitude":"2.27152","bright_ti4":"308.75","scan":"0.55","track":"0.51","acq_date":"2026-08-05","acq_time":"247","satellite":"N21","instrument":"VIIRS","confidence":"n","version":"2.0NRT","bright_ti5":"287.88","frp":"3.02","daynight":"N","commune":"Grande-Synthe","code_insee":"59271","departement":"Nord","region":"Hauts-de-France"}},{"type":"Feature","geometry":{"type":"Point","coordinates":[2.28178,51.02748]},"properties":{"latitude":"51.02748","longitude":"2.28178","bright_ti4":"320.22","scan":"0.55","track":"0.51","acq_date":"2026-08-05","acq_time":"247","satellite":"N21","instrument":"VIIRS","confidence":"n","version":"2.0NRT","bright_ti5":"287.38","frp":"3.02","daynight":"N","commune":"Grande-Synthe","code_insee":"59271","departement":"Nord","region":"Hauts-de-France"}},{"type":"Feature","geometry":{"type":"Point","coordinates":[2.27452,51.02946]},"properties":{"latitude":"51.02946","longitude":"2.27452","bright_ti4":"317.9","scan":"0.55","track":"0.51","acq_date":"2026-08-05","acq_time":"247","satellite":"N21","instrument":"VIIRS","confidence":"n","version":"2.0NRT","bright_ti5":"287.92","frp":"3.02","daynight":"N","commune":"Grande-Synthe","code_insee":"59271","departement":"Nord","region":"Hauts-de-France"}},{"type":"Feature","geometry":{"type":"Point","coordinates":[2.29508,51.03416]},"properties":{"latitude":"51.03416","longitude":"2.29508","bright_ti4":"307.03","scan":"0.55","track":"0.51","acq_date":"2026-08-05","acq_time":"247","satellite":"N21","instrument":"VIIRS","confidence":"n","version":"2.0NRT","bright_ti5":"287.64","frp":"1.27","daynight":"N","commune":"Grande-Synthe","code_insee":"59271","departement":"Nord","region":"Hauts-de-France"}},{"type":"Feature","geometry":{"type":"Point","coordinates":[2.2878,51.03614]},"properties":{"latitude":"51.03614","longitude":"2.2878","bright_ti4":"298.27","scan":"0.55","track":"0.51","acq_date":"2026-08-05","acq_time":"247","satellite":"N21","instrument":"VIIRS","confidence":"n","version":"2.0NRT","bright_ti5":"285.57","frp":"1.08","daynight":"N","commune":"Grande-Synthe","code_insee":"59271","departement":"Nord","region":"Hauts-de-France"}},{"type":"Feature","geometry":{"type":"Point","coordinates":[2.28054,51.03812]},"properties":{"latitude":"51.03812","longitude":"2.28054","bright_ti4":"300.13","scan":"0.55","track":"0.51","acq_date":"2026-08-05","acq_time":"247","satellite":"N21","instrument":"VIIRS","confidence":"n","version":"2.0NRT","bright_ti5":"284.89","frp":"1.08","daynight":"N","commune":"Grande-Synthe","code_insee":"59271","departement":"Nord","region":"Hauts-de-France"}},{"type":"Feature","geometry":{"type":"Point","coordinates":[2.29382,51.0448]},"properties":{"latitude":"51.0448","longitude":"2.29382","bright_ti4":"309.98","scan":"0.55","track":"0.51","acq_date":"2026-08-05","acq_time":"247","satellite":"N21","instrument":"VIIRS","confidence":"n","version":"2.0NRT","bright_ti5":"284.1","frp":"1.04","daynight":"N","commune":"Grande-Synthe","code_insee":"59271","departement":"Nord","region":"Hauts-de-France"}},{"type":"Feature","geometry":{"type":"Point","coordinates":[2.32173,51.04753]},"properties":{"latitude":"51.04753","longitude":"2.32173","bright_ti4":"342.35","scan":"0.55","track":"0.51","acq_date":"2026-08-05","acq_time":"247","satellite":"N21","instrument":"VIIRS","confidence":"n","version":"2.0NRT","bright_ti5":"289.65","frp":"10.45","daynight":"N","commune":"Dunkerque","code_insee":"59183","departement":"Nord","region":"Hauts-de-France"}},{"type":"Feature","geometry":{"type":"Point","coordinates":[4.89691,43.43144]},"properties":{"latitude":"43.43144","longitude":"4.89691","bright_ti4":"303.42","scan":"0.63","track":"0.72","acq_date":"2026-08-05","acq_time":"249","satellite":"N21","instrument":"VIIRS","confidence":"n","version":"2.0NRT","bright_ti5":"291.82","frp":"2.65","daynight":"N","commune":"Fos-sur-Mer","code_insee":"13039","departement":"Bouches-du-Rhône","region":"Provence-Alpes-Côte d'Azur"}},{"type":"Feature","geometry":{"type":"Point","coordinates":[4.89352,43.43291]},"properties":{"latitude":"43.43291","longitude":"4.89352","bright_ti4":"306.57","scan":"0.63","track":"0.72","acq_date":"2026-08-05","acq_time":"249","satellite":"N21","instrument":"VIIRS","confidence":"n","version":"2.0NRT","bright_ti5":"291.89","frp":"3.4","daynight":"N","commune":"Fos-sur-Mer","code_insee":"13039","departement":"Bouches-du-Rhône","region":"Provence-Alpes-Côte d'Azur"}},{"type":"Feature","geometry":{"type":"Point","coordinates":[4.88983,43.43377]},"properties":{"latitude":"43.43377","longitude":"4.88983","bright_ti4":"309.02","scan":"0.63","track":"0.72","acq_date":"2026-08-05","acq_time":"249","satellite":"N21","instrument":"VIIRS","confidence":"n","version":"2.0NRT","bright_ti5":"291.89","frp":"3.28","daynight":"N","commune":"Fos-sur-Mer","code_insee":"13039","departement":"Bouches-du-Rhône","region":"Provence-Alpes-Côte d'Azur"}},{"type":"Feature","geometry":{"type":"Point","coordinates":[4.89367,43.43975]},"properties":{"latitude":"43.43975","longitude":"4.89367","bright_ti4":"307.63","scan":"0.63","track":"0.72","acq_date":"2026-08-05","acq_time":"249","satellite":"N21","instrument":"VIIRS","confidence":"n","version":"2.0NRT","bright_ti5":"291.84","frp":"3.28","daynight":"N","commune":"Fos-sur-Mer","code_insee":"13039","departement":"Bouches-du-Rhône","region":"Provence-Alpes-Côte d'Azur"}},{"type":"Feature","geometry":{"type":"Point","coordinates":[4.89036,43.44123]},"properties":{"latitude":"43.44123","longitude":"4.89036","bright_ti4":"308","scan":"0.62","track":"0.72","acq_date":"2026-08-05","acq_time":"249","satellite":"N21","instrument":"VIIRS","confidence":"n","version":"2.0NRT","bright_ti5":"291.68","frp":"3.4","daynight":"N","commune":"Fos-sur-Mer","code_insee":"13039","departement":"Bouches-du-Rhône","region":"Provence-Alpes-Côte d'Azur"}},{"type":"Feature","geometry":{"type":"Point","coordinates":[4.89756,43.44573]},"properties":{"latitude":"43.44573","longitude":"4.89756","bright_ti4":"311.84","scan":"0.63","track":"0.72","acq_date":"2026-08-05","acq_time":"249","satellite":"N21","instrument":"VIIRS","confidence":"n","version":"2.0NRT","bright_ti5":"291.9","frp":"2.98","daynight":"N","commune":"Fos-sur-Mer","code_insee":"13039","departement":"Bouches-du-Rhône","region":"Provence-Alpes-Côte d'Azur"}},{"type":"Feature","geometry":{"type":"Point","coordinates":[4.89419,43.44722]},"properties":{"latitude":"43.44722","longitude":"4.89419","bright_ti4":"309.08","scan":"0.62","track":"0.72","acq_date":"2026-08-05","acq_time":"249","satellite":"N21","instrument":"VIIRS","confidence":"n","version":"2.0NRT","bright_ti5":"291.6","frp":"2.89","daynight":"N","commune":"Fos-sur-Mer","code_insee":"13039","departement":"Bouches-du-Rhône","region":"Provence-Alpes-Côte d'Azur"}},{"type":"Feature","geometry":{"type":"Point","coordinates":[4.89293,43.43755]},"properties":{"latitude":"43.43755","longitude":"4.89293","bright_ti4":"333.13","scan":"0.66","track":"0.73","acq_date":"2026-08-05","acq_time":"1128","satellite":"N","instrument":"VIIRS","confidence":"n","version":"2.0NRT","bright_ti5":"301.81","frp":"9.74","daynight":"D","commune":"Fos-sur-Mer","code_insee":"13039","departement":"Bouches-du-Rhône","region":"Provence-Alpes-Côte d'Azur"}},{"type":"Feature","geometry":{"type":"Point","coordinates":[4.89487,43.44101]},"properties":{"latitude":"43.44101","longitude":"4.89487","bright_ti4":"337.44","scan":"0.57","track":"0.43","acq_date":"2026-08-05","acq_time":"1310","satellite":"N","instrument":"VIIRS","confidence":"l","version":"2.0NRT","bright_ti5":"309.73","frp":"6.61","daynight":"D","commune":"Fos-sur-Mer","code_insee":"13039","departement":"Bouches-du-Rhône","region":"Provence-Alpes-Côte d'Azur"}},{"type":"Feature","geometry":{"type":"Point","coordinates":[4.9013,43.44572]},"properties":{"latitude":"43.44572","longitude":"4.9013","bright_ti4":"340.78","scan":"0.57","track":"0.43","acq_date":"2026-08-05","acq_time":"1310","satellite":"N","instrument":"VIIRS","confidence":"l","version":"2.0NRT","bright_ti5":"311.11","frp":"6.61","daynight":"D","commune":"Fos-sur-Mer","code_insee":"13039","departement":"Bouches-du-Rhône","region":"Provence-Alpes-Côte d'Azur"}},{"type":"Feature","geometry":{"type":"Point","coordinates":[0.15865,46.80842]},"properties":{"latitude":"46.80842","longitude":"0.15865","bright_ti4":"336.41","scan":"0.42","track":"0.38","acq_date":"2026-08-05","acq_time":"1310","satellite":"N","instrument":"VIIRS","confidence":"n","version":"2.0NRT","bright_ti5":"308.75","frp":"4.06","daynight":"D","commune":"Chouppes","code_insee":"86075","departement":"Vienne","region":"Nouvelle-Aquitaine"}},{"type":"Feature","geometry":{"type":"Point","coordinates":[2.88588,48.70409]},"properties":{"latitude":"48.70409","longitude":"2.88588","bright_ti4":"335.04","scan":"0.54","track":"0.42","acq_date":"2026-08-05","acq_time":"1310","satellite":"N","instrument":"VIIRS","confidence":"n","version":"2.0NRT","bright_ti5":"300.01","frp":"41.48","daynight":"D","commune":"Fontenay-Trésigny","code_insee":"77192","departement":"Seine-et-Marne","region":"Île-de-France"}},{"type":"Feature","geometry":{"type":"Point","coordinates":[4.03401,48.96061]},"properties":{"latitude":"48.96061","longitude":"4.03401","bright_ti4":"343.11","scan":"0.4","track":"0.44","acq_date":"2026-08-05","acq_time":"1310","satellite":"N","instrument":"VIIRS","confidence":"n","version":"2.0NRT","bright_ti5":"299.66","frp":"5.56","daynight":"D","commune":"Blancs-Coteaux","code_insee":"51612","departement":"Marne","region":"Grand Est"}},{"type":"Feature","geometry":{"type":"Point","coordinates":[2.27216,51.0255]},"properties":{"latitude":"51.0255","longitude":"2.27216","bright_ti4":"331.27","scan":"0.54","track":"0.42","acq_date":"2026-08-05","acq_time":"1312","satellite":"N","instrument":"VIIRS","confidence":"n","version":"2.0NRT","bright_ti5":"298.75","frp":"3.45","daynight":"D","commune":"Grande-Synthe","code_insee":"59271","departement":"Nord","region":"Hauts-de-France"}},{"type":"Feature","geometry":{"type":"Point","coordinates":[2.28602,51.03477]},"properties":{"latitude":"51.03477","longitude":"2.28602","bright_ti4":"334.53","scan":"0.55","track":"0.42","acq_date":"2026-08-05","acq_time":"1312","satellite":"N","instrument":"VIIRS","confidence":"n","version":"2.0NRT","bright_ti5":"300.11","frp":"7.6","daynight":"D","commune":"Grande-Synthe","code_insee":"59271","departement":"Nord","region":"Hauts-de-France"}},{"type":"Feature","geometry":{"type":"Point","coordinates":[4.8901,43.43362]},"properties":{"latitude":"43.43362","longitude":"4.8901","bright_ti4":"335.04","scan":"0.35","track":"0.57","acq_date":"2026-08-05","acq_time":"1147","satellite":"N20","instrument":"VIIRS","confidence":"l","version":"2.0NRT","bright_ti5":"306.39","frp":"4.7","daynight":"D","commune":"Fos-sur-Mer","code_insee":"13039","departement":"Bouches-du-Rhône","region":"Provence-Alpes-Côte d'Azur"}},{"type":"Feature","geometry":{"type":"Point","coordinates":[4.89164,43.43964]},"properties":{"latitude":"43.43964","longitude":"4.89164","bright_ti4":"344.75","scan":"0.35","track":"0.57","acq_date":"2026-08-05","acq_time":"1147","satellite":"N20","instrument":"VIIRS","confidence":"n","version":"2.0NRT","bright_ti5":"307.58","frp":"4.7","daynight":"D","commune":"Fos-sur-Mer","code_insee":"13039","departement":"Bouches-du-Rhône","region":"Provence-Alpes-Côte d'Azur"}},{"type":"Feature","geometry":{"type":"Point","coordinates":[4.89976,43.44188]},"properties":{"latitude":"43.44188","longitude":"4.89976","bright_ti4":"337.06","scan":"0.35","track":"0.57","acq_date":"2026-08-05","acq_time":"1147","satellite":"N20","instrument":"VIIRS","confidence":"n","version":"2.0NRT","bright_ti5":"306.15","frp":"6.43","daynight":"D","commune":"Fos-sur-Mer","code_insee":"13039","departement":"Bouches-du-Rhône","region":"Provence-Alpes-Côte d'Azur"}},{"type":"Feature","geometry":{"type":"Point","coordinates":[4.93638,43.49659]},"properties":{"latitude":"43.49659","longitude":"4.93638","bright_ti4":"344.08","scan":"0.35","track":"0.56","acq_date":"2026-08-05","acq_time":"1147","satellite":"N20","instrument":"VIIRS","confidence":"n","version":"2.0NRT","bright_ti5":"311.13","frp":"22.47","daynight":"D","commune":"Fos-sur-Mer","code_insee":"13039","departement":"Bouches-du-Rhône","region":"Provence-Alpes-Côte d'Azur"}},{"type":"Feature","geometry":{"type":"Point","coordinates":[4.9404,43.49769]},"properties":{"latitude":"43.49769","longitude":"4.9404","bright_ti4":"367","scan":"0.35","track":"0.56","acq_date":"2026-08-05","acq_time":"1147","satellite":"N20","instrument":"VIIRS","confidence":"h","version":"2.0NRT","bright_ti5":"304.4","frp":"17.5","daynight":"D","commune":"Fos-sur-Mer","code_insee":"13039","departement":"Bouches-du-Rhône","region":"Provence-Alpes-Côte d'Azur"}},{"type":"Feature","geometry":{"type":"Point","coordinates":[3.20796,45.79473]},"properties":{"latitude":"45.79473","longitude":"3.20796","bright_ti4":"334.96","scan":"0.36","track":"0.57","acq_date":"2026-08-05","acq_time":"1147","satellite":"N20","instrument":"VIIRS","confidence":"n","version":"2.0NRT","bright_ti5":"295.87","frp":"3","daynight":"D","commune":"Pont-du-Château","code_insee":"63284","departement":"Puy-de-Dôme","region":"Auvergne-Rhône-Alpes"}},{"type":"Feature","geometry":{"type":"Point","coordinates":[2.88533,48.70613]},"properties":{"latitude":"48.70613","longitude":"2.88533","bright_ti4":"342.09","scan":"0.6","track":"0.53","acq_date":"2026-08-05","acq_time":"1149","satellite":"N20","instrument":"VIIRS","confidence":"n","version":"2.0NRT","bright_ti5":"298.91","frp":"11.76","daynight":"D","commune":"Fontenay-Trésigny","code_insee":"77192","departement":"Seine-et-Marne","region":"Île-de-France"}},{"type":"Feature","geometry":{"type":"Point","coordinates":[2.88393,48.70751]},"properties":{"latitude":"48.70751","longitude":"2.88393","bright_ti4":"350.85","scan":"0.6","track":"0.53","acq_date":"2026-08-05","acq_time":"1149","satellite":"N20","instrument":"VIIRS","confidence":"n","version":"2.0NRT","bright_ti5":"298.42","frp":"12.55","daynight":"D","commune":"Fontenay-Trésigny","code_insee":"77192","departement":"Seine-et-Marne","region":"Île-de-France"}},{"type":"Feature","geometry":{"type":"Point","coordinates":[4.89256,43.44008]},"properties":{"latitude":"43.44008","longitude":"4.89256","bright_ti4":"340.91","scan":"0.39","track":"0.6","acq_date":"2026-08-05","acq_time":"1327","satellite":"N20","instrument":"VIIRS","confidence":"n","version":"2.0NRT","bright_ti5":"305.31","frp":"8.37","daynight":"D","commune":"Fos-sur-Mer","code_insee":"13039","departement":"Bouches-du-Rhône","region":"Provence-Alpes-Côte d'Azur"}},{"type":"Feature","geometry":{"type":"Point","coordinates":[4.92717,43.44152]},"properties":{"latitude":"43.44152","longitude":"4.92717","bright_ti4":"353.95","scan":"0.39","track":"0.6","acq_date":"2026-08-05","acq_time":"1327","satellite":"N20","instrument":"VIIRS","confidence":"n","version":"2.0NRT","bright_ti5":"304.8","frp":"16.43","daynight":"D","commune":"Fos-sur-Mer","code_insee":"13039","departement":"Bouches-du-Rhône","region":"Provence-Alpes-Côte d'Azur"}},{"type":"Feature","geometry":{"type":"Point","coordinates":[4.93212,43.44172]},"properties":{"latitude":"43.44172","longitude":"4.93212","bright_ti4":"367","scan":"0.39","track":"0.6","acq_date":"2026-08-05","acq_time":"1327","satellite":"N20","instrument":"VIIRS","confidence":"h","version":"2.0NRT","bright_ti5":"303.46","frp":"12.6","daynight":"D","commune":"Fos-sur-Mer","code_insee":"13039","departement":"Bouches-du-Rhône","region":"Provence-Alpes-Côte d'Azur"}},{"type":"Feature","geometry":{"type":"Point","coordinates":[4.8971,43.4458]},"properties":{"latitude":"43.4458","longitude":"4.8971","bright_ti4":"337.6","scan":"0.39","track":"0.6","acq_date":"2026-08-05","acq_time":"1327","satellite":"N20","instrument":"VIIRS","confidence":"n","version":"2.0NRT","bright_ti5":"306.24","frp":"4.84","daynight":"D","commune":"Fos-sur-Mer","code_insee":"13039","departement":"Bouches-du-Rhône","region":"Provence-Alpes-Côte d'Azur"}},{"type":"Feature","geometry":{"type":"Point","coordinates":[6.11521,44.33196]},"properties":{"latitude":"44.33196","longitude":"6.11521","bright_ti4":"330.13","scan":"0.46","track":"0.64","acq_date":"2026-08-05","acq_time":"1327","satellite":"N20","instrument":"VIIRS","confidence":"n","version":"2.0NRT","bright_ti5":"298.6","frp":"4.31","daynight":"D","commune":"Bayons","code_insee":"04023","departement":"Alpes-de-Haute-Provence","region":"Provence-Alpes-Côte d'Azur"}},{"type":"Feature","geometry":{"type":"Point","coordinates":[3.2094,45.79162]},"properties":{"latitude":"45.79162","longitude":"3.2094","bright_ti4":"351.69","scan":"0.34","track":"0.56","acq_date":"2026-08-05","acq_time":"1327","satellite":"N20","instrument":"VIIRS","confidence":"n","version":"2.0NRT","bright_ti5":"298.5","frp":"2.6","daynight":"D","commune":"Pont-du-Château","code_insee":"63284","departement":"Puy-de-Dôme","region":"Auvergne-Rhône-Alpes"}},{"type":"Feature","geometry":{"type":"Point","coordinates":[2.28409,51.03466]},"properties":{"latitude":"51.03466","longitude":"2.28409","bright_ti4":"335.39","scan":"0.34","track":"0.56","acq_date":"2026-08-05","acq_time":"1329","satellite":"N20","instrument":"VIIRS","confidence":"n","version":"2.0NRT","bright_ti5":"292.51","frp":"2.83","daynight":"D","commune":"Grande-Synthe","code_insee":"59271","departement":"Nord","region":"Hauts-de-France"}},{"type":"Feature","geometry":{"type":"Point","coordinates":[2.28524,51.03594]},"properties":{"latitude":"51.03594","longitude":"2.28524","bright_ti4":"330.28","scan":"0.34","track":"0.56","acq_date":"2026-08-05","acq_time":"1329","satellite":"N20","instrument":"VIIRS","confidence":"n","version":"2.0NRT","bright_ti5":"293.7","frp":"4.44","daynight":"D","commune":"Grande-Synthe","code_insee":"59271","departement":"Nord","region":"Hauts-de-France"}},{"type":"Feature","geometry":{"type":"Point","coordinates":[2.29783,51.0456]},"properties":{"latitude":"51.0456","longitude":"2.29783","bright_ti4":"367","scan":"0.34","track":"0.56","acq_date":"2026-08-05","acq_time":"1329","satellite":"N20","instrument":"VIIRS","confidence":"h","version":"2.0NRT","bright_ti5":"290.16","frp":"5.62","daynight":"D","commune":"Grande-Synthe","code_insee":"59271","departement":"Nord","region":"Hauts-de-France"}},{"type":"Feature","geometry":{"type":"Point","coordinates":[4.88138,43.4361]},"properties":{"latitude":"43.4361","longitude":"4.88138","bright_ti4":"344.29","scan":"0.38","track":"0.36","acq_date":"2026-08-05","acq_time":"1234","satellite":"N21","instrument":"VIIRS","confidence":"n","version":"2.0NRT","bright_ti5":"313.86","frp":"12.45","daynight":"D","commune":"Fos-sur-Mer","code_insee":"13039","departement":"Bouches-du-Rhône","region":"Provence-Alpes-Côte d'Azur"}},{"type":"Feature","geometry":{"type":"Point","coordinates":[4.89072,43.43752]},"properties":{"latitude":"43.43752","longitude":"4.89072","bright_ti4":"341.46","scan":"0.38","track":"0.36","acq_date":"2026-08-05","acq_time":"1234","satellite":"N21","instrument":"VIIRS","confidence":"l","version":"2.0NRT","bright_ti5":"316.12","frp":"12.58","daynight":"D","commune":"Fos-sur-Mer","code_insee":"13039","departement":"Bouches-du-Rhône","region":"Provence-Alpes-Côte d'Azur"}},{"type":"Feature","geometry":{"type":"Point","coordinates":[4.8982,43.44546]},"properties":{"latitude":"43.44546","longitude":"4.8982","bright_ti4":"345.75","scan":"0.38","track":"0.36","acq_date":"2026-08-05","acq_time":"1234","satellite":"N21","instrument":"VIIRS","confidence":"n","version":"2.0NRT","bright_ti5":"315.5","frp":"6.43","daynight":"D","commune":"Fos-sur-Mer","code_insee":"13039","departement":"Bouches-du-Rhône","region":"Provence-Alpes-Côte d'Azur"}},{"type":"Feature","geometry":{"type":"Point","coordinates":[4.89726,43.44872]},"properties":{"latitude":"43.44872","longitude":"4.89726","bright_ti4":"339.22","scan":"0.38","track":"0.36","acq_date":"2026-08-05","acq_time":"1234","satellite":"N21","instrument":"VIIRS","confidence":"l","version":"2.0NRT","bright_ti5":"312.53","frp":"5.99","daynight":"D","commune":"Fos-sur-Mer","code_insee":"13039","departement":"Bouches-du-Rhône","region":"Provence-Alpes-Côte d'Azur"}},{"type":"Feature","geometry":{"type":"Point","coordinates":[4.70161,43.79147]},"properties":{"latitude":"43.79147","longitude":"4.70161","bright_ti4":"334.59","scan":"0.38","track":"0.36","acq_date":"2026-08-05","acq_time":"1234","satellite":"N21","instrument":"VIIRS","confidence":"l","version":"2.0NRT","bright_ti5":"309.23","frp":"1.87","daynight":"D","commune":"Tarascon","code_insee":"13108","departement":"Bouches-du-Rhône","region":"Provence-Alpes-Côte d'Azur"}},{"type":"Feature","geometry":{"type":"Point","coordinates":[4.70066,43.79473]},"properties":{"latitude":"43.79473","longitude":"4.70066","bright_ti4":"342.48","scan":"0.38","track":"0.36","acq_date":"2026-08-05","acq_time":"1234","satellite":"N21","instrument":"VIIRS","confidence":"n","version":"2.0NRT","bright_ti5":"309.93","frp":"3.03","daynight":"D","commune":"Tarascon","code_insee":"13108","departement":"Bouches-du-Rhône","region":"Provence-Alpes-Côte d'Azur"}},{"type":"Feature","geometry":{"type":"Point","coordinates":[4.66345,43.95364]},"properties":{"latitude":"43.95364","longitude":"4.66345","bright_ti4":"336.24","scan":"0.38","track":"0.36","acq_date":"2026-08-05","acq_time":"1234","satellite":"N21","instrument":"VIIRS","confidence":"l","version":"2.0NRT","bright_ti5":"310.62","frp":"2.47","daynight":"D","commune":"Domazan","code_insee":"30103","departement":"Gard","region":"Occitanie"}},{"type":"Feature","geometry":{"type":"Point","coordinates":[-0.32381,46.35142]},"properties":{"latitude":"46.35142","longitude":"-0.32381","bright_ti4":"338.23","scan":"0.44","track":"0.39","acq_date":"2026-08-05","acq_time":"1234","satellite":"N21","instrument":"VIIRS","confidence":"n","version":"2.0NRT","bright_ti5":"303.23","frp":"4.34","daynight":"D","commune":"La Crèche","code_insee":"79048","departement":"Deux-Sèvres","region":"Nouvelle-Aquitaine"}},{"type":"Feature","geometry":{"type":"Point","coordinates":[3.3689,46.42999]},"properties":{"latitude":"46.42999","longitude":"3.3689","bright_ti4":"336.55","scan":"0.38","track":"0.36","acq_date":"2026-08-05","acq_time":"1234","satellite":"N21","instrument":"VIIRS","confidence":"n","version":"2.0NRT","bright_ti5":"304.59","frp":"6.5","daynight":"D","commune":"Bessay-sur-Allier","code_insee":"03025","departement":"Allier","region":"Auvergne-Rhône-Alpes"}},{"type":"Feature","geometry":{"type":"Point","coordinates":[3.37381,46.43075]},"properties":{"latitude":"46.43075","longitude":"3.37381","bright_ti4":"336.35","scan":"0.38","track":"0.36","acq_date":"2026-08-05","acq_time":"1234","satellite":"N21","instrument":"VIIRS","confidence":"n","version":"2.0NRT","bright_ti5":"303.97","frp":"4.94","daynight":"D","commune":"Bessay-sur-Allier","code_insee":"03025","departement":"Allier","region":"Auvergne-Rhône-Alpes"}},{"type":"Feature","geometry":{"type":"Point","coordinates":[3.37275,46.434]},"properties":{"latitude":"46.434","longitude":"3.37275","bright_ti4":"337.82","scan":"0.38","track":"0.36","acq_date":"2026-08-05","acq_time":"1234","satellite":"N21","instrument":"VIIRS","confidence":"n","version":"2.0NRT","bright_ti5":"304.6","frp":"5.72","daynight":"D","commune":"Bessay-sur-Allier","code_insee":"03025","departement":"Allier","region":"Auvergne-Rhône-Alpes"}},{"type":"Feature","geometry":{"type":"Point","coordinates":[2.5487,46.76665]},"properties":{"latitude":"46.76665","longitude":"2.5487","bright_ti4":"340.85","scan":"0.39","track":"0.36","acq_date":"2026-08-05","acq_time":"1234","satellite":"N21","instrument":"VIIRS","confidence":"n","version":"2.0NRT","bright_ti5":"302.23","frp":"4.04","daynight":"D","commune":"Arpheuilles","code_insee":"18013","departement":"Cher","region":"Centre-Val de Loire"}},{"type":"Feature","geometry":{"type":"Point","coordinates":[0.15335,46.80905]},"properties":{"latitude":"46.80905","longitude":"0.15335","bright_ti4":"331.52","scan":"0.42","track":"0.38","acq_date":"2026-08-05","acq_time":"1234","satellite":"N21","instrument":"VIIRS","confidence":"l","version":"2.0NRT","bright_ti5":"303.68","frp":"3.09","daynight":"D","commune":"Chouppes","code_insee":"86075","departement":"Vienne","region":"Nouvelle-Aquitaine"}},{"type":"Feature","geometry":{"type":"Point","coordinates":[-0.85813,47.25106]},"properties":{"latitude":"47.25106","longitude":"-0.85813","bright_ti4":"336.99","scan":"0.45","track":"0.39","acq_date":"2026-08-05","acq_time":"1234","satellite":"N21","instrument":"VIIRS","confidence":"n","version":"2.0NRT","bright_ti5":"302.85","frp":"5.18","daynight":"D","commune":"Beaupréau-en-Mauges","code_insee":"49023","departement":"Maine-et-Loire","region":"Pays de la Loire"}},{"type":"Feature","geometry":{"type":"Point","coordinates":[1.69268,47.27991]},"properties":{"latitude":"47.27991","longitude":"1.69268","bright_ti4":"348.88","scan":"0.39","track":"0.36","acq_date":"2026-08-05","acq_time":"1234","satellite":"N21","instrument":"VIIRS","confidence":"n","version":"2.0NRT","bright_ti5":"307.57","frp":"25.57","daynight":"D","commune":"Gièvres","code_insee":"41097","departement":"Loir-et-Cher","region":"Centre-Val de Loire"}},{"type":"Feature","geometry":{"type":"Point","coordinates":[1.93201,47.78861]},"properties":{"latitude":"47.78861","longitude":"1.93201","bright_ti4":"338.2","scan":"0.39","track":"0.36","acq_date":"2026-08-05","acq_time":"1234","satellite":"N21","instrument":"VIIRS","confidence":"n","version":"2.0NRT","bright_ti5":"302.47","frp":"5.69","daynight":"D","commune":"Saint-Cyr-en-Val","code_insee":"45272","departement":"Loiret","region":"Centre-Val de Loire"}},{"type":"Feature","geometry":{"type":"Point","coordinates":[1.93083,47.79187]},"properties":{"latitude":"47.79187","longitude":"1.93083","bright_ti4":"338.12","scan":"0.39","track":"0.36","acq_date":"2026-08-05","acq_time":"1234","satellite":"N21","instrument":"VIIRS","confidence":"n","version":"2.0NRT","bright_ti5":"302.88","frp":"6.59","daynight":"D","commune":"Saint-Cyr-en-Val","code_insee":"45272","departement":"Loiret","region":"Centre-Val de Loire"}},{"type":"Feature","geometry":{"type":"Point","coordinates":[1.71743,48.21519]},"properties":{"latitude":"48.21519","longitude":"1.71743","bright_ti4":"342.39","scan":"0.39","track":"0.36","acq_date":"2026-08-05","acq_time":"1234","satellite":"N21","instrument":"VIIRS","confidence":"n","version":"2.0NRT","bright_ti5":"302.64","frp":"6.14","daynight":"D","commune":"Éole-en-Beauce","code_insee":"28406","departement":"Eure-et-Loir","region":"Centre-Val de Loire"}}]}