{"type":"FeatureCollection","features":[{"type":"Feature","geometry":{"type":"Point","coordinates":[4.29498,47.64201]},"properties":{"latitude":"47.64201","longitude":"4.29498","bright_ti4":"296.12","scan":"0.49","track":"0.49","acq_date":"2026-06-14","acq_time":"115","satellite":"N","instrument":"VIIRS","confidence":"n","version":"2.0NRT","bright_ti5":"283.82","frp":"0.44","daynight":"N","commune":"Saint-Rémy","code_insee":"21568","departement":"Côte-d'Or","region":"Bourgogne-Franche-Comté"}},{"type":"Feature","geometry":{"type":"Point","coordinates":[6.60735,48.02389]},"properties":{"latitude":"48.02389","longitude":"6.60735","bright_ti4":"297.35","scan":"0.39","track":"0.44","acq_date":"2026-06-14","acq_time":"115","satellite":"N","instrument":"VIIRS","confidence":"n","version":"2.0NRT","bright_ti5":"284.26","frp":"0.33","daynight":"N","commune":"Saint-Étienne-lès-Remiremont","code_insee":"88415","departement":"Vosges","region":"Grand Est"}},{"type":"Feature","geometry":{"type":"Point","coordinates":[7.42448,48.0992]},"properties":{"latitude":"48.0992","longitude":"7.42448","bright_ti4":"309.28","scan":"0.55","track":"0.43","acq_date":"2026-06-14","acq_time":"115","satellite":"N","instrument":"VIIRS","confidence":"n","version":"2.0NRT","bright_ti5":"286.33","frp":"1.6","daynight":"N","commune":"Bischwihr","code_insee":"68038","departement":"Haut-Rhin","region":"Grand Est"}},{"type":"Feature","geometry":{"type":"Point","coordinates":[-1.00781,48.34269]},"properties":{"latitude":"48.34269","longitude":"-1.00781","bright_ti4":"298.87","scan":"0.44","track":"0.62","acq_date":"2026-06-14","acq_time":"115","satellite":"N","instrument":"VIIRS","confidence":"n","version":"2.0NRT","bright_ti5":"281.99","frp":"0.71","daynight":"N","commune":"Larchamp","code_insee":"53126","departement":"Mayenne","region":"Pays de la Loire"}},{"type":"Feature","geometry":{"type":"Point","coordinates":[5.68036,48.64851]},"properties":{"latitude":"48.64851","longitude":"5.68036","bright_ti4":"305.42","scan":"0.44","track":"0.46","acq_date":"2026-06-14","acq_time":"115","satellite":"N","instrument":"VIIRS","confidence":"n","version":"2.0NRT","bright_ti5":"279.37","frp":"0.28","daynight":"N","commune":"Vaucouleurs","code_insee":"55533","departement":"Meuse","region":"Grand Est"}},{"type":"Feature","geometry":{"type":"Point","coordinates":[7.08093,48.6723]},"properties":{"latitude":"48.6723","longitude":"7.08093","bright_ti4":"304.76","scan":"0.38","track":"0.43","acq_date":"2026-06-14","acq_time":"115","satellite":"N","instrument":"VIIRS","confidence":"n","version":"2.0NRT","bright_ti5":"281.33","frp":"0.66","daynight":"N","commune":"Hartzviller","code_insee":"57299","departement":"Moselle","region":"Grand Est"}},{"type":"Feature","geometry":{"type":"Point","coordinates":[5.68261,48.71549]},"properties":{"latitude":"48.71549","longitude":"5.68261","bright_ti4":"298.84","scan":"0.44","track":"0.46","acq_date":"2026-06-14","acq_time":"115","satellite":"N","instrument":"VIIRS","confidence":"n","version":"2.0NRT","bright_ti5":"280.67","frp":"0.45","daynight":"N","commune":"Sorcy-Saint-Martin","code_insee":"55496","departement":"Meuse","region":"Grand Est"}},{"type":"Feature","geometry":{"type":"Point","coordinates":[7.37161,48.7264]},"properties":{"latitude":"48.7264","longitude":"7.37161","bright_ti4":"302.29","scan":"0.56","track":"0.43","acq_date":"2026-06-14","acq_time":"115","satellite":"N","instrument":"VIIRS","confidence":"n","version":"2.0NRT","bright_ti5":"285.43","frp":"0.64","daynight":"N","commune":"Otterswiller","code_insee":"67367","departement":"Bas-Rhin","region":"Grand Est"}},{"type":"Feature","geometry":{"type":"Point","coordinates":[7.37087,48.72795]},"properties":{"latitude":"48.72795","longitude":"7.37087","bright_ti4":"295.4","scan":"0.56","track":"0.43","acq_date":"2026-06-14","acq_time":"115","satellite":"N","instrument":"VIIRS","confidence":"n","version":"2.0NRT","bright_ti5":"284.78","frp":"0.76","daynight":"N","commune":"Otterswiller","code_insee":"67367","departement":"Bas-Rhin","region":"Grand Est"}},{"type":"Feature","geometry":{"type":"Point","coordinates":[6.66743,49.02433]},"properties":{"latitude":"49.02433","longitude":"6.66743","bright_ti4":"301.06","scan":"0.4","track":"0.44","acq_date":"2026-06-14","acq_time":"115","satellite":"N","instrument":"VIIRS","confidence":"n","version":"2.0NRT","bright_ti5":"278.08","frp":"0.59","daynight":"N","commune":"Guessling-Hémering","code_insee":"57275","departement":"Moselle","region":"Grand Est"}},{"type":"Feature","geometry":{"type":"Point","coordinates":[0.27187,49.2433]},"properties":{"latitude":"49.2433","longitude":"0.27187","bright_ti4":"295.15","scan":"0.39","track":"0.59","acq_date":"2026-06-14","acq_time":"115","satellite":"N","instrument":"VIIRS","confidence":"n","version":"2.0NRT","bright_ti5":"280.76","frp":"0.44","daynight":"N","commune":"Blangy-le-Château","code_insee":"14077","departement":"Calvados","region":"Normandie"}},{"type":"Feature","geometry":{"type":"Point","coordinates":[6.14681,49.3189]},"properties":{"latitude":"49.3189","longitude":"6.14681","bright_ti4":"295.71","scan":"0.43","track":"0.46","acq_date":"2026-06-14","acq_time":"115","satellite":"N","instrument":"VIIRS","confidence":"n","version":"2.0NRT","bright_ti5":"281.88","frp":"0.53","daynight":"N","commune":"Florange","code_insee":"57221","departement":"Moselle","region":"Grand Est"}},{"type":"Feature","geometry":{"type":"Point","coordinates":[1.0713,49.47417]},"properties":{"latitude":"49.47417","longitude":"1.0713","bright_ti4":"300.92","scan":"0.36","track":"0.57","acq_date":"2026-06-14","acq_time":"115","satellite":"N","instrument":"VIIRS","confidence":"n","version":"2.0NRT","bright_ti5":"281.93","frp":"0.34","daynight":"N","commune":"Mont-Saint-Aignan","code_insee":"76451","departement":"Seine-Maritime","region":"Normandie"}},{"type":"Feature","geometry":{"type":"Point","coordinates":[0.53193,49.47562]},"properties":{"latitude":"49.47562","longitude":"0.53193","bright_ti4":"308.63","scan":"0.38","track":"0.59","acq_date":"2026-06-14","acq_time":"115","satellite":"N","instrument":"VIIRS","confidence":"n","version":"2.0NRT","bright_ti5":"285.46","frp":"1.38","daynight":"N","commune":"Lillebonne","code_insee":"76384","departement":"Seine-Maritime","region":"Normandie"}},{"type":"Feature","geometry":{"type":"Point","coordinates":[2.11048,50.69888]},"properties":{"latitude":"50.69888","longitude":"2.11048","bright_ti4":"295.89","scan":"0.33","track":"0.55","acq_date":"2026-06-14","acq_time":"115","satellite":"N","instrument":"VIIRS","confidence":"n","version":"2.0NRT","bright_ti5":"281.44","frp":"0.53","daynight":"N","commune":"Lumbres","code_insee":"62534","departement":"Pas-de-Calais","region":"Hauts-de-France"}},{"type":"Feature","geometry":{"type":"Point","coordinates":[2.26777,51.01184]},"properties":{"latitude":"51.01184","longitude":"2.26777","bright_ti4":"300.31","scan":"0.33","track":"0.55","acq_date":"2026-06-14","acq_time":"115","satellite":"N","instrument":"VIIRS","confidence":"n","version":"2.0NRT","bright_ti5":"279.61","frp":"0.93","daynight":"N","commune":"Dunkerque","code_insee":"59183","departement":"Nord","region":"Hauts-de-France"}},{"type":"Feature","geometry":{"type":"Point","coordinates":[2.2851,51.03691]},"properties":{"latitude":"51.03691","longitude":"2.2851","bright_ti4":"318.76","scan":"0.32","track":"0.55","acq_date":"2026-06-14","acq_time":"115","satellite":"N","instrument":"VIIRS","confidence":"n","version":"2.0NRT","bright_ti5":"280.49","frp":"1.99","daynight":"N","commune":"Grande-Synthe","code_insee":"59271","departement":"Nord","region":"Hauts-de-France"}},{"type":"Feature","geometry":{"type":"Point","coordinates":[4.89655,43.43333]},"properties":{"latitude":"43.43333","longitude":"4.89655","bright_ti4":"304.4","scan":"0.42","track":"0.45","acq_date":"2026-06-14","acq_time":"117","satellite":"N","instrument":"VIIRS","confidence":"n","version":"2.0NRT","bright_ti5":"291.48","frp":"0.66","daynight":"N","commune":"Fos-sur-Mer","code_insee":"13039","departement":"Bouches-du-Rhône","region":"Provence-Alpes-Côte d'Azur"}},{"type":"Feature","geometry":{"type":"Point","coordinates":[4.89207,43.43797]},"properties":{"latitude":"43.43797","longitude":"4.89207","bright_ti4":"317.45","scan":"0.42","track":"0.45","acq_date":"2026-06-14","acq_time":"117","satellite":"N","instrument":"VIIRS","confidence":"n","version":"2.0NRT","bright_ti5":"291.53","frp":"2.94","daynight":"N","commune":"Fos-sur-Mer","code_insee":"13039","departement":"Bouches-du-Rhône","region":"Provence-Alpes-Côte d'Azur"}},{"type":"Feature","geometry":{"type":"Point","coordinates":[4.8928,43.44216]},"properties":{"latitude":"43.44216","longitude":"4.8928","bright_ti4":"308.09","scan":"0.42","track":"0.45","acq_date":"2026-06-14","acq_time":"117","satellite":"N","instrument":"VIIRS","confidence":"n","version":"2.0NRT","bright_ti5":"291.13","frp":"1.68","daynight":"N","commune":"Fos-sur-Mer","code_insee":"13039","departement":"Bouches-du-Rhône","region":"Provence-Alpes-Côte d'Azur"}},{"type":"Feature","geometry":{"type":"Point","coordinates":[4.89876,43.44588]},"properties":{"latitude":"43.44588","longitude":"4.89876","bright_ti4":"325.97","scan":"0.42","track":"0.45","acq_date":"2026-06-14","acq_time":"117","satellite":"N","instrument":"VIIRS","confidence":"n","version":"2.0NRT","bright_ti5":"291.7","frp":"2.72","daynight":"N","commune":"Fos-sur-Mer","code_insee":"13039","departement":"Bouches-du-Rhône","region":"Provence-Alpes-Côte d'Azur"}},{"type":"Feature","geometry":{"type":"Point","coordinates":[4.89353,43.44635]},"properties":{"latitude":"43.44635","longitude":"4.89353","bright_ti4":"310.36","scan":"0.42","track":"0.45","acq_date":"2026-06-14","acq_time":"117","satellite":"N","instrument":"VIIRS","confidence":"n","version":"2.0NRT","bright_ti5":"291.49","frp":"1.68","daynight":"N","commune":"Fos-sur-Mer","code_insee":"13039","departement":"Bouches-du-Rhône","region":"Provence-Alpes-Côte d'Azur"}},{"type":"Feature","geometry":{"type":"Point","coordinates":[4.89947,43.45007]},"properties":{"latitude":"43.45007","longitude":"4.89947","bright_ti4":"306.27","scan":"0.42","track":"0.45","acq_date":"2026-06-14","acq_time":"117","satellite":"N","instrument":"VIIRS","confidence":"n","version":"2.0NRT","bright_ti5":"290.23","frp":"0.81","daynight":"N","commune":"Fos-sur-Mer","code_insee":"13039","departement":"Bouches-du-Rhône","region":"Provence-Alpes-Côte d'Azur"}},{"type":"Feature","geometry":{"type":"Point","coordinates":[4.89425,43.45053]},"properties":{"latitude":"43.45053","longitude":"4.89425","bright_ti4":"313.77","scan":"0.42","track":"0.45","acq_date":"2026-06-14","acq_time":"117","satellite":"N","instrument":"VIIRS","confidence":"n","version":"2.0NRT","bright_ti5":"289.63","frp":"1.69","daynight":"N","commune":"Fos-sur-Mer","code_insee":"13039","departement":"Bouches-du-Rhône","region":"Provence-Alpes-Côte d'Azur"}},{"type":"Feature","geometry":{"type":"Point","coordinates":[7.37399,43.7961]},"properties":{"latitude":"43.7961","longitude":"7.37399","bright_ti4":"297.25","scan":"0.49","track":"0.41","acq_date":"2026-06-14","acq_time":"117","satellite":"N","instrument":"VIIRS","confidence":"n","version":"2.0NRT","bright_ti5":"273.34","frp":"0.41","daynight":"N","commune":"Blausasc","code_insee":"06019","departement":"Alpes-Maritimes","region":"Provence-Alpes-Côte d'Azur"}},{"type":"Feature","geometry":{"type":"Point","coordinates":[5.81991,45.91193]},"properties":{"latitude":"45.91193","longitude":"5.81991","bright_ti4":"297.2","scan":"0.4","track":"0.44","acq_date":"2026-06-14","acq_time":"117","satellite":"N","instrument":"VIIRS","confidence":"n","version":"2.0NRT","bright_ti5":"285.13","frp":"0.63","daynight":"N","commune":"Anglefort","code_insee":"01010","departement":"Ain","region":"Auvergne-Rhône-Alpes"}},{"type":"Feature","geometry":{"type":"Point","coordinates":[3.48977,50.33263]},"properties":{"latitude":"50.33263","longitude":"3.48977","bright_ti4":"301.4","scan":"0.32","track":"0.55","acq_date":"2026-06-14","acq_time":"256","satellite":"N","instrument":"VIIRS","confidence":"n","version":"2.0NRT","bright_ti5":"280.63","frp":"0.47","daynight":"N","commune":"Trith-Saint-Léger","code_insee":"59603","departement":"Nord","region":"Hauts-de-France"}},{"type":"Feature","geometry":{"type":"Point","coordinates":[2.28309,51.035]},"properties":{"latitude":"51.035","longitude":"2.28309","bright_ti4":"323.51","scan":"0.55","track":"0.51","acq_date":"2026-06-14","acq_time":"256","satellite":"N","instrument":"VIIRS","confidence":"n","version":"2.0NRT","bright_ti5":"284.12","frp":"1.72","daynight":"N","commune":"Grande-Synthe","code_insee":"59271","departement":"Nord","region":"Hauts-de-France"}},{"type":"Feature","geometry":{"type":"Point","coordinates":[2.28616,51.03937]},"properties":{"latitude":"51.03937","longitude":"2.28616","bright_ti4":"299.37","scan":"0.55","track":"0.51","acq_date":"2026-06-14","acq_time":"256","satellite":"N","instrument":"VIIRS","confidence":"n","version":"2.0NRT","bright_ti5":"283.6","frp":"1.72","daynight":"N","commune":"Grande-Synthe","code_insee":"59271","departement":"Nord","region":"Hauts-de-France"}},{"type":"Feature","geometry":{"type":"Point","coordinates":[2.29956,51.04609]},"properties":{"latitude":"51.04609","longitude":"2.29956","bright_ti4":"309.86","scan":"0.55","track":"0.51","acq_date":"2026-06-14","acq_time":"256","satellite":"N","instrument":"VIIRS","confidence":"n","version":"2.0NRT","bright_ti5":"284.7","frp":"2.94","daynight":"N","commune":"Grande-Synthe","code_insee":"59271","departement":"Nord","region":"Hauts-de-France"}},{"type":"Feature","geometry":{"type":"Point","coordinates":[2.29225,51.0481]},"properties":{"latitude":"51.0481","longitude":"2.29225","bright_ti4":"302.17","scan":"0.55","track":"0.51","acq_date":"2026-06-14","acq_time":"256","satellite":"N","instrument":"VIIRS","confidence":"n","version":"2.0NRT","bright_ti5":"284.93","frp":"2.48","daynight":"N","commune":"Grande-Synthe","code_insee":"59271","departement":"Nord","region":"Hauts-de-France"}},{"type":"Feature","geometry":{"type":"Point","coordinates":[4.88924,43.43365]},"properties":{"latitude":"43.43365","longitude":"4.88924","bright_ti4":"296.86","scan":"0.61","track":"0.71","acq_date":"2026-06-14","acq_time":"258","satellite":"N","instrument":"VIIRS","confidence":"n","version":"2.0NRT","bright_ti5":"285.56","frp":"1.86","daynight":"N","commune":"Fos-sur-Mer","code_insee":"13039","departement":"Bouches-du-Rhône","region":"Provence-Alpes-Côte d'Azur"}},{"type":"Feature","geometry":{"type":"Point","coordinates":[4.88989,43.43867]},"properties":{"latitude":"43.43867","longitude":"4.88989","bright_ti4":"303.41","scan":"0.61","track":"0.71","acq_date":"2026-06-14","acq_time":"258","satellite":"N","instrument":"VIIRS","confidence":"n","version":"2.0NRT","bright_ti5":"285.27","frp":"1.23","daynight":"N","commune":"Fos-sur-Mer","code_insee":"13039","departement":"Bouches-du-Rhône","region":"Provence-Alpes-Côte d'Azur"}},{"type":"Feature","geometry":{"type":"Point","coordinates":[4.89311,43.4397]},"properties":{"latitude":"43.4397","longitude":"4.89311","bright_ti4":"296.55","scan":"0.61","track":"0.71","acq_date":"2026-06-14","acq_time":"258","satellite":"N","instrument":"VIIRS","confidence":"n","version":"2.0NRT","bright_ti5":"284.56","frp":"1.33","daynight":"N","commune":"Fos-sur-Mer","code_insee":"13039","departement":"Bouches-du-Rhône","region":"Provence-Alpes-Côte d'Azur"}},{"type":"Feature","geometry":{"type":"Point","coordinates":[4.88286,43.44106]},"properties":{"latitude":"43.44106","longitude":"4.88286","bright_ti4":"295.8","scan":"0.6","track":"0.71","acq_date":"2026-06-14","acq_time":"258","satellite":"N","instrument":"VIIRS","confidence":"n","version":"2.0NRT","bright_ti5":"284.95","frp":"1.23","daynight":"N","commune":"Fos-sur-Mer","code_insee":"13039","departement":"Bouches-du-Rhône","region":"Provence-Alpes-Côte d'Azur"}},{"type":"Feature","geometry":{"type":"Point","coordinates":[4.88607,43.44205]},"properties":{"latitude":"43.44205","longitude":"4.88607","bright_ti4":"296.38","scan":"0.61","track":"0.71","acq_date":"2026-06-14","acq_time":"258","satellite":"N","instrument":"VIIRS","confidence":"n","version":"2.0NRT","bright_ti5":"284.61","frp":"1.19","daynight":"N","commune":"Fos-sur-Mer","code_insee":"13039","departement":"Bouches-du-Rhône","region":"Provence-Alpes-Côte d'Azur"}},{"type":"Feature","geometry":{"type":"Point","coordinates":[4.87898,43.44442]},"properties":{"latitude":"43.44442","longitude":"4.87898","bright_ti4":"295.04","scan":"0.6","track":"0.71","acq_date":"2026-06-14","acq_time":"258","satellite":"N","instrument":"VIIRS","confidence":"n","version":"2.0NRT","bright_ti5":"283.24","frp":"1.19","daynight":"N","commune":"Fos-sur-Mer","code_insee":"13039","departement":"Bouches-du-Rhône","region":"Provence-Alpes-Côte d'Azur"}},{"type":"Feature","geometry":{"type":"Point","coordinates":[3.42033,43.57926]},"properties":{"latitude":"43.57926","longitude":"3.42033","bright_ti4":"299.61","scan":"0.52","track":"0.67","acq_date":"2026-06-14","acq_time":"258","satellite":"N","instrument":"VIIRS","confidence":"n","version":"2.0NRT","bright_ti5":"281.97","frp":"0.48","daynight":"N","commune":"Lieuran-Cabrières","code_insee":"34138","departement":"Hérault","region":"Occitanie"}},{"type":"Feature","geometry":{"type":"Point","coordinates":[3.41599,43.58017]},"properties":{"latitude":"43.58017","longitude":"3.41599","bright_ti4":"298.68","scan":"0.52","track":"0.66","acq_date":"2026-06-14","acq_time":"258","satellite":"N","instrument":"VIIRS","confidence":"n","version":"2.0NRT","bright_ti5":"281.91","frp":"0.53","daynight":"N","commune":"Lieuran-Cabrières","code_insee":"34138","departement":"Hérault","region":"Occitanie"}},{"type":"Feature","geometry":{"type":"Point","coordinates":[3.44406,43.60587]},"properties":{"latitude":"43.60587","longitude":"3.44406","bright_ti4":"300.4","scan":"0.52","track":"0.67","acq_date":"2026-06-14","acq_time":"258","satellite":"N","instrument":"VIIRS","confidence":"n","version":"2.0NRT","bright_ti5":"284.42","frp":"1.82","daynight":"N","commune":"Nébian","code_insee":"34180","departement":"Hérault","region":"Occitanie"}},{"type":"Feature","geometry":{"type":"Point","coordinates":[3.43989,43.60667]},"properties":{"latitude":"43.60667","longitude":"3.43989","bright_ti4":"331.98","scan":"0.52","track":"0.67","acq_date":"2026-06-14","acq_time":"258","satellite":"N","instrument":"VIIRS","confidence":"n","version":"2.0NRT","bright_ti5":"285.06","frp":"3.81","daynight":"N","commune":"Nébian","code_insee":"34180","departement":"Hérault","region":"Occitanie"}},{"type":"Feature","geometry":{"type":"Point","coordinates":[3.43781,43.60785]},"properties":{"latitude":"43.60785","longitude":"3.43781","bright_ti4":"323.71","scan":"0.52","track":"0.67","acq_date":"2026-06-14","acq_time":"258","satellite":"N","instrument":"VIIRS","confidence":"n","version":"2.0NRT","bright_ti5":"284.28","frp":"1.82","daynight":"N","commune":"Nébian","code_insee":"34180","departement":"Hérault","region":"Occitanie"}},{"type":"Feature","geometry":{"type":"Point","coordinates":[4.5632,48.77082]},"properties":{"latitude":"48.77082","longitude":"4.5632","bright_ti4":"301.65","scan":"0.4","track":"0.6","acq_date":"2026-06-14","acq_time":"258","satellite":"N","instrument":"VIIRS","confidence":"n","version":"2.0NRT","bright_ti5":"283.04","frp":"0.74","daynight":"N","commune":"Couvrot","code_insee":"51195","departement":"Marne","region":"Grand Est"}},{"type":"Feature","geometry":{"type":"Point","coordinates":[0.53675,49.47602]},"properties":{"latitude":"49.47602","longitude":"0.53675","bright_ti4":"295.24","scan":"0.52","track":"0.5","acq_date":"2026-06-14","acq_time":"258","satellite":"N","instrument":"VIIRS","confidence":"n","version":"2.0NRT","bright_ti5":"283.91","frp":"1.44","daynight":"N","commune":"Port-Jérôme-sur-Seine","code_insee":"76476","departement":"Seine-Maritime","region":"Normandie"}},{"type":"Feature","geometry":{"type":"Point","coordinates":[1.07019,49.47645]},"properties":{"latitude":"49.47645","longitude":"1.07019","bright_ti4":"295.96","scan":"0.54","track":"0.51","acq_date":"2026-06-14","acq_time":"258","satellite":"N","instrument":"VIIRS","confidence":"n","version":"2.0NRT","bright_ti5":"281.79","frp":"0.54","daynight":"N","commune":"Mont-Saint-Aignan","code_insee":"76451","departement":"Seine-Maritime","region":"Normandie"}},{"type":"Feature","geometry":{"type":"Point","coordinates":[0.52996,49.4778]},"properties":{"latitude":"49.4778","longitude":"0.52996","bright_ti4":"295.19","scan":"0.52","track":"0.5","acq_date":"2026-06-14","acq_time":"258","satellite":"N","instrument":"VIIRS","confidence":"n","version":"2.0NRT","bright_ti5":"285.08","frp":"1.62","daynight":"N","commune":"Lillebonne","code_insee":"76384","departement":"Seine-Maritime","region":"Normandie"}},{"type":"Feature","geometry":{"type":"Point","coordinates":[-1.5238,49.60407]},"properties":{"latitude":"49.60407","longitude":"-1.5238","bright_ti4":"297.31","scan":"0.42","track":"0.46","acq_date":"2026-06-14","acq_time":"258","satellite":"N","instrument":"VIIRS","confidence":"n","version":"2.0NRT","bright_ti5":"280.9","frp":"0.39","daynight":"N","commune":"Le Mesnil-au-Val","code_insee":"50305","departement":"Manche","region":"Normandie"}},{"type":"Feature","geometry":{"type":"Point","coordinates":[4.9007,43.44596]},"properties":{"latitude":"43.44596","longitude":"4.9007","bright_ti4":"340.06","scan":"0.38","track":"0.36","acq_date":"2026-06-14","acq_time":"1242","satellite":"N","instrument":"VIIRS","confidence":"l","version":"2.0NRT","bright_ti5":"313.55","frp":"4.81","daynight":"D","commune":"Fos-sur-Mer","code_insee":"13039","departement":"Bouches-du-Rhône","region":"Provence-Alpes-Côte d'Azur"}},{"type":"Feature","geometry":{"type":"Point","coordinates":[0.18329,45.3576]},"properties":{"latitude":"45.3576","longitude":"0.18329","bright_ti4":"340.64","scan":"0.43","track":"0.38","acq_date":"2026-06-14","acq_time":"1244","satellite":"N","instrument":"VIIRS","confidence":"n","version":"2.0NRT","bright_ti5":"313.32","frp":"14.02","daynight":"D","commune":"Juignac","code_insee":"16170","departement":"Charente","region":"Nouvelle-Aquitaine"}},{"type":"Feature","geometry":{"type":"Point","coordinates":[0.14977,46.88422]},"properties":{"latitude":"46.88422","longitude":"0.14977","bright_ti4":"337.12","scan":"0.42","track":"0.37","acq_date":"2026-06-14","acq_time":"1244","satellite":"N","instrument":"VIIRS","confidence":"n","version":"2.0NRT","bright_ti5":"308.79","frp":"8.66","daynight":"D","commune":"Guesnes","code_insee":"86109","departement":"Vienne","region":"Nouvelle-Aquitaine"}},{"type":"Feature","geometry":{"type":"Point","coordinates":[2.7767,47.20298]},"properties":{"latitude":"47.20298","longitude":"2.7767","bright_ti4":"342.39","scan":"0.38","track":"0.36","acq_date":"2026-06-14","acq_time":"1244","satellite":"N","instrument":"VIIRS","confidence":"n","version":"2.0NRT","bright_ti5":"309.19","frp":"2.72","daynight":"D","commune":"Jalognes","code_insee":"18116","departement":"Cher","region":"Centre-Val de Loire"}},{"type":"Feature","geometry":{"type":"Point","coordinates":[2.63072,47.69863]},"properties":{"latitude":"47.69863","longitude":"2.63072","bright_ti4":"338.57","scan":"0.38","track":"0.36","acq_date":"2026-06-14","acq_time":"1244","satellite":"N","instrument":"VIIRS","confidence":"l","version":"2.0NRT","bright_ti5":"311.23","frp":"4.09","daynight":"D","commune":"Gien","code_insee":"45155","departement":"Loiret","region":"Centre-Val de Loire"}},{"type":"Feature","geometry":{"type":"Point","coordinates":[4.03403,48.3169]},"properties":{"latitude":"48.3169","longitude":"4.03403","bright_ti4":"343.17","scan":"0.39","track":"0.36","acq_date":"2026-06-14","acq_time":"1244","satellite":"N","instrument":"VIIRS","confidence":"n","version":"2.0NRT","bright_ti5":"306.36","frp":"4.64","daynight":"D","commune":"La Chapelle-Saint-Luc","code_insee":"10081","departement":"Aube","region":"Grand Est"}},{"type":"Feature","geometry":{"type":"Point","coordinates":[2.98075,48.38714]},"properties":{"latitude":"48.38714","longitude":"2.98075","bright_ti4":"334.53","scan":"0.38","track":"0.36","acq_date":"2026-06-14","acq_time":"1244","satellite":"N","instrument":"VIIRS","confidence":"l","version":"2.0NRT","bright_ti5":"308.42","frp":"3.41","daynight":"D","commune":"Montereau-Fault-Yonne","code_insee":"77305","departement":"Seine-et-Marne","region":"Île-de-France"}},{"type":"Feature","geometry":{"type":"Point","coordinates":[1.92694,48.7562]},"properties":{"latitude":"48.7562","longitude":"1.92694","bright_ti4":"330.62","scan":"0.38","track":"0.36","acq_date":"2026-06-14","acq_time":"1244","satellite":"N","instrument":"VIIRS","confidence":"l","version":"2.0NRT","bright_ti5":"304.85","frp":"3.53","daynight":"D","commune":"Coignières","code_insee":"78168","departement":"Yvelines","region":"Île-de-France"}},{"type":"Feature","geometry":{"type":"Point","coordinates":[2.3001,51.04512]},"properties":{"latitude":"51.04512","longitude":"2.3001","bright_ti4":"336.67","scan":"0.39","track":"0.36","acq_date":"2026-06-14","acq_time":"1244","satellite":"N","instrument":"VIIRS","confidence":"n","version":"2.0NRT","bright_ti5":"302.33","frp":"7.7","daynight":"D","commune":"Grande-Synthe","code_insee":"59271","departement":"Nord","region":"Hauts-de-France"}},{"type":"Feature","geometry":{"type":"Point","coordinates":[2.28504,51.0324]},"properties":{"latitude":"51.0324","longitude":"2.28504","bright_ti4":"295.6","scan":"0.54","track":"0.42","acq_date":"2026-06-14","acq_time":"134","satellite":"N20","instrument":"VIIRS","confidence":"n","version":"2.0NRT","bright_ti5":"284.81","frp":"0.82","daynight":"N","commune":"Grande-Synthe","code_insee":"59271","departement":"Nord","region":"Hauts-de-France"}},{"type":"Feature","geometry":{"type":"Point","coordinates":[2.27728,51.03315]},"properties":{"latitude":"51.03315","longitude":"2.27728","bright_ti4":"299.06","scan":"0.54","track":"0.42","acq_date":"2026-06-14","acq_time":"134","satellite":"N20","instrument":"VIIRS","confidence":"n","version":"2.0NRT","bright_ti5":"283.98","frp":"1.07","daynight":"N","commune":"Grande-Synthe","code_insee":"59271","departement":"Nord","region":"Hauts-de-France"}},{"type":"Feature","geometry":{"type":"Point","coordinates":[2.25398,51.03537]},"properties":{"latitude":"51.03537","longitude":"2.25398","bright_ti4":"299.43","scan":"0.54","track":"0.42","acq_date":"2026-06-14","acq_time":"134","satellite":"N20","instrument":"VIIRS","confidence":"n","version":"2.0NRT","bright_ti5":"284.24","frp":"0.93","daynight":"N","commune":"Dunkerque","code_insee":"59183","departement":"Nord","region":"Hauts-de-France"}},{"type":"Feature","geometry":{"type":"Point","coordinates":[2.28599,51.03628]},"properties":{"latitude":"51.03628","longitude":"2.28599","bright_ti4":"315.95","scan":"0.54","track":"0.42","acq_date":"2026-06-14","acq_time":"134","satellite":"N20","instrument":"VIIRS","confidence":"n","version":"2.0NRT","bright_ti5":"284.69","frp":"2.25","daynight":"N","commune":"Grande-Synthe","code_insee":"59271","departement":"Nord","region":"Hauts-de-France"}},{"type":"Feature","geometry":{"type":"Point","coordinates":[2.29563,51.04329]},"properties":{"latitude":"51.04329","longitude":"2.29563","bright_ti4":"314.67","scan":"0.54","track":"0.42","acq_date":"2026-06-14","acq_time":"134","satellite":"N20","instrument":"VIIRS","confidence":"n","version":"2.0NRT","bright_ti5":"287.1","frp":"3.17","daynight":"N","commune":"Grande-Synthe","code_insee":"59271","departement":"Nord","region":"Hauts-de-France"}},{"type":"Feature","geometry":{"type":"Point","coordinates":[2.29657,51.04717]},"properties":{"latitude":"51.04717","longitude":"2.29657","bright_ti4":"330.73","scan":"0.54","track":"0.42","acq_date":"2026-06-14","acq_time":"134","satellite":"N20","instrument":"VIIRS","confidence":"n","version":"2.0NRT","bright_ti5":"286.5","frp":"3.17","daynight":"N","commune":"Grande-Synthe","code_insee":"59271","departement":"Nord","region":"Hauts-de-France"}},{"type":"Feature","geometry":{"type":"Point","coordinates":[7.23581,47.6312]},"properties":{"latitude":"47.6312","longitude":"7.23581","bright_ti4":"302.49","scan":"0.39","track":"0.36","acq_date":"2026-06-14","acq_time":"137","satellite":"N20","instrument":"VIIRS","confidence":"n","version":"2.0NRT","bright_ti5":"288.6","frp":"0.49","daynight":"N","commune":"Altkirch","code_insee":"68004","departement":"Haut-Rhin","region":"Grand Est"}},{"type":"Feature","geometry":{"type":"Point","coordinates":[4.29459,47.63915]},"properties":{"latitude":"47.63915","longitude":"4.29459","bright_ti4":"300.5","scan":"0.43","track":"0.38","acq_date":"2026-06-14","acq_time":"137","satellite":"N20","instrument":"VIIRS","confidence":"n","version":"2.0NRT","bright_ti5":"282.89","frp":"0.32","daynight":"N","commune":"Saint-Rémy","code_insee":"21568","departement":"Côte-d'Or","region":"Bourgogne-Franche-Comté"}},{"type":"Feature","geometry":{"type":"Point","coordinates":[4.29567,47.63985]},"properties":{"latitude":"47.63985","longitude":"4.29567","bright_ti4":"302.37","scan":"0.43","track":"0.38","acq_date":"2026-06-14","acq_time":"137","satellite":"N20","instrument":"VIIRS","confidence":"n","version":"2.0NRT","bright_ti5":"284.21","frp":"0.64","daynight":"N","commune":"Saint-Rémy","code_insee":"21568","departement":"Côte-d'Or","region":"Bourgogne-Franche-Comté"}},{"type":"Feature","geometry":{"type":"Point","coordinates":[7.20598,47.98823]},"properties":{"latitude":"47.98823","longitude":"7.20598","bright_ti4":"299.7","scan":"0.39","track":"0.36","acq_date":"2026-06-14","acq_time":"137","satellite":"N20","instrument":"VIIRS","confidence":"n","version":"2.0NRT","bright_ti5":"288.41","frp":"0.22","daynight":"N","commune":"Osenbach","code_insee":"68251","departement":"Haut-Rhin","region":"Grand Est"}},{"type":"Feature","geometry":{"type":"Point","coordinates":[6.60912,48.02534]},"properties":{"latitude":"48.02534","longitude":"6.60912","bright_ti4":"297.53","scan":"0.39","track":"0.36","acq_date":"2026-06-14","acq_time":"137","satellite":"N20","instrument":"VIIRS","confidence":"n","version":"2.0NRT","bright_ti5":"283.65","frp":"0.33","daynight":"N","commune":"Saint-Étienne-lès-Remiremont","code_insee":"88415","departement":"Vosges","region":"Grand Est"}},{"type":"Feature","geometry":{"type":"Point","coordinates":[7.42906,48.10124]},"properties":{"latitude":"48.10124","longitude":"7.42906","bright_ti4":"320.31","scan":"0.39","track":"0.36","acq_date":"2026-06-14","acq_time":"137","satellite":"N20","instrument":"VIIRS","confidence":"n","version":"2.0NRT","bright_ti5":"286.76","frp":"1.26","daynight":"N","commune":"Bischwihr","code_insee":"68038","departement":"Haut-Rhin","region":"Grand Est"}},{"type":"Feature","geometry":{"type":"Point","coordinates":[5.54607,48.15718]},"properties":{"latitude":"48.15718","longitude":"5.54607","bright_ti4":"295.15","scan":"0.41","track":"0.37","acq_date":"2026-06-14","acq_time":"137","satellite":"N20","instrument":"VIIRS","confidence":"n","version":"2.0NRT","bright_ti5":"284","frp":"0.43","daynight":"N","commune":"Huilliécourt","code_insee":"52243","departement":"Haute-Marne","region":"Grand Est"}},{"type":"Feature","geometry":{"type":"Point","coordinates":[-1.00538,48.3424]},"properties":{"latitude":"48.3424","longitude":"-1.00538","bright_ti4":"307.51","scan":"0.46","track":"0.47","acq_date":"2026-06-14","acq_time":"137","satellite":"N20","instrument":"VIIRS","confidence":"n","version":"2.0NRT","bright_ti5":"281.96","frp":"1.4","daynight":"N","commune":"Larchamp","code_insee":"53126","departement":"Mayenne","region":"Pays de la Loire"}},{"type":"Feature","geometry":{"type":"Point","coordinates":[-1.00457,48.34674]},"properties":{"latitude":"48.34674","longitude":"-1.00457","bright_ti4":"296.85","scan":"0.46","track":"0.47","acq_date":"2026-06-14","acq_time":"137","satellite":"N20","instrument":"VIIRS","confidence":"n","version":"2.0NRT","bright_ti5":"281.79","frp":"0.45","daynight":"N","commune":"Larchamp","code_insee":"53126","departement":"Mayenne","region":"Pays de la Loire"}},{"type":"Feature","geometry":{"type":"Point","coordinates":[6.10946,48.56429]},"properties":{"latitude":"48.56429","longitude":"6.10946","bright_ti4":"300.96","scan":"0.4","track":"0.37","acq_date":"2026-06-14","acq_time":"137","satellite":"N20","instrument":"VIIRS","confidence":"n","version":"2.0NRT","bright_ti5":"285.01","frp":"0.66","daynight":"N","commune":"Xeuilley","code_insee":"54596","departement":"Meurthe-et-Moselle","region":"Grand Est"}},{"type":"Feature","geometry":{"type":"Point","coordinates":[7.48801,48.59921]},"properties":{"latitude":"48.59921","longitude":"7.48801","bright_ti4":"297.47","scan":"0.39","track":"0.36","acq_date":"2026-06-14","acq_time":"137","satellite":"N20","instrument":"VIIRS","confidence":"n","version":"2.0NRT","bright_ti5":"275.98","frp":"0.5","daynight":"N","commune":"Odratzheim","code_insee":"67354","departement":"Bas-Rhin","region":"Grand Est"}},{"type":"Feature","geometry":{"type":"Point","coordinates":[6.11982,48.60931]},"properties":{"latitude":"48.60931","longitude":"6.11982","bright_ti4":"312.51","scan":"0.4","track":"0.37","acq_date":"2026-06-14","acq_time":"137","satellite":"N20","instrument":"VIIRS","confidence":"n","version":"2.0NRT","bright_ti5":"286.22","frp":"1.29","daynight":"N","commune":"Neuves-Maisons","code_insee":"54397","departement":"Meurthe-et-Moselle","region":"Grand Est"}},{"type":"Feature","geometry":{"type":"Point","coordinates":[5.68342,48.64749]},"properties":{"latitude":"48.64749","longitude":"5.68342","bright_ti4":"308.14","scan":"0.41","track":"0.37","acq_date":"2026-06-14","acq_time":"137","satellite":"N20","instrument":"VIIRS","confidence":"n","version":"2.0NRT","bright_ti5":"280.09","frp":"0.79","daynight":"N","commune":"Saint-Germain-sur-Meuse","code_insee":"55456","departement":"Meuse","region":"Grand Est"}},{"type":"Feature","geometry":{"type":"Point","coordinates":[7.08185,48.67043]},"properties":{"latitude":"48.67043","longitude":"7.08185","bright_ti4":"304.02","scan":"0.39","track":"0.36","acq_date":"2026-06-14","acq_time":"137","satellite":"N20","instrument":"VIIRS","confidence":"n","version":"2.0NRT","bright_ti5":"275.77","frp":"0.7","daynight":"N","commune":"Hartzviller","code_insee":"57299","departement":"Moselle","region":"Grand Est"}},{"type":"Feature","geometry":{"type":"Point","coordinates":[7.08365,48.67286]},"properties":{"latitude":"48.67286","longitude":"7.08365","bright_ti4":"301.93","scan":"0.39","track":"0.36","acq_date":"2026-06-14","acq_time":"137","satellite":"N20","instrument":"VIIRS","confidence":"n","version":"2.0NRT","bright_ti5":"277.3","frp":"0.6","daynight":"N","commune":"Hartzviller","code_insee":"57299","departement":"Moselle","region":"Grand Est"}},{"type":"Feature","geometry":{"type":"Point","coordinates":[5.68401,48.71777]},"properties":{"latitude":"48.71777","longitude":"5.68401","bright_ti4":"303.27","scan":"0.41","track":"0.37","acq_date":"2026-06-14","acq_time":"137","satellite":"N20","instrument":"VIIRS","confidence":"n","version":"2.0NRT","bright_ti5":"283.63","frp":"0.96","daynight":"N","commune":"Sorcy-Saint-Martin","code_insee":"55496","departement":"Meuse","region":"Grand Est"}},{"type":"Feature","geometry":{"type":"Point","coordinates":[7.37479,48.72593]},"properties":{"latitude":"48.72593","longitude":"7.37479","bright_ti4":"297.76","scan":"0.39","track":"0.36","acq_date":"2026-06-14","acq_time":"137","satellite":"N20","instrument":"VIIRS","confidence":"n","version":"2.0NRT","bright_ti5":"273.92","frp":"0.34","daynight":"N","commune":"Otterswiller","code_insee":"67367","departement":"Bas-Rhin","region":"Grand Est"}},{"type":"Feature","geometry":{"type":"Point","coordinates":[4.56242,48.76926]},"properties":{"latitude":"48.76926","longitude":"4.56242","bright_ti4":"300.17","scan":"0.43","track":"0.38","acq_date":"2026-06-14","acq_time":"137","satellite":"N20","instrument":"VIIRS","confidence":"n","version":"2.0NRT","bright_ti5":"284.75","frp":"1.02","daynight":"N","commune":"Couvrot","code_insee":"51195","departement":"Marne","region":"Grand Est"}},{"type":"Feature","geometry":{"type":"Point","coordinates":[5.17381,48.90818]},"properties":{"latitude":"48.90818","longitude":"5.17381","bright_ti4":"295.75","scan":"0.42","track":"0.38","acq_date":"2026-06-14","acq_time":"137","satellite":"N20","instrument":"VIIRS","confidence":"n","version":"2.0NRT","bright_ti5":"278.69","frp":"0.22","daynight":"N","commune":"Rembercourt-Sommaisne","code_insee":"55423","departement":"Meuse","region":"Grand Est"}},{"type":"Feature","geometry":{"type":"Point","coordinates":[2.73782,48.94838]},"properties":{"latitude":"48.94838","longitude":"2.73782","bright_ti4":"296.59","scan":"0.49","track":"0.41","acq_date":"2026-06-14","acq_time":"137","satellite":"N20","instrument":"VIIRS","confidence":"n","version":"2.0NRT","bright_ti5":"283.59","frp":"0.75","daynight":"N","commune":"Fresnes-sur-Marne","code_insee":"77196","departement":"Seine-et-Marne","region":"Île-de-France"}},{"type":"Feature","geometry":{"type":"Point","coordinates":[6.91552,49.01609]},"properties":{"latitude":"49.01609","longitude":"6.91552","bright_ti4":"296.8","scan":"0.39","track":"0.36","acq_date":"2026-06-14","acq_time":"137","satellite":"N20","instrument":"VIIRS","confidence":"n","version":"2.0NRT","bright_ti5":"280.75","frp":"0.4","daynight":"N","commune":"Hilsprich","code_insee":"57325","departement":"Moselle","region":"Grand Est"}},{"type":"Feature","geometry":{"type":"Point","coordinates":[6.66766,49.02414]},"properties":{"latitude":"49.02414","longitude":"6.66766","bright_ti4":"317.69","scan":"0.39","track":"0.37","acq_date":"2026-06-14","acq_time":"137","satellite":"N20","instrument":"VIIRS","confidence":"n","version":"2.0NRT","bright_ti5":"279.63","frp":"0.94","daynight":"N","commune":"Guessling-Hémering","code_insee":"57275","departement":"Moselle","region":"Grand Est"}},{"type":"Feature","geometry":{"type":"Point","coordinates":[0.27178,49.24418]},"properties":{"latitude":"49.24418","longitude":"0.27178","bright_ti4":"299.28","scan":"0.41","track":"0.45","acq_date":"2026-06-14","acq_time":"137","satellite":"N20","instrument":"VIIRS","confidence":"n","version":"2.0NRT","bright_ti5":"281.22","frp":"0.4","daynight":"N","commune":"Blangy-le-Château","code_insee":"14077","departement":"Calvados","region":"Normandie"}},{"type":"Feature","geometry":{"type":"Point","coordinates":[1.07296,49.47639]},"properties":{"latitude":"49.47639","longitude":"1.07296","bright_ti4":"303.49","scan":"0.39","track":"0.44","acq_date":"2026-06-14","acq_time":"137","satellite":"N20","instrument":"VIIRS","confidence":"n","version":"2.0NRT","bright_ti5":"282.4","frp":"0.63","daynight":"N","commune":"Mont-Saint-Aignan","code_insee":"76451","departement":"Seine-Maritime","region":"Normandie"}},{"type":"Feature","geometry":{"type":"Point","coordinates":[0.53482,49.47898]},"properties":{"latitude":"49.47898","longitude":"0.53482","bright_ti4":"308.87","scan":"0.41","track":"0.45","acq_date":"2026-06-14","acq_time":"137","satellite":"N20","instrument":"VIIRS","confidence":"n","version":"2.0NRT","bright_ti5":"285.08","frp":"1.74","daynight":"N","commune":"Port-Jérôme-sur-Seine","code_insee":"76476","departement":"Seine-Maritime","region":"Normandie"}},{"type":"Feature","geometry":{"type":"Point","coordinates":[-1.52101,49.60336]},"properties":{"latitude":"49.60336","longitude":"-1.52101","bright_ti4":"302.12","scan":"0.5","track":"0.49","acq_date":"2026-06-14","acq_time":"137","satellite":"N20","instrument":"VIIRS","confidence":"n","version":"2.0NRT","bright_ti5":"281.6","frp":"0.5","daynight":"N","commune":"Le Mesnil-au-Val","code_insee":"50305","departement":"Manche","region":"Normandie"}},{"type":"Feature","geometry":{"type":"Point","coordinates":[-1.52243,49.60453]},"properties":{"latitude":"49.60453","longitude":"-1.52243","bright_ti4":"297.34","scan":"0.5","track":"0.49","acq_date":"2026-06-14","acq_time":"137","satellite":"N20","instrument":"VIIRS","confidence":"n","version":"2.0NRT","bright_ti5":"280.49","frp":"0.72","daynight":"N","commune":"Le Mesnil-au-Val","code_insee":"50305","departement":"Manche","region":"Normandie"}},{"type":"Feature","geometry":{"type":"Point","coordinates":[3.56352,50.40111]},"properties":{"latitude":"50.40111","longitude":"3.56352","bright_ti4":"298.98","scan":"0.48","track":"0.4","acq_date":"2026-06-14","acq_time":"137","satellite":"N20","instrument":"VIIRS","confidence":"n","version":"2.0NRT","bright_ti5":"280.47","frp":"0.86","daynight":"N","commune":"Saint-Saulve","code_insee":"59544","departement":"Nord","region":"Hauts-de-France"}},{"type":"Feature","geometry":{"type":"Point","coordinates":[4.89573,43.43711]},"properties":{"latitude":"43.43711","longitude":"4.89573","bright_ti4":"307.73","scan":"0.39","track":"0.36","acq_date":"2026-06-14","acq_time":"139","satellite":"N20","instrument":"VIIRS","confidence":"n","version":"2.0NRT","bright_ti5":"290.63","frp":"1.11","daynight":"N","commune":"Fos-sur-Mer","code_insee":"13039","departement":"Bouches-du-Rhône","region":"Provence-Alpes-Côte d'Azur"}},{"type":"Feature","geometry":{"type":"Point","coordinates":[4.89093,43.43781]},"properties":{"latitude":"43.43781","longitude":"4.89093","bright_ti4":"305.65","scan":"0.39","track":"0.36","acq_date":"2026-06-14","acq_time":"139","satellite":"N20","instrument":"VIIRS","confidence":"n","version":"2.0NRT","bright_ti5":"290.41","frp":"1.11","daynight":"N","commune":"Fos-sur-Mer","code_insee":"13039","departement":"Bouches-du-Rhône","region":"Provence-Alpes-Côte d'Azur"}},{"type":"Feature","geometry":{"type":"Point","coordinates":[4.88614,43.43851]},"properties":{"latitude":"43.43851","longitude":"4.88614","bright_ti4":"300.1","scan":"0.39","track":"0.36","acq_date":"2026-06-14","acq_time":"139","satellite":"N20","instrument":"VIIRS","confidence":"n","version":"2.0NRT","bright_ti5":"290.08","frp":"1.29","daynight":"N","commune":"Fos-sur-Mer","code_insee":"13039","departement":"Bouches-du-Rhône","region":"Provence-Alpes-Côte d'Azur"}},{"type":"Feature","geometry":{"type":"Point","coordinates":[4.89755,43.44373]},"properties":{"latitude":"43.44373","longitude":"4.89755","bright_ti4":"313.55","scan":"0.39","track":"0.36","acq_date":"2026-06-14","acq_time":"139","satellite":"N20","instrument":"VIIRS","confidence":"n","version":"2.0NRT","bright_ti5":"291.26","frp":"1.76","daynight":"N","commune":"Fos-sur-Mer","code_insee":"13039","departement":"Bouches-du-Rhône","region":"Provence-Alpes-Côte d'Azur"}},{"type":"Feature","geometry":{"type":"Point","coordinates":[4.89846,43.44703]},"properties":{"latitude":"43.44703","longitude":"4.89846","bright_ti4":"338.1","scan":"0.39","track":"0.36","acq_date":"2026-06-14","acq_time":"139","satellite":"N20","instrument":"VIIRS","confidence":"n","version":"2.0NRT","bright_ti5":"292.97","frp":"3.22","daynight":"N","commune":"Fos-sur-Mer","code_insee":"13039","departement":"Bouches-du-Rhône","region":"Provence-Alpes-Côte d'Azur"}},{"type":"Feature","geometry":{"type":"Point","coordinates":[5.46223,43.4521]},"properties":{"latitude":"43.4521","longitude":"5.46223","bright_ti4":"296.06","scan":"0.39","track":"0.36","acq_date":"2026-06-14","acq_time":"139","satellite":"N20","instrument":"VIIRS","confidence":"n","version":"2.0NRT","bright_ti5":"282.64","frp":"0.44","daynight":"N","commune":"Gardanne","code_insee":"13041","departement":"Bouches-du-Rhône","region":"Provence-Alpes-Côte d'Azur"}},{"type":"Feature","geometry":{"type":"Point","coordinates":[7.37672,43.79403]},"properties":{"latitude":"43.79403","longitude":"7.37672","bright_ti4":"305.16","scan":"0.39","track":"0.36","acq_date":"2026-06-14","acq_time":"139","satellite":"N20","instrument":"VIIRS","confidence":"n","version":"2.0NRT","bright_ti5":"283.3","frp":"1.19","daynight":"N","commune":"Peille","code_insee":"06091","departement":"Alpes-Maritimes","region":"Provence-Alpes-Côte d'Azur"}},{"type":"Feature","geometry":{"type":"Point","coordinates":[1.23012,43.98788]},"properties":{"latitude":"43.98788","longitude":"1.23012","bright_ti4":"302.58","scan":"0.5","track":"0.41","acq_date":"2026-06-14","acq_time":"139","satellite":"N20","instrument":"VIIRS","confidence":"n","version":"2.0NRT","bright_ti5":"287.42","frp":"0.78","daynight":"N","commune":"Montech","code_insee":"82125","departement":"Tarn-et-Garonne","region":"Occitanie"}},{"type":"Feature","geometry":{"type":"Point","coordinates":[4.697,44.08969]},"properties":{"latitude":"44.08969","longitude":"4.697","bright_ti4":"298.48","scan":"0.4","track":"0.37","acq_date":"2026-06-14","acq_time":"139","satellite":"N20","instrument":"VIIRS","confidence":"n","version":"2.0NRT","bright_ti5":"287.87","frp":"0.56","daynight":"N","commune":"Laudun-l'Ardoise","code_insee":"30141","departement":"Gard","region":"Occitanie"}},{"type":"Feature","geometry":{"type":"Point","coordinates":[0.53974,49.4779]},"properties":{"latitude":"49.4779","longitude":"0.53974","bright_ti4":"295.39","scan":"0.47","track":"0.64","acq_date":"2026-06-14","acq_time":"315","satellite":"N20","instrument":"VIIRS","confidence":"n","version":"2.0NRT","bright_ti5":"283","frp":"0.95","daynight":"N","commune":"Port-Jérôme-sur-Seine","code_insee":"76476","departement":"Seine-Maritime","region":"Normandie"}},{"type":"Feature","geometry":{"type":"Point","coordinates":[2.26954,51.01225]},"properties":{"latitude":"51.01225","longitude":"2.26954","bright_ti4":"295.84","scan":"0.48","track":"0.65","acq_date":"2026-06-14","acq_time":"315","satellite":"N20","instrument":"VIIRS","confidence":"n","version":"2.0NRT","bright_ti5":"281.74","frp":"0.48","daynight":"N","commune":"Dunkerque","code_insee":"59183","departement":"Nord","region":"Hauts-de-France"}},{"type":"Feature","geometry":{"type":"Point","coordinates":[2.27161,51.01408]},"properties":{"latitude":"51.01408","longitude":"2.27161","bright_ti4":"296.7","scan":"0.48","track":"0.65","acq_date":"2026-06-14","acq_time":"315","satellite":"N20","instrument":"VIIRS","confidence":"n","version":"2.0NRT","bright_ti5":"281.98","frp":"0.64","daynight":"N","commune":"Grande-Synthe","code_insee":"59271","departement":"Nord","region":"Hauts-de-France"}},{"type":"Feature","geometry":{"type":"Point","coordinates":[2.28758,51.03343]},"properties":{"latitude":"51.03343","longitude":"2.28758","bright_ti4":"320.73","scan":"0.48","track":"0.65","acq_date":"2026-06-14","acq_time":"315","satellite":"N20","instrument":"VIIRS","confidence":"n","version":"2.0NRT","bright_ti5":"282.44","frp":"1.47","daynight":"N","commune":"Grande-Synthe","code_insee":"59271","departement":"Nord","region":"Hauts-de-France"}},{"type":"Feature","geometry":{"type":"Point","coordinates":[2.28978,51.03521]},"properties":{"latitude":"51.03521","longitude":"2.28978","bright_ti4":"325.16","scan":"0.48","track":"0.65","acq_date":"2026-06-14","acq_time":"315","satellite":"N20","instrument":"VIIRS","confidence":"n","version":"2.0NRT","bright_ti5":"282.98","frp":"1.49","daynight":"N","commune":"Grande-Synthe","code_insee":"59271","departement":"Nord","region":"Hauts-de-France"}},{"type":"Feature","geometry":{"type":"Point","coordinates":[2.29214,51.0387]},"properties":{"latitude":"51.0387","longitude":"2.29214","bright_ti4":"295.44","scan":"0.48","track":"0.65","acq_date":"2026-06-14","acq_time":"315","satellite":"N20","instrument":"VIIRS","confidence":"n","version":"2.0NRT","bright_ti5":"282.3","frp":"1.47","daynight":"N","commune":"Grande-Synthe","code_insee":"59271","departement":"Nord","region":"Hauts-de-France"}},{"type":"Feature","geometry":{"type":"Point","coordinates":[2.29436,51.04049]},"properties":{"latitude":"51.04049","longitude":"2.29436","bright_ti4":"295.21","scan":"0.48","track":"0.65","acq_date":"2026-06-14","acq_time":"315","satellite":"N20","instrument":"VIIRS","confidence":"n","version":"2.0NRT","bright_ti5":"282.66","frp":"1.49","daynight":"N","commune":"Grande-Synthe","code_insee":"59271","departement":"Nord","region":"Hauts-de-France"}},{"type":"Feature","geometry":{"type":"Point","coordinates":[2.29669,51.04399]},"properties":{"latitude":"51.04399","longitude":"2.29669","bright_ti4":"314.03","scan":"0.48","track":"0.65","acq_date":"2026-06-14","acq_time":"315","satellite":"N20","instrument":"VIIRS","confidence":"n","version":"2.0NRT","bright_ti5":"284.02","frp":"1.84","daynight":"N","commune":"Grande-Synthe","code_insee":"59271","departement":"Nord","region":"Hauts-de-France"}},{"type":"Feature","geometry":{"type":"Point","coordinates":[4.89923,43.44658]},"properties":{"latitude":"43.44658","longitude":"4.89923","bright_ti4":"339.74","scan":"0.56","track":"0.43","acq_date":"2026-06-14","acq_time":"1301","satellite":"N20","instrument":"VIIRS","confidence":"n","version":"2.0NRT","bright_ti5":"309.48","frp":"8.66","daynight":"D","commune":"Fos-sur-Mer","code_insee":"13039","departement":"Bouches-du-Rhône","region":"Provence-Alpes-Côte d'Azur"}},{"type":"Feature","geometry":{"type":"Point","coordinates":[0.57913,44.39983]},"properties":{"latitude":"44.39983","longitude":"0.57913","bright_ti4":"346.16","scan":"0.41","track":"0.37","acq_date":"2026-06-14","acq_time":"1301","satellite":"N20","instrument":"VIIRS","confidence":"n","version":"2.0NRT","bright_ti5":"309.88","frp":"10.18","daynight":"D","commune":"Sainte-Livrade-sur-Lot","code_insee":"47252","departement":"Lot-et-Garonne","region":"Nouvelle-Aquitaine"}},{"type":"Feature","geometry":{"type":"Point","coordinates":[-1.75035,46.56175]},"properties":{"latitude":"46.56175","longitude":"-1.75035","bright_ti4":"330.47","scan":"0.39","track":"0.36","acq_date":"2026-06-14","acq_time":"1301","satellite":"N20","instrument":"VIIRS","confidence":"n","version":"2.0NRT","bright_ti5":"297.46","frp":"1.88","daynight":"D","commune":"L'Île-d'Olonne","code_insee":"85112","departement":"Vendée","region":"Pays de la Loire"}},{"type":"Feature","geometry":{"type":"Point","coordinates":[6.05383,48.88346]},"properties":{"latitude":"48.88346","longitude":"6.05383","bright_ti4":"326.53","scan":"0.49","track":"0.48","acq_date":"2026-06-14","acq_time":"1301","satellite":"N20","instrument":"VIIRS","confidence":"l","version":"2.0NRT","bright_ti5":"299.38","frp":"3.25","daynight":"D","commune":"Blénod-lès-Pont-à-Mousson","code_insee":"54079","departement":"Meurthe-et-Moselle","region":"Grand Est"}},{"type":"Feature","geometry":{"type":"Point","coordinates":[2.29749,51.04428]},"properties":{"latitude":"51.04428","longitude":"2.29749","bright_ti4":"334.41","scan":"0.54","track":"0.42","acq_date":"2026-06-14","acq_time":"1304","satellite":"N20","instrument":"VIIRS","confidence":"n","version":"2.0NRT","bright_ti5":"301.89","frp":"5.55","daynight":"D","commune":"Grande-Synthe","code_insee":"59271","departement":"Nord","region":"Hauts-de-France"}},{"type":"Feature","geometry":{"type":"Point","coordinates":[7.42994,48.10151]},"properties":{"latitude":"48.10151","longitude":"7.42994","bright_ti4":"304.63","scan":"0.37","track":"0.58","acq_date":"2026-06-14","acq_time":"41","satellite":"N21","instrument":"VIIRS","confidence":"n","version":"2.0NRT","bright_ti5":"285.73","frp":"0.96","daynight":"N","commune":"Bischwihr","code_insee":"68038","departement":"Haut-Rhin","region":"Grand Est"}},{"type":"Feature","geometry":{"type":"Point","coordinates":[7.42499,48.1017]},"properties":{"latitude":"48.1017","longitude":"7.42499","bright_ti4":"301.16","scan":"0.37","track":"0.58","acq_date":"2026-06-14","acq_time":"41","satellite":"N21","instrument":"VIIRS","confidence":"n","version":"2.0NRT","bright_ti5":"286.57","frp":"0.96","daynight":"N","commune":"Bischwihr","code_insee":"68038","departement":"Haut-Rhin","region":"Grand Est"}},{"type":"Feature","geometry":{"type":"Point","coordinates":[7.48745,48.59825]},"properties":{"latitude":"48.59825","longitude":"7.48745","bright_ti4":"302.4","scan":"0.37","track":"0.58","acq_date":"2026-06-14","acq_time":"41","satellite":"N21","instrument":"VIIRS","confidence":"n","version":"2.0NRT","bright_ti5":"284.76","frp":"0.5","daynight":"N","commune":"Odratzheim","code_insee":"67354","departement":"Bas-Rhin","region":"Grand Est"}},{"type":"Feature","geometry":{"type":"Point","coordinates":[6.11711,48.60755]},"properties":{"latitude":"48.60755","longitude":"6.11711","bright_ti4":"296.09","scan":"0.42","track":"0.61","acq_date":"2026-06-14","acq_time":"41","satellite":"N21","instrument":"VIIRS","confidence":"n","version":"2.0NRT","bright_ti5":"283.91","frp":"0.54","daynight":"N","commune":"Neuves-Maisons","code_insee":"54397","departement":"Meurthe-et-Moselle","region":"Grand Est"}},{"type":"Feature","geometry":{"type":"Point","coordinates":[5.68271,48.64776]},"properties":{"latitude":"48.64776","longitude":"5.68271","bright_ti4":"302.6","scan":"0.45","track":"0.63","acq_date":"2026-06-14","acq_time":"41","satellite":"N21","instrument":"VIIRS","confidence":"n","version":"2.0NRT","bright_ti5":"280.27","frp":"0.62","daynight":"N","commune":"Saint-Germain-sur-Meuse","code_insee":"55456","departement":"Meuse","region":"Grand Est"}},{"type":"Feature","geometry":{"type":"Point","coordinates":[7.0804,48.6718]},"properties":{"latitude":"48.6718","longitude":"7.0804","bright_ti4":"295.29","scan":"0.38","track":"0.59","acq_date":"2026-06-14","acq_time":"41","satellite":"N21","instrument":"VIIRS","confidence":"n","version":"2.0NRT","bright_ti5":"282.11","frp":"1.04","daynight":"N","commune":"Hartzviller","code_insee":"57299","departement":"Moselle","region":"Grand Est"}},{"type":"Feature","geometry":{"type":"Point","coordinates":[6.91235,49.01413]},"properties":{"latitude":"49.01413","longitude":"6.91235","bright_ti4":"296.98","scan":"0.39","track":"0.59","acq_date":"2026-06-14","acq_time":"41","satellite":"N21","instrument":"VIIRS","confidence":"n","version":"2.0NRT","bright_ti5":"280.82","frp":"0.45","daynight":"N","commune":"Hilsprich","code_insee":"57325","departement":"Moselle","region":"Grand Est"}},{"type":"Feature","geometry":{"type":"Point","coordinates":[6.66698,49.02196]},"properties":{"latitude":"49.02196","longitude":"6.66698","bright_ti4":"299.36","scan":"0.4","track":"0.6","acq_date":"2026-06-14","acq_time":"41","satellite":"N21","instrument":"VIIRS","confidence":"n","version":"2.0NRT","bright_ti5":"280.03","frp":"1.27","daynight":"N","commune":"Guessling-Hémering","code_insee":"57275","departement":"Moselle","region":"Grand Est"}},{"type":"Feature","geometry":{"type":"Point","coordinates":[6.14733,49.31662]},"properties":{"latitude":"49.31662","longitude":"6.14733","bright_ti4":"295.61","scan":"0.43","track":"0.62","acq_date":"2026-06-14","acq_time":"41","satellite":"N21","instrument":"VIIRS","confidence":"n","version":"2.0NRT","bright_ti5":"282.28","frp":"0.39","daynight":"N","commune":"Florange","code_insee":"57221","departement":"Moselle","region":"Grand Est"}},{"type":"Feature","geometry":{"type":"Point","coordinates":[6.10076,49.32343]},"properties":{"latitude":"49.32343","longitude":"6.10076","bright_ti4":"297.81","scan":"0.43","track":"0.62","acq_date":"2026-06-14","acq_time":"41","satellite":"N21","instrument":"VIIRS","confidence":"n","version":"2.0NRT","bright_ti5":"282.94","frp":"0.78","daynight":"N","commune":"Serémange-Erzange","code_insee":"57647","departement":"Moselle","region":"Grand Est"}},{"type":"Feature","geometry":{"type":"Point","coordinates":[2.29506,51.04522]},"properties":{"latitude":"51.04522","longitude":"2.29506","bright_ti4":"305.59","scan":"0.65","track":"0.73","acq_date":"2026-06-14","acq_time":"41","satellite":"N21","instrument":"VIIRS","confidence":"n","version":"2.0NRT","bright_ti5":"270.89","frp":"3.33","daynight":"N","commune":"Grande-Synthe","code_insee":"59271","departement":"Nord","region":"Hauts-de-France"}},{"type":"Feature","geometry":{"type":"Point","coordinates":[4.89503,43.43242]},"properties":{"latitude":"43.43242","longitude":"4.89503","bright_ti4":"299.69","scan":"0.45","track":"0.63","acq_date":"2026-06-14","acq_time":"43","satellite":"N21","instrument":"VIIRS","confidence":"n","version":"2.0NRT","bright_ti5":"284.72","frp":"1.64","daynight":"N","commune":"Fos-sur-Mer","code_insee":"13039","departement":"Bouches-du-Rhône","region":"Provence-Alpes-Côte d'Azur"}},{"type":"Feature","geometry":{"type":"Point","coordinates":[4.88974,43.43841]},"properties":{"latitude":"43.43841","longitude":"4.88974","bright_ti4":"301.78","scan":"0.45","track":"0.63","acq_date":"2026-06-14","acq_time":"43","satellite":"N21","instrument":"VIIRS","confidence":"n","version":"2.0NRT","bright_ti5":"285.18","frp":"1.52","daynight":"N","commune":"Fos-sur-Mer","code_insee":"13039","departement":"Bouches-du-Rhône","region":"Provence-Alpes-Côte d'Azur"}},{"type":"Feature","geometry":{"type":"Point","coordinates":[4.88902,43.43862]},"properties":{"latitude":"43.43862","longitude":"4.88902","bright_ti4":"299.34","scan":"0.45","track":"0.63","acq_date":"2026-06-14","acq_time":"43","satellite":"N21","instrument":"VIIRS","confidence":"n","version":"2.0NRT","bright_ti5":"284.65","frp":"1.9","daynight":"N","commune":"Fos-sur-Mer","code_insee":"13039","departement":"Bouches-du-Rhône","region":"Provence-Alpes-Côte d'Azur"}},{"type":"Feature","geometry":{"type":"Point","coordinates":[4.90132,43.4439]},"properties":{"latitude":"43.4439","longitude":"4.90132","bright_ti4":"299.15","scan":"0.45","track":"0.63","acq_date":"2026-06-14","acq_time":"43","satellite":"N21","instrument":"VIIRS","confidence":"n","version":"2.0NRT","bright_ti5":"285.45","frp":"1.06","daynight":"N","commune":"Fos-sur-Mer","code_insee":"13039","departement":"Bouches-du-Rhône","region":"Provence-Alpes-Côte d'Azur"}},{"type":"Feature","geometry":{"type":"Point","coordinates":[4.90059,43.44405]},"properties":{"latitude":"43.44405","longitude":"4.90059","bright_ti4":"304.52","scan":"0.45","track":"0.63","acq_date":"2026-06-14","acq_time":"43","satellite":"N21","instrument":"VIIRS","confidence":"n","version":"2.0NRT","bright_ti5":"285.42","frp":"1.57","daynight":"N","commune":"Fos-sur-Mer","code_insee":"13039","departement":"Bouches-du-Rhône","region":"Provence-Alpes-Côte d'Azur"}},{"type":"Feature","geometry":{"type":"Point","coordinates":[4.89573,43.44407]},"properties":{"latitude":"43.44407","longitude":"4.89573","bright_ti4":"305.94","scan":"0.45","track":"0.63","acq_date":"2026-06-14","acq_time":"43","satellite":"N21","instrument":"VIIRS","confidence":"n","version":"2.0NRT","bright_ti5":"286.05","frp":"1.52","daynight":"N","commune":"Fos-sur-Mer","code_insee":"13039","departement":"Bouches-du-Rhône","region":"Provence-Alpes-Côte d'Azur"}},{"type":"Feature","geometry":{"type":"Point","coordinates":[4.89498,43.44424]},"properties":{"latitude":"43.44424","longitude":"4.89498","bright_ti4":"300.28","scan":"0.45","track":"0.63","acq_date":"2026-06-14","acq_time":"43","satellite":"N21","instrument":"VIIRS","confidence":"n","version":"2.0NRT","bright_ti5":"285.79","frp":"1.57","daynight":"N","commune":"Fos-sur-Mer","code_insee":"13039","departement":"Bouches-du-Rhône","region":"Provence-Alpes-Côte d'Azur"}},{"type":"Feature","geometry":{"type":"Point","coordinates":[4.89603,43.44989]},"properties":{"latitude":"43.44989","longitude":"4.89603","bright_ti4":"308.22","scan":"0.45","track":"0.63","acq_date":"2026-06-14","acq_time":"43","satellite":"N21","instrument":"VIIRS","confidence":"n","version":"2.0NRT","bright_ti5":"284.92","frp":"1.48","daynight":"N","commune":"Fos-sur-Mer","code_insee":"13039","departement":"Bouches-du-Rhône","region":"Provence-Alpes-Côte d'Azur"}},{"type":"Feature","geometry":{"type":"Point","coordinates":[3.72042,47.51999]},"properties":{"latitude":"47.51999","longitude":"3.72042","bright_ti4":"296.99","scan":"0.43","track":"0.46","acq_date":"2026-06-14","acq_time":"221","satellite":"N21","instrument":"VIIRS","confidence":"n","version":"2.0NRT","bright_ti5":"283.16","frp":"0.47","daynight":"N","commune":"Montillot","code_insee":"89266","departement":"Yonne","region":"Bourgogne-Franche-Comté"}},{"type":"Feature","geometry":{"type":"Point","coordinates":[-1.03608,48.10601]},"properties":{"latitude":"48.10601","longitude":"-1.03608","bright_ti4":"300.54","scan":"0.43","track":"0.38","acq_date":"2026-06-14","acq_time":"221","satellite":"N21","instrument":"VIIRS","confidence":"n","version":"2.0NRT","bright_ti5":"288.13","frp":"0.97","daynight":"N","commune":"Saint-Pierre-la-Cour","code_insee":"53247","departement":"Mayenne","region":"Pays de la Loire"}},{"type":"Feature","geometry":{"type":"Point","coordinates":[-1.00459,48.34462]},"properties":{"latitude":"48.34462","longitude":"-1.00459","bright_ti4":"309.23","scan":"0.42","track":"0.38","acq_date":"2026-06-14","acq_time":"221","satellite":"N21","instrument":"VIIRS","confidence":"n","version":"2.0NRT","bright_ti5":"282.13","frp":"1.28","daynight":"N","commune":"Larchamp","code_insee":"53126","departement":"Mayenne","region":"Pays de la Loire"}},{"type":"Feature","geometry":{"type":"Point","coordinates":[5.68092,48.71581]},"properties":{"latitude":"48.71581","longitude":"5.68092","bright_ti4":"297.21","scan":"0.48","track":"0.48","acq_date":"2026-06-14","acq_time":"221","satellite":"N21","instrument":"VIIRS","confidence":"n","version":"2.0NRT","bright_ti5":"281.02","frp":"1.18","daynight":"N","commune":"Sorcy-Saint-Martin","code_insee":"55496","departement":"Meuse","region":"Grand Est"}},{"type":"Feature","geometry":{"type":"Point","coordinates":[4.56217,48.76906]},"properties":{"latitude":"48.76906","longitude":"4.56217","bright_ti4":"301.06","scan":"0.43","track":"0.46","acq_date":"2026-06-14","acq_time":"221","satellite":"N21","instrument":"VIIRS","confidence":"n","version":"2.0NRT","bright_ti5":"283.96","frp":"0.84","daynight":"N","commune":"Couvrot","code_insee":"51195","departement":"Marne","region":"Grand Est"}},{"type":"Feature","geometry":{"type":"Point","coordinates":[2.34155,48.94035]},"properties":{"latitude":"48.94035","longitude":"2.34155","bright_ti4":"328.26","scan":"0.53","track":"0.42","acq_date":"2026-06-14","acq_time":"221","satellite":"N21","instrument":"VIIRS","confidence":"n","version":"2.0NRT","bright_ti5":"288.02","frp":"8.48","daynight":"N","commune":"Saint-Denis","code_insee":"93066","departement":"Seine-Saint-Denis","region":"Île-de-France"}},{"type":"Feature","geometry":{"type":"Point","coordinates":[2.20923,48.9486]},"properties":{"latitude":"48.9486","longitude":"2.20923","bright_ti4":"304.88","scan":"0.52","track":"0.41","acq_date":"2026-06-14","acq_time":"221","satellite":"N21","instrument":"VIIRS","confidence":"n","version":"2.0NRT","bright_ti5":"284.49","frp":"1.28","daynight":"N","commune":"Argenteuil","code_insee":"95018","departement":"Val-d'Oise","region":"Île-de-France"}},{"type":"Feature","geometry":{"type":"Point","coordinates":[6.66413,49.02494]},"properties":{"latitude":"49.02494","longitude":"6.66413","bright_ti4":"300.45","scan":"0.52","track":"0.5","acq_date":"2026-06-14","acq_time":"221","satellite":"N21","instrument":"VIIRS","confidence":"n","version":"2.0NRT","bright_ti5":"279.29","frp":"1.07","daynight":"N","commune":"Guessling-Hémering","code_insee":"57275","departement":"Moselle","region":"Grand Est"}},{"type":"Feature","geometry":{"type":"Point","coordinates":[1.06906,49.47417]},"properties":{"latitude":"49.47417","longitude":"1.06906","bright_ti4":"303.37","scan":"0.47","track":"0.39","acq_date":"2026-06-14","acq_time":"221","satellite":"N21","instrument":"VIIRS","confidence":"n","version":"2.0NRT","bright_ti5":"282.72","frp":"0.98","daynight":"N","commune":"Mont-Saint-Aignan","code_insee":"76451","departement":"Seine-Maritime","region":"Normandie"}},{"type":"Feature","geometry":{"type":"Point","coordinates":[0.53241,49.47749]},"properties":{"latitude":"49.47749","longitude":"0.53241","bright_ti4":"310.03","scan":"0.45","track":"0.39","acq_date":"2026-06-14","acq_time":"221","satellite":"N21","instrument":"VIIRS","confidence":"n","version":"2.0NRT","bright_ti5":"285.07","frp":"1.82","daynight":"N","commune":"Lillebonne","code_insee":"76384","departement":"Seine-Maritime","region":"Normandie"}},{"type":"Feature","geometry":{"type":"Point","coordinates":[-1.52574,49.60205]},"properties":{"latitude":"49.60205","longitude":"-1.52574","bright_ti4":"307.53","scan":"0.4","track":"0.37","acq_date":"2026-06-14","acq_time":"221","satellite":"N21","instrument":"VIIRS","confidence":"n","version":"2.0NRT","bright_ti5":"280.9","frp":"0.69","daynight":"N","commune":"Le Mesnil-au-Val","code_insee":"50305","departement":"Manche","region":"Normandie"}},{"type":"Feature","geometry":{"type":"Point","coordinates":[3.56287,50.40026]},"properties":{"latitude":"50.40026","longitude":"3.56287","bright_ti4":"300.49","scan":"0.54","track":"0.42","acq_date":"2026-06-14","acq_time":"221","satellite":"N21","instrument":"VIIRS","confidence":"n","version":"2.0NRT","bright_ti5":"281.13","frp":"1.23","daynight":"N","commune":"Saint-Saulve","code_insee":"59544","departement":"Nord","region":"Hauts-de-France"}},{"type":"Feature","geometry":{"type":"Point","coordinates":[2.25512,51.03485]},"properties":{"latitude":"51.03485","longitude":"2.25512","bright_ti4":"296.23","scan":"0.48","track":"0.4","acq_date":"2026-06-14","acq_time":"221","satellite":"N21","instrument":"VIIRS","confidence":"n","version":"2.0NRT","bright_ti5":"283.78","frp":"0.52","daynight":"N","commune":"Dunkerque","code_insee":"59183","departement":"Nord","region":"Hauts-de-France"}},{"type":"Feature","geometry":{"type":"Point","coordinates":[2.29125,51.03507]},"properties":{"latitude":"51.03507","longitude":"2.29125","bright_ti4":"315.98","scan":"0.48","track":"0.4","acq_date":"2026-06-14","acq_time":"221","satellite":"N21","instrument":"VIIRS","confidence":"n","version":"2.0NRT","bright_ti5":"284.5","frp":"2.82","daynight":"N","commune":"Grande-Synthe","code_insee":"59271","departement":"Nord","region":"Hauts-de-France"}},{"type":"Feature","geometry":{"type":"Point","coordinates":[2.28475,51.03643]},"properties":{"latitude":"51.03643","longitude":"2.28475","bright_ti4":"315.39","scan":"0.48","track":"0.4","acq_date":"2026-06-14","acq_time":"221","satellite":"N21","instrument":"VIIRS","confidence":"n","version":"2.0NRT","bright_ti5":"284.21","frp":"3.09","daynight":"N","commune":"Grande-Synthe","code_insee":"59271","departement":"Nord","region":"Hauts-de-France"}},{"type":"Feature","geometry":{"type":"Point","coordinates":[2.29493,51.04207]},"properties":{"latitude":"51.04207","longitude":"2.29493","bright_ti4":"310.82","scan":"0.48","track":"0.4","acq_date":"2026-06-14","acq_time":"221","satellite":"N21","instrument":"VIIRS","confidence":"n","version":"2.0NRT","bright_ti5":"288.9","frp":"2","daynight":"N","commune":"Grande-Synthe","code_insee":"59271","departement":"Nord","region":"Hauts-de-France"}},{"type":"Feature","geometry":{"type":"Point","coordinates":[2.30328,51.0442]},"properties":{"latitude":"51.0442","longitude":"2.30328","bright_ti4":"297.13","scan":"0.48","track":"0.4","acq_date":"2026-06-14","acq_time":"221","satellite":"N21","instrument":"VIIRS","confidence":"n","version":"2.0NRT","bright_ti5":"283.86","frp":"3.11","daynight":"N","commune":"Grande-Synthe","code_insee":"59271","departement":"Nord","region":"Hauts-de-France"}},{"type":"Feature","geometry":{"type":"Point","coordinates":[2.31813,51.045]},"properties":{"latitude":"51.045","longitude":"2.31813","bright_ti4":"302.38","scan":"0.48","track":"0.4","acq_date":"2026-06-14","acq_time":"221","satellite":"N21","instrument":"VIIRS","confidence":"n","version":"2.0NRT","bright_ti5":"285.36","frp":"0.85","daynight":"N","commune":"Dunkerque","code_insee":"59183","departement":"Nord","region":"Hauts-de-France"}},{"type":"Feature","geometry":{"type":"Point","coordinates":[2.29678,51.04556]},"properties":{"latitude":"51.04556","longitude":"2.29678","bright_ti4":"328.1","scan":"0.48","track":"0.4","acq_date":"2026-06-14","acq_time":"221","satellite":"N21","instrument":"VIIRS","confidence":"n","version":"2.0NRT","bright_ti5":"287.93","frp":"3.11","daynight":"N","commune":"Grande-Synthe","code_insee":"59271","departement":"Nord","region":"Hauts-de-France"}},{"type":"Feature","geometry":{"type":"Point","coordinates":[2.32,51.0485]},"properties":{"latitude":"51.0485","longitude":"2.32","bright_ti4":"301.04","scan":"0.48","track":"0.4","acq_date":"2026-06-14","acq_time":"221","satellite":"N21","instrument":"VIIRS","confidence":"n","version":"2.0NRT","bright_ti5":"285.76","frp":"1.26","daynight":"N","commune":"Dunkerque","code_insee":"59183","departement":"Nord","region":"Hauts-de-France"}},{"type":"Feature","geometry":{"type":"Point","coordinates":[4.89816,43.43048]},"properties":{"latitude":"43.43048","longitude":"4.89816","bright_ti4":"303.45","scan":"0.62","track":"0.54","acq_date":"2026-06-14","acq_time":"224","satellite":"N21","instrument":"VIIRS","confidence":"n","version":"2.0NRT","bright_ti5":"290.42","frp":"1.38","daynight":"N","commune":"Fos-sur-Mer","code_insee":"13039","departement":"Bouches-du-Rhône","region":"Provence-Alpes-Côte d'Azur"}},{"type":"Feature","geometry":{"type":"Point","coordinates":[4.89325,43.43703]},"properties":{"latitude":"43.43703","longitude":"4.89325","bright_ti4":"316.47","scan":"0.62","track":"0.54","acq_date":"2026-06-14","acq_time":"224","satellite":"N21","instrument":"VIIRS","confidence":"n","version":"2.0NRT","bright_ti5":"290.85","frp":"4.72","daynight":"N","commune":"Fos-sur-Mer","code_insee":"13039","departement":"Bouches-du-Rhône","region":"Provence-Alpes-Côte d'Azur"}},{"type":"Feature","geometry":{"type":"Point","coordinates":[4.89797,43.44634]},"properties":{"latitude":"43.44634","longitude":"4.89797","bright_ti4":"337.6","scan":"0.62","track":"0.54","acq_date":"2026-06-14","acq_time":"224","satellite":"N21","instrument":"VIIRS","confidence":"n","version":"2.0NRT","bright_ti5":"291.36","frp":"8.06","daynight":"N","commune":"Fos-sur-Mer","code_insee":"13039","departement":"Bouches-du-Rhône","region":"Provence-Alpes-Côte d'Azur"}},{"type":"Feature","geometry":{"type":"Point","coordinates":[3.42143,43.5739]},"properties":{"latitude":"43.5739","longitude":"3.42143","bright_ti4":"303.93","scan":"0.52","track":"0.5","acq_date":"2026-06-14","acq_time":"224","satellite":"N21","instrument":"VIIRS","confidence":"n","version":"2.0NRT","bright_ti5":"286.58","frp":"1.04","daynight":"N","commune":"Lieuran-Cabrières","code_insee":"34138","departement":"Hérault","region":"Occitanie"}},{"type":"Feature","geometry":{"type":"Point","coordinates":[1.22692,43.98615]},"properties":{"latitude":"43.98615","longitude":"1.22692","bright_ti4":"296.95","scan":"0.4","track":"0.45","acq_date":"2026-06-14","acq_time":"224","satellite":"N21","instrument":"VIIRS","confidence":"n","version":"2.0NRT","bright_ti5":"283.32","frp":"0.71","daynight":"N","commune":"Montech","code_insee":"82125","departement":"Tarn-et-Garonne","region":"Occitanie"}},{"type":"Feature","geometry":{"type":"Point","coordinates":[-1.83321,47.77733]},"properties":{"latitude":"47.77733","longitude":"-1.83321","bright_ti4":"304.82","scan":"0.41","track":"0.37","acq_date":"2026-06-14","acq_time":"224","satellite":"N21","instrument":"VIIRS","confidence":"n","version":"2.0NRT","bright_ti5":"285.72","frp":"0.82","daynight":"N","commune":"Guipry-Messac","code_insee":"35176","departement":"Ille-et-Vilaine","region":"Bretagne"}},{"type":"Feature","geometry":{"type":"Point","coordinates":[0.26164,44.31308]},"properties":{"latitude":"44.31308","longitude":"0.26164","bright_ti4":"340.11","scan":"0.57","track":"0.52","acq_date":"2026-06-14","acq_time":"1208","satellite":"N21","instrument":"VIIRS","confidence":"n","version":"2.0NRT","bright_ti5":"306.22","frp":"16.51","daynight":"D","commune":"Puch-d'Agenais","code_insee":"47214","departement":"Lot-et-Garonne","region":"Nouvelle-Aquitaine"}},{"type":"Feature","geometry":{"type":"Point","coordinates":[0.14838,46.88117]},"properties":{"latitude":"46.88117","longitude":"0.14838","bright_ti4":"332.77","scan":"0.49","track":"0.49","acq_date":"2026-06-14","acq_time":"1210","satellite":"N21","instrument":"VIIRS","confidence":"l","version":"2.0NRT","bright_ti5":"306.89","frp":"7.88","daynight":"D","commune":"Guesnes","code_insee":"86109","departement":"Vienne","region":"Nouvelle-Aquitaine"}},{"type":"Feature","geometry":{"type":"Point","coordinates":[0.15447,46.88269]},"properties":{"latitude":"46.88269","longitude":"0.15447","bright_ti4":"334.99","scan":"0.49","track":"0.49","acq_date":"2026-06-14","acq_time":"1210","satellite":"N21","instrument":"VIIRS","confidence":"n","version":"2.0NRT","bright_ti5":"303.59","frp":"7.95","daynight":"D","commune":"Verrue","code_insee":"86286","departement":"Vienne","region":"Nouvelle-Aquitaine"}},{"type":"Feature","geometry":{"type":"Point","coordinates":[-0.57882,47.43075]},"properties":{"latitude":"47.43075","longitude":"-0.57882","bright_ti4":"342.22","scan":"0.51","track":"0.49","acq_date":"2026-06-14","acq_time":"1210","satellite":"N21","instrument":"VIIRS","confidence":"n","version":"2.0NRT","bright_ti5":"305.85","frp":"8.75","daynight":"D","commune":"Sainte-Gemmes-sur-Loire","code_insee":"49278","departement":"Maine-et-Loire","region":"Pays de la Loire"}},{"type":"Feature","geometry":{"type":"Point","coordinates":[-0.46901,47.58716]},"properties":{"latitude":"47.58716","longitude":"-0.46901","bright_ti4":"337.15","scan":"0.5","track":"0.49","acq_date":"2026-06-14","acq_time":"1210","satellite":"N21","instrument":"VIIRS","confidence":"n","version":"2.0NRT","bright_ti5":"302.18","frp":"3.77","daynight":"D","commune":"Briollay","code_insee":"49048","departement":"Maine-et-Loire","region":"Pays de la Loire"}},{"type":"Feature","geometry":{"type":"Point","coordinates":[2.98712,48.38746]},"properties":{"latitude":"48.38746","longitude":"2.98712","bright_ti4":"329.37","scan":"0.52","track":"0.42","acq_date":"2026-06-14","acq_time":"1210","satellite":"N21","instrument":"VIIRS","confidence":"l","version":"2.0NRT","bright_ti5":"302.48","frp":"5.09","daynight":"D","commune":"Montereau-Fault-Yonne","code_insee":"77305","departement":"Seine-et-Marne","region":"Île-de-France"}},{"type":"Feature","geometry":{"type":"Point","coordinates":[4.01301,49.2955]},"properties":{"latitude":"49.2955","longitude":"4.01301","bright_ti4":"328.45","scan":"0.46","track":"0.39","acq_date":"2026-06-14","acq_time":"1210","satellite":"N21","instrument":"VIIRS","confidence":"n","version":"2.0NRT","bright_ti5":"295.13","frp":"3.47","daynight":"D","commune":"Reims","code_insee":"51454","departement":"Marne","region":"Grand Est"}},{"type":"Feature","geometry":{"type":"Point","coordinates":[2.28723,51.03634]},"properties":{"latitude":"51.03634","longitude":"2.28723","bright_ti4":"328.59","scan":"0.49","track":"0.4","acq_date":"2026-06-14","acq_time":"1210","satellite":"N21","instrument":"VIIRS","confidence":"l","version":"2.0NRT","bright_ti5":"302.73","frp":"4.66","daynight":"D","commune":"Grande-Synthe","code_insee":"59271","departement":"Nord","region":"Hauts-de-France"}},{"type":"Feature","geometry":{"type":"Point","coordinates":[2.29685,51.04622]},"properties":{"latitude":"51.04622","longitude":"2.29685","bright_ti4":"329.89","scan":"0.49","track":"0.4","acq_date":"2026-06-14","acq_time":"1210","satellite":"N21","instrument":"VIIRS","confidence":"n","version":"2.0NRT","bright_ti5":"298.81","frp":"1.3","daynight":"D","commune":"Grande-Synthe","code_insee":"59271","departement":"Nord","region":"Hauts-de-France"}}]}