{"type":"FeatureCollection","features":[{"type":"Feature","geometry":{"type":"Point","coordinates":[7.23508,47.62856]},"properties":{"latitude":"47.62856","longitude":"7.23508","bright_ti4":"299.39","scan":"0.42","track":"0.61","acq_date":"2026-08-08","acq_time":"45","satellite":"N","instrument":"VIIRS","confidence":"n","version":"2.0NRT","bright_ti5":"288.9","frp":"0.79","daynight":"N","commune":"Altkirch","code_insee":"68004","departement":"Haut-Rhin","region":"Grand Est"}},{"type":"Feature","geometry":{"type":"Point","coordinates":[6.11421,48.61095]},"properties":{"latitude":"48.61095","longitude":"6.11421","bright_ti4":"299.41","scan":"0.48","track":"0.65","acq_date":"2026-08-08","acq_time":"45","satellite":"N","instrument":"VIIRS","confidence":"n","version":"2.0NRT","bright_ti5":"289.2","frp":"1.26","daynight":"N","commune":"Neuves-Maisons","code_insee":"54397","departement":"Meurthe-et-Moselle","region":"Grand Est"}},{"type":"Feature","geometry":{"type":"Point","coordinates":[6.10736,48.61106]},"properties":{"latitude":"48.61106","longitude":"6.10736","bright_ti4":"304.63","scan":"0.48","track":"0.65","acq_date":"2026-08-08","acq_time":"45","satellite":"N","instrument":"VIIRS","confidence":"n","version":"2.0NRT","bright_ti5":"289.19","frp":"1.47","daynight":"N","commune":"Neuves-Maisons","code_insee":"54397","departement":"Meurthe-et-Moselle","region":"Grand Est"}},{"type":"Feature","geometry":{"type":"Point","coordinates":[2.27201,51.02712]},"properties":{"latitude":"51.02712","longitude":"2.27201","bright_ti4":"310.31","scan":"0.72","track":"0.76","acq_date":"2026-08-08","acq_time":"45","satellite":"N","instrument":"VIIRS","confidence":"n","version":"2.0NRT","bright_ti5":"285.54","frp":"2.96","daynight":"N","commune":"Grande-Synthe","code_insee":"59271","departement":"Nord","region":"Hauts-de-France"}},{"type":"Feature","geometry":{"type":"Point","coordinates":[2.24993,51.03368]},"properties":{"latitude":"51.03368","longitude":"2.24993","bright_ti4":"295.68","scan":"0.72","track":"0.76","acq_date":"2026-08-08","acq_time":"45","satellite":"N","instrument":"VIIRS","confidence":"n","version":"2.0NRT","bright_ti5":"285.61","frp":"1.6","daynight":"N","commune":"Dunkerque","code_insee":"59183","departement":"Nord","region":"Hauts-de-France"}},{"type":"Feature","geometry":{"type":"Point","coordinates":[2.27162,51.03425]},"properties":{"latitude":"51.03425","longitude":"2.27162","bright_ti4":"311.6","scan":"0.72","track":"0.76","acq_date":"2026-08-08","acq_time":"45","satellite":"N","instrument":"VIIRS","confidence":"n","version":"2.0NRT","bright_ti5":"286.26","frp":"4.46","daynight":"N","commune":"Grande-Synthe","code_insee":"59271","departement":"Nord","region":"Hauts-de-France"}},{"type":"Feature","geometry":{"type":"Point","coordinates":[2.28254,51.03453]},"properties":{"latitude":"51.03453","longitude":"2.28254","bright_ti4":"307.5","scan":"0.72","track":"0.76","acq_date":"2026-08-08","acq_time":"45","satellite":"N","instrument":"VIIRS","confidence":"n","version":"2.0NRT","bright_ti5":"286.1","frp":"3.23","daynight":"N","commune":"Grande-Synthe","code_insee":"59271","departement":"Nord","region":"Hauts-de-France"}},{"type":"Feature","geometry":{"type":"Point","coordinates":[4.89231,43.43356]},"properties":{"latitude":"43.43356","longitude":"4.89231","bright_ti4":"306.1","scan":"0.52","track":"0.67","acq_date":"2026-08-08","acq_time":"48","satellite":"N","instrument":"VIIRS","confidence":"n","version":"2.0NRT","bright_ti5":"294.51","frp":"2.58","daynight":"N","commune":"Fos-sur-Mer","code_insee":"13039","departement":"Bouches-du-Rhône","region":"Provence-Alpes-Côte d'Azur"}},{"type":"Feature","geometry":{"type":"Point","coordinates":[4.88562,43.4337]},"properties":{"latitude":"43.4337","longitude":"4.88562","bright_ti4":"308.96","scan":"0.52","track":"0.67","acq_date":"2026-08-08","acq_time":"48","satellite":"N","instrument":"VIIRS","confidence":"n","version":"2.0NRT","bright_ti5":"295","frp":"2.67","daynight":"N","commune":"Fos-sur-Mer","code_insee":"13039","departement":"Bouches-du-Rhône","region":"Provence-Alpes-Côte d'Azur"}},{"type":"Feature","geometry":{"type":"Point","coordinates":[4.87921,43.44011]},"properties":{"latitude":"43.44011","longitude":"4.87921","bright_ti4":"307.4","scan":"0.52","track":"0.67","acq_date":"2026-08-08","acq_time":"48","satellite":"N","instrument":"VIIRS","confidence":"n","version":"2.0NRT","bright_ti5":"293.24","frp":"1.91","daynight":"N","commune":"Fos-sur-Mer","code_insee":"13039","departement":"Bouches-du-Rhône","region":"Provence-Alpes-Côte d'Azur"}},{"type":"Feature","geometry":{"type":"Point","coordinates":[4.84619,43.45336]},"properties":{"latitude":"43.45336","longitude":"4.84619","bright_ti4":"305.67","scan":"0.52","track":"0.67","acq_date":"2026-08-08","acq_time":"48","satellite":"N","instrument":"VIIRS","confidence":"n","version":"2.0NRT","bright_ti5":"292.57","frp":"0.99","daynight":"N","commune":"Fos-sur-Mer","code_insee":"13039","departement":"Bouches-du-Rhône","region":"Provence-Alpes-Côte d'Azur"}},{"type":"Feature","geometry":{"type":"Point","coordinates":[7.3738,43.79475]},"properties":{"latitude":"43.79475","longitude":"7.3738","bright_ti4":"307.24","scan":"0.39","track":"0.6","acq_date":"2026-08-08","acq_time":"48","satellite":"N","instrument":"VIIRS","confidence":"n","version":"2.0NRT","bright_ti5":"292.38","frp":"1.18","daynight":"N","commune":"Blausasc","code_insee":"06019","departement":"Alpes-Maritimes","region":"Provence-Alpes-Côte d'Azur"}},{"type":"Feature","geometry":{"type":"Point","coordinates":[4.33403,46.59987]},"properties":{"latitude":"46.59987","longitude":"4.33403","bright_ti4":"317.63","scan":"0.57","track":"0.69","acq_date":"2026-08-08","acq_time":"48","satellite":"N","instrument":"VIIRS","confidence":"n","version":"2.0NRT","bright_ti5":"284.09","frp":"2.87","daynight":"N","commune":"Pouilloux","code_insee":"71356","departement":"Saône-et-Loire","region":"Bourgogne-Franche-Comté"}},{"type":"Feature","geometry":{"type":"Point","coordinates":[4.3381,46.60117]},"properties":{"latitude":"46.60117","longitude":"4.3381","bright_ti4":"295.09","scan":"0.57","track":"0.69","acq_date":"2026-08-08","acq_time":"48","satellite":"N","instrument":"VIIRS","confidence":"n","version":"2.0NRT","bright_ti5":"283.81","frp":"1.34","daynight":"N","commune":"Pouilloux","code_insee":"71356","departement":"Saône-et-Loire","region":"Bourgogne-Franche-Comté"}},{"type":"Feature","geometry":{"type":"Point","coordinates":[4.33011,46.60124]},"properties":{"latitude":"46.60124","longitude":"4.33011","bright_ti4":"316.76","scan":"0.57","track":"0.69","acq_date":"2026-08-08","acq_time":"48","satellite":"N","instrument":"VIIRS","confidence":"n","version":"2.0NRT","bright_ti5":"284.22","frp":"2.37","daynight":"N","commune":"Pouilloux","code_insee":"71356","departement":"Saône-et-Loire","region":"Bourgogne-Franche-Comté"}},{"type":"Feature","geometry":{"type":"Point","coordinates":[3.61481,50.48582]},"properties":{"latitude":"50.48582","longitude":"3.61481","bright_ti4":"310.38","scan":"0.48","track":"0.4","acq_date":"2026-08-08","acq_time":"226","satellite":"N","instrument":"VIIRS","confidence":"n","version":"2.0NRT","bright_ti5":"287.61","frp":"1.66","daynight":"N","commune":"Condé-sur-l'Escaut","code_insee":"59153","departement":"Nord","region":"Hauts-de-France"}},{"type":"Feature","geometry":{"type":"Point","coordinates":[2.26821,51.02705]},"properties":{"latitude":"51.02705","longitude":"2.26821","bright_ti4":"327.8","scan":"0.43","track":"0.38","acq_date":"2026-08-08","acq_time":"226","satellite":"N","instrument":"VIIRS","confidence":"n","version":"2.0NRT","bright_ti5":"287.98","frp":"2.65","daynight":"N","commune":"Grande-Synthe","code_insee":"59271","departement":"Nord","region":"Hauts-de-France"}},{"type":"Feature","geometry":{"type":"Point","coordinates":[2.26989,51.03044]},"properties":{"latitude":"51.03044","longitude":"2.26989","bright_ti4":"303.76","scan":"0.43","track":"0.38","acq_date":"2026-08-08","acq_time":"226","satellite":"N","instrument":"VIIRS","confidence":"n","version":"2.0NRT","bright_ti5":"288.49","frp":"1.23","daynight":"N","commune":"Grande-Synthe","code_insee":"59271","departement":"Nord","region":"Hauts-de-France"}},{"type":"Feature","geometry":{"type":"Point","coordinates":[2.25192,51.03398]},"properties":{"latitude":"51.03398","longitude":"2.25192","bright_ti4":"300.66","scan":"0.43","track":"0.38","acq_date":"2026-08-08","acq_time":"226","satellite":"N","instrument":"VIIRS","confidence":"n","version":"2.0NRT","bright_ti5":"287.65","frp":"1.09","daynight":"N","commune":"Dunkerque","code_insee":"59183","departement":"Nord","region":"Hauts-de-France"}},{"type":"Feature","geometry":{"type":"Point","coordinates":[2.28523,51.03485]},"properties":{"latitude":"51.03485","longitude":"2.28523","bright_ti4":"311.85","scan":"0.43","track":"0.38","acq_date":"2026-08-08","acq_time":"226","satellite":"N","instrument":"VIIRS","confidence":"n","version":"2.0NRT","bright_ti5":"288.25","frp":"0.89","daynight":"N","commune":"Grande-Synthe","code_insee":"59271","departement":"Nord","region":"Hauts-de-France"}},{"type":"Feature","geometry":{"type":"Point","coordinates":[2.27923,51.03604]},"properties":{"latitude":"51.03604","longitude":"2.27923","bright_ti4":"312.39","scan":"0.43","track":"0.38","acq_date":"2026-08-08","acq_time":"226","satellite":"N","instrument":"VIIRS","confidence":"n","version":"2.0NRT","bright_ti5":"287.23","frp":"0.89","daynight":"N","commune":"Grande-Synthe","code_insee":"59271","departement":"Nord","region":"Hauts-de-France"}},{"type":"Feature","geometry":{"type":"Point","coordinates":[2.28092,51.03942]},"properties":{"latitude":"51.03942","longitude":"2.28092","bright_ti4":"306.71","scan":"0.43","track":"0.38","acq_date":"2026-08-08","acq_time":"226","satellite":"N","instrument":"VIIRS","confidence":"n","version":"2.0NRT","bright_ti5":"287.45","frp":"0.89","daynight":"N","commune":"Grande-Synthe","code_insee":"59271","departement":"Nord","region":"Hauts-de-France"}},{"type":"Feature","geometry":{"type":"Point","coordinates":[2.2886,51.04164]},"properties":{"latitude":"51.04164","longitude":"2.2886","bright_ti4":"298.71","scan":"0.43","track":"0.38","acq_date":"2026-08-08","acq_time":"226","satellite":"N","instrument":"VIIRS","confidence":"n","version":"2.0NRT","bright_ti5":"287.78","frp":"1.71","daynight":"N","commune":"Grande-Synthe","code_insee":"59271","departement":"Nord","region":"Hauts-de-France"}},{"type":"Feature","geometry":{"type":"Point","coordinates":[2.29627,51.04385]},"properties":{"latitude":"51.04385","longitude":"2.29627","bright_ti4":"335.79","scan":"0.43","track":"0.38","acq_date":"2026-08-08","acq_time":"226","satellite":"N","instrument":"VIIRS","confidence":"n","version":"2.0NRT","bright_ti5":"289.86","frp":"3.93","daynight":"N","commune":"Grande-Synthe","code_insee":"59271","departement":"Nord","region":"Hauts-de-France"}},{"type":"Feature","geometry":{"type":"Point","coordinates":[2.31765,51.04709]},"properties":{"latitude":"51.04709","longitude":"2.31765","bright_ti4":"330.81","scan":"0.43","track":"0.38","acq_date":"2026-08-08","acq_time":"226","satellite":"N","instrument":"VIIRS","confidence":"n","version":"2.0NRT","bright_ti5":"289.96","frp":"4.01","daynight":"N","commune":"Dunkerque","code_insee":"59183","departement":"Nord","region":"Hauts-de-France"}},{"type":"Feature","geometry":{"type":"Point","coordinates":[-0.24044,42.93409]},"properties":{"latitude":"42.93409","longitude":"-0.24044","bright_ti4":"303.91","scan":"0.48","track":"0.4","acq_date":"2026-08-08","acq_time":"228","satellite":"N","instrument":"VIIRS","confidence":"n","version":"2.0NRT","bright_ti5":"288.23","frp":"1.47","daynight":"N","commune":"Arrens-Marsous","code_insee":"65032","departement":"Hautes-Pyrénées","region":"Occitanie"}},{"type":"Feature","geometry":{"type":"Point","coordinates":[-0.24573,42.93781]},"properties":{"latitude":"42.93781","longitude":"-0.24573","bright_ti4":"308.06","scan":"0.48","track":"0.4","acq_date":"2026-08-08","acq_time":"228","satellite":"N","instrument":"VIIRS","confidence":"n","version":"2.0NRT","bright_ti5":"287.58","frp":"1.56","daynight":"N","commune":"Arrens-Marsous","code_insee":"65032","departement":"Hautes-Pyrénées","region":"Occitanie"}},{"type":"Feature","geometry":{"type":"Point","coordinates":[0.99137,43.1852]},"properties":{"latitude":"43.1852","longitude":"0.99137","bright_ti4":"302.12","scan":"0.53","track":"0.42","acq_date":"2026-08-08","acq_time":"228","satellite":"N","instrument":"VIIRS","confidence":"n","version":"2.0NRT","bright_ti5":"291.45","frp":"0.82","daynight":"N","commune":"Martres-Tolosane","code_insee":"31324","departement":"Haute-Garonne","region":"Occitanie"}},{"type":"Feature","geometry":{"type":"Point","coordinates":[4.89228,43.43141]},"properties":{"latitude":"43.43141","longitude":"4.89228","bright_ti4":"306.24","scan":"0.52","track":"0.5","acq_date":"2026-08-08","acq_time":"228","satellite":"N","instrument":"VIIRS","confidence":"n","version":"2.0NRT","bright_ti5":"294.89","frp":"3.78","daynight":"N","commune":"Fos-sur-Mer","code_insee":"13039","departement":"Bouches-du-Rhône","region":"Provence-Alpes-Côte d'Azur"}},{"type":"Feature","geometry":{"type":"Point","coordinates":[4.88602,43.43297]},"properties":{"latitude":"43.43297","longitude":"4.88602","bright_ti4":"328.08","scan":"0.52","track":"0.5","acq_date":"2026-08-08","acq_time":"228","satellite":"N","instrument":"VIIRS","confidence":"n","version":"2.0NRT","bright_ti5":"294.58","frp":"3.82","daynight":"N","commune":"Fos-sur-Mer","code_insee":"13039","departement":"Bouches-du-Rhône","region":"Provence-Alpes-Côte d'Azur"}},{"type":"Feature","geometry":{"type":"Point","coordinates":[4.89089,43.44028]},"properties":{"latitude":"43.44028","longitude":"4.89089","bright_ti4":"307.63","scan":"0.52","track":"0.5","acq_date":"2026-08-08","acq_time":"228","satellite":"N","instrument":"VIIRS","confidence":"n","version":"2.0NRT","bright_ti5":"294.38","frp":"1.65","daynight":"N","commune":"Fos-sur-Mer","code_insee":"13039","departement":"Bouches-du-Rhône","region":"Provence-Alpes-Côte d'Azur"}},{"type":"Feature","geometry":{"type":"Point","coordinates":[4.89921,43.4431]},"properties":{"latitude":"43.4431","longitude":"4.89921","bright_ti4":"311.31","scan":"0.52","track":"0.5","acq_date":"2026-08-08","acq_time":"228","satellite":"N","instrument":"VIIRS","confidence":"n","version":"2.0NRT","bright_ti5":"293.63","frp":"1.65","daynight":"N","commune":"Fos-sur-Mer","code_insee":"13039","departement":"Bouches-du-Rhône","region":"Provence-Alpes-Côte d'Azur"}},{"type":"Feature","geometry":{"type":"Point","coordinates":[4.89857,43.44464]},"properties":{"latitude":"43.44464","longitude":"4.89857","bright_ti4":"334.57","scan":"0.52","track":"0.5","acq_date":"2026-08-08","acq_time":"228","satellite":"N","instrument":"VIIRS","confidence":"n","version":"2.0NRT","bright_ti5":"294.79","frp":"3.76","daynight":"N","commune":"Fos-sur-Mer","code_insee":"13039","departement":"Bouches-du-Rhône","region":"Provence-Alpes-Côte d'Azur"}},{"type":"Feature","geometry":{"type":"Point","coordinates":[4.89298,43.44469]},"properties":{"latitude":"43.44469","longitude":"4.89298","bright_ti4":"308.12","scan":"0.52","track":"0.5","acq_date":"2026-08-08","acq_time":"228","satellite":"N","instrument":"VIIRS","confidence":"n","version":"2.0NRT","bright_ti5":"293.1","frp":"1.65","daynight":"N","commune":"Fos-sur-Mer","code_insee":"13039","departement":"Bouches-du-Rhône","region":"Provence-Alpes-Côte d'Azur"}},{"type":"Feature","geometry":{"type":"Point","coordinates":[4.89233,43.44619]},"properties":{"latitude":"43.44619","longitude":"4.89233","bright_ti4":"326.83","scan":"0.52","track":"0.5","acq_date":"2026-08-08","acq_time":"228","satellite":"N","instrument":"VIIRS","confidence":"n","version":"2.0NRT","bright_ti5":"292.92","frp":"4.45","daynight":"N","commune":"Fos-sur-Mer","code_insee":"13039","departement":"Bouches-du-Rhône","region":"Provence-Alpes-Côte d'Azur"}},{"type":"Feature","geometry":{"type":"Point","coordinates":[4.90069,43.44904]},"properties":{"latitude":"43.44904","longitude":"4.90069","bright_ti4":"320.18","scan":"0.52","track":"0.5","acq_date":"2026-08-08","acq_time":"228","satellite":"N","instrument":"VIIRS","confidence":"n","version":"2.0NRT","bright_ti5":"293.76","frp":"3.76","daynight":"N","commune":"Fos-sur-Mer","code_insee":"13039","departement":"Bouches-du-Rhône","region":"Provence-Alpes-Côte d'Azur"}},{"type":"Feature","geometry":{"type":"Point","coordinates":[4.89507,43.44909]},"properties":{"latitude":"43.44909","longitude":"4.89507","bright_ti4":"338.61","scan":"0.52","track":"0.5","acq_date":"2026-08-08","acq_time":"228","satellite":"N","instrument":"VIIRS","confidence":"n","version":"2.0NRT","bright_ti5":"294.39","frp":"10.96","daynight":"N","commune":"Fos-sur-Mer","code_insee":"13039","departement":"Bouches-du-Rhône","region":"Provence-Alpes-Côte d'Azur"}},{"type":"Feature","geometry":{"type":"Point","coordinates":[4.89444,43.45059]},"properties":{"latitude":"43.45059","longitude":"4.89444","bright_ti4":"317.21","scan":"0.52","track":"0.5","acq_date":"2026-08-08","acq_time":"228","satellite":"N","instrument":"VIIRS","confidence":"n","version":"2.0NRT","bright_ti5":"291.01","frp":"4.45","daynight":"N","commune":"Fos-sur-Mer","code_insee":"13039","departement":"Bouches-du-Rhône","region":"Provence-Alpes-Côte d'Azur"}},{"type":"Feature","geometry":{"type":"Point","coordinates":[4.70013,44.7203]},"properties":{"latitude":"44.7203","longitude":"4.70013","bright_ti4":"303.54","scan":"0.48","track":"0.48","acq_date":"2026-08-08","acq_time":"228","satellite":"N","instrument":"VIIRS","confidence":"n","version":"2.0NRT","bright_ti5":"290.77","frp":"0.81","daynight":"N","commune":"Saint-Symphorien-sous-Chomérac","code_insee":"07298","departement":"Ardèche","region":"Auvergne-Rhône-Alpes"}},{"type":"Feature","geometry":{"type":"Point","coordinates":[-1.7877,46.83474]},"properties":{"latitude":"46.83474","longitude":"-1.7877","bright_ti4":"327.56","scan":"0.4","track":"0.37","acq_date":"2026-08-08","acq_time":"228","satellite":"N","instrument":"VIIRS","confidence":"n","version":"2.0NRT","bright_ti5":"286.14","frp":"3.07","daynight":"N","commune":"Challans","code_insee":"85047","departement":"Vendée","region":"Pays de la Loire"}},{"type":"Feature","geometry":{"type":"Point","coordinates":[-1.7928,46.83564]},"properties":{"latitude":"46.83564","longitude":"-1.7928","bright_ti4":"310.26","scan":"0.4","track":"0.37","acq_date":"2026-08-08","acq_time":"228","satellite":"N","instrument":"VIIRS","confidence":"n","version":"2.0NRT","bright_ti5":"287.22","frp":"3.33","daynight":"N","commune":"Challans","code_insee":"85047","departement":"Vendée","region":"Pays de la Loire"}},{"type":"Feature","geometry":{"type":"Point","coordinates":[-1.78648,46.83804]},"properties":{"latitude":"46.83804","longitude":"-1.78648","bright_ti4":"326.02","scan":"0.4","track":"0.37","acq_date":"2026-08-08","acq_time":"228","satellite":"N","instrument":"VIIRS","confidence":"n","version":"2.0NRT","bright_ti5":"288.87","frp":"3.66","daynight":"N","commune":"Challans","code_insee":"85047","departement":"Vendée","region":"Pays de la Loire"}},{"type":"Feature","geometry":{"type":"Point","coordinates":[-1.79158,46.83894]},"properties":{"latitude":"46.83894","longitude":"-1.79158","bright_ti4":"317.32","scan":"0.4","track":"0.37","acq_date":"2026-08-08","acq_time":"228","satellite":"N","instrument":"VIIRS","confidence":"n","version":"2.0NRT","bright_ti5":"287.08","frp":"3.53","daynight":"N","commune":"Challans","code_insee":"85047","departement":"Vendée","region":"Pays de la Loire"}},{"type":"Feature","geometry":{"type":"Point","coordinates":[-2.05635,47.31769]},"properties":{"latitude":"47.31769","longitude":"-2.05635","bright_ti4":"314.13","scan":"0.39","track":"0.36","acq_date":"2026-08-08","acq_time":"228","satellite":"N","instrument":"VIIRS","confidence":"n","version":"2.0NRT","bright_ti5":"285.59","frp":"1.07","daynight":"N","commune":"Donges","code_insee":"44052","departement":"Loire-Atlantique","region":"Pays de la Loire"}},{"type":"Feature","geometry":{"type":"Point","coordinates":[6.96621,48.6901]},"properties":{"latitude":"48.6901","longitude":"6.96621","bright_ti4":"299.26","scan":"0.47","track":"0.48","acq_date":"2026-08-08","acq_time":"228","satellite":"N","instrument":"VIIRS","confidence":"n","version":"2.0NRT","bright_ti5":"286.63","frp":"0.83","daynight":"N","commune":"Héming","code_insee":"57314","departement":"Moselle","region":"Grand Est"}},{"type":"Feature","geometry":{"type":"Point","coordinates":[5.68307,48.71743]},"properties":{"latitude":"48.71743","longitude":"5.68307","bright_ti4":"301.44","scan":"0.42","track":"0.45","acq_date":"2026-08-08","acq_time":"228","satellite":"N","instrument":"VIIRS","confidence":"n","version":"2.0NRT","bright_ti5":"284.51","frp":"0.71","daynight":"N","commune":"Sorcy-Saint-Martin","code_insee":"55496","departement":"Meuse","region":"Grand Est"}},{"type":"Feature","geometry":{"type":"Point","coordinates":[4.37412,48.82655]},"properties":{"latitude":"48.82655","longitude":"4.37412","bright_ti4":"300.77","scan":"0.55","track":"0.43","acq_date":"2026-08-08","acq_time":"228","satellite":"N","instrument":"VIIRS","confidence":"n","version":"2.0NRT","bright_ti5":"281.46","frp":"0.97","daynight":"N","commune":"Coupetz","code_insee":"51178","departement":"Marne","region":"Grand Est"}},{"type":"Feature","geometry":{"type":"Point","coordinates":[0.53599,49.47622]},"properties":{"latitude":"49.47622","longitude":"0.53599","bright_ti4":"301.4","scan":"0.41","track":"0.37","acq_date":"2026-08-08","acq_time":"228","satellite":"N","instrument":"VIIRS","confidence":"n","version":"2.0NRT","bright_ti5":"285.97","frp":"1.13","daynight":"N","commune":"Port-Jérôme-sur-Seine","code_insee":"76476","departement":"Seine-Maritime","region":"Normandie"}},{"type":"Feature","geometry":{"type":"Point","coordinates":[7.23713,47.63051]},"properties":{"latitude":"47.63051","longitude":"7.23713","bright_ti4":"302.07","scan":"0.43","track":"0.46","acq_date":"2026-08-08","acq_time":"105","satellite":"N20","instrument":"VIIRS","confidence":"n","version":"2.0NRT","bright_ti5":"289.52","frp":"0.81","daynight":"N","commune":"Altkirch","code_insee":"68004","departement":"Haut-Rhin","region":"Grand Est"}},{"type":"Feature","geometry":{"type":"Point","coordinates":[6.1097,48.60981]},"properties":{"latitude":"48.60981","longitude":"6.1097","bright_ti4":"312.64","scan":"0.5","track":"0.49","acq_date":"2026-08-08","acq_time":"105","satellite":"N20","instrument":"VIIRS","confidence":"n","version":"2.0NRT","bright_ti5":"290.64","frp":"2.5","daynight":"N","commune":"Neuves-Maisons","code_insee":"54397","departement":"Meurthe-et-Moselle","region":"Grand Est"}},{"type":"Feature","geometry":{"type":"Point","coordinates":[6.11033,48.61135]},"properties":{"latitude":"48.61135","longitude":"6.11033","bright_ti4":"309.51","scan":"0.5","track":"0.49","acq_date":"2026-08-08","acq_time":"105","satellite":"N20","instrument":"VIIRS","confidence":"n","version":"2.0NRT","bright_ti5":"290.29","frp":"1.57","daynight":"N","commune":"Neuves-Maisons","code_insee":"54397","departement":"Meurthe-et-Moselle","region":"Grand Est"}},{"type":"Feature","geometry":{"type":"Point","coordinates":[6.96743,48.69162]},"properties":{"latitude":"48.69162","longitude":"6.96743","bright_ti4":"303.92","scan":"0.46","track":"0.47","acq_date":"2026-08-08","acq_time":"105","satellite":"N20","instrument":"VIIRS","confidence":"n","version":"2.0NRT","bright_ti5":"287.1","frp":"0.73","daynight":"N","commune":"Héming","code_insee":"57314","departement":"Moselle","region":"Grand Est"}},{"type":"Feature","geometry":{"type":"Point","coordinates":[5.68497,48.71811]},"properties":{"latitude":"48.71811","longitude":"5.68497","bright_ti4":"296.75","scan":"0.52","track":"0.5","acq_date":"2026-08-08","acq_time":"105","satellite":"N20","instrument":"VIIRS","confidence":"n","version":"2.0NRT","bright_ti5":"284.91","frp":"0.64","daynight":"N","commune":"Sorcy-Saint-Martin","code_insee":"55496","departement":"Meuse","region":"Grand Est"}},{"type":"Feature","geometry":{"type":"Point","coordinates":[4.37717,48.82792]},"properties":{"latitude":"48.82792","longitude":"4.37717","bright_ti4":"297.29","scan":"0.6","track":"0.53","acq_date":"2026-08-08","acq_time":"105","satellite":"N20","instrument":"VIIRS","confidence":"n","version":"2.0NRT","bright_ti5":"282.35","frp":"1.04","daynight":"N","commune":"Coupetz","code_insee":"51178","departement":"Marne","region":"Grand Est"}},{"type":"Feature","geometry":{"type":"Point","coordinates":[-0.24295,42.93559]},"properties":{"latitude":"42.93559","longitude":"-0.24295","bright_ti4":"309.35","scan":"0.45","track":"0.63","acq_date":"2026-08-08","acq_time":"107","satellite":"N20","instrument":"VIIRS","confidence":"n","version":"2.0NRT","bright_ti5":"288.14","frp":"1.78","daynight":"N","commune":"Arrens-Marsous","code_insee":"65032","departement":"Hautes-Pyrénées","region":"Occitanie"}},{"type":"Feature","geometry":{"type":"Point","coordinates":[-0.24641,42.93571]},"properties":{"latitude":"42.93571","longitude":"-0.24641","bright_ti4":"314.94","scan":"0.46","track":"0.63","acq_date":"2026-08-08","acq_time":"107","satellite":"N20","instrument":"VIIRS","confidence":"n","version":"2.0NRT","bright_ti5":"288.74","frp":"1.78","daynight":"N","commune":"Arrens-Marsous","code_insee":"65032","departement":"Hautes-Pyrénées","region":"Occitanie"}},{"type":"Feature","geometry":{"type":"Point","coordinates":[-0.24085,42.93665]},"properties":{"latitude":"42.93665","longitude":"-0.24085","bright_ti4":"298.13","scan":"0.45","track":"0.63","acq_date":"2026-08-08","acq_time":"107","satellite":"N20","instrument":"VIIRS","confidence":"n","version":"2.0NRT","bright_ti5":"287.39","frp":"1.53","daynight":"N","commune":"Arrens-Marsous","code_insee":"65032","departement":"Hautes-Pyrénées","region":"Occitanie"}},{"type":"Feature","geometry":{"type":"Point","coordinates":[-0.24428,42.93677]},"properties":{"latitude":"42.93677","longitude":"-0.24428","bright_ti4":"313.19","scan":"0.45","track":"0.63","acq_date":"2026-08-08","acq_time":"107","satellite":"N20","instrument":"VIIRS","confidence":"n","version":"2.0NRT","bright_ti5":"288.6","frp":"1.76","daynight":"N","commune":"Arrens-Marsous","code_insee":"65032","departement":"Hautes-Pyrénées","region":"Occitanie"}},{"type":"Feature","geometry":{"type":"Point","coordinates":[-0.24766,42.93689]},"properties":{"latitude":"42.93689","longitude":"-0.24766","bright_ti4":"306.42","scan":"0.46","track":"0.63","acq_date":"2026-08-08","acq_time":"107","satellite":"N20","instrument":"VIIRS","confidence":"n","version":"2.0NRT","bright_ti5":"286.97","frp":"1.76","daynight":"N","commune":"Arrens-Marsous","code_insee":"65032","departement":"Hautes-Pyrénées","region":"Occitanie"}},{"type":"Feature","geometry":{"type":"Point","coordinates":[0.98866,43.18921]},"properties":{"latitude":"43.18921","longitude":"0.98866","bright_ti4":"300.13","scan":"0.39","track":"0.6","acq_date":"2026-08-08","acq_time":"107","satellite":"N20","instrument":"VIIRS","confidence":"n","version":"2.0NRT","bright_ti5":"289.83","frp":"0.88","daynight":"N","commune":"Martres-Tolosane","code_insee":"31324","departement":"Haute-Garonne","region":"Occitanie"}},{"type":"Feature","geometry":{"type":"Point","coordinates":[4.89033,43.4351]},"properties":{"latitude":"43.4351","longitude":"4.89033","bright_ti4":"319.85","scan":"0.5","track":"0.49","acq_date":"2026-08-08","acq_time":"107","satellite":"N20","instrument":"VIIRS","confidence":"n","version":"2.0NRT","bright_ti5":"296.2","frp":"2.42","daynight":"N","commune":"Fos-sur-Mer","code_insee":"13039","departement":"Bouches-du-Rhône","region":"Provence-Alpes-Côte d'Azur"}},{"type":"Feature","geometry":{"type":"Point","coordinates":[4.89101,43.43961]},"properties":{"latitude":"43.43961","longitude":"4.89101","bright_ti4":"312.92","scan":"0.5","track":"0.49","acq_date":"2026-08-08","acq_time":"107","satellite":"N20","instrument":"VIIRS","confidence":"n","version":"2.0NRT","bright_ti5":"295.33","frp":"2.42","daynight":"N","commune":"Fos-sur-Mer","code_insee":"13039","departement":"Bouches-du-Rhône","region":"Provence-Alpes-Côte d'Azur"}},{"type":"Feature","geometry":{"type":"Point","coordinates":[4.89859,43.44817]},"properties":{"latitude":"43.44817","longitude":"4.89859","bright_ti4":"308.26","scan":"0.5","track":"0.49","acq_date":"2026-08-08","acq_time":"107","satellite":"N20","instrument":"VIIRS","confidence":"n","version":"2.0NRT","bright_ti5":"296.06","frp":"2.24","daynight":"N","commune":"Fos-sur-Mer","code_insee":"13039","departement":"Bouches-du-Rhône","region":"Provence-Alpes-Côte d'Azur"}},{"type":"Feature","geometry":{"type":"Point","coordinates":[4.84852,43.45202]},"properties":{"latitude":"43.45202","longitude":"4.84852","bright_ti4":"309.83","scan":"0.5","track":"0.49","acq_date":"2026-08-08","acq_time":"107","satellite":"N20","instrument":"VIIRS","confidence":"n","version":"2.0NRT","bright_ti5":"293.52","frp":"1.06","daynight":"N","commune":"Fos-sur-Mer","code_insee":"13039","departement":"Bouches-du-Rhône","region":"Provence-Alpes-Côte d'Azur"}},{"type":"Feature","geometry":{"type":"Point","coordinates":[7.37369,43.79396]},"properties":{"latitude":"43.79396","longitude":"7.37369","bright_ti4":"311.13","scan":"0.39","track":"0.44","acq_date":"2026-08-08","acq_time":"107","satellite":"N20","instrument":"VIIRS","confidence":"n","version":"2.0NRT","bright_ti5":"294.35","frp":"1.48","daynight":"N","commune":"Blausasc","code_insee":"06019","departement":"Alpes-Maritimes","region":"Provence-Alpes-Côte d'Azur"}},{"type":"Feature","geometry":{"type":"Point","coordinates":[6.14602,49.31859]},"properties":{"latitude":"49.31859","longitude":"6.14602","bright_ti4":"298.56","scan":"0.5","track":"0.49","acq_date":"2026-08-08","acq_time":"107","satellite":"N20","instrument":"VIIRS","confidence":"n","version":"2.0NRT","bright_ti5":"286.5","frp":"0.73","daynight":"N","commune":"Florange","code_insee":"57221","departement":"Moselle","region":"Grand Est"}},{"type":"Feature","geometry":{"type":"Point","coordinates":[0.5318,49.47995]},"properties":{"latitude":"49.47995","longitude":"0.5318","bright_ti4":"296.87","scan":"0.45","track":"0.63","acq_date":"2026-08-08","acq_time":"107","satellite":"N20","instrument":"VIIRS","confidence":"n","version":"2.0NRT","bright_ti5":"285.35","frp":"1.31","daynight":"N","commune":"Lillebonne","code_insee":"76384","departement":"Seine-Maritime","region":"Normandie"}},{"type":"Feature","geometry":{"type":"Point","coordinates":[2.57015,49.65908]},"properties":{"latitude":"49.65908","longitude":"2.57015","bright_ti4":"307.23","scan":"0.37","track":"0.58","acq_date":"2026-08-08","acq_time":"107","satellite":"N20","instrument":"VIIRS","confidence":"n","version":"2.0NRT","bright_ti5":"281.54","frp":"0.89","daynight":"N","commune":"Montdidier","code_insee":"80561","departement":"Somme","region":"Hauts-de-France"}},{"type":"Feature","geometry":{"type":"Point","coordinates":[3.61166,50.48562]},"properties":{"latitude":"50.48562","longitude":"3.61166","bright_ti4":"305.43","scan":"0.33","track":"0.56","acq_date":"2026-08-08","acq_time":"107","satellite":"N20","instrument":"VIIRS","confidence":"n","version":"2.0NRT","bright_ti5":"284.98","frp":"1.07","daynight":"N","commune":"Condé-sur-l'Escaut","code_insee":"59153","departement":"Nord","region":"Hauts-de-France"}},{"type":"Feature","geometry":{"type":"Point","coordinates":[2.27021,51.02951]},"properties":{"latitude":"51.02951","longitude":"2.27021","bright_ti4":"347.3","scan":"0.39","track":"0.59","acq_date":"2026-08-08","acq_time":"107","satellite":"N20","instrument":"VIIRS","confidence":"n","version":"2.0NRT","bright_ti5":"289.17","frp":"4.15","daynight":"N","commune":"Grande-Synthe","code_insee":"59271","departement":"Nord","region":"Hauts-de-France"}},{"type":"Feature","geometry":{"type":"Point","coordinates":[2.2931,51.03437]},"properties":{"latitude":"51.03437","longitude":"2.2931","bright_ti4":"300.81","scan":"0.39","track":"0.59","acq_date":"2026-08-08","acq_time":"107","satellite":"N20","instrument":"VIIRS","confidence":"n","version":"2.0NRT","bright_ti5":"285.85","frp":"1.05","daynight":"N","commune":"Grande-Synthe","code_insee":"59271","departement":"Nord","region":"Hauts-de-France"}},{"type":"Feature","geometry":{"type":"Point","coordinates":[2.28751,51.03452]},"properties":{"latitude":"51.03452","longitude":"2.28751","bright_ti4":"310.05","scan":"0.39","track":"0.59","acq_date":"2026-08-08","acq_time":"107","satellite":"N20","instrument":"VIIRS","confidence":"n","version":"2.0NRT","bright_ti5":"287.11","frp":"1.11","daynight":"N","commune":"Grande-Synthe","code_insee":"59271","departement":"Nord","region":"Hauts-de-France"}},{"type":"Feature","geometry":{"type":"Point","coordinates":[2.25378,51.03546]},"properties":{"latitude":"51.03546","longitude":"2.25378","bright_ti4":"304.26","scan":"0.39","track":"0.59","acq_date":"2026-08-08","acq_time":"107","satellite":"N20","instrument":"VIIRS","confidence":"n","version":"2.0NRT","bright_ti5":"286.47","frp":"1.27","daynight":"N","commune":"Dunkerque","code_insee":"59183","departement":"Nord","region":"Hauts-de-France"}},{"type":"Feature","geometry":{"type":"Point","coordinates":[2.28225,51.04016]},"properties":{"latitude":"51.04016","longitude":"2.28225","bright_ti4":"304.94","scan":"0.39","track":"0.59","acq_date":"2026-08-08","acq_time":"107","satellite":"N20","instrument":"VIIRS","confidence":"n","version":"2.0NRT","bright_ti5":"286.45","frp":"1.11","daynight":"N","commune":"Grande-Synthe","code_insee":"59271","departement":"Nord","region":"Hauts-de-France"}},{"type":"Feature","geometry":{"type":"Point","coordinates":[2.29961,51.04517]},"properties":{"latitude":"51.04517","longitude":"2.29961","bright_ti4":"305.25","scan":"0.39","track":"0.59","acq_date":"2026-08-08","acq_time":"107","satellite":"N20","instrument":"VIIRS","confidence":"n","version":"2.0NRT","bright_ti5":"287.22","frp":"2.35","daynight":"N","commune":"Grande-Synthe","code_insee":"59271","departement":"Nord","region":"Hauts-de-France"}},{"type":"Feature","geometry":{"type":"Point","coordinates":[2.29399,51.04533]},"properties":{"latitude":"51.04533","longitude":"2.29399","bright_ti4":"342.67","scan":"0.39","track":"0.59","acq_date":"2026-08-08","acq_time":"107","satellite":"N20","instrument":"VIIRS","confidence":"n","version":"2.0NRT","bright_ti5":"288.28","frp":"2.35","daynight":"N","commune":"Grande-Synthe","code_insee":"59271","departement":"Nord","region":"Hauts-de-France"}},{"type":"Feature","geometry":{"type":"Point","coordinates":[-2.054,47.31527]},"properties":{"latitude":"47.31527","longitude":"-2.054","bright_ti4":"297.78","scan":"0.4","track":"0.44","acq_date":"2026-08-08","acq_time":"245","satellite":"N20","instrument":"VIIRS","confidence":"n","version":"2.0NRT","bright_ti5":"285.6","frp":"0.74","daynight":"N","commune":"Donges","code_insee":"44052","departement":"Loire-Atlantique","region":"Pays de la Loire"}},{"type":"Feature","geometry":{"type":"Point","coordinates":[6.11581,48.61286]},"properties":{"latitude":"48.61286","longitude":"6.11581","bright_ti4":"299.34","scan":"0.41","track":"0.61","acq_date":"2026-08-08","acq_time":"245","satellite":"N20","instrument":"VIIRS","confidence":"n","version":"2.0NRT","bright_ti5":"288.37","frp":"0.92","daynight":"N","commune":"Neuves-Maisons","code_insee":"54397","departement":"Meurthe-et-Moselle","region":"Grand Est"}},{"type":"Feature","geometry":{"type":"Point","coordinates":[6.96458,48.69175]},"properties":{"latitude":"48.69175","longitude":"6.96458","bright_ti4":"299.36","scan":"0.44","track":"0.62","acq_date":"2026-08-08","acq_time":"245","satellite":"N20","instrument":"VIIRS","confidence":"n","version":"2.0NRT","bright_ti5":"285.98","frp":"0.73","daynight":"N","commune":"Héming","code_insee":"57314","departement":"Moselle","region":"Grand Est"}},{"type":"Feature","geometry":{"type":"Point","coordinates":[5.68253,48.71655]},"properties":{"latitude":"48.71655","longitude":"5.68253","bright_ti4":"296.13","scan":"0.39","track":"0.59","acq_date":"2026-08-08","acq_time":"245","satellite":"N20","instrument":"VIIRS","confidence":"n","version":"2.0NRT","bright_ti5":"283.25","frp":"0.49","daynight":"N","commune":"Sorcy-Saint-Martin","code_insee":"55496","departement":"Meuse","region":"Grand Est"}},{"type":"Feature","geometry":{"type":"Point","coordinates":[5.68287,48.72014]},"properties":{"latitude":"48.72014","longitude":"5.68287","bright_ti4":"297.7","scan":"0.39","track":"0.59","acq_date":"2026-08-08","acq_time":"245","satellite":"N20","instrument":"VIIRS","confidence":"n","version":"2.0NRT","bright_ti5":"283.86","frp":"0.98","daynight":"N","commune":"Sorcy-Saint-Martin","code_insee":"55496","departement":"Meuse","region":"Grand Est"}},{"type":"Feature","geometry":{"type":"Point","coordinates":[4.56378,48.77199]},"properties":{"latitude":"48.77199","longitude":"4.56378","bright_ti4":"297.83","scan":"0.35","track":"0.57","acq_date":"2026-08-08","acq_time":"245","satellite":"N20","instrument":"VIIRS","confidence":"n","version":"2.0NRT","bright_ti5":"284.57","frp":"0.62","daynight":"N","commune":"Soulanges","code_insee":"51557","departement":"Marne","region":"Grand Est"}},{"type":"Feature","geometry":{"type":"Point","coordinates":[0.53404,49.47865]},"properties":{"latitude":"49.47865","longitude":"0.53404","bright_ti4":"299.09","scan":"0.45","track":"0.47","acq_date":"2026-08-08","acq_time":"245","satellite":"N20","instrument":"VIIRS","confidence":"n","version":"2.0NRT","bright_ti5":"284.78","frp":"1.53","daynight":"N","commune":"Port-Jérôme-sur-Seine","code_insee":"76476","departement":"Seine-Maritime","region":"Normandie"}},{"type":"Feature","geometry":{"type":"Point","coordinates":[3.6133,50.48563]},"properties":{"latitude":"50.48563","longitude":"3.6133","bright_ti4":"298.58","scan":"0.56","track":"0.52","acq_date":"2026-08-08","acq_time":"245","satellite":"N20","instrument":"VIIRS","confidence":"n","version":"2.0NRT","bright_ti5":"283.79","frp":"0.58","daynight":"N","commune":"Condé-sur-l'Escaut","code_insee":"59153","departement":"Nord","region":"Hauts-de-France"}},{"type":"Feature","geometry":{"type":"Point","coordinates":[3.61636,50.48819]},"properties":{"latitude":"50.48819","longitude":"3.61636","bright_ti4":"296.78","scan":"0.56","track":"0.52","acq_date":"2026-08-08","acq_time":"245","satellite":"N20","instrument":"VIIRS","confidence":"n","version":"2.0NRT","bright_ti5":"283.8","frp":"1.01","daynight":"N","commune":"Condé-sur-l'Escaut","code_insee":"59153","departement":"Nord","region":"Hauts-de-France"}},{"type":"Feature","geometry":{"type":"Point","coordinates":[2.27276,51.02983]},"properties":{"latitude":"51.02983","longitude":"2.27276","bright_ti4":"317.26","scan":"0.48","track":"0.48","acq_date":"2026-08-08","acq_time":"245","satellite":"N20","instrument":"VIIRS","confidence":"n","version":"2.0NRT","bright_ti5":"287.02","frp":"3.09","daynight":"N","commune":"Grande-Synthe","code_insee":"59271","departement":"Nord","region":"Hauts-de-France"}},{"type":"Feature","geometry":{"type":"Point","coordinates":[2.29086,51.03478]},"properties":{"latitude":"51.03478","longitude":"2.29086","bright_ti4":"316.41","scan":"0.48","track":"0.48","acq_date":"2026-08-08","acq_time":"245","satellite":"N20","instrument":"VIIRS","confidence":"n","version":"2.0NRT","bright_ti5":"288.29","frp":"1.86","daynight":"N","commune":"Grande-Synthe","code_insee":"59271","departement":"Nord","region":"Hauts-de-France"}},{"type":"Feature","geometry":{"type":"Point","coordinates":[2.28447,51.03642]},"properties":{"latitude":"51.03642","longitude":"2.28447","bright_ti4":"322.39","scan":"0.48","track":"0.48","acq_date":"2026-08-08","acq_time":"245","satellite":"N20","instrument":"VIIRS","confidence":"n","version":"2.0NRT","bright_ti5":"287.83","frp":"1.86","daynight":"N","commune":"Grande-Synthe","code_insee":"59271","departement":"Nord","region":"Hauts-de-France"}},{"type":"Feature","geometry":{"type":"Point","coordinates":[2.29622,51.04301]},"properties":{"latitude":"51.04301","longitude":"2.29622","bright_ti4":"305.12","scan":"0.48","track":"0.48","acq_date":"2026-08-08","acq_time":"245","satellite":"N20","instrument":"VIIRS","confidence":"n","version":"2.0NRT","bright_ti5":"289.31","frp":"1.88","daynight":"N","commune":"Grande-Synthe","code_insee":"59271","departement":"Nord","region":"Hauts-de-France"}},{"type":"Feature","geometry":{"type":"Point","coordinates":[2.32074,51.04632]},"properties":{"latitude":"51.04632","longitude":"2.32074","bright_ti4":"307.19","scan":"0.48","track":"0.48","acq_date":"2026-08-08","acq_time":"245","satellite":"N20","instrument":"VIIRS","confidence":"n","version":"2.0NRT","bright_ti5":"288.15","frp":"2.89","daynight":"N","commune":"Dunkerque","code_insee":"59183","departement":"Nord","region":"Hauts-de-France"}},{"type":"Feature","geometry":{"type":"Point","coordinates":[2.29891,51.04712]},"properties":{"latitude":"51.04712","longitude":"2.29891","bright_ti4":"315.91","scan":"0.48","track":"0.48","acq_date":"2026-08-08","acq_time":"245","satellite":"N20","instrument":"VIIRS","confidence":"n","version":"2.0NRT","bright_ti5":"288.18","frp":"2.58","daynight":"N","commune":"Grande-Synthe","code_insee":"59271","departement":"Nord","region":"Hauts-de-France"}},{"type":"Feature","geometry":{"type":"Point","coordinates":[2.31437,51.04795]},"properties":{"latitude":"51.04795","longitude":"2.31437","bright_ti4":"337.06","scan":"0.48","track":"0.48","acq_date":"2026-08-08","acq_time":"245","satellite":"N20","instrument":"VIIRS","confidence":"n","version":"2.0NRT","bright_ti5":"288.04","frp":"4.4","daynight":"N","commune":"Dunkerque","code_insee":"59183","departement":"Nord","region":"Hauts-de-France"}},{"type":"Feature","geometry":{"type":"Point","coordinates":[0.98849,43.18663]},"properties":{"latitude":"43.18663","longitude":"0.98849","bright_ti4":"302.51","scan":"0.35","track":"0.57","acq_date":"2026-08-08","acq_time":"247","satellite":"N20","instrument":"VIIRS","confidence":"n","version":"2.0NRT","bright_ti5":"289.94","frp":"0.81","daynight":"N","commune":"Martres-Tolosane","code_insee":"31324","departement":"Haute-Garonne","region":"Occitanie"}},{"type":"Feature","geometry":{"type":"Point","coordinates":[4.88874,43.43474]},"properties":{"latitude":"43.43474","longitude":"4.88874","bright_ti4":"316.07","scan":"0.53","track":"0.67","acq_date":"2026-08-08","acq_time":"247","satellite":"N20","instrument":"VIIRS","confidence":"n","version":"2.0NRT","bright_ti5":"294.21","frp":"3.43","daynight":"N","commune":"Fos-sur-Mer","code_insee":"13039","departement":"Bouches-du-Rhône","region":"Provence-Alpes-Côte d'Azur"}},{"type":"Feature","geometry":{"type":"Point","coordinates":[4.89556,43.44613]},"properties":{"latitude":"43.44613","longitude":"4.89556","bright_ti4":"331.91","scan":"0.53","track":"0.67","acq_date":"2026-08-08","acq_time":"247","satellite":"N20","instrument":"VIIRS","confidence":"n","version":"2.0NRT","bright_ti5":"294.36","frp":"4.66","daynight":"N","commune":"Fos-sur-Mer","code_insee":"13039","departement":"Bouches-du-Rhône","region":"Provence-Alpes-Côte d'Azur"}},{"type":"Feature","geometry":{"type":"Point","coordinates":[4.692,44.08857]},"properties":{"latitude":"44.08857","longitude":"4.692","bright_ti4":"306.47","scan":"0.49","track":"0.65","acq_date":"2026-08-08","acq_time":"247","satellite":"N20","instrument":"VIIRS","confidence":"n","version":"2.0NRT","bright_ti5":"293.47","frp":"1.06","daynight":"N","commune":"Laudun-l'Ardoise","code_insee":"30141","departement":"Gard","region":"Occitanie"}},{"type":"Feature","geometry":{"type":"Point","coordinates":[-0.5034,46.33525]},"properties":{"latitude":"46.33525","longitude":"-0.5034","bright_ti4":"313.67","scan":"0.49","track":"0.49","acq_date":"2026-08-08","acq_time":"247","satellite":"N20","instrument":"VIIRS","confidence":"n","version":"2.0NRT","bright_ti5":"284.87","frp":"1.06","daynight":"N","commune":"Niort","code_insee":"79191","departement":"Deux-Sèvres","region":"Nouvelle-Aquitaine"}},{"type":"Feature","geometry":{"type":"Point","coordinates":[-1.7874,46.83463]},"properties":{"latitude":"46.83463","longitude":"-1.7874","bright_ti4":"298.41","scan":"0.42","track":"0.45","acq_date":"2026-08-08","acq_time":"247","satellite":"N20","instrument":"VIIRS","confidence":"n","version":"2.0NRT","bright_ti5":"283.59","frp":"1.79","daynight":"N","commune":"Challans","code_insee":"85047","departement":"Vendée","region":"Pays de la Loire"}},{"type":"Feature","geometry":{"type":"Point","coordinates":[-1.79264,46.83587]},"properties":{"latitude":"46.83587","longitude":"-1.79264","bright_ti4":"323.95","scan":"0.42","track":"0.45","acq_date":"2026-08-08","acq_time":"247","satellite":"N20","instrument":"VIIRS","confidence":"n","version":"2.0NRT","bright_ti5":"283.36","frp":"1.79","daynight":"N","commune":"Challans","code_insee":"85047","departement":"Vendée","region":"Pays de la Loire"}},{"type":"Feature","geometry":{"type":"Point","coordinates":[-1.79068,46.83984]},"properties":{"latitude":"46.83984","longitude":"-1.79068","bright_ti4":"307.09","scan":"0.42","track":"0.45","acq_date":"2026-08-08","acq_time":"247","satellite":"N20","instrument":"VIIRS","confidence":"n","version":"2.0NRT","bright_ti5":"283.66","frp":"1.79","daynight":"N","commune":"Challans","code_insee":"85047","departement":"Vendée","region":"Pays de la Loire"}},{"type":"Feature","geometry":{"type":"Point","coordinates":[2.26916,51.02621]},"properties":{"latitude":"51.02621","longitude":"2.26916","bright_ti4":"328.66","scan":"0.4","track":"0.37","acq_date":"2026-08-08","acq_time":"149","satellite":"N21","instrument":"VIIRS","confidence":"n","version":"2.0NRT","bright_ti5":"288.84","frp":"2.37","daynight":"N","commune":"Grande-Synthe","code_insee":"59271","departement":"Nord","region":"Hauts-de-France"}},{"type":"Feature","geometry":{"type":"Point","coordinates":[2.2703,51.02953]},"properties":{"latitude":"51.02953","longitude":"2.2703","bright_ti4":"304.9","scan":"0.4","track":"0.37","acq_date":"2026-08-08","acq_time":"149","satellite":"N21","instrument":"VIIRS","confidence":"n","version":"2.0NRT","bright_ti5":"288.42","frp":"2.37","daynight":"N","commune":"Grande-Synthe","code_insee":"59271","departement":"Nord","region":"Hauts-de-France"}},{"type":"Feature","geometry":{"type":"Point","coordinates":[2.25347,51.03185]},"properties":{"latitude":"51.03185","longitude":"2.25347","bright_ti4":"306.18","scan":"0.4","track":"0.37","acq_date":"2026-08-08","acq_time":"149","satellite":"N21","instrument":"VIIRS","confidence":"n","version":"2.0NRT","bright_ti5":"287.87","frp":"1.06","daynight":"N","commune":"Dunkerque","code_insee":"59183","departement":"Nord","region":"Hauts-de-France"}},{"type":"Feature","geometry":{"type":"Point","coordinates":[2.29501,51.03306]},"properties":{"latitude":"51.03306","longitude":"2.29501","bright_ti4":"302.47","scan":"0.4","track":"0.37","acq_date":"2026-08-08","acq_time":"149","satellite":"N21","instrument":"VIIRS","confidence":"n","version":"2.0NRT","bright_ti5":"285.98","frp":"0.44","daynight":"N","commune":"Grande-Synthe","code_insee":"59271","departement":"Nord","region":"Hauts-de-France"}},{"type":"Feature","geometry":{"type":"Point","coordinates":[2.28941,51.03384]},"properties":{"latitude":"51.03384","longitude":"2.28941","bright_ti4":"311","scan":"0.4","track":"0.37","acq_date":"2026-08-08","acq_time":"149","satellite":"N21","instrument":"VIIRS","confidence":"n","version":"2.0NRT","bright_ti5":"288.72","frp":"1.17","daynight":"N","commune":"Grande-Synthe","code_insee":"59271","departement":"Nord","region":"Hauts-de-France"}},{"type":"Feature","geometry":{"type":"Point","coordinates":[2.2838,51.03461]},"properties":{"latitude":"51.03461","longitude":"2.2838","bright_ti4":"311.73","scan":"0.4","track":"0.37","acq_date":"2026-08-08","acq_time":"149","satellite":"N21","instrument":"VIIRS","confidence":"n","version":"2.0NRT","bright_ti5":"288.09","frp":"1.17","daynight":"N","commune":"Grande-Synthe","code_insee":"59271","departement":"Nord","region":"Hauts-de-France"}},{"type":"Feature","geometry":{"type":"Point","coordinates":[2.29077,51.03537]},"properties":{"latitude":"51.03537","longitude":"2.29077","bright_ti4":"305.86","scan":"0.4","track":"0.37","acq_date":"2026-08-08","acq_time":"149","satellite":"N21","instrument":"VIIRS","confidence":"n","version":"2.0NRT","bright_ti5":"287.89","frp":"0.98","daynight":"N","commune":"Grande-Synthe","code_insee":"59271","departement":"Nord","region":"Hauts-de-France"}},{"type":"Feature","geometry":{"type":"Point","coordinates":[2.28516,51.03613]},"properties":{"latitude":"51.03613","longitude":"2.28516","bright_ti4":"298.37","scan":"0.4","track":"0.37","acq_date":"2026-08-08","acq_time":"149","satellite":"N21","instrument":"VIIRS","confidence":"n","version":"2.0NRT","bright_ti5":"288.01","frp":"1.19","daynight":"N","commune":"Grande-Synthe","code_insee":"59271","departement":"Nord","region":"Hauts-de-France"}},{"type":"Feature","geometry":{"type":"Point","coordinates":[2.27954,51.0369]},"properties":{"latitude":"51.0369","longitude":"2.27954","bright_ti4":"322.17","scan":"0.4","track":"0.37","acq_date":"2026-08-08","acq_time":"149","satellite":"N21","instrument":"VIIRS","confidence":"n","version":"2.0NRT","bright_ti5":"287.99","frp":"1.19","daynight":"N","commune":"Grande-Synthe","code_insee":"59271","departement":"Nord","region":"Hauts-de-France"}},{"type":"Feature","geometry":{"type":"Point","coordinates":[2.29305,51.042]},"properties":{"latitude":"51.042","longitude":"2.29305","bright_ti4":"307.89","scan":"0.4","track":"0.37","acq_date":"2026-08-08","acq_time":"149","satellite":"N21","instrument":"VIIRS","confidence":"n","version":"2.0NRT","bright_ti5":"290.88","frp":"1.83","daynight":"N","commune":"Grande-Synthe","code_insee":"59271","departement":"Nord","region":"Hauts-de-France"}},{"type":"Feature","geometry":{"type":"Point","coordinates":[2.29981,51.04455]},"properties":{"latitude":"51.04455","longitude":"2.29981","bright_ti4":"299.39","scan":"0.4","track":"0.37","acq_date":"2026-08-08","acq_time":"149","satellite":"N21","instrument":"VIIRS","confidence":"n","version":"2.0NRT","bright_ti5":"287.9","frp":"1.83","daynight":"N","commune":"Grande-Synthe","code_insee":"59271","departement":"Nord","region":"Hauts-de-France"}},{"type":"Feature","geometry":{"type":"Point","coordinates":[2.29419,51.04531]},"properties":{"latitude":"51.04531","longitude":"2.29419","bright_ti4":"328.68","scan":"0.4","track":"0.37","acq_date":"2026-08-08","acq_time":"149","satellite":"N21","instrument":"VIIRS","confidence":"n","version":"2.0NRT","bright_ti5":"290.78","frp":"1.83","daynight":"N","commune":"Grande-Synthe","code_insee":"59271","departement":"Nord","region":"Hauts-de-France"}},{"type":"Feature","geometry":{"type":"Point","coordinates":[2.32453,51.04811]},"properties":{"latitude":"51.04811","longitude":"2.32453","bright_ti4":"309.87","scan":"0.4","track":"0.37","acq_date":"2026-08-08","acq_time":"149","satellite":"N21","instrument":"VIIRS","confidence":"n","version":"2.0NRT","bright_ti5":"288.68","frp":"2.12","daynight":"N","commune":"Dunkerque","code_insee":"59183","departement":"Nord","region":"Hauts-de-France"}},{"type":"Feature","geometry":{"type":"Point","coordinates":[0.98981,43.18456]},"properties":{"latitude":"43.18456","longitude":"0.98981","bright_ti4":"304.64","scan":"0.38","track":"0.36","acq_date":"2026-08-08","acq_time":"152","satellite":"N21","instrument":"VIIRS","confidence":"n","version":"2.0NRT","bright_ti5":"292.22","frp":"0.78","daynight":"N","commune":"Martres-Tolosane","code_insee":"31324","departement":"Haute-Garonne","region":"Occitanie"}},{"type":"Feature","geometry":{"type":"Point","coordinates":[1.13499,43.22392]},"properties":{"latitude":"43.22392","longitude":"1.13499","bright_ti4":"300.4","scan":"0.38","track":"0.36","acq_date":"2026-08-08","acq_time":"152","satellite":"N21","instrument":"VIIRS","confidence":"n","version":"2.0NRT","bright_ti5":"290.05","frp":"0.42","daynight":"N","commune":"Cazères","code_insee":"31135","departement":"Haute-Garonne","region":"Occitanie"}},{"type":"Feature","geometry":{"type":"Point","coordinates":[4.89753,43.43078]},"properties":{"latitude":"43.43078","longitude":"4.89753","bright_ti4":"310.47","scan":"0.43","track":"0.38","acq_date":"2026-08-08","acq_time":"152","satellite":"N21","instrument":"VIIRS","confidence":"n","version":"2.0NRT","bright_ti5":"296.81","frp":"1.26","daynight":"N","commune":"Fos-sur-Mer","code_insee":"13039","departement":"Bouches-du-Rhône","region":"Provence-Alpes-Côte d'Azur"}},{"type":"Feature","geometry":{"type":"Point","coordinates":[4.88705,43.43274]},"properties":{"latitude":"43.43274","longitude":"4.88705","bright_ti4":"321.4","scan":"0.43","track":"0.38","acq_date":"2026-08-08","acq_time":"152","satellite":"N21","instrument":"VIIRS","confidence":"n","version":"2.0NRT","bright_ti5":"297.2","frp":"3.66","daynight":"N","commune":"Fos-sur-Mer","code_insee":"13039","departement":"Bouches-du-Rhône","region":"Provence-Alpes-Côte d'Azur"}},{"type":"Feature","geometry":{"type":"Point","coordinates":[4.88949,43.43957]},"properties":{"latitude":"43.43957","longitude":"4.88949","bright_ti4":"309.91","scan":"0.43","track":"0.38","acq_date":"2026-08-08","acq_time":"152","satellite":"N21","instrument":"VIIRS","confidence":"n","version":"2.0NRT","bright_ti5":"295.34","frp":"2.56","daynight":"N","commune":"Fos-sur-Mer","code_insee":"13039","departement":"Bouches-du-Rhône","region":"Provence-Alpes-Côte d'Azur"}},{"type":"Feature","geometry":{"type":"Point","coordinates":[4.89716,43.44543]},"properties":{"latitude":"43.44543","longitude":"4.89716","bright_ti4":"335.33","scan":"0.43","track":"0.38","acq_date":"2026-08-08","acq_time":"152","satellite":"N21","instrument":"VIIRS","confidence":"n","version":"2.0NRT","bright_ti5":"299.32","frp":"10.2","daynight":"N","commune":"Fos-sur-Mer","code_insee":"13039","departement":"Bouches-du-Rhône","region":"Provence-Alpes-Côte d'Azur"}},{"type":"Feature","geometry":{"type":"Point","coordinates":[7.373,43.79481]},"properties":{"latitude":"43.79481","longitude":"7.373","bright_ti4":"304.86","scan":"0.52","track":"0.42","acq_date":"2026-08-08","acq_time":"152","satellite":"N21","instrument":"VIIRS","confidence":"n","version":"2.0NRT","bright_ti5":"294.85","frp":"1.37","daynight":"N","commune":"Blausasc","code_insee":"06019","departement":"Alpes-Maritimes","region":"Provence-Alpes-Côte d'Azur"}},{"type":"Feature","geometry":{"type":"Point","coordinates":[-2.05435,47.31717]},"properties":{"latitude":"47.31717","longitude":"-2.05435","bright_ti4":"324.38","scan":"0.47","track":"0.4","acq_date":"2026-08-08","acq_time":"152","satellite":"N21","instrument":"VIIRS","confidence":"n","version":"2.0NRT","bright_ti5":"286.93","frp":"2.3","daynight":"N","commune":"Donges","code_insee":"44052","departement":"Loire-Atlantique","region":"Pays de la Loire"}},{"type":"Feature","geometry":{"type":"Point","coordinates":[7.23367,47.62982]},"properties":{"latitude":"47.62982","longitude":"7.23367","bright_ti4":"303.49","scan":"0.45","track":"0.39","acq_date":"2026-08-08","acq_time":"152","satellite":"N21","instrument":"VIIRS","confidence":"n","version":"2.0NRT","bright_ti5":"290.71","frp":"0.68","daynight":"N","commune":"Altkirch","code_insee":"68004","departement":"Haut-Rhin","region":"Grand Est"}},{"type":"Feature","geometry":{"type":"Point","coordinates":[6.1085,48.56363]},"properties":{"latitude":"48.56363","longitude":"6.1085","bright_ti4":"300.7","scan":"0.41","track":"0.37","acq_date":"2026-08-08","acq_time":"152","satellite":"N21","instrument":"VIIRS","confidence":"n","version":"2.0NRT","bright_ti5":"289.02","frp":"0.72","daynight":"N","commune":"Xeuilley","code_insee":"54596","departement":"Meurthe-et-Moselle","region":"Grand Est"}},{"type":"Feature","geometry":{"type":"Point","coordinates":[6.11557,48.60859]},"properties":{"latitude":"48.60859","longitude":"6.11557","bright_ti4":"303.97","scan":"0.41","track":"0.37","acq_date":"2026-08-08","acq_time":"152","satellite":"N21","instrument":"VIIRS","confidence":"n","version":"2.0NRT","bright_ti5":"290.68","frp":"0.96","daynight":"N","commune":"Neuves-Maisons","code_insee":"54397","departement":"Meurthe-et-Moselle","region":"Grand Est"}},{"type":"Feature","geometry":{"type":"Point","coordinates":[6.11019,48.60956]},"properties":{"latitude":"48.60956","longitude":"6.11019","bright_ti4":"306.2","scan":"0.41","track":"0.37","acq_date":"2026-08-08","acq_time":"152","satellite":"N21","instrument":"VIIRS","confidence":"n","version":"2.0NRT","bright_ti5":"290.38","frp":"0.96","daynight":"N","commune":"Neuves-Maisons","code_insee":"54397","departement":"Meurthe-et-Moselle","region":"Grand Est"}},{"type":"Feature","geometry":{"type":"Point","coordinates":[6.96428,48.69225]},"properties":{"latitude":"48.69225","longitude":"6.96428","bright_ti4":"302.2","scan":"0.43","track":"0.38","acq_date":"2026-08-08","acq_time":"152","satellite":"N21","instrument":"VIIRS","confidence":"n","version":"2.0NRT","bright_ti5":"287.09","frp":"1.51","daynight":"N","commune":"Héming","code_insee":"57314","departement":"Moselle","region":"Grand Est"}},{"type":"Feature","geometry":{"type":"Point","coordinates":[5.68389,48.71759]},"properties":{"latitude":"48.71759","longitude":"5.68389","bright_ti4":"299.14","scan":"0.4","track":"0.37","acq_date":"2026-08-08","acq_time":"152","satellite":"N21","instrument":"VIIRS","confidence":"n","version":"2.0NRT","bright_ti5":"284.36","frp":"0.98","daynight":"N","commune":"Sorcy-Saint-Martin","code_insee":"55496","departement":"Meuse","region":"Grand Est"}},{"type":"Feature","geometry":{"type":"Point","coordinates":[4.56465,48.76763]},"properties":{"latitude":"48.76763","longitude":"4.56465","bright_ti4":"303.58","scan":"0.39","track":"0.36","acq_date":"2026-08-08","acq_time":"152","satellite":"N21","instrument":"VIIRS","confidence":"n","version":"2.0NRT","bright_ti5":"288.7","frp":"0.97","daynight":"N","commune":"Couvrot","code_insee":"51195","departement":"Marne","region":"Grand Est"}},{"type":"Feature","geometry":{"type":"Point","coordinates":[4.37846,48.82603]},"properties":{"latitude":"48.82603","longitude":"4.37846","bright_ti4":"307.6","scan":"0.39","track":"0.36","acq_date":"2026-08-08","acq_time":"152","satellite":"N21","instrument":"VIIRS","confidence":"n","version":"2.0NRT","bright_ti5":"282.15","frp":"1.37","daynight":"N","commune":"Coupetz","code_insee":"51178","departement":"Marne","region":"Grand Est"}},{"type":"Feature","geometry":{"type":"Point","coordinates":[6.08516,49.32286]},"properties":{"latitude":"49.32286","longitude":"6.08516","bright_ti4":"298.06","scan":"0.4","track":"0.37","acq_date":"2026-08-08","acq_time":"152","satellite":"N21","instrument":"VIIRS","confidence":"n","version":"2.0NRT","bright_ti5":"286.54","frp":"0.73","daynight":"N","commune":"Hayange","code_insee":"57306","departement":"Moselle","region":"Grand Est"}},{"type":"Feature","geometry":{"type":"Point","coordinates":[0.5341,49.47675]},"properties":{"latitude":"49.47675","longitude":"0.5341","bright_ti4":"302.99","scan":"0.42","track":"0.38","acq_date":"2026-08-08","acq_time":"152","satellite":"N21","instrument":"VIIRS","confidence":"n","version":"2.0NRT","bright_ti5":"286.95","frp":"1.07","daynight":"N","commune":"Lillebonne","code_insee":"76384","departement":"Seine-Maritime","region":"Normandie"}},{"type":"Feature","geometry":{"type":"Point","coordinates":[3.61353,50.48554]},"properties":{"latitude":"50.48554","longitude":"3.61353","bright_ti4":"319.96","scan":"0.39","track":"0.36","acq_date":"2026-08-08","acq_time":"152","satellite":"N21","instrument":"VIIRS","confidence":"n","version":"2.0NRT","bright_ti5":"289.56","frp":"2.36","daynight":"N","commune":"Condé-sur-l'Escaut","code_insee":"59153","departement":"Nord","region":"Hauts-de-France"}},{"type":"Feature","geometry":{"type":"Point","coordinates":[-0.24574,42.9343]},"properties":{"latitude":"42.9343","longitude":"-0.24574","bright_ti4":"319.6","scan":"0.39","track":"0.36","acq_date":"2026-08-08","acq_time":"154","satellite":"N21","instrument":"VIIRS","confidence":"n","version":"2.0NRT","bright_ti5":"291.04","frp":"2.29","daynight":"N","commune":"Arrens-Marsous","code_insee":"65032","departement":"Hautes-Pyrénées","region":"Occitanie"}},{"type":"Feature","geometry":{"type":"Point","coordinates":[-0.24029,42.93695]},"properties":{"latitude":"42.93695","longitude":"-0.24029","bright_ti4":"322.72","scan":"0.39","track":"0.36","acq_date":"2026-08-08","acq_time":"154","satellite":"N21","instrument":"VIIRS","confidence":"n","version":"2.0NRT","bright_ti5":"289.98","frp":"1.54","daynight":"N","commune":"Arrens-Marsous","code_insee":"65032","departement":"Hautes-Pyrénées","region":"Occitanie"}},{"type":"Feature","geometry":{"type":"Point","coordinates":[-0.24477,42.93758]},"properties":{"latitude":"42.93758","longitude":"-0.24477","bright_ti4":"303.68","scan":"0.39","track":"0.36","acq_date":"2026-08-08","acq_time":"154","satellite":"N21","instrument":"VIIRS","confidence":"n","version":"2.0NRT","bright_ti5":"288.99","frp":"1.54","daynight":"N","commune":"Arrens-Marsous","code_insee":"65032","departement":"Hautes-Pyrénées","region":"Occitanie"}},{"type":"Feature","geometry":{"type":"Point","coordinates":[2.26652,51.02711]},"properties":{"latitude":"51.02711","longitude":"2.26652","bright_ti4":"296.94","scan":"0.74","track":"0.76","acq_date":"2026-08-08","acq_time":"330","satellite":"N21","instrument":"VIIRS","confidence":"n","version":"2.0NRT","bright_ti5":"285.37","frp":"2.02","daynight":"N","commune":"Grande-Synthe","code_insee":"59271","departement":"Nord","region":"Hauts-de-France"}},{"type":"Feature","geometry":{"type":"Point","coordinates":[2.28773,51.03534]},"properties":{"latitude":"51.03534","longitude":"2.28773","bright_ti4":"309.38","scan":"0.74","track":"0.76","acq_date":"2026-08-08","acq_time":"330","satellite":"N21","instrument":"VIIRS","confidence":"n","version":"2.0NRT","bright_ti5":"285.86","frp":"4.45","daynight":"N","commune":"Grande-Synthe","code_insee":"59271","departement":"Nord","region":"Hauts-de-France"}},{"type":"Feature","geometry":{"type":"Point","coordinates":[2.29386,51.04124]},"properties":{"latitude":"51.04124","longitude":"2.29386","bright_ti4":"314.57","scan":"0.74","track":"0.76","acq_date":"2026-08-08","acq_time":"330","satellite":"N21","instrument":"VIIRS","confidence":"n","version":"2.0NRT","bright_ti5":"287.32","frp":"5.43","daynight":"N","commune":"Grande-Synthe","code_insee":"59271","departement":"Nord","region":"Hauts-de-France"}},{"type":"Feature","geometry":{"type":"Point","coordinates":[2.31668,51.04882]},"properties":{"latitude":"51.04882","longitude":"2.31668","bright_ti4":"302.45","scan":"0.74","track":"0.76","acq_date":"2026-08-08","acq_time":"330","satellite":"N21","instrument":"VIIRS","confidence":"n","version":"2.0NRT","bright_ti5":"286.93","frp":"4.48","daynight":"N","commune":"Dunkerque","code_insee":"59183","departement":"Nord","region":"Hauts-de-France"}},{"type":"Feature","geometry":{"type":"Point","coordinates":[2.31516,51.04945]},"properties":{"latitude":"51.04945","longitude":"2.31516","bright_ti4":"298.26","scan":"0.74","track":"0.76","acq_date":"2026-08-08","acq_time":"330","satellite":"N21","instrument":"VIIRS","confidence":"n","version":"2.0NRT","bright_ti5":"286.73","frp":"3.34","daynight":"N","commune":"Dunkerque","code_insee":"59183","departement":"Nord","region":"Hauts-de-France"}},{"type":"Feature","geometry":{"type":"Point","coordinates":[-1.78651,46.83681]},"properties":{"latitude":"46.83681","longitude":"-1.78651","bright_ti4":"302.91","scan":"0.75","track":"0.77","acq_date":"2026-08-08","acq_time":"332","satellite":"N21","instrument":"VIIRS","confidence":"n","version":"2.0NRT","bright_ti5":"273.09","frp":"3.01","daynight":"N","commune":"Challans","code_insee":"85047","departement":"Vendée","region":"Pays de la Loire"}}]}