{"type":"FeatureCollection","features":[{"type":"Feature","geometry":{"type":"Point","coordinates":[6.09413,43.45976]},"properties":{"latitude":"43.45976","longitude":"6.09413","bright_ti4":"346.76","scan":"0.39","track":"0.36","acq_date":"2026-08-01","acq_time":"1244","satellite":"N","instrument":"VIIRS","confidence":"n","version":"2.0NRT","bright_ti5":"311.09","frp":"63.53","daynight":"D","commune":"Le Val","code_insee":"83143","departement":"Var","region":"Provence-Alpes-Côte d'Azur"}},{"type":"Feature","geometry":{"type":"Point","coordinates":[6.07289,43.46368]},"properties":{"latitude":"43.46368","longitude":"6.07289","bright_ti4":"367","scan":"0.39","track":"0.36","acq_date":"2026-08-01","acq_time":"1244","satellite":"N","instrument":"VIIRS","confidence":"l","version":"2.0NRT","bright_ti5":"329.59","frp":"75.45","daynight":"D","commune":"Le Val","code_insee":"83143","departement":"Var","region":"Provence-Alpes-Côte d'Azur"}},{"type":"Feature","geometry":{"type":"Point","coordinates":[6.07774,43.46437]},"properties":{"latitude":"43.46437","longitude":"6.07774","bright_ti4":"349.54","scan":"0.39","track":"0.36","acq_date":"2026-08-01","acq_time":"1244","satellite":"N","instrument":"VIIRS","confidence":"n","version":"2.0NRT","bright_ti5":"306.2","frp":"75.3","daynight":"D","commune":"Correns","code_insee":"83045","departement":"Var","region":"Provence-Alpes-Côte d'Azur"}},{"type":"Feature","geometry":{"type":"Point","coordinates":[6.10304,43.46448]},"properties":{"latitude":"43.46448","longitude":"6.10304","bright_ti4":"367","scan":"0.39","track":"0.36","acq_date":"2026-08-01","acq_time":"1244","satellite":"N","instrument":"VIIRS","confidence":"h","version":"2.0NRT","bright_ti5":"355.36","frp":"67.73","daynight":"D","commune":"Correns","code_insee":"83045","departement":"Var","region":"Provence-Alpes-Côte d'Azur"}},{"type":"Feature","geometry":{"type":"Point","coordinates":[6.10794,43.46516]},"properties":{"latitude":"43.46516","longitude":"6.10794","bright_ti4":"337.8","scan":"0.39","track":"0.36","acq_date":"2026-08-01","acq_time":"1244","satellite":"N","instrument":"VIIRS","confidence":"n","version":"2.0NRT","bright_ti5":"308.36","frp":"37.89","daynight":"D","commune":"Correns","code_insee":"83045","departement":"Var","region":"Provence-Alpes-Côte d'Azur"}},{"type":"Feature","geometry":{"type":"Point","coordinates":[6.07203,43.46702]},"properties":{"latitude":"43.46702","longitude":"6.07203","bright_ti4":"367","scan":"0.39","track":"0.36","acq_date":"2026-08-01","acq_time":"1244","satellite":"N","instrument":"VIIRS","confidence":"h","version":"2.0NRT","bright_ti5":"350.12","frp":"205.28","daynight":"D","commune":"Le Val","code_insee":"83143","departement":"Var","region":"Provence-Alpes-Côte d'Azur"}},{"type":"Feature","geometry":{"type":"Point","coordinates":[6.10217,43.46781]},"properties":{"latitude":"43.46781","longitude":"6.10217","bright_ti4":"339.29","scan":"0.39","track":"0.36","acq_date":"2026-08-01","acq_time":"1244","satellite":"N","instrument":"VIIRS","confidence":"n","version":"2.0NRT","bright_ti5":"308.98","frp":"67.73","daynight":"D","commune":"Correns","code_insee":"83045","departement":"Var","region":"Provence-Alpes-Côte d'Azur"}},{"type":"Feature","geometry":{"type":"Point","coordinates":[6.06542,43.47301]},"properties":{"latitude":"43.47301","longitude":"6.06542","bright_ti4":"350.06","scan":"0.39","track":"0.36","acq_date":"2026-08-01","acq_time":"1244","satellite":"N","instrument":"VIIRS","confidence":"n","version":"2.0NRT","bright_ti5":"313.95","frp":"20.97","daynight":"D","commune":"Correns","code_insee":"83045","departement":"Var","region":"Provence-Alpes-Côte d'Azur"}},{"type":"Feature","geometry":{"type":"Point","coordinates":[6.10427,43.47849]},"properties":{"latitude":"43.47849","longitude":"6.10427","bright_ti4":"350.52","scan":"0.39","track":"0.36","acq_date":"2026-08-01","acq_time":"1244","satellite":"N","instrument":"VIIRS","confidence":"n","version":"2.0NRT","bright_ti5":"318.5","frp":"25.17","daynight":"D","commune":"Montfort-sur-Argens","code_insee":"83083","departement":"Var","region":"Provence-Alpes-Côte d'Azur"}},{"type":"Feature","geometry":{"type":"Point","coordinates":[6.04385,43.49762]},"properties":{"latitude":"43.49762","longitude":"6.04385","bright_ti4":"352.08","scan":"0.39","track":"0.36","acq_date":"2026-08-01","acq_time":"1244","satellite":"N","instrument":"VIIRS","confidence":"n","version":"2.0NRT","bright_ti5":"320.66","frp":"23.07","daynight":"D","commune":"Correns","code_insee":"83045","departement":"Var","region":"Provence-Alpes-Côte d'Azur"}},{"type":"Feature","geometry":{"type":"Point","coordinates":[6.04869,43.49831]},"properties":{"latitude":"43.49831","longitude":"6.04869","bright_ti4":"353.12","scan":"0.39","track":"0.36","acq_date":"2026-08-01","acq_time":"1244","satellite":"N","instrument":"VIIRS","confidence":"l","version":"2.0NRT","bright_ti5":"332.74","frp":"57.66","daynight":"D","commune":"Correns","code_insee":"83045","departement":"Var","region":"Provence-Alpes-Côte d'Azur"}},{"type":"Feature","geometry":{"type":"Point","coordinates":[6.04292,43.50095]},"properties":{"latitude":"43.50095","longitude":"6.04292","bright_ti4":"355.32","scan":"0.39","track":"0.36","acq_date":"2026-08-01","acq_time":"1244","satellite":"N","instrument":"VIIRS","confidence":"n","version":"2.0NRT","bright_ti5":"324.63","frp":"23.07","daynight":"D","commune":"Châteauvert","code_insee":"83039","departement":"Var","region":"Provence-Alpes-Côte d'Azur"}},{"type":"Feature","geometry":{"type":"Point","coordinates":[6.04775,43.50163]},"properties":{"latitude":"43.50163","longitude":"6.04775","bright_ti4":"367","scan":"0.39","track":"0.36","acq_date":"2026-08-01","acq_time":"1244","satellite":"N","instrument":"VIIRS","confidence":"l","version":"2.0NRT","bright_ti5":"328.65","frp":"57.66","daynight":"D","commune":"Correns","code_insee":"83045","departement":"Var","region":"Provence-Alpes-Côte d'Azur"}},{"type":"Feature","geometry":{"type":"Point","coordinates":[6.05652,43.50633]},"properties":{"latitude":"43.50633","longitude":"6.05652","bright_ti4":"343.19","scan":"0.39","track":"0.36","acq_date":"2026-08-01","acq_time":"1244","satellite":"N","instrument":"VIIRS","confidence":"n","version":"2.0NRT","bright_ti5":"314.85","frp":"21.86","daynight":"D","commune":"Correns","code_insee":"83045","departement":"Var","region":"Provence-Alpes-Côte d'Azur"}},{"type":"Feature","geometry":{"type":"Point","coordinates":[6.06138,43.50702]},"properties":{"latitude":"43.50702","longitude":"6.06138","bright_ti4":"353.44","scan":"0.39","track":"0.36","acq_date":"2026-08-01","acq_time":"1244","satellite":"N","instrument":"VIIRS","confidence":"l","version":"2.0NRT","bright_ti5":"345.72","frp":"21.86","daynight":"D","commune":"Correns","code_insee":"83045","departement":"Var","region":"Provence-Alpes-Côte d'Azur"}},{"type":"Feature","geometry":{"type":"Point","coordinates":[6.06624,43.50771]},"properties":{"latitude":"43.50771","longitude":"6.06624","bright_ti4":"354.21","scan":"0.39","track":"0.36","acq_date":"2026-08-01","acq_time":"1244","satellite":"N","instrument":"VIIRS","confidence":"l","version":"2.0NRT","bright_ti5":"335.26","frp":"38.29","daynight":"D","commune":"Correns","code_insee":"83045","departement":"Var","region":"Provence-Alpes-Côte d'Azur"}},{"type":"Feature","geometry":{"type":"Point","coordinates":[6.0711,43.5084]},"properties":{"latitude":"43.5084","longitude":"6.0711","bright_ti4":"367","scan":"0.39","track":"0.36","acq_date":"2026-08-01","acq_time":"1244","satellite":"N","instrument":"VIIRS","confidence":"l","version":"2.0NRT","bright_ti5":"332.65","frp":"38.29","daynight":"D","commune":"Correns","code_insee":"83045","departement":"Var","region":"Provence-Alpes-Côte d'Azur"}},{"type":"Feature","geometry":{"type":"Point","coordinates":[6.06047,43.51035]},"properties":{"latitude":"43.51035","longitude":"6.06047","bright_ti4":"346.13","scan":"0.39","track":"0.36","acq_date":"2026-08-01","acq_time":"1244","satellite":"N","instrument":"VIIRS","confidence":"n","version":"2.0NRT","bright_ti5":"312.66","frp":"21.86","daynight":"D","commune":"Correns","code_insee":"83045","departement":"Var","region":"Provence-Alpes-Côte d'Azur"}},{"type":"Feature","geometry":{"type":"Point","coordinates":[6.06533,43.51104]},"properties":{"latitude":"43.51104","longitude":"6.06533","bright_ti4":"345.23","scan":"0.39","track":"0.36","acq_date":"2026-08-01","acq_time":"1244","satellite":"N","instrument":"VIIRS","confidence":"n","version":"2.0NRT","bright_ti5":"314.34","frp":"38.29","daynight":"D","commune":"Correns","code_insee":"83045","departement":"Var","region":"Provence-Alpes-Côte d'Azur"}},{"type":"Feature","geometry":{"type":"Point","coordinates":[2.55337,46.76399]},"properties":{"latitude":"46.76399","longitude":"2.55337","bright_ti4":"349.26","scan":"0.39","track":"0.36","acq_date":"2026-08-01","acq_time":"1244","satellite":"N","instrument":"VIIRS","confidence":"n","version":"2.0NRT","bright_ti5":"310.5","frp":"21.67","daynight":"D","commune":"Arpheuilles","code_insee":"18013","departement":"Cher","region":"Centre-Val de Loire"}},{"type":"Feature","geometry":{"type":"Point","coordinates":[2.55836,46.7648]},"properties":{"latitude":"46.7648","longitude":"2.55836","bright_ti4":"345.3","scan":"0.39","track":"0.36","acq_date":"2026-08-01","acq_time":"1244","satellite":"N","instrument":"VIIRS","confidence":"n","version":"2.0NRT","bright_ti5":"307.03","frp":"21.67","daynight":"D","commune":"Arpheuilles","code_insee":"18013","departement":"Cher","region":"Centre-Val de Loire"}},{"type":"Feature","geometry":{"type":"Point","coordinates":[1.1932,46.78061]},"properties":{"latitude":"46.78061","longitude":"1.1932","bright_ti4":"342.39","scan":"0.4","track":"0.37","acq_date":"2026-08-01","acq_time":"1244","satellite":"N","instrument":"VIIRS","confidence":"n","version":"2.0NRT","bright_ti5":"309.97","frp":"27.17","daynight":"D","commune":"Saint-Michel-en-Brenne","code_insee":"36204","departement":"Indre","region":"Centre-Val de Loire"}},{"type":"Feature","geometry":{"type":"Point","coordinates":[8.91951,42.02505]},"properties":{"latitude":"42.02505","longitude":"8.91951","bright_ti4":"340.09","scan":"0.39","track":"0.36","acq_date":"2026-08-02","acq_time":"1223","satellite":"N","instrument":"VIIRS","confidence":"n","version":"2.0NRT","bright_ti5":"309.62","frp":"20.06","daynight":"D","commune":"Carbuccia","code_insee":"2A062","departement":"Corse-du-Sud","region":"Corse"}},{"type":"Feature","geometry":{"type":"Point","coordinates":[2.55852,47.84515]},"properties":{"latitude":"47.84515","longitude":"2.55852","bright_ti4":"333.88","scan":"0.47","track":"0.4","acq_date":"2026-08-02","acq_time":"1225","satellite":"N","instrument":"VIIRS","confidence":"n","version":"2.0NRT","bright_ti5":"302.09","frp":"83.04","daynight":"D","commune":"Montereau","code_insee":"45213","departement":"Loiret","region":"Centre-Val de Loire"}},{"type":"Feature","geometry":{"type":"Point","coordinates":[6.10249,43.45688]},"properties":{"latitude":"43.45688","longitude":"6.10249","bright_ti4":"326.52","scan":"0.38","track":"0.36","acq_date":"2026-08-01","acq_time":"139","satellite":"N20","instrument":"VIIRS","confidence":"n","version":"2.0NRT","bright_ti5":"293.08","frp":"39.15","daynight":"N","commune":"Le Val","code_insee":"83143","departement":"Var","region":"Provence-Alpes-Côte d'Azur"}},{"type":"Feature","geometry":{"type":"Point","coordinates":[6.09782,43.45762]},"properties":{"latitude":"43.45762","longitude":"6.09782","bright_ti4":"340.89","scan":"0.38","track":"0.36","acq_date":"2026-08-01","acq_time":"139","satellite":"N20","instrument":"VIIRS","confidence":"n","version":"2.0NRT","bright_ti5":"314.8","frp":"39.15","daynight":"N","commune":"Le Val","code_insee":"83143","departement":"Var","region":"Provence-Alpes-Côte d'Azur"}},{"type":"Feature","geometry":{"type":"Point","coordinates":[1.19595,46.77962]},"properties":{"latitude":"46.77962","longitude":"1.19595","bright_ti4":"367","scan":"0.76","track":"0.77","acq_date":"2026-08-01","acq_time":"1123","satellite":"N20","instrument":"VIIRS","confidence":"h","version":"2.0NRT","bright_ti5":"292.58","frp":"21.65","daynight":"D","commune":"Saint-Michel-en-Brenne","code_insee":"36204","departement":"Indre","region":"Centre-Val de Loire"}},{"type":"Feature","geometry":{"type":"Point","coordinates":[1.1928,46.78041]},"properties":{"latitude":"46.78041","longitude":"1.1928","bright_ti4":"356.51","scan":"0.76","track":"0.77","acq_date":"2026-08-01","acq_time":"1123","satellite":"N20","instrument":"VIIRS","confidence":"n","version":"2.0NRT","bright_ti5":"292.98","frp":"20.43","daynight":"D","commune":"Saint-Michel-en-Brenne","code_insee":"36204","departement":"Indre","region":"Centre-Val de Loire"}},{"type":"Feature","geometry":{"type":"Point","coordinates":[6.07864,43.45786]},"properties":{"latitude":"43.45786","longitude":"6.07864","bright_ti4":"345.85","scan":"0.43","track":"0.46","acq_date":"2026-08-01","acq_time":"1301","satellite":"N20","instrument":"VIIRS","confidence":"n","version":"2.0NRT","bright_ti5":"312.71","frp":"101.21","daynight":"D","commune":"Le Val","code_insee":"83143","departement":"Var","region":"Provence-Alpes-Côte d'Azur"}},{"type":"Feature","geometry":{"type":"Point","coordinates":[6.10666,43.46025]},"properties":{"latitude":"43.46025","longitude":"6.10666","bright_ti4":"337.32","scan":"0.43","track":"0.46","acq_date":"2026-08-01","acq_time":"1301","satellite":"N20","instrument":"VIIRS","confidence":"n","version":"2.0NRT","bright_ti5":"306.49","frp":"38.45","daynight":"D","commune":"Correns","code_insee":"83045","departement":"Var","region":"Provence-Alpes-Côte d'Azur"}},{"type":"Feature","geometry":{"type":"Point","coordinates":[6.07243,43.46162]},"properties":{"latitude":"43.46162","longitude":"6.07243","bright_ti4":"367","scan":"0.43","track":"0.46","acq_date":"2026-08-01","acq_time":"1301","satellite":"N20","instrument":"VIIRS","confidence":"h","version":"2.0NRT","bright_ti5":"327.98","frp":"141.68","daynight":"D","commune":"Le Val","code_insee":"83143","departement":"Var","region":"Provence-Alpes-Côte d'Azur"}},{"type":"Feature","geometry":{"type":"Point","coordinates":[6.07788,43.46209]},"properties":{"latitude":"43.46209","longitude":"6.07788","bright_ti4":"367","scan":"0.43","track":"0.46","acq_date":"2026-08-01","acq_time":"1301","satellite":"N20","instrument":"VIIRS","confidence":"h","version":"2.0NRT","bright_ti5":"343.67","frp":"101.21","daynight":"D","commune":"Le Val","code_insee":"83143","departement":"Var","region":"Provence-Alpes-Côte d'Azur"}},{"type":"Feature","geometry":{"type":"Point","coordinates":[6.08337,43.46255]},"properties":{"latitude":"43.46255","longitude":"6.08337","bright_ti4":"339.26","scan":"0.43","track":"0.46","acq_date":"2026-08-01","acq_time":"1301","satellite":"N20","instrument":"VIIRS","confidence":"n","version":"2.0NRT","bright_ti5":"306","frp":"101.21","daynight":"D","commune":"Le Val","code_insee":"83143","departement":"Var","region":"Provence-Alpes-Côte d'Azur"}},{"type":"Feature","geometry":{"type":"Point","coordinates":[6.106,43.46449]},"properties":{"latitude":"43.46449","longitude":"6.106","bright_ti4":"342.59","scan":"0.43","track":"0.46","acq_date":"2026-08-01","acq_time":"1301","satellite":"N20","instrument":"VIIRS","confidence":"n","version":"2.0NRT","bright_ti5":"309.43","frp":"38.45","daynight":"D","commune":"Correns","code_insee":"83045","departement":"Var","region":"Provence-Alpes-Côte d'Azur"}},{"type":"Feature","geometry":{"type":"Point","coordinates":[6.06648,43.46539]},"properties":{"latitude":"43.46539","longitude":"6.06648","bright_ti4":"337.57","scan":"0.43","track":"0.46","acq_date":"2026-08-01","acq_time":"1301","satellite":"N20","instrument":"VIIRS","confidence":"n","version":"2.0NRT","bright_ti5":"311.07","frp":"42.32","daynight":"D","commune":"Le Val","code_insee":"83143","departement":"Var","region":"Provence-Alpes-Côte d'Azur"}},{"type":"Feature","geometry":{"type":"Point","coordinates":[6.07187,43.46585]},"properties":{"latitude":"43.46585","longitude":"6.07187","bright_ti4":"367","scan":"0.43","track":"0.46","acq_date":"2026-08-01","acq_time":"1301","satellite":"N20","instrument":"VIIRS","confidence":"l","version":"2.0NRT","bright_ti5":"331.14","frp":"42.32","daynight":"D","commune":"Le Val","code_insee":"83143","departement":"Var","region":"Provence-Alpes-Côte d'Azur"}},{"type":"Feature","geometry":{"type":"Point","coordinates":[6.06586,43.46962]},"properties":{"latitude":"43.46962","longitude":"6.06586","bright_ti4":"367","scan":"0.43","track":"0.46","acq_date":"2026-08-01","acq_time":"1301","satellite":"N20","instrument":"VIIRS","confidence":"h","version":"2.0NRT","bright_ti5":"312.68","frp":"42.32","daynight":"D","commune":"Correns","code_insee":"83045","departement":"Var","region":"Provence-Alpes-Côte d'Azur"}},{"type":"Feature","geometry":{"type":"Point","coordinates":[6.09847,43.47671]},"properties":{"latitude":"43.47671","longitude":"6.09847","bright_ti4":"355.74","scan":"0.43","track":"0.46","acq_date":"2026-08-01","acq_time":"1301","satellite":"N20","instrument":"VIIRS","confidence":"n","version":"2.0NRT","bright_ti5":"312.95","frp":"20.75","daynight":"D","commune":"Montfort-sur-Argens","code_insee":"83083","departement":"Var","region":"Provence-Alpes-Côte d'Azur"}},{"type":"Feature","geometry":{"type":"Point","coordinates":[6.10357,43.47715]},"properties":{"latitude":"43.47715","longitude":"6.10357","bright_ti4":"352.41","scan":"0.43","track":"0.46","acq_date":"2026-08-01","acq_time":"1301","satellite":"N20","instrument":"VIIRS","confidence":"n","version":"2.0NRT","bright_ti5":"320.96","frp":"20.75","daynight":"D","commune":"Montfort-sur-Argens","code_insee":"83083","departement":"Var","region":"Provence-Alpes-Côte d'Azur"}},{"type":"Feature","geometry":{"type":"Point","coordinates":[6.09779,43.48095]},"properties":{"latitude":"43.48095","longitude":"6.09779","bright_ti4":"343.75","scan":"0.43","track":"0.46","acq_date":"2026-08-01","acq_time":"1301","satellite":"N20","instrument":"VIIRS","confidence":"l","version":"2.0NRT","bright_ti5":"314.55","frp":"20.75","daynight":"D","commune":"Correns","code_insee":"83045","departement":"Var","region":"Provence-Alpes-Côte d'Azur"}},{"type":"Feature","geometry":{"type":"Point","coordinates":[6.04009,43.49736]},"properties":{"latitude":"43.49736","longitude":"6.04009","bright_ti4":"344.23","scan":"0.43","track":"0.46","acq_date":"2026-08-01","acq_time":"1301","satellite":"N20","instrument":"VIIRS","confidence":"n","version":"2.0NRT","bright_ti5":"313.51","frp":"24.38","daynight":"D","commune":"Châteauvert","code_insee":"83039","departement":"Var","region":"Provence-Alpes-Côte d'Azur"}},{"type":"Feature","geometry":{"type":"Point","coordinates":[6.04539,43.49783]},"properties":{"latitude":"43.49783","longitude":"6.04539","bright_ti4":"352.94","scan":"0.43","track":"0.46","acq_date":"2026-08-01","acq_time":"1301","satellite":"N20","instrument":"VIIRS","confidence":"n","version":"2.0NRT","bright_ti5":"319.69","frp":"24.38","daynight":"D","commune":"Correns","code_insee":"83045","departement":"Var","region":"Provence-Alpes-Côte d'Azur"}},{"type":"Feature","geometry":{"type":"Point","coordinates":[6.05081,43.4983]},"properties":{"latitude":"43.4983","longitude":"6.05081","bright_ti4":"349.47","scan":"0.43","track":"0.46","acq_date":"2026-08-01","acq_time":"1301","satellite":"N20","instrument":"VIIRS","confidence":"n","version":"2.0NRT","bright_ti5":"316.75","frp":"20.76","daynight":"D","commune":"Correns","code_insee":"83045","departement":"Var","region":"Provence-Alpes-Côte d'Azur"}},{"type":"Feature","geometry":{"type":"Point","coordinates":[6.05631,43.49878]},"properties":{"latitude":"43.49878","longitude":"6.05631","bright_ti4":"340.98","scan":"0.43","track":"0.46","acq_date":"2026-08-01","acq_time":"1301","satellite":"N20","instrument":"VIIRS","confidence":"l","version":"2.0NRT","bright_ti5":"314.22","frp":"20.76","daynight":"D","commune":"Correns","code_insee":"83045","departement":"Var","region":"Provence-Alpes-Côte d'Azur"}},{"type":"Feature","geometry":{"type":"Point","coordinates":[6.05516,43.50297]},"properties":{"latitude":"43.50297","longitude":"6.05516","bright_ti4":"355.2","scan":"0.43","track":"0.46","acq_date":"2026-08-01","acq_time":"1301","satellite":"N20","instrument":"VIIRS","confidence":"n","version":"2.0NRT","bright_ti5":"315.95","frp":"20.76","daynight":"D","commune":"Correns","code_insee":"83045","departement":"Var","region":"Provence-Alpes-Côte d'Azur"}},{"type":"Feature","geometry":{"type":"Point","coordinates":[6.05972,43.50765]},"properties":{"latitude":"43.50765","longitude":"6.05972","bright_ti4":"352.13","scan":"0.43","track":"0.46","acq_date":"2026-08-01","acq_time":"1301","satellite":"N20","instrument":"VIIRS","confidence":"n","version":"2.0NRT","bright_ti5":"317.2","frp":"50.33","daynight":"D","commune":"Correns","code_insee":"83045","departement":"Var","region":"Provence-Alpes-Côte d'Azur"}},{"type":"Feature","geometry":{"type":"Point","coordinates":[6.0652,43.50813]},"properties":{"latitude":"43.50813","longitude":"6.0652","bright_ti4":"367","scan":"0.43","track":"0.46","acq_date":"2026-08-01","acq_time":"1301","satellite":"N20","instrument":"VIIRS","confidence":"l","version":"2.0NRT","bright_ti5":"328.76","frp":"50.33","daynight":"D","commune":"Correns","code_insee":"83045","departement":"Var","region":"Provence-Alpes-Côte d'Azur"}},{"type":"Feature","geometry":{"type":"Point","coordinates":[6.07067,43.50861]},"properties":{"latitude":"43.50861","longitude":"6.07067","bright_ti4":"355.51","scan":"0.43","track":"0.46","acq_date":"2026-08-01","acq_time":"1301","satellite":"N20","instrument":"VIIRS","confidence":"n","version":"2.0NRT","bright_ti5":"312.64","frp":"49.5","daynight":"D","commune":"Correns","code_insee":"83045","departement":"Var","region":"Provence-Alpes-Côte d'Azur"}},{"type":"Feature","geometry":{"type":"Point","coordinates":[4.87604,43.4445]},"properties":{"latitude":"43.4445","longitude":"4.87604","bright_ti4":"313.45","scan":"0.54","track":"0.42","acq_date":"2026-08-02","acq_time":"120","satellite":"N20","instrument":"VIIRS","confidence":"n","version":"2.0NRT","bright_ti5":"291.19","frp":"59.17","daynight":"N","commune":"Fos-sur-Mer","code_insee":"13039","departement":"Bouches-du-Rhône","region":"Provence-Alpes-Côte d'Azur"}},{"type":"Feature","geometry":{"type":"Point","coordinates":[3.7185,49.60196]},"properties":{"latitude":"49.60196","longitude":"3.7185","bright_ti4":"355.02","scan":"0.39","track":"0.36","acq_date":"2026-08-03","acq_time":"1227","satellite":"N20","instrument":"VIIRS","confidence":"n","version":"2.0NRT","bright_ti5":"303.29","frp":"20.7","daynight":"D","commune":"Samoussy","code_insee":"02697","departement":"Aisne","region":"Hauts-de-France"}},{"type":"Feature","geometry":{"type":"Point","coordinates":[2.69364,49.68752]},"properties":{"latitude":"49.68752","longitude":"2.69364","bright_ti4":"341.27","scan":"0.4","track":"0.37","acq_date":"2026-08-03","acq_time":"1227","satellite":"N20","instrument":"VIIRS","confidence":"n","version":"2.0NRT","bright_ti5":"311.36","frp":"26.56","daynight":"D","commune":"Marquivillers","code_insee":"80517","departement":"Somme","region":"Hauts-de-France"}},{"type":"Feature","geometry":{"type":"Point","coordinates":[5.4652,44.52644]},"properties":{"latitude":"44.52644","longitude":"5.4652","bright_ti4":"338.5","scan":"0.56","track":"0.43","acq_date":"2026-08-04","acq_time":"1206","satellite":"N20","instrument":"VIIRS","confidence":"l","version":"2.0NRT","bright_ti5":"312.97","frp":"25.17","daynight":"D","commune":"Bellegarde-en-Diois","code_insee":"26047","departement":"Drôme","region":"Auvergne-Rhône-Alpes"}},{"type":"Feature","geometry":{"type":"Point","coordinates":[5.47272,44.52809]},"properties":{"latitude":"44.52809","longitude":"5.47272","bright_ti4":"347","scan":"0.56","track":"0.43","acq_date":"2026-08-04","acq_time":"1206","satellite":"N20","instrument":"VIIRS","confidence":"n","version":"2.0NRT","bright_ti5":"307.31","frp":"140.8","daynight":"D","commune":"Saint-Dizier-en-Diois","code_insee":"26300","departement":"Drôme","region":"Auvergne-Rhône-Alpes"}},{"type":"Feature","geometry":{"type":"Point","coordinates":[5.46376,44.53027]},"properties":{"latitude":"44.53027","longitude":"5.46376","bright_ti4":"339.69","scan":"0.56","track":"0.43","acq_date":"2026-08-04","acq_time":"1206","satellite":"N20","instrument":"VIIRS","confidence":"n","version":"2.0NRT","bright_ti5":"306.23","frp":"25.17","daynight":"D","commune":"Bellegarde-en-Diois","code_insee":"26047","departement":"Drôme","region":"Auvergne-Rhône-Alpes"}},{"type":"Feature","geometry":{"type":"Point","coordinates":[5.46976,44.53573]},"properties":{"latitude":"44.53573","longitude":"5.46976","bright_ti4":"351.67","scan":"0.56","track":"0.43","acq_date":"2026-08-04","acq_time":"1206","satellite":"N20","instrument":"VIIRS","confidence":"n","version":"2.0NRT","bright_ti5":"310.72","frp":"23.67","daynight":"D","commune":"Bellegarde-en-Diois","code_insee":"26047","departement":"Drôme","region":"Auvergne-Rhône-Alpes"}},{"type":"Feature","geometry":{"type":"Point","coordinates":[5.47668,44.53725]},"properties":{"latitude":"44.53725","longitude":"5.47668","bright_ti4":"335.73","scan":"0.56","track":"0.43","acq_date":"2026-08-04","acq_time":"1206","satellite":"N20","instrument":"VIIRS","confidence":"n","version":"2.0NRT","bright_ti5":"297.56","frp":"23.67","daynight":"D","commune":"Bellegarde-en-Diois","code_insee":"26047","departement":"Drôme","region":"Auvergne-Rhône-Alpes"}},{"type":"Feature","geometry":{"type":"Point","coordinates":[5.46779,44.53944]},"properties":{"latitude":"44.53944","longitude":"5.46779","bright_ti4":"346.06","scan":"0.56","track":"0.43","acq_date":"2026-08-04","acq_time":"1206","satellite":"N20","instrument":"VIIRS","confidence":"n","version":"2.0NRT","bright_ti5":"309.29","frp":"23.67","daynight":"D","commune":"Bellegarde-en-Diois","code_insee":"26047","departement":"Drôme","region":"Auvergne-Rhône-Alpes"}},{"type":"Feature","geometry":{"type":"Point","coordinates":[5.47442,44.54089]},"properties":{"latitude":"44.54089","longitude":"5.47442","bright_ti4":"343.73","scan":"0.56","track":"0.43","acq_date":"2026-08-04","acq_time":"1206","satellite":"N20","instrument":"VIIRS","confidence":"n","version":"2.0NRT","bright_ti5":"306.44","frp":"23.67","daynight":"D","commune":"Bellegarde-en-Diois","code_insee":"26047","departement":"Drôme","region":"Auvergne-Rhône-Alpes"}},{"type":"Feature","geometry":{"type":"Point","coordinates":[5.47328,44.5271]},"properties":{"latitude":"44.5271","longitude":"5.47328","bright_ti4":"367","scan":"0.74","track":"0.76","acq_date":"2026-08-04","acq_time":"1348","satellite":"N20","instrument":"VIIRS","confidence":"h","version":"2.0NRT","bright_ti5":"292.64","frp":"31.5","daynight":"D","commune":"Saint-Dizier-en-Diois","code_insee":"26300","departement":"Drôme","region":"Auvergne-Rhône-Alpes"}},{"type":"Feature","geometry":{"type":"Point","coordinates":[5.46586,44.52715]},"properties":{"latitude":"44.52715","longitude":"5.46586","bright_ti4":"352.7","scan":"0.74","track":"0.76","acq_date":"2026-08-04","acq_time":"1348","satellite":"N20","instrument":"VIIRS","confidence":"n","version":"2.0NRT","bright_ti5":"297.04","frp":"34.05","daynight":"D","commune":"Bellegarde-en-Diois","code_insee":"26047","departement":"Drôme","region":"Auvergne-Rhône-Alpes"}},{"type":"Feature","geometry":{"type":"Point","coordinates":[5.48109,44.53413]},"properties":{"latitude":"44.53413","longitude":"5.48109","bright_ti4":"367","scan":"0.74","track":"0.76","acq_date":"2026-08-04","acq_time":"1348","satellite":"N20","instrument":"VIIRS","confidence":"h","version":"2.0NRT","bright_ti5":"296.97","frp":"66.98","daynight":"D","commune":"Bellegarde-en-Diois","code_insee":"26047","departement":"Drôme","region":"Auvergne-Rhône-Alpes"}},{"type":"Feature","geometry":{"type":"Point","coordinates":[5.47208,44.53419]},"properties":{"latitude":"44.53419","longitude":"5.47208","bright_ti4":"352.07","scan":"0.74","track":"0.76","acq_date":"2026-08-04","acq_time":"1348","satellite":"N20","instrument":"VIIRS","confidence":"n","version":"2.0NRT","bright_ti5":"296.92","frp":"66.98","daynight":"D","commune":"Bellegarde-en-Diois","code_insee":"26047","departement":"Drôme","region":"Auvergne-Rhône-Alpes"}},{"type":"Feature","geometry":{"type":"Point","coordinates":[5.48168,44.53767]},"properties":{"latitude":"44.53767","longitude":"5.48168","bright_ti4":"367","scan":"0.74","track":"0.76","acq_date":"2026-08-04","acq_time":"1348","satellite":"N20","instrument":"VIIRS","confidence":"h","version":"2.0NRT","bright_ti5":"296.01","frp":"195.29","daynight":"D","commune":"Bellegarde-en-Diois","code_insee":"26047","departement":"Drôme","region":"Auvergne-Rhône-Alpes"}},{"type":"Feature","geometry":{"type":"Point","coordinates":[5.47272,44.53776]},"properties":{"latitude":"44.53776","longitude":"5.47272","bright_ti4":"330.38","scan":"0.74","track":"0.76","acq_date":"2026-08-04","acq_time":"1348","satellite":"N20","instrument":"VIIRS","confidence":"n","version":"2.0NRT","bright_ti5":"299.43","frp":"124.28","daynight":"D","commune":"Bellegarde-en-Diois","code_insee":"26047","departement":"Drôme","region":"Auvergne-Rhône-Alpes"}},{"type":"Feature","geometry":{"type":"Point","coordinates":[5.48435,44.54121]},"properties":{"latitude":"44.54121","longitude":"5.48435","bright_ti4":"348.67","scan":"0.74","track":"0.76","acq_date":"2026-08-04","acq_time":"1348","satellite":"N20","instrument":"VIIRS","confidence":"n","version":"2.0NRT","bright_ti5":"291.17","frp":"66.98","daynight":"D","commune":"Beaumont-en-Diois","code_insee":"26036","departement":"Drôme","region":"Auvergne-Rhône-Alpes"}},{"type":"Feature","geometry":{"type":"Point","coordinates":[6.09674,43.45641]},"properties":{"latitude":"43.45641","longitude":"6.09674","bright_ti4":"337.33","scan":"0.49","track":"0.4","acq_date":"2026-08-01","acq_time":"1208","satellite":"N21","instrument":"VIIRS","confidence":"l","version":"2.0NRT","bright_ti5":"308.96","frp":"22.83","daynight":"D","commune":"Le Val","code_insee":"83143","departement":"Var","region":"Provence-Alpes-Côte d'Azur"}},{"type":"Feature","geometry":{"type":"Point","coordinates":[6.1004,43.48026]},"properties":{"latitude":"43.48026","longitude":"6.1004","bright_ti4":"353.85","scan":"0.49","track":"0.4","acq_date":"2026-08-01","acq_time":"1208","satellite":"N21","instrument":"VIIRS","confidence":"n","version":"2.0NRT","bright_ti5":"316.74","frp":"20.6","daynight":"D","commune":"Correns","code_insee":"83045","departement":"Var","region":"Provence-Alpes-Côte d'Azur"}},{"type":"Feature","geometry":{"type":"Point","coordinates":[6.04213,43.49891]},"properties":{"latitude":"43.49891","longitude":"6.04213","bright_ti4":"367","scan":"0.49","track":"0.4","acq_date":"2026-08-01","acq_time":"1208","satellite":"N21","instrument":"VIIRS","confidence":"l","version":"2.0NRT","bright_ti5":"329.87","frp":"72.33","daynight":"D","commune":"Châteauvert","code_insee":"83039","departement":"Var","region":"Provence-Alpes-Côte d'Azur"}},{"type":"Feature","geometry":{"type":"Point","coordinates":[6.04805,43.50011]},"properties":{"latitude":"43.50011","longitude":"6.04805","bright_ti4":"351.53","scan":"0.49","track":"0.4","acq_date":"2026-08-01","acq_time":"1208","satellite":"N21","instrument":"VIIRS","confidence":"n","version":"2.0NRT","bright_ti5":"315.7","frp":"26.75","daynight":"D","commune":"Correns","code_insee":"83045","departement":"Var","region":"Provence-Alpes-Côte d'Azur"}},{"type":"Feature","geometry":{"type":"Point","coordinates":[6.05389,43.50129]},"properties":{"latitude":"43.50129","longitude":"6.05389","bright_ti4":"346.82","scan":"0.49","track":"0.4","acq_date":"2026-08-01","acq_time":"1208","satellite":"N21","instrument":"VIIRS","confidence":"n","version":"2.0NRT","bright_ti5":"317","frp":"26.75","daynight":"D","commune":"Correns","code_insee":"83045","departement":"Var","region":"Provence-Alpes-Côte d'Azur"}},{"type":"Feature","geometry":{"type":"Point","coordinates":[6.05971,43.50247]},"properties":{"latitude":"43.50247","longitude":"6.05971","bright_ti4":"367","scan":"0.49","track":"0.4","acq_date":"2026-08-01","acq_time":"1208","satellite":"N21","instrument":"VIIRS","confidence":"h","version":"2.0NRT","bright_ti5":"320.59","frp":"20.53","daynight":"D","commune":"Correns","code_insee":"83045","departement":"Var","region":"Provence-Alpes-Côte d'Azur"}},{"type":"Feature","geometry":{"type":"Point","coordinates":[6.05856,43.5061]},"properties":{"latitude":"43.5061","longitude":"6.05856","bright_ti4":"367","scan":"0.49","track":"0.4","acq_date":"2026-08-01","acq_time":"1208","satellite":"N21","instrument":"VIIRS","confidence":"h","version":"2.0NRT","bright_ti5":"353.12","frp":"74.28","daynight":"D","commune":"Correns","code_insee":"83045","departement":"Var","region":"Provence-Alpes-Côte d'Azur"}},{"type":"Feature","geometry":{"type":"Point","coordinates":[6.06437,43.50727]},"properties":{"latitude":"43.50727","longitude":"6.06437","bright_ti4":"367","scan":"0.49","track":"0.4","acq_date":"2026-08-01","acq_time":"1208","satellite":"N21","instrument":"VIIRS","confidence":"h","version":"2.0NRT","bright_ti5":"344.92","frp":"74.28","daynight":"D","commune":"Correns","code_insee":"83045","departement":"Var","region":"Provence-Alpes-Côte d'Azur"}},{"type":"Feature","geometry":{"type":"Point","coordinates":[6.07018,43.50845]},"properties":{"latitude":"43.50845","longitude":"6.07018","bright_ti4":"346.13","scan":"0.49","track":"0.4","acq_date":"2026-08-01","acq_time":"1208","satellite":"N21","instrument":"VIIRS","confidence":"n","version":"2.0NRT","bright_ti5":"312.87","frp":"34.78","daynight":"D","commune":"Correns","code_insee":"83045","departement":"Var","region":"Provence-Alpes-Côte d'Azur"}},{"type":"Feature","geometry":{"type":"Point","coordinates":[6.05733,43.50972]},"properties":{"latitude":"43.50972","longitude":"6.05733","bright_ti4":"336.27","scan":"0.49","track":"0.4","acq_date":"2026-08-01","acq_time":"1208","satellite":"N21","instrument":"VIIRS","confidence":"n","version":"2.0NRT","bright_ti5":"309.55","frp":"74.28","daynight":"D","commune":"Correns","code_insee":"83045","departement":"Var","region":"Provence-Alpes-Côte d'Azur"}},{"type":"Feature","geometry":{"type":"Point","coordinates":[6.06313,43.51089]},"properties":{"latitude":"43.51089","longitude":"6.06313","bright_ti4":"345.73","scan":"0.49","track":"0.4","acq_date":"2026-08-01","acq_time":"1208","satellite":"N21","instrument":"VIIRS","confidence":"n","version":"2.0NRT","bright_ti5":"311.15","frp":"74.28","daynight":"D","commune":"Correns","code_insee":"83045","departement":"Var","region":"Provence-Alpes-Côte d'Azur"}},{"type":"Feature","geometry":{"type":"Point","coordinates":[6.11769,44.33141]},"properties":{"latitude":"44.33141","longitude":"6.11769","bright_ti4":"345.09","scan":"0.47","track":"0.4","acq_date":"2026-08-01","acq_time":"1208","satellite":"N21","instrument":"VIIRS","confidence":"l","version":"2.0NRT","bright_ti5":"316.8","frp":"123.05","daynight":"D","commune":"Bayons","code_insee":"04023","departement":"Alpes-de-Haute-Provence","region":"Provence-Alpes-Côte d'Azur"}},{"type":"Feature","geometry":{"type":"Point","coordinates":[1.19209,46.77834]},"properties":{"latitude":"46.77834","longitude":"1.19209","bright_ti4":"354.27","scan":"0.44","track":"0.46","acq_date":"2026-08-01","acq_time":"1210","satellite":"N21","instrument":"VIIRS","confidence":"n","version":"2.0NRT","bright_ti5":"302.17","frp":"212.75","daynight":"D","commune":"Saint-Michel-en-Brenne","code_insee":"36204","departement":"Indre","region":"Centre-Val de Loire"}},{"type":"Feature","geometry":{"type":"Point","coordinates":[4.87834,43.44322]},"properties":{"latitude":"43.44322","longitude":"4.87834","bright_ti4":"324.69","scan":"0.57","track":"0.43","acq_date":"2026-08-02","acq_time":"206","satellite":"N21","instrument":"VIIRS","confidence":"n","version":"2.0NRT","bright_ti5":"296.79","frp":"39.59","daynight":"N","commune":"Fos-sur-Mer","code_insee":"13039","departement":"Bouches-du-Rhône","region":"Provence-Alpes-Côte d'Azur"}},{"type":"Feature","geometry":{"type":"Point","coordinates":[2.95605,43.96144]},"properties":{"latitude":"43.96144","longitude":"2.95605","bright_ti4":"349.53","scan":"0.36","track":"0.57","acq_date":"2026-08-02","acq_time":"1149","satellite":"N21","instrument":"VIIRS","confidence":"n","version":"2.0NRT","bright_ti5":"299.19","frp":"21.4","daynight":"D","commune":"Roquefort-sur-Soulzon","code_insee":"12203","departement":"Aveyron","region":"Occitanie"}},{"type":"Feature","geometry":{"type":"Point","coordinates":[2.96011,43.96257]},"properties":{"latitude":"43.96257","longitude":"2.96011","bright_ti4":"339.6","scan":"0.36","track":"0.57","acq_date":"2026-08-02","acq_time":"1149","satellite":"N21","instrument":"VIIRS","confidence":"n","version":"2.0NRT","bright_ti5":"300.08","frp":"21.4","daynight":"D","commune":"Roquefort-sur-Soulzon","code_insee":"12203","departement":"Aveyron","region":"Occitanie"}},{"type":"Feature","geometry":{"type":"Point","coordinates":[2.95343,43.96637]},"properties":{"latitude":"43.96637","longitude":"2.95343","bright_ti4":"367","scan":"0.36","track":"0.57","acq_date":"2026-08-02","acq_time":"1149","satellite":"N21","instrument":"VIIRS","confidence":"h","version":"2.0NRT","bright_ti5":"312.57","frp":"21.4","daynight":"D","commune":"Roquefort-sur-Soulzon","code_insee":"12203","departement":"Aveyron","region":"Occitanie"}},{"type":"Feature","geometry":{"type":"Point","coordinates":[2.2808,51.03392]},"properties":{"latitude":"51.03392","longitude":"2.2808","bright_ti4":"343.44","scan":"0.48","track":"0.48","acq_date":"2026-08-02","acq_time":"1151","satellite":"N21","instrument":"VIIRS","confidence":"n","version":"2.0NRT","bright_ti5":"303.38","frp":"24.75","daynight":"D","commune":"Grande-Synthe","code_insee":"59271","departement":"Nord","region":"Hauts-de-France"}},{"type":"Feature","geometry":{"type":"Point","coordinates":[5.46862,44.53339]},"properties":{"latitude":"44.53339","longitude":"5.46862","bright_ti4":"347.49","scan":"0.53","track":"0.42","acq_date":"2026-08-04","acq_time":"1253","satellite":"N21","instrument":"VIIRS","confidence":"n","version":"2.0NRT","bright_ti5":"310.75","frp":"23.27","daynight":"D","commune":"Bellegarde-en-Diois","code_insee":"26047","departement":"Drôme","region":"Auvergne-Rhône-Alpes"}},{"type":"Feature","geometry":{"type":"Point","coordinates":[5.47489,44.53403]},"properties":{"latitude":"44.53403","longitude":"5.47489","bright_ti4":"333.89","scan":"0.53","track":"0.42","acq_date":"2026-08-04","acq_time":"1253","satellite":"N21","instrument":"VIIRS","confidence":"n","version":"2.0NRT","bright_ti5":"296.13","frp":"66.42","daynight":"D","commune":"Bellegarde-en-Diois","code_insee":"26047","departement":"Drôme","region":"Auvergne-Rhône-Alpes"}},{"type":"Feature","geometry":{"type":"Point","coordinates":[5.46787,44.53719]},"properties":{"latitude":"44.53719","longitude":"5.46787","bright_ti4":"343.79","scan":"0.53","track":"0.42","acq_date":"2026-08-04","acq_time":"1253","satellite":"N21","instrument":"VIIRS","confidence":"n","version":"2.0NRT","bright_ti5":"308.89","frp":"23.27","daynight":"D","commune":"Bellegarde-en-Diois","code_insee":"26047","departement":"Drôme","region":"Auvergne-Rhône-Alpes"}},{"type":"Feature","geometry":{"type":"Point","coordinates":[5.48085,44.53852]},"properties":{"latitude":"44.53852","longitude":"5.48085","bright_ti4":"335.44","scan":"0.53","track":"0.42","acq_date":"2026-08-04","acq_time":"1253","satellite":"N21","instrument":"VIIRS","confidence":"n","version":"2.0NRT","bright_ti5":"295.24","frp":"66.42","daynight":"D","commune":"Bellegarde-en-Diois","code_insee":"26047","departement":"Drôme","region":"Auvergne-Rhône-Alpes"}},{"type":"Feature","geometry":{"type":"Point","coordinates":[-0.16225,45.07704]},"properties":{"latitude":"45.07704","longitude":"-0.16225","bright_ti4":"346.33","scan":"0.38","track":"0.36","acq_date":"2026-08-04","acq_time":"1253","satellite":"N21","instrument":"VIIRS","confidence":"n","version":"2.0NRT","bright_ti5":"310.05","frp":"22.23","daynight":"D","commune":"Lagorce","code_insee":"33218","departement":"Gironde","region":"Nouvelle-Aquitaine"}},{"type":"Feature","geometry":{"type":"Point","coordinates":[7.39379,49.14064]},"properties":{"latitude":"49.14064","longitude":"7.39379","bright_ti4":"352.73","scan":"0.48","track":"0.48","acq_date":"2026-08-04","acq_time":"1255","satellite":"N21","instrument":"VIIRS","confidence":"n","version":"2.0NRT","bright_ti5":"304.59","frp":"26.85","daynight":"D","commune":"Loutzviller","code_insee":"57421","departement":"Moselle","region":"Grand Est"}}]}