{"type":"FeatureCollection","features":[{"type":"Feature","geometry":{"type":"Point","coordinates":[2.2961,51.04584]},"properties":{"latitude":"51.04584","longitude":"2.2961","bright_ti4":"330.79","scan":"0.54","track":"0.42","acq_date":"2026-08-05","acq_time":"141","satellite":"N","instrument":"VIIRS","confidence":"n","version":"2.0NRT","bright_ti5":"290","frp":"6.86","daynight":"N","commune":"Grande-Synthe","code_insee":"59271","departement":"Nord","region":"Hauts-de-France"}},{"type":"Feature","geometry":{"type":"Point","coordinates":[4.89853,43.44748]},"properties":{"latitude":"43.44748","longitude":"4.89853","bright_ti4":"320.18","scan":"0.39","track":"0.36","acq_date":"2026-08-05","acq_time":"143","satellite":"N","instrument":"VIIRS","confidence":"n","version":"2.0NRT","bright_ti5":"295.23","frp":"6.45","daynight":"N","commune":"Fos-sur-Mer","code_insee":"13039","departement":"Bouches-du-Rhône","region":"Provence-Alpes-Côte d'Azur"}},{"type":"Feature","geometry":{"type":"Point","coordinates":[4.89374,43.44818]},"properties":{"latitude":"43.44818","longitude":"4.89374","bright_ti4":"330.64","scan":"0.39","track":"0.36","acq_date":"2026-08-05","acq_time":"143","satellite":"N","instrument":"VIIRS","confidence":"n","version":"2.0NRT","bright_ti5":"295.11","frp":"10.18","daynight":"N","commune":"Fos-sur-Mer","code_insee":"13039","departement":"Bouches-du-Rhône","region":"Provence-Alpes-Côte d'Azur"}},{"type":"Feature","geometry":{"type":"Point","coordinates":[3.20883,45.79391]},"properties":{"latitude":"45.79391","longitude":"3.20883","bright_ti4":"338.94","scan":"0.44","track":"0.38","acq_date":"2026-08-05","acq_time":"143","satellite":"N","instrument":"VIIRS","confidence":"n","version":"2.0NRT","bright_ti5":"292.17","frp":"16.49","daynight":"N","commune":"Pont-du-Château","code_insee":"63284","departement":"Puy-de-Dôme","region":"Auvergne-Rhône-Alpes"}},{"type":"Feature","geometry":{"type":"Point","coordinates":[4.89293,43.43755]},"properties":{"latitude":"43.43755","longitude":"4.89293","bright_ti4":"333.13","scan":"0.66","track":"0.73","acq_date":"2026-08-05","acq_time":"1128","satellite":"N","instrument":"VIIRS","confidence":"n","version":"2.0NRT","bright_ti5":"301.81","frp":"9.74","daynight":"D","commune":"Fos-sur-Mer","code_insee":"13039","departement":"Bouches-du-Rhône","region":"Provence-Alpes-Côte d'Azur"}},{"type":"Feature","geometry":{"type":"Point","coordinates":[4.89487,43.44101]},"properties":{"latitude":"43.44101","longitude":"4.89487","bright_ti4":"337.44","scan":"0.57","track":"0.43","acq_date":"2026-08-05","acq_time":"1310","satellite":"N","instrument":"VIIRS","confidence":"l","version":"2.0NRT","bright_ti5":"309.73","frp":"6.61","daynight":"D","commune":"Fos-sur-Mer","code_insee":"13039","departement":"Bouches-du-Rhône","region":"Provence-Alpes-Côte d'Azur"}},{"type":"Feature","geometry":{"type":"Point","coordinates":[4.9013,43.44572]},"properties":{"latitude":"43.44572","longitude":"4.9013","bright_ti4":"340.78","scan":"0.57","track":"0.43","acq_date":"2026-08-05","acq_time":"1310","satellite":"N","instrument":"VIIRS","confidence":"l","version":"2.0NRT","bright_ti5":"311.11","frp":"6.61","daynight":"D","commune":"Fos-sur-Mer","code_insee":"13039","departement":"Bouches-du-Rhône","region":"Provence-Alpes-Côte d'Azur"}},{"type":"Feature","geometry":{"type":"Point","coordinates":[4.03401,48.96061]},"properties":{"latitude":"48.96061","longitude":"4.03401","bright_ti4":"343.11","scan":"0.4","track":"0.44","acq_date":"2026-08-05","acq_time":"1310","satellite":"N","instrument":"VIIRS","confidence":"n","version":"2.0NRT","bright_ti5":"299.66","frp":"5.56","daynight":"D","commune":"Blancs-Coteaux","code_insee":"51612","departement":"Marne","region":"Grand Est"}},{"type":"Feature","geometry":{"type":"Point","coordinates":[2.28602,51.03477]},"properties":{"latitude":"51.03477","longitude":"2.28602","bright_ti4":"334.53","scan":"0.55","track":"0.42","acq_date":"2026-08-05","acq_time":"1312","satellite":"N","instrument":"VIIRS","confidence":"n","version":"2.0NRT","bright_ti5":"300.11","frp":"7.6","daynight":"D","commune":"Grande-Synthe","code_insee":"59271","departement":"Nord","region":"Hauts-de-France"}},{"type":"Feature","geometry":{"type":"Point","coordinates":[4.3788,48.82624]},"properties":{"latitude":"48.82624","longitude":"4.3788","bright_ti4":"314.12","scan":"0.43","track":"0.46","acq_date":"2026-08-06","acq_time":"124","satellite":"N","instrument":"VIIRS","confidence":"n","version":"2.0NRT","bright_ti5":"289.57","frp":"17.57","daynight":"N","commune":"Coupetz","code_insee":"51178","departement":"Marne","region":"Grand Est"}},{"type":"Feature","geometry":{"type":"Point","coordinates":[4.37276,48.82674]},"properties":{"latitude":"48.82674","longitude":"4.37276","bright_ti4":"337.47","scan":"0.43","track":"0.46","acq_date":"2026-08-06","acq_time":"124","satellite":"N","instrument":"VIIRS","confidence":"n","version":"2.0NRT","bright_ti5":"285.66","frp":"19.04","daynight":"N","commune":"Coupetz","code_insee":"51178","departement":"Marne","region":"Grand Est"}},{"type":"Feature","geometry":{"type":"Point","coordinates":[2.27846,51.02984]},"properties":{"latitude":"51.02984","longitude":"2.27846","bright_ti4":"339.84","scan":"0.56","track":"0.51","acq_date":"2026-08-06","acq_time":"124","satellite":"N","instrument":"VIIRS","confidence":"n","version":"2.0NRT","bright_ti5":"288.44","frp":"9.51","daynight":"N","commune":"Grande-Synthe","code_insee":"59271","departement":"Nord","region":"Hauts-de-France"}},{"type":"Feature","geometry":{"type":"Point","coordinates":[2.28468,51.03566]},"properties":{"latitude":"51.03566","longitude":"2.28468","bright_ti4":"331.25","scan":"0.63","track":"0.54","acq_date":"2026-08-06","acq_time":"304","satellite":"N","instrument":"VIIRS","confidence":"n","version":"2.0NRT","bright_ti5":"286.63","frp":"5.71","daynight":"N","commune":"Grande-Synthe","code_insee":"59271","departement":"Nord","region":"Hauts-de-France"}},{"type":"Feature","geometry":{"type":"Point","coordinates":[4.37216,48.82242]},"properties":{"latitude":"48.82242","longitude":"4.37216","bright_ti4":"340.36","scan":"0.71","track":"0.75","acq_date":"2026-08-06","acq_time":"1110","satellite":"N","instrument":"VIIRS","confidence":"n","version":"2.0NRT","bright_ti5":"290.99","frp":"6.4","daynight":"D","commune":"Coupetz","code_insee":"51178","departement":"Marne","region":"Grand Est"}},{"type":"Feature","geometry":{"type":"Point","coordinates":[4.38121,48.82591]},"properties":{"latitude":"48.82591","longitude":"4.38121","bright_ti4":"330.34","scan":"0.71","track":"0.75","acq_date":"2026-08-06","acq_time":"1110","satellite":"N","instrument":"VIIRS","confidence":"n","version":"2.0NRT","bright_ti5":"291.42","frp":"6.4","daynight":"D","commune":"Coupetz","code_insee":"51178","departement":"Marne","region":"Grand Est"}},{"type":"Feature","geometry":{"type":"Point","coordinates":[2.28643,51.03529]},"properties":{"latitude":"51.03529","longitude":"2.28643","bright_ti4":"326.25","scan":"0.7","track":"0.75","acq_date":"2026-08-06","acq_time":"1110","satellite":"N","instrument":"VIIRS","confidence":"l","version":"2.0NRT","bright_ti5":"297.48","frp":"8.44","daynight":"D","commune":"Grande-Synthe","code_insee":"59271","departement":"Nord","region":"Hauts-de-France"}},{"type":"Feature","geometry":{"type":"Point","coordinates":[2.29519,51.04574]},"properties":{"latitude":"51.04574","longitude":"2.29519","bright_ti4":"330.61","scan":"0.7","track":"0.75","acq_date":"2026-08-06","acq_time":"1110","satellite":"N","instrument":"VIIRS","confidence":"n","version":"2.0NRT","bright_ti5":"293.1","frp":"6.4","daynight":"D","commune":"Grande-Synthe","code_insee":"59271","departement":"Nord","region":"Hauts-de-France"}},{"type":"Feature","geometry":{"type":"Point","coordinates":[4.3778,48.82562]},"properties":{"latitude":"48.82562","longitude":"4.3778","bright_ti4":"354.67","scan":"0.71","track":"0.75","acq_date":"2026-08-06","acq_time":"1113","satellite":"N","instrument":"VIIRS","confidence":"n","version":"2.0NRT","bright_ti5":"292.26","frp":"10.74","daynight":"D","commune":"Coupetz","code_insee":"51178","departement":"Marne","region":"Grand Est"}},{"type":"Feature","geometry":{"type":"Point","coordinates":[6.08353,43.22944]},"properties":{"latitude":"43.22944","longitude":"6.08353","bright_ti4":"344.04","scan":"0.42","track":"0.38","acq_date":"2026-08-06","acq_time":"1251","satellite":"N","instrument":"VIIRS","confidence":"n","version":"2.0NRT","bright_ti5":"316.74","frp":"14.8","daynight":"D","commune":"Cuers","code_insee":"83049","departement":"Var","region":"Provence-Alpes-Côte d'Azur"}},{"type":"Feature","geometry":{"type":"Point","coordinates":[4.90032,43.44497]},"properties":{"latitude":"43.44497","longitude":"4.90032","bright_ti4":"348.56","scan":"0.4","track":"0.37","acq_date":"2026-08-06","acq_time":"1251","satellite":"N","instrument":"VIIRS","confidence":"n","version":"2.0NRT","bright_ti5":"316.96","frp":"6.35","daynight":"D","commune":"Fos-sur-Mer","code_insee":"13039","departement":"Bouches-du-Rhône","region":"Provence-Alpes-Côte d'Azur"}},{"type":"Feature","geometry":{"type":"Point","coordinates":[6.02169,43.52338]},"properties":{"latitude":"43.52338","longitude":"6.02169","bright_ti4":"339.49","scan":"0.42","track":"0.38","acq_date":"2026-08-06","acq_time":"1251","satellite":"N","instrument":"VIIRS","confidence":"l","version":"2.0NRT","bright_ti5":"314.09","frp":"6.63","daynight":"D","commune":"Barjols","code_insee":"83012","departement":"Var","region":"Provence-Alpes-Côte d'Azur"}},{"type":"Feature","geometry":{"type":"Point","coordinates":[0.55023,45.81766]},"properties":{"latitude":"45.81766","longitude":"0.55023","bright_ti4":"350.88","scan":"0.39","track":"0.36","acq_date":"2026-08-06","acq_time":"1253","satellite":"N","instrument":"VIIRS","confidence":"n","version":"2.0NRT","bright_ti5":"306.36","frp":"8.29","daynight":"D","commune":"Cherves-Châtelars","code_insee":"16096","departement":"Charente","region":"Nouvelle-Aquitaine"}},{"type":"Feature","geometry":{"type":"Point","coordinates":[0.55524,45.81851]},"properties":{"latitude":"45.81851","longitude":"0.55524","bright_ti4":"345.07","scan":"0.39","track":"0.36","acq_date":"2026-08-06","acq_time":"1253","satellite":"N","instrument":"VIIRS","confidence":"n","version":"2.0NRT","bright_ti5":"306.31","frp":"8.29","daynight":"D","commune":"Cherves-Châtelars","code_insee":"16096","departement":"Charente","region":"Nouvelle-Aquitaine"}},{"type":"Feature","geometry":{"type":"Point","coordinates":[0.5491,45.82096]},"properties":{"latitude":"45.82096","longitude":"0.5491","bright_ti4":"347","scan":"0.39","track":"0.36","acq_date":"2026-08-06","acq_time":"1253","satellite":"N","instrument":"VIIRS","confidence":"n","version":"2.0NRT","bright_ti5":"301.74","frp":"8.29","daynight":"D","commune":"Cherves-Châtelars","code_insee":"16096","departement":"Charente","region":"Nouvelle-Aquitaine"}},{"type":"Feature","geometry":{"type":"Point","coordinates":[0.5541,45.8218]},"properties":{"latitude":"45.8218","longitude":"0.5541","bright_ti4":"335.66","scan":"0.39","track":"0.36","acq_date":"2026-08-06","acq_time":"1253","satellite":"N","instrument":"VIIRS","confidence":"n","version":"2.0NRT","bright_ti5":"303.87","frp":"8.29","daynight":"D","commune":"Cherves-Châtelars","code_insee":"16096","departement":"Charente","region":"Nouvelle-Aquitaine"}},{"type":"Feature","geometry":{"type":"Point","coordinates":[2.298,51.04262]},"properties":{"latitude":"51.04262","longitude":"2.298","bright_ti4":"339.73","scan":"0.4","track":"0.37","acq_date":"2026-08-06","acq_time":"1253","satellite":"N","instrument":"VIIRS","confidence":"n","version":"2.0NRT","bright_ti5":"307.53","frp":"6.64","daynight":"D","commune":"Grande-Synthe","code_insee":"59271","departement":"Nord","region":"Hauts-de-France"}},{"type":"Feature","geometry":{"type":"Point","coordinates":[2.32082,51.04567]},"properties":{"latitude":"51.04567","longitude":"2.32082","bright_ti4":"337.24","scan":"0.4","track":"0.37","acq_date":"2026-08-06","acq_time":"1253","satellite":"N","instrument":"VIIRS","confidence":"n","version":"2.0NRT","bright_ti5":"305.58","frp":"7.87","daynight":"D","commune":"Dunkerque","code_insee":"59183","departement":"Nord","region":"Hauts-de-France"}},{"type":"Feature","geometry":{"type":"Point","coordinates":[4.88162,43.44208]},"properties":{"latitude":"43.44208","longitude":"4.88162","bright_ti4":"353.83","scan":"0.42","track":"0.38","acq_date":"2026-08-03","acq_time":"1225","satellite":"N20","instrument":"VIIRS","confidence":"n","version":"2.0NRT","bright_ti5":"308.74","frp":"14.66","daynight":"D","commune":"Fos-sur-Mer","code_insee":"13039","departement":"Bouches-du-Rhône","region":"Provence-Alpes-Côte d'Azur"}},{"type":"Feature","geometry":{"type":"Point","coordinates":[4.8968,43.44481]},"properties":{"latitude":"43.44481","longitude":"4.8968","bright_ti4":"337.14","scan":"0.42","track":"0.38","acq_date":"2026-08-03","acq_time":"1225","satellite":"N20","instrument":"VIIRS","confidence":"n","version":"2.0NRT","bright_ti5":"306.12","frp":"5.78","daynight":"D","commune":"Fos-sur-Mer","code_insee":"13039","departement":"Bouches-du-Rhône","region":"Provence-Alpes-Côte d'Azur"}},{"type":"Feature","geometry":{"type":"Point","coordinates":[4.89565,43.44818]},"properties":{"latitude":"43.44818","longitude":"4.89565","bright_ti4":"337.98","scan":"0.42","track":"0.38","acq_date":"2026-08-03","acq_time":"1225","satellite":"N20","instrument":"VIIRS","confidence":"n","version":"2.0NRT","bright_ti5":"304.48","frp":"5.02","daynight":"D","commune":"Fos-sur-Mer","code_insee":"13039","departement":"Bouches-du-Rhône","region":"Provence-Alpes-Côte d'Azur"}},{"type":"Feature","geometry":{"type":"Point","coordinates":[5.26147,45.8355]},"properties":{"latitude":"45.8355","longitude":"5.26147","bright_ti4":"350.18","scan":"0.39","track":"0.36","acq_date":"2026-08-03","acq_time":"1225","satellite":"N20","instrument":"VIIRS","confidence":"n","version":"2.0NRT","bright_ti5":"311.01","frp":"8.34","daynight":"D","commune":"Blyes","code_insee":"01047","departement":"Ain","region":"Auvergne-Rhône-Alpes"}},{"type":"Feature","geometry":{"type":"Point","coordinates":[6.11078,48.61013]},"properties":{"latitude":"48.61013","longitude":"6.11078","bright_ti4":"335.95","scan":"0.38","track":"0.36","acq_date":"2026-08-03","acq_time":"1225","satellite":"N20","instrument":"VIIRS","confidence":"l","version":"2.0NRT","bright_ti5":"308.97","frp":"5.03","daynight":"D","commune":"Neuves-Maisons","code_insee":"54397","departement":"Meurthe-et-Moselle","region":"Grand Est"}},{"type":"Feature","geometry":{"type":"Point","coordinates":[3.70249,49.58531]},"properties":{"latitude":"49.58531","longitude":"3.70249","bright_ti4":"349.15","scan":"0.39","track":"0.36","acq_date":"2026-08-03","acq_time":"1227","satellite":"N20","instrument":"VIIRS","confidence":"n","version":"2.0NRT","bright_ti5":"304.67","frp":"8.97","daynight":"D","commune":"Athies-sous-Laon","code_insee":"02028","departement":"Aisne","region":"Hauts-de-France"}},{"type":"Feature","geometry":{"type":"Point","coordinates":[3.7078,49.58621]},"properties":{"latitude":"49.58621","longitude":"3.7078","bright_ti4":"354.1","scan":"0.39","track":"0.36","acq_date":"2026-08-03","acq_time":"1227","satellite":"N20","instrument":"VIIRS","confidence":"n","version":"2.0NRT","bright_ti5":"304.67","frp":"8.97","daynight":"D","commune":"Athies-sous-Laon","code_insee":"02028","departement":"Aisne","region":"Hauts-de-France"}},{"type":"Feature","geometry":{"type":"Point","coordinates":[3.70118,49.58857]},"properties":{"latitude":"49.58857","longitude":"3.70118","bright_ti4":"356.24","scan":"0.39","track":"0.36","acq_date":"2026-08-03","acq_time":"1227","satellite":"N20","instrument":"VIIRS","confidence":"l","version":"2.0NRT","bright_ti5":"303.02","frp":"8.97","daynight":"D","commune":"Athies-sous-Laon","code_insee":"02028","departement":"Aisne","region":"Hauts-de-France"}},{"type":"Feature","geometry":{"type":"Point","coordinates":[3.70649,49.58947]},"properties":{"latitude":"49.58947","longitude":"3.70649","bright_ti4":"355.01","scan":"0.39","track":"0.36","acq_date":"2026-08-03","acq_time":"1227","satellite":"N20","instrument":"VIIRS","confidence":"l","version":"2.0NRT","bright_ti5":"305.43","frp":"8.97","daynight":"D","commune":"Athies-sous-Laon","code_insee":"02028","departement":"Aisne","region":"Hauts-de-France"}},{"type":"Feature","geometry":{"type":"Point","coordinates":[3.7105,49.59364]},"properties":{"latitude":"49.59364","longitude":"3.7105","bright_ti4":"355.69","scan":"0.39","track":"0.36","acq_date":"2026-08-03","acq_time":"1227","satellite":"N20","instrument":"VIIRS","confidence":"l","version":"2.0NRT","bright_ti5":"303.61","frp":"5.61","daynight":"D","commune":"Samoussy","code_insee":"02697","departement":"Aisne","region":"Hauts-de-France"}},{"type":"Feature","geometry":{"type":"Point","coordinates":[3.70919,49.5969]},"properties":{"latitude":"49.5969","longitude":"3.70919","bright_ti4":"349.28","scan":"0.39","track":"0.36","acq_date":"2026-08-03","acq_time":"1227","satellite":"N20","instrument":"VIIRS","confidence":"n","version":"2.0NRT","bright_ti5":"303.8","frp":"5.61","daynight":"D","commune":"Athies-sous-Laon","code_insee":"02028","departement":"Aisne","region":"Hauts-de-France"}},{"type":"Feature","geometry":{"type":"Point","coordinates":[3.7145,49.59781]},"properties":{"latitude":"49.59781","longitude":"3.7145","bright_ti4":"346.76","scan":"0.39","track":"0.36","acq_date":"2026-08-03","acq_time":"1227","satellite":"N20","instrument":"VIIRS","confidence":"n","version":"2.0NRT","bright_ti5":"302.21","frp":"5.61","daynight":"D","commune":"Samoussy","code_insee":"02697","departement":"Aisne","region":"Hauts-de-France"}},{"type":"Feature","geometry":{"type":"Point","coordinates":[3.71981,49.5987]},"properties":{"latitude":"49.5987","longitude":"3.71981","bright_ti4":"356.2","scan":"0.39","track":"0.36","acq_date":"2026-08-03","acq_time":"1227","satellite":"N20","instrument":"VIIRS","confidence":"l","version":"2.0NRT","bright_ti5":"300.04","frp":"5.55","daynight":"D","commune":"Samoussy","code_insee":"02697","departement":"Aisne","region":"Hauts-de-France"}},{"type":"Feature","geometry":{"type":"Point","coordinates":[3.71319,49.60106]},"properties":{"latitude":"49.60106","longitude":"3.71319","bright_ti4":"343.6","scan":"0.39","track":"0.36","acq_date":"2026-08-03","acq_time":"1227","satellite":"N20","instrument":"VIIRS","confidence":"n","version":"2.0NRT","bright_ti5":"303.85","frp":"5.89","daynight":"D","commune":"Samoussy","code_insee":"02697","departement":"Aisne","region":"Hauts-de-France"}},{"type":"Feature","geometry":{"type":"Point","coordinates":[2.28987,51.03352]},"properties":{"latitude":"51.03352","longitude":"2.28987","bright_ti4":"342.17","scan":"0.4","track":"0.37","acq_date":"2026-08-03","acq_time":"1227","satellite":"N20","instrument":"VIIRS","confidence":"n","version":"2.0NRT","bright_ti5":"307.12","frp":"7.12","daynight":"D","commune":"Grande-Synthe","code_insee":"59271","departement":"Nord","region":"Hauts-de-France"}},{"type":"Feature","geometry":{"type":"Point","coordinates":[5.46002,44.53095]},"properties":{"latitude":"44.53095","longitude":"5.46002","bright_ti4":"333.6","scan":"0.5","track":"0.66","acq_date":"2026-08-04","acq_time":"41","satellite":"N20","instrument":"VIIRS","confidence":"n","version":"2.0NRT","bright_ti5":"291.26","frp":"5.48","daynight":"N","commune":"Bellegarde-en-Diois","code_insee":"26047","departement":"Drôme","region":"Auvergne-Rhône-Alpes"}},{"type":"Feature","geometry":{"type":"Point","coordinates":[5.45026,44.53116]},"properties":{"latitude":"44.53116","longitude":"5.45026","bright_ti4":"327.35","scan":"0.5","track":"0.66","acq_date":"2026-08-04","acq_time":"41","satellite":"N20","instrument":"VIIRS","confidence":"n","version":"2.0NRT","bright_ti5":"287.16","frp":"5.48","daynight":"N","commune":"Bellegarde-en-Diois","code_insee":"26047","departement":"Drôme","region":"Auvergne-Rhône-Alpes"}},{"type":"Feature","geometry":{"type":"Point","coordinates":[2.31876,51.04564]},"properties":{"latitude":"51.04564","longitude":"2.31876","bright_ti4":"317.41","scan":"0.44","track":"0.38","acq_date":"2026-08-04","acq_time":"219","satellite":"N20","instrument":"VIIRS","confidence":"n","version":"2.0NRT","bright_ti5":"292","frp":"5.59","daynight":"N","commune":"Dunkerque","code_insee":"59183","departement":"Nord","region":"Hauts-de-France"}},{"type":"Feature","geometry":{"type":"Point","coordinates":[2.32046,51.04902]},"properties":{"latitude":"51.04902","longitude":"2.32046","bright_ti4":"329.43","scan":"0.44","track":"0.38","acq_date":"2026-08-04","acq_time":"219","satellite":"N20","instrument":"VIIRS","confidence":"n","version":"2.0NRT","bright_ti5":"294.13","frp":"5.59","daynight":"N","commune":"Dunkerque","code_insee":"59183","departement":"Nord","region":"Hauts-de-France"}},{"type":"Feature","geometry":{"type":"Point","coordinates":[5.46002,44.53046]},"properties":{"latitude":"44.53046","longitude":"5.46002","bright_ti4":"338.57","scan":"0.53","track":"0.5","acq_date":"2026-08-04","acq_time":"221","satellite":"N20","instrument":"VIIRS","confidence":"n","version":"2.0NRT","bright_ti5":"294.96","frp":"6.01","daynight":"N","commune":"Bellegarde-en-Diois","code_insee":"26047","departement":"Drôme","region":"Auvergne-Rhône-Alpes"}},{"type":"Feature","geometry":{"type":"Point","coordinates":[5.45471,44.53179]},"properties":{"latitude":"44.53179","longitude":"5.45471","bright_ti4":"313.7","scan":"0.53","track":"0.5","acq_date":"2026-08-04","acq_time":"221","satellite":"N20","instrument":"VIIRS","confidence":"n","version":"2.0NRT","bright_ti5":"288.08","frp":"6.01","daynight":"N","commune":"Bellegarde-en-Diois","code_insee":"26047","departement":"Drôme","region":"Auvergne-Rhône-Alpes"}},{"type":"Feature","geometry":{"type":"Point","coordinates":[5.46996,44.53809]},"properties":{"latitude":"44.53809","longitude":"5.46996","bright_ti4":"337.08","scan":"0.53","track":"0.5","acq_date":"2026-08-04","acq_time":"221","satellite":"N20","instrument":"VIIRS","confidence":"n","version":"2.0NRT","bright_ti5":"291.05","frp":"7.19","daynight":"N","commune":"Bellegarde-en-Diois","code_insee":"26047","departement":"Drôme","region":"Auvergne-Rhône-Alpes"}},{"type":"Feature","geometry":{"type":"Point","coordinates":[5.46432,44.53953]},"properties":{"latitude":"44.53953","longitude":"5.46432","bright_ti4":"324.32","scan":"0.53","track":"0.5","acq_date":"2026-08-04","acq_time":"221","satellite":"N20","instrument":"VIIRS","confidence":"n","version":"2.0NRT","bright_ti5":"289.11","frp":"7.19","daynight":"N","commune":"Bellegarde-en-Diois","code_insee":"26047","departement":"Drôme","region":"Auvergne-Rhône-Alpes"}},{"type":"Feature","geometry":{"type":"Point","coordinates":[2.4402,46.12627]},"properties":{"latitude":"46.12627","longitude":"2.4402","bright_ti4":"328.65","scan":"0.54","track":"0.42","acq_date":"2026-08-04","acq_time":"221","satellite":"N20","instrument":"VIIRS","confidence":"n","version":"2.0NRT","bright_ti5":"287.36","frp":"7.62","daynight":"N","commune":"Sannat","code_insee":"23167","departement":"Creuse","region":"Nouvelle-Aquitaine"}},{"type":"Feature","geometry":{"type":"Point","coordinates":[1.14618,42.79145]},"properties":{"latitude":"42.79145","longitude":"1.14618","bright_ti4":"333.42","scan":"0.33","track":"0.55","acq_date":"2026-08-04","acq_time":"1206","satellite":"N20","instrument":"VIIRS","confidence":"n","version":"2.0NRT","bright_ti5":"300.67","frp":"5.23","daynight":"D","commune":"Seix","code_insee":"09285","departement":"Ariège","region":"Occitanie"}},{"type":"Feature","geometry":{"type":"Point","coordinates":[1.15582,42.79937]},"properties":{"latitude":"42.79937","longitude":"1.15582","bright_ti4":"341.02","scan":"0.33","track":"0.55","acq_date":"2026-08-04","acq_time":"1206","satellite":"N20","instrument":"VIIRS","confidence":"n","version":"2.0NRT","bright_ti5":"299.7","frp":"5.09","daynight":"D","commune":"Seix","code_insee":"09285","departement":"Ariège","region":"Occitanie"}},{"type":"Feature","geometry":{"type":"Point","coordinates":[-0.25171,42.93584]},"properties":{"latitude":"42.93584","longitude":"-0.25171","bright_ti4":"349.27","scan":"0.38","track":"0.59","acq_date":"2026-08-04","acq_time":"1206","satellite":"N20","instrument":"VIIRS","confidence":"n","version":"2.0NRT","bright_ti5":"298.47","frp":"8.61","daynight":"D","commune":"Arrens-Marsous","code_insee":"65032","departement":"Hautes-Pyrénées","region":"Occitanie"}},{"type":"Feature","geometry":{"type":"Point","coordinates":[-0.2486,42.93672]},"properties":{"latitude":"42.93672","longitude":"-0.2486","bright_ti4":"330.2","scan":"0.38","track":"0.59","acq_date":"2026-08-04","acq_time":"1206","satellite":"N20","instrument":"VIIRS","confidence":"n","version":"2.0NRT","bright_ti5":"293.62","frp":"6.64","daynight":"D","commune":"Arrens-Marsous","code_insee":"65032","departement":"Hautes-Pyrénées","region":"Occitanie"}},{"type":"Feature","geometry":{"type":"Point","coordinates":[4.89263,43.43362]},"properties":{"latitude":"43.43362","longitude":"4.89263","bright_ti4":"332.79","scan":"0.42","track":"0.45","acq_date":"2026-08-04","acq_time":"1206","satellite":"N20","instrument":"VIIRS","confidence":"n","version":"2.0NRT","bright_ti5":"300.66","frp":"8.05","daynight":"D","commune":"Fos-sur-Mer","code_insee":"13039","departement":"Bouches-du-Rhône","region":"Provence-Alpes-Côte d'Azur"}},{"type":"Feature","geometry":{"type":"Point","coordinates":[5.46524,44.52642]},"properties":{"latitude":"44.52642","longitude":"5.46524","bright_ti4":"337.37","scan":"0.56","track":"0.43","acq_date":"2026-08-04","acq_time":"1206","satellite":"N20","instrument":"VIIRS","confidence":"n","version":"2.0NRT","bright_ti5":"311.16","frp":"17.28","daynight":"D","commune":"Bellegarde-en-Diois","code_insee":"26047","departement":"Drôme","region":"Auvergne-Rhône-Alpes"}},{"type":"Feature","geometry":{"type":"Point","coordinates":[5.47278,44.52802]},"properties":{"latitude":"44.52802","longitude":"5.47278","bright_ti4":"347.99","scan":"0.56","track":"0.43","acq_date":"2026-08-04","acq_time":"1206","satellite":"N20","instrument":"VIIRS","confidence":"n","version":"2.0NRT","bright_ti5":"306.63","frp":"17.28","daynight":"D","commune":"Saint-Dizier-en-Diois","code_insee":"26300","departement":"Drôme","region":"Auvergne-Rhône-Alpes"}},{"type":"Feature","geometry":{"type":"Point","coordinates":[-1.01992,47.66538]},"properties":{"latitude":"47.66538","longitude":"-1.01992","bright_ti4":"342.81","scan":"0.59","track":"0.53","acq_date":"2026-08-04","acq_time":"1208","satellite":"N20","instrument":"VIIRS","confidence":"n","version":"2.0NRT","bright_ti5":"295.95","frp":"5.83","daynight":"D","commune":"Ombrée d'Anjou","code_insee":"49248","departement":"Maine-et-Loire","region":"Pays de la Loire"}},{"type":"Feature","geometry":{"type":"Point","coordinates":[4.883,43.4421]},"properties":{"latitude":"43.4421","longitude":"4.883","bright_ti4":"344.94","scan":"0.68","track":"0.74","acq_date":"2026-08-04","acq_time":"1348","satellite":"N20","instrument":"VIIRS","confidence":"n","version":"2.0NRT","bright_ti5":"291.68","frp":"15.1","daynight":"D","commune":"Fos-sur-Mer","code_insee":"13039","departement":"Bouches-du-Rhône","region":"Provence-Alpes-Côte d'Azur"}},{"type":"Feature","geometry":{"type":"Point","coordinates":[5.47492,44.52356]},"properties":{"latitude":"44.52356","longitude":"5.47492","bright_ti4":"349.27","scan":"0.74","track":"0.76","acq_date":"2026-08-04","acq_time":"1348","satellite":"N20","instrument":"VIIRS","confidence":"n","version":"2.0NRT","bright_ti5":"291.19","frp":"18.88","daynight":"D","commune":"Saint-Dizier-en-Diois","code_insee":"26300","departement":"Drôme","region":"Auvergne-Rhône-Alpes"}},{"type":"Feature","geometry":{"type":"Point","coordinates":[5.46701,44.52365]},"properties":{"latitude":"44.52365","longitude":"5.46701","bright_ti4":"353.62","scan":"0.74","track":"0.76","acq_date":"2026-08-04","acq_time":"1348","satellite":"N20","instrument":"VIIRS","confidence":"n","version":"2.0NRT","bright_ti5":"295.91","frp":"18.88","daynight":"D","commune":"Bellegarde-en-Diois","code_insee":"26047","departement":"Drôme","region":"Auvergne-Rhône-Alpes"}},{"type":"Feature","geometry":{"type":"Point","coordinates":[5.47276,44.53067]},"properties":{"latitude":"44.53067","longitude":"5.47276","bright_ti4":"329.8","scan":"0.74","track":"0.76","acq_date":"2026-08-04","acq_time":"1348","satellite":"N20","instrument":"VIIRS","confidence":"n","version":"2.0NRT","bright_ti5":"291.4","frp":"18.88","daynight":"D","commune":"Bellegarde-en-Diois","code_insee":"26047","departement":"Drôme","region":"Auvergne-Rhône-Alpes"}},{"type":"Feature","geometry":{"type":"Point","coordinates":[2.28241,51.02846]},"properties":{"latitude":"51.02846","longitude":"2.28241","bright_ti4":"304.4","scan":"0.39","track":"0.36","acq_date":"2026-08-05","acq_time":"202","satellite":"N20","instrument":"VIIRS","confidence":"n","version":"2.0NRT","bright_ti5":"286.26","frp":"5.06","daynight":"N","commune":"Grande-Synthe","code_insee":"59271","departement":"Nord","region":"Hauts-de-France"}},{"type":"Feature","geometry":{"type":"Point","coordinates":[2.27702,51.02929]},"properties":{"latitude":"51.02929","longitude":"2.27702","bright_ti4":"330.06","scan":"0.39","track":"0.36","acq_date":"2026-08-05","acq_time":"202","satellite":"N20","instrument":"VIIRS","confidence":"n","version":"2.0NRT","bright_ti5":"288.36","frp":"5.06","daynight":"N","commune":"Grande-Synthe","code_insee":"59271","departement":"Nord","region":"Hauts-de-France"}},{"type":"Feature","geometry":{"type":"Point","coordinates":[4.88939,43.43197]},"properties":{"latitude":"43.43197","longitude":"4.88939","bright_ti4":"332.57","scan":"0.49","track":"0.4","acq_date":"2026-08-05","acq_time":"204","satellite":"N20","instrument":"VIIRS","confidence":"n","version":"2.0NRT","bright_ti5":"294.77","frp":"5.99","daynight":"N","commune":"Fos-sur-Mer","code_insee":"13039","departement":"Bouches-du-Rhône","region":"Provence-Alpes-Côte d'Azur"}},{"type":"Feature","geometry":{"type":"Point","coordinates":[4.90086,43.44517]},"properties":{"latitude":"43.44517","longitude":"4.90086","bright_ti4":"320.12","scan":"0.49","track":"0.4","acq_date":"2026-08-05","acq_time":"204","satellite":"N20","instrument":"VIIRS","confidence":"n","version":"2.0NRT","bright_ti5":"294.78","frp":"5.04","daynight":"N","commune":"Fos-sur-Mer","code_insee":"13039","departement":"Bouches-du-Rhône","region":"Provence-Alpes-Côte d'Azur"}},{"type":"Feature","geometry":{"type":"Point","coordinates":[4.89496,43.44638]},"properties":{"latitude":"43.44638","longitude":"4.89496","bright_ti4":"340.36","scan":"0.49","track":"0.4","acq_date":"2026-08-05","acq_time":"204","satellite":"N20","instrument":"VIIRS","confidence":"n","version":"2.0NRT","bright_ti5":"294.83","frp":"5.04","daynight":"N","commune":"Fos-sur-Mer","code_insee":"13039","departement":"Bouches-du-Rhône","region":"Provence-Alpes-Côte d'Azur"}},{"type":"Feature","geometry":{"type":"Point","coordinates":[4.89976,43.44188]},"properties":{"latitude":"43.44188","longitude":"4.89976","bright_ti4":"337.06","scan":"0.35","track":"0.57","acq_date":"2026-08-05","acq_time":"1147","satellite":"N20","instrument":"VIIRS","confidence":"n","version":"2.0NRT","bright_ti5":"306.15","frp":"6.43","daynight":"D","commune":"Fos-sur-Mer","code_insee":"13039","departement":"Bouches-du-Rhône","region":"Provence-Alpes-Côte d'Azur"}},{"type":"Feature","geometry":{"type":"Point","coordinates":[4.9404,43.49769]},"properties":{"latitude":"43.49769","longitude":"4.9404","bright_ti4":"367","scan":"0.35","track":"0.56","acq_date":"2026-08-05","acq_time":"1147","satellite":"N20","instrument":"VIIRS","confidence":"h","version":"2.0NRT","bright_ti5":"304.4","frp":"17.5","daynight":"D","commune":"Fos-sur-Mer","code_insee":"13039","departement":"Bouches-du-Rhône","region":"Provence-Alpes-Côte d'Azur"}},{"type":"Feature","geometry":{"type":"Point","coordinates":[2.88533,48.70613]},"properties":{"latitude":"48.70613","longitude":"2.88533","bright_ti4":"342.09","scan":"0.6","track":"0.53","acq_date":"2026-08-05","acq_time":"1149","satellite":"N20","instrument":"VIIRS","confidence":"n","version":"2.0NRT","bright_ti5":"298.91","frp":"11.76","daynight":"D","commune":"Fontenay-Trésigny","code_insee":"77192","departement":"Seine-et-Marne","region":"Île-de-France"}},{"type":"Feature","geometry":{"type":"Point","coordinates":[2.88393,48.70751]},"properties":{"latitude":"48.70751","longitude":"2.88393","bright_ti4":"350.85","scan":"0.6","track":"0.53","acq_date":"2026-08-05","acq_time":"1149","satellite":"N20","instrument":"VIIRS","confidence":"n","version":"2.0NRT","bright_ti5":"298.42","frp":"12.55","daynight":"D","commune":"Fontenay-Trésigny","code_insee":"77192","departement":"Seine-et-Marne","region":"Île-de-France"}},{"type":"Feature","geometry":{"type":"Point","coordinates":[4.89256,43.44008]},"properties":{"latitude":"43.44008","longitude":"4.89256","bright_ti4":"340.91","scan":"0.39","track":"0.6","acq_date":"2026-08-05","acq_time":"1327","satellite":"N20","instrument":"VIIRS","confidence":"n","version":"2.0NRT","bright_ti5":"305.31","frp":"8.37","daynight":"D","commune":"Fos-sur-Mer","code_insee":"13039","departement":"Bouches-du-Rhône","region":"Provence-Alpes-Côte d'Azur"}},{"type":"Feature","geometry":{"type":"Point","coordinates":[4.92717,43.44152]},"properties":{"latitude":"43.44152","longitude":"4.92717","bright_ti4":"353.95","scan":"0.39","track":"0.6","acq_date":"2026-08-05","acq_time":"1327","satellite":"N20","instrument":"VIIRS","confidence":"n","version":"2.0NRT","bright_ti5":"304.8","frp":"16.43","daynight":"D","commune":"Fos-sur-Mer","code_insee":"13039","departement":"Bouches-du-Rhône","region":"Provence-Alpes-Côte d'Azur"}},{"type":"Feature","geometry":{"type":"Point","coordinates":[4.93212,43.44172]},"properties":{"latitude":"43.44172","longitude":"4.93212","bright_ti4":"367","scan":"0.39","track":"0.6","acq_date":"2026-08-05","acq_time":"1327","satellite":"N20","instrument":"VIIRS","confidence":"h","version":"2.0NRT","bright_ti5":"303.46","frp":"12.6","daynight":"D","commune":"Fos-sur-Mer","code_insee":"13039","departement":"Bouches-du-Rhône","region":"Provence-Alpes-Côte d'Azur"}},{"type":"Feature","geometry":{"type":"Point","coordinates":[2.29783,51.0456]},"properties":{"latitude":"51.0456","longitude":"2.29783","bright_ti4":"367","scan":"0.34","track":"0.56","acq_date":"2026-08-05","acq_time":"1329","satellite":"N20","instrument":"VIIRS","confidence":"h","version":"2.0NRT","bright_ti5":"290.16","frp":"5.62","daynight":"D","commune":"Grande-Synthe","code_insee":"59271","departement":"Nord","region":"Hauts-de-France"}},{"type":"Feature","geometry":{"type":"Point","coordinates":[4.19684,47.9827]},"properties":{"latitude":"47.9827","longitude":"4.19684","bright_ti4":"319.18","scan":"0.4","track":"0.37","acq_date":"2026-08-06","acq_time":"143","satellite":"N20","instrument":"VIIRS","confidence":"n","version":"2.0NRT","bright_ti5":"286.89","frp":"6.17","daynight":"N","commune":"Balnot-la-Grange","code_insee":"10028","departement":"Aube","region":"Grand Est"}},{"type":"Feature","geometry":{"type":"Point","coordinates":[4.19154,47.98344]},"properties":{"latitude":"47.98344","longitude":"4.19154","bright_ti4":"327.44","scan":"0.4","track":"0.37","acq_date":"2026-08-06","acq_time":"143","satellite":"N20","instrument":"VIIRS","confidence":"n","version":"2.0NRT","bright_ti5":"286.6","frp":"6.17","daynight":"N","commune":"Balnot-la-Grange","code_insee":"10028","departement":"Aube","region":"Grand Est"}},{"type":"Feature","geometry":{"type":"Point","coordinates":[4.37225,48.82702]},"properties":{"latitude":"48.82702","longitude":"4.37225","bright_ti4":"296.03","scan":"0.4","track":"0.37","acq_date":"2026-08-06","acq_time":"143","satellite":"N20","instrument":"VIIRS","confidence":"n","version":"2.0NRT","bright_ti5":"283.19","frp":"6.85","daynight":"N","commune":"Coupetz","code_insee":"51178","departement":"Marne","region":"Grand Est"}},{"type":"Feature","geometry":{"type":"Point","coordinates":[2.29742,51.04687]},"properties":{"latitude":"51.04687","longitude":"2.29742","bright_ti4":"367","scan":"0.42","track":"0.61","acq_date":"2026-08-06","acq_time":"1132","satellite":"N20","instrument":"VIIRS","confidence":"h","version":"2.0NRT","bright_ti5":"296.7","frp":"10.92","daynight":"D","commune":"Grande-Synthe","code_insee":"59271","departement":"Nord","region":"Hauts-de-France"}},{"type":"Feature","geometry":{"type":"Point","coordinates":[4.89182,43.43637]},"properties":{"latitude":"43.43637","longitude":"4.89182","bright_ti4":"341.68","scan":"0.45","track":"0.47","acq_date":"2026-08-06","acq_time":"1310","satellite":"N20","instrument":"VIIRS","confidence":"l","version":"2.0NRT","bright_ti5":"314.54","frp":"11.29","daynight":"D","commune":"Fos-sur-Mer","code_insee":"13039","departement":"Bouches-du-Rhône","region":"Provence-Alpes-Côte d'Azur"}},{"type":"Feature","geometry":{"type":"Point","coordinates":[4.89615,43.44547]},"properties":{"latitude":"43.44547","longitude":"4.89615","bright_ti4":"344.59","scan":"0.45","track":"0.47","acq_date":"2026-08-06","acq_time":"1310","satellite":"N20","instrument":"VIIRS","confidence":"n","version":"2.0NRT","bright_ti5":"314.03","frp":"19.38","daynight":"D","commune":"Fos-sur-Mer","code_insee":"13039","departement":"Bouches-du-Rhône","region":"Provence-Alpes-Côte d'Azur"}},{"type":"Feature","geometry":{"type":"Point","coordinates":[-1.2684,48.64843]},"properties":{"latitude":"48.64843","longitude":"-1.2684","bright_ti4":"335.04","scan":"0.44","track":"0.39","acq_date":"2026-08-06","acq_time":"1310","satellite":"N20","instrument":"VIIRS","confidence":"n","version":"2.0NRT","bright_ti5":"303.54","frp":"14.33","daynight":"D","commune":"Saint-Quentin-sur-le-Homme","code_insee":"50543","departement":"Manche","region":"Normandie"}},{"type":"Feature","geometry":{"type":"Point","coordinates":[2.29417,51.04492]},"properties":{"latitude":"51.04492","longitude":"2.29417","bright_ti4":"328.71","scan":"0.43","track":"0.38","acq_date":"2026-08-03","acq_time":"143","satellite":"N21","instrument":"VIIRS","confidence":"n","version":"2.0NRT","bright_ti5":"294.54","frp":"11.22","daynight":"N","commune":"Grande-Synthe","code_insee":"59271","departement":"Nord","region":"Hauts-de-France"}},{"type":"Feature","geometry":{"type":"Point","coordinates":[2.31943,51.04535]},"properties":{"latitude":"51.04535","longitude":"2.31943","bright_ti4":"330.25","scan":"0.43","track":"0.38","acq_date":"2026-08-03","acq_time":"143","satellite":"N21","instrument":"VIIRS","confidence":"n","version":"2.0NRT","bright_ti5":"293.76","frp":"8.73","daynight":"N","commune":"Dunkerque","code_insee":"59183","departement":"Nord","region":"Hauts-de-France"}},{"type":"Feature","geometry":{"type":"Point","coordinates":[4.87977,43.43851]},"properties":{"latitude":"43.43851","longitude":"4.87977","bright_ti4":"308.21","scan":"0.4","track":"0.37","acq_date":"2026-08-03","acq_time":"145","satellite":"N21","instrument":"VIIRS","confidence":"n","version":"2.0NRT","bright_ti5":"295.01","frp":"17.44","daynight":"N","commune":"Fos-sur-Mer","code_insee":"13039","departement":"Bouches-du-Rhône","region":"Provence-Alpes-Côte d'Azur"}},{"type":"Feature","geometry":{"type":"Point","coordinates":[4.88085,43.44181]},"properties":{"latitude":"43.44181","longitude":"4.88085","bright_ti4":"335.58","scan":"0.4","track":"0.37","acq_date":"2026-08-03","acq_time":"145","satellite":"N21","instrument":"VIIRS","confidence":"n","version":"2.0NRT","bright_ti5":"301.39","frp":"17.44","daynight":"N","commune":"Fos-sur-Mer","code_insee":"13039","departement":"Bouches-du-Rhône","region":"Provence-Alpes-Côte d'Azur"}},{"type":"Feature","geometry":{"type":"Point","coordinates":[2.28008,51.03496]},"properties":{"latitude":"51.03496","longitude":"2.28008","bright_ti4":"321.02","scan":"0.65","track":"0.73","acq_date":"2026-08-03","acq_time":"323","satellite":"N21","instrument":"VIIRS","confidence":"n","version":"2.0NRT","bright_ti5":"287.41","frp":"5.31","daynight":"N","commune":"Grande-Synthe","code_insee":"59271","departement":"Nord","region":"Hauts-de-France"}},{"type":"Feature","geometry":{"type":"Point","coordinates":[4.88131,43.4446]},"properties":{"latitude":"43.4446","longitude":"4.88131","bright_ti4":"354.75","scan":"0.51","track":"0.66","acq_date":"2026-08-03","acq_time":"1130","satellite":"N21","instrument":"VIIRS","confidence":"n","version":"2.0NRT","bright_ti5":"298.27","frp":"9.91","daynight":"D","commune":"Fos-sur-Mer","code_insee":"13039","departement":"Bouches-du-Rhône","region":"Provence-Alpes-Côte d'Azur"}},{"type":"Feature","geometry":{"type":"Point","coordinates":[0.39017,49.25557]},"properties":{"latitude":"49.25557","longitude":"0.39017","bright_ti4":"345.1","scan":"0.51","track":"0.66","acq_date":"2026-08-03","acq_time":"1132","satellite":"N21","instrument":"VIIRS","confidence":"n","version":"2.0NRT","bright_ti5":"283.64","frp":"6.88","daynight":"D","commune":"Cormeilles","code_insee":"27170","departement":"Eure","region":"Normandie"}},{"type":"Feature","geometry":{"type":"Point","coordinates":[2.27003,51.02872]},"properties":{"latitude":"51.02872","longitude":"2.27003","bright_ti4":"333.1","scan":"0.37","track":"0.58","acq_date":"2026-08-03","acq_time":"1132","satellite":"N21","instrument":"VIIRS","confidence":"n","version":"2.0NRT","bright_ti5":"297.56","frp":"5.43","daynight":"D","commune":"Grande-Synthe","code_insee":"59271","departement":"Nord","region":"Hauts-de-France"}},{"type":"Feature","geometry":{"type":"Point","coordinates":[4.8888,43.43839]},"properties":{"latitude":"43.43839","longitude":"4.8888","bright_ti4":"331.43","scan":"0.53","track":"0.5","acq_date":"2026-08-03","acq_time":"1310","satellite":"N21","instrument":"VIIRS","confidence":"n","version":"2.0NRT","bright_ti5":"300.77","frp":"11.43","daynight":"D","commune":"Fos-sur-Mer","code_insee":"13039","departement":"Bouches-du-Rhône","region":"Provence-Alpes-Côte d'Azur"}},{"type":"Feature","geometry":{"type":"Point","coordinates":[2.29027,51.03605]},"properties":{"latitude":"51.03605","longitude":"2.29027","bright_ti4":"340.82","scan":"0.48","track":"0.48","acq_date":"2026-08-03","acq_time":"1314","satellite":"N21","instrument":"VIIRS","confidence":"n","version":"2.0NRT","bright_ti5":"300.16","frp":"5.02","daynight":"D","commune":"Grande-Synthe","code_insee":"59271","departement":"Nord","region":"Hauts-de-France"}},{"type":"Feature","geometry":{"type":"Point","coordinates":[2.32438,51.04686]},"properties":{"latitude":"51.04686","longitude":"2.32438","bright_ti4":"332.71","scan":"0.41","track":"0.45","acq_date":"2026-08-04","acq_time":"126","satellite":"N21","instrument":"VIIRS","confidence":"n","version":"2.0NRT","bright_ti5":"290.98","frp":"8.76","daynight":"N","commune":"Dunkerque","code_insee":"59183","departement":"Nord","region":"Hauts-de-France"}},{"type":"Feature","geometry":{"type":"Point","coordinates":[2.31849,51.04735]},"properties":{"latitude":"51.04735","longitude":"2.31849","bright_ti4":"338.14","scan":"0.41","track":"0.45","acq_date":"2026-08-04","acq_time":"126","satellite":"N21","instrument":"VIIRS","confidence":"n","version":"2.0NRT","bright_ti5":"292.79","frp":"8.76","daynight":"N","commune":"Dunkerque","code_insee":"59183","departement":"Nord","region":"Hauts-de-France"}},{"type":"Feature","geometry":{"type":"Point","coordinates":[5.45563,44.52693]},"properties":{"latitude":"44.52693","longitude":"5.45563","bright_ti4":"343.66","scan":"0.41","track":"0.37","acq_date":"2026-08-04","acq_time":"128","satellite":"N21","instrument":"VIIRS","confidence":"n","version":"2.0NRT","bright_ti5":"293.39","frp":"9.45","daynight":"N","commune":"Bellegarde-en-Diois","code_insee":"26047","departement":"Drôme","region":"Auvergne-Rhône-Alpes"}},{"type":"Feature","geometry":{"type":"Point","coordinates":[5.46206,44.52958]},"properties":{"latitude":"44.52958","longitude":"5.46206","bright_ti4":"306.3","scan":"0.41","track":"0.37","acq_date":"2026-08-04","acq_time":"128","satellite":"N21","instrument":"VIIRS","confidence":"n","version":"2.0NRT","bright_ti5":"290.44","frp":"6.32","daynight":"N","commune":"Bellegarde-en-Diois","code_insee":"26047","departement":"Drôme","region":"Auvergne-Rhône-Alpes"}},{"type":"Feature","geometry":{"type":"Point","coordinates":[5.45663,44.5303]},"properties":{"latitude":"44.5303","longitude":"5.45663","bright_ti4":"342.78","scan":"0.41","track":"0.37","acq_date":"2026-08-04","acq_time":"128","satellite":"N21","instrument":"VIIRS","confidence":"n","version":"2.0NRT","bright_ti5":"299.15","frp":"6.32","daynight":"N","commune":"Bellegarde-en-Diois","code_insee":"26047","departement":"Drôme","region":"Auvergne-Rhône-Alpes"}},{"type":"Feature","geometry":{"type":"Point","coordinates":[5.46305,44.53295]},"properties":{"latitude":"44.53295","longitude":"5.46305","bright_ti4":"310.77","scan":"0.41","track":"0.37","acq_date":"2026-08-04","acq_time":"128","satellite":"N21","instrument":"VIIRS","confidence":"n","version":"2.0NRT","bright_ti5":"292.27","frp":"6.32","daynight":"N","commune":"Bellegarde-en-Diois","code_insee":"26047","departement":"Drôme","region":"Auvergne-Rhône-Alpes"}},{"type":"Feature","geometry":{"type":"Point","coordinates":[2.29584,51.04359]},"properties":{"latitude":"51.04359","longitude":"2.29584","bright_ti4":"334.56","scan":"0.43","track":"0.62","acq_date":"2026-08-04","acq_time":"306","satellite":"N21","instrument":"VIIRS","confidence":"n","version":"2.0NRT","bright_ti5":"291.08","frp":"5.3","daynight":"N","commune":"Grande-Synthe","code_insee":"59271","departement":"Nord","region":"Hauts-de-France"}},{"type":"Feature","geometry":{"type":"Point","coordinates":[2.44279,46.12493]},"properties":{"latitude":"46.12493","longitude":"2.44279","bright_ti4":"316.07","scan":"0.64","track":"0.72","acq_date":"2026-08-04","acq_time":"308","satellite":"N21","instrument":"VIIRS","confidence":"n","version":"2.0NRT","bright_ti5":"282.02","frp":"10.22","daynight":"N","commune":"Sannat","code_insee":"23167","departement":"Creuse","region":"Nouvelle-Aquitaine"}},{"type":"Feature","geometry":{"type":"Point","coordinates":[2.43875,46.12759]},"properties":{"latitude":"46.12759","longitude":"2.43875","bright_ti4":"330.98","scan":"0.64","track":"0.72","acq_date":"2026-08-04","acq_time":"308","satellite":"N21","instrument":"VIIRS","confidence":"n","version":"2.0NRT","bright_ti5":"280.63","frp":"10.42","daynight":"N","commune":"Sannat","code_insee":"23167","departement":"Creuse","region":"Nouvelle-Aquitaine"}},{"type":"Feature","geometry":{"type":"Point","coordinates":[2.43486,46.1277]},"properties":{"latitude":"46.1277","longitude":"2.43486","bright_ti4":"308.62","scan":"0.64","track":"0.72","acq_date":"2026-08-04","acq_time":"308","satellite":"N21","instrument":"VIIRS","confidence":"n","version":"2.0NRT","bright_ti5":"276.23","frp":"6.46","daynight":"N","commune":"Sannat","code_insee":"23167","departement":"Creuse","region":"Nouvelle-Aquitaine"}},{"type":"Feature","geometry":{"type":"Point","coordinates":[1.1441,42.79272]},"properties":{"latitude":"42.79272","longitude":"1.1441","bright_ti4":"338.32","scan":"0.39","track":"0.36","acq_date":"2026-08-04","acq_time":"1253","satellite":"N21","instrument":"VIIRS","confidence":"n","version":"2.0NRT","bright_ti5":"307.06","frp":"6.49","daynight":"D","commune":"Seix","code_insee":"09285","departement":"Ariège","region":"Occitanie"}},{"type":"Feature","geometry":{"type":"Point","coordinates":[4.89565,43.43243]},"properties":{"latitude":"43.43243","longitude":"4.89565","bright_ti4":"331.11","scan":"0.48","track":"0.4","acq_date":"2026-08-04","acq_time":"1253","satellite":"N21","instrument":"VIIRS","confidence":"l","version":"2.0NRT","bright_ti5":"306.07","frp":"6.44","daynight":"D","commune":"Fos-sur-Mer","code_insee":"13039","departement":"Bouches-du-Rhône","region":"Provence-Alpes-Côte d'Azur"}},{"type":"Feature","geometry":{"type":"Point","coordinates":[4.88868,43.43449]},"properties":{"latitude":"43.43449","longitude":"4.88868","bright_ti4":"338.59","scan":"0.48","track":"0.4","acq_date":"2026-08-04","acq_time":"1253","satellite":"N21","instrument":"VIIRS","confidence":"n","version":"2.0NRT","bright_ti5":"303.47","frp":"10.09","daynight":"D","commune":"Fos-sur-Mer","code_insee":"13039","departement":"Bouches-du-Rhône","region":"Provence-Alpes-Côte d'Azur"}},{"type":"Feature","geometry":{"type":"Point","coordinates":[4.88894,43.43543]},"properties":{"latitude":"43.43543","longitude":"4.88894","bright_ti4":"337.62","scan":"0.48","track":"0.4","acq_date":"2026-08-04","acq_time":"1253","satellite":"N21","instrument":"VIIRS","confidence":"n","version":"2.0NRT","bright_ti5":"304.14","frp":"6.44","daynight":"D","commune":"Fos-sur-Mer","code_insee":"13039","departement":"Bouches-du-Rhône","region":"Provence-Alpes-Côte d'Azur"}},{"type":"Feature","geometry":{"type":"Point","coordinates":[4.89387,43.4388]},"properties":{"latitude":"43.4388","longitude":"4.89387","bright_ti4":"337.77","scan":"0.48","track":"0.4","acq_date":"2026-08-04","acq_time":"1253","satellite":"N21","instrument":"VIIRS","confidence":"n","version":"2.0NRT","bright_ti5":"306.02","frp":"6.14","daynight":"D","commune":"Fos-sur-Mer","code_insee":"13039","departement":"Bouches-du-Rhône","region":"Provence-Alpes-Côte d'Azur"}},{"type":"Feature","geometry":{"type":"Point","coordinates":[4.89411,43.43977]},"properties":{"latitude":"43.43977","longitude":"4.89411","bright_ti4":"337.27","scan":"0.48","track":"0.4","acq_date":"2026-08-04","acq_time":"1253","satellite":"N21","instrument":"VIIRS","confidence":"n","version":"2.0NRT","bright_ti5":"305.87","frp":"8.92","daynight":"D","commune":"Fos-sur-Mer","code_insee":"13039","departement":"Bouches-du-Rhône","region":"Provence-Alpes-Côte d'Azur"}},{"type":"Feature","geometry":{"type":"Point","coordinates":[4.89906,43.44311]},"properties":{"latitude":"43.44311","longitude":"4.89906","bright_ti4":"330.47","scan":"0.49","track":"0.4","acq_date":"2026-08-04","acq_time":"1253","satellite":"N21","instrument":"VIIRS","confidence":"l","version":"2.0NRT","bright_ti5":"303.28","frp":"10.03","daynight":"D","commune":"Fos-sur-Mer","code_insee":"13039","departement":"Bouches-du-Rhône","region":"Provence-Alpes-Côte d'Azur"}},{"type":"Feature","geometry":{"type":"Point","coordinates":[4.8993,43.4441]},"properties":{"latitude":"43.4441","longitude":"4.8993","bright_ti4":"340.58","scan":"0.48","track":"0.4","acq_date":"2026-08-04","acq_time":"1253","satellite":"N21","instrument":"VIIRS","confidence":"n","version":"2.0NRT","bright_ti5":"304.39","frp":"6.46","daynight":"D","commune":"Fos-sur-Mer","code_insee":"13039","departement":"Bouches-du-Rhône","region":"Provence-Alpes-Côte d'Azur"}},{"type":"Feature","geometry":{"type":"Point","coordinates":[4.89829,43.44677]},"properties":{"latitude":"43.44677","longitude":"4.89829","bright_ti4":"343.74","scan":"0.49","track":"0.4","acq_date":"2026-08-04","acq_time":"1253","satellite":"N21","instrument":"VIIRS","confidence":"n","version":"2.0NRT","bright_ti5":"304.91","frp":"10.03","daynight":"D","commune":"Fos-sur-Mer","code_insee":"13039","departement":"Bouches-du-Rhône","region":"Provence-Alpes-Côte d'Azur"}},{"type":"Feature","geometry":{"type":"Point","coordinates":[3.89512,43.91433]},"properties":{"latitude":"43.91433","longitude":"3.89512","bright_ti4":"347.82","scan":"0.45","track":"0.39","acq_date":"2026-08-04","acq_time":"1253","satellite":"N21","instrument":"VIIRS","confidence":"n","version":"2.0NRT","bright_ti5":"304.68","frp":"9.06","daynight":"D","commune":"Conqueyrac","code_insee":"30093","departement":"Gard","region":"Occitanie"}},{"type":"Feature","geometry":{"type":"Point","coordinates":[-0.66097,44.10262]},"properties":{"latitude":"44.10262","longitude":"-0.66097","bright_ti4":"347.52","scan":"0.38","track":"0.36","acq_date":"2026-08-04","acq_time":"1253","satellite":"N21","instrument":"VIIRS","confidence":"n","version":"2.0NRT","bright_ti5":"300.78","frp":"5.89","daynight":"D","commune":"Vert","code_insee":"40323","departement":"Landes","region":"Nouvelle-Aquitaine"}},{"type":"Feature","geometry":{"type":"Point","coordinates":[-0.66196,44.10587]},"properties":{"latitude":"44.10587","longitude":"-0.66196","bright_ti4":"356.1","scan":"0.38","track":"0.36","acq_date":"2026-08-04","acq_time":"1253","satellite":"N21","instrument":"VIIRS","confidence":"l","version":"2.0NRT","bright_ti5":"305.3","frp":"19.23","daynight":"D","commune":"Vert","code_insee":"40323","departement":"Landes","region":"Nouvelle-Aquitaine"}},{"type":"Feature","geometry":{"type":"Point","coordinates":[-0.07211,44.49157]},"properties":{"latitude":"44.49157","longitude":"-0.07211","bright_ti4":"340.03","scan":"0.38","track":"0.36","acq_date":"2026-08-04","acq_time":"1253","satellite":"N21","instrument":"VIIRS","confidence":"n","version":"2.0NRT","bright_ti5":"302.1","frp":"5.61","daynight":"D","commune":"Aillas","code_insee":"33002","departement":"Gironde","region":"Nouvelle-Aquitaine"}},{"type":"Feature","geometry":{"type":"Point","coordinates":[5.46452,44.5252]},"properties":{"latitude":"44.5252","longitude":"5.46452","bright_ti4":"338.73","scan":"0.53","track":"0.42","acq_date":"2026-08-04","acq_time":"1253","satellite":"N21","instrument":"VIIRS","confidence":"n","version":"2.0NRT","bright_ti5":"303.46","frp":"16.45","daynight":"D","commune":"Bellegarde-en-Diois","code_insee":"26047","departement":"Drôme","region":"Auvergne-Rhône-Alpes"}},{"type":"Feature","geometry":{"type":"Point","coordinates":[5.4705,44.52581]},"properties":{"latitude":"44.52581","longitude":"5.4705","bright_ti4":"339.01","scan":"0.53","track":"0.42","acq_date":"2026-08-04","acq_time":"1253","satellite":"N21","instrument":"VIIRS","confidence":"n","version":"2.0NRT","bright_ti5":"298.98","frp":"16.45","daynight":"D","commune":"Bellegarde-en-Diois","code_insee":"26047","departement":"Drôme","region":"Auvergne-Rhône-Alpes"}},{"type":"Feature","geometry":{"type":"Point","coordinates":[5.4695,44.52959]},"properties":{"latitude":"44.52959","longitude":"5.4695","bright_ti4":"354.62","scan":"0.53","track":"0.42","acq_date":"2026-08-04","acq_time":"1253","satellite":"N21","instrument":"VIIRS","confidence":"n","version":"2.0NRT","bright_ti5":"317.07","frp":"16.45","daynight":"D","commune":"Bellegarde-en-Diois","code_insee":"26047","departement":"Drôme","region":"Auvergne-Rhône-Alpes"}},{"type":"Feature","geometry":{"type":"Point","coordinates":[5.47412,44.54171]},"properties":{"latitude":"44.54171","longitude":"5.47412","bright_ti4":"353.09","scan":"0.53","track":"0.42","acq_date":"2026-08-04","acq_time":"1253","satellite":"N21","instrument":"VIIRS","confidence":"n","version":"2.0NRT","bright_ti5":"304.51","frp":"17.85","daynight":"D","commune":"Beaumont-en-Diois","code_insee":"26036","departement":"Drôme","region":"Auvergne-Rhône-Alpes"}},{"type":"Feature","geometry":{"type":"Point","coordinates":[5.48093,44.54241]},"properties":{"latitude":"44.54241","longitude":"5.48093","bright_ti4":"334.23","scan":"0.53","track":"0.42","acq_date":"2026-08-04","acq_time":"1253","satellite":"N21","instrument":"VIIRS","confidence":"n","version":"2.0NRT","bright_ti5":"292.8","frp":"17.85","daynight":"D","commune":"Beaumont-en-Diois","code_insee":"26036","departement":"Drôme","region":"Auvergne-Rhône-Alpes"}},{"type":"Feature","geometry":{"type":"Point","coordinates":[2.30094,51.04092]},"properties":{"latitude":"51.04092","longitude":"2.30094","bright_ti4":"336.95","scan":"0.48","track":"0.4","acq_date":"2026-08-04","acq_time":"1253","satellite":"N21","instrument":"VIIRS","confidence":"n","version":"2.0NRT","bright_ti5":"301.85","frp":"5.51","daynight":"D","commune":"Grande-Synthe","code_insee":"59271","departement":"Nord","region":"Hauts-de-France"}},{"type":"Feature","geometry":{"type":"Point","coordinates":[2.30195,51.04105]},"properties":{"latitude":"51.04105","longitude":"2.30195","bright_ti4":"334.87","scan":"0.48","track":"0.4","acq_date":"2026-08-04","acq_time":"1253","satellite":"N21","instrument":"VIIRS","confidence":"n","version":"2.0NRT","bright_ti5":"300.6","frp":"5.91","daynight":"D","commune":"Grande-Synthe","code_insee":"59271","departement":"Nord","region":"Hauts-de-France"}},{"type":"Feature","geometry":{"type":"Point","coordinates":[2.29996,51.04454]},"properties":{"latitude":"51.04454","longitude":"2.29996","bright_ti4":"337.26","scan":"0.48","track":"0.4","acq_date":"2026-08-04","acq_time":"1253","satellite":"N21","instrument":"VIIRS","confidence":"n","version":"2.0NRT","bright_ti5":"302.22","frp":"5.51","daynight":"D","commune":"Grande-Synthe","code_insee":"59271","departement":"Nord","region":"Hauts-de-France"}},{"type":"Feature","geometry":{"type":"Point","coordinates":[1.18454,47.49529]},"properties":{"latitude":"47.49529","longitude":"1.18454","bright_ti4":"335.88","scan":"0.41","track":"0.37","acq_date":"2026-08-04","acq_time":"1255","satellite":"N21","instrument":"VIIRS","confidence":"n","version":"2.0NRT","bright_ti5":"306.64","frp":"6.81","daynight":"D","commune":"Veuzain-sur-Loire","code_insee":"41167","departement":"Loir-et-Cher","region":"Centre-Val de Loire"}},{"type":"Feature","geometry":{"type":"Point","coordinates":[-2.1168,48.44653]},"properties":{"latitude":"48.44653","longitude":"-2.1168","bright_ti4":"347.64","scan":"0.38","track":"0.36","acq_date":"2026-08-04","acq_time":"1255","satellite":"N21","instrument":"VIIRS","confidence":"n","version":"2.0NRT","bright_ti5":"302.29","frp":"10.91","daynight":"D","commune":"Aucaleuc","code_insee":"22003","departement":"Côtes-d'Armor","region":"Bretagne"}},{"type":"Feature","geometry":{"type":"Point","coordinates":[-2.11171,48.44732]},"properties":{"latitude":"48.44732","longitude":"-2.11171","bright_ti4":"342.45","scan":"0.38","track":"0.36","acq_date":"2026-08-04","acq_time":"1255","satellite":"N21","instrument":"VIIRS","confidence":"n","version":"2.0NRT","bright_ti5":"300.09","frp":"7.64","daynight":"D","commune":"Aucaleuc","code_insee":"22003","departement":"Côtes-d'Armor","region":"Bretagne"}},{"type":"Feature","geometry":{"type":"Point","coordinates":[-2.11795,48.44976]},"properties":{"latitude":"48.44976","longitude":"-2.11795","bright_ti4":"355.02","scan":"0.38","track":"0.36","acq_date":"2026-08-04","acq_time":"1255","satellite":"N21","instrument":"VIIRS","confidence":"l","version":"2.0NRT","bright_ti5":"300.29","frp":"10.67","daynight":"D","commune":"Aucaleuc","code_insee":"22003","departement":"Côtes-d'Armor","region":"Bretagne"}},{"type":"Feature","geometry":{"type":"Point","coordinates":[2.32173,51.04753]},"properties":{"latitude":"51.04753","longitude":"2.32173","bright_ti4":"342.35","scan":"0.55","track":"0.51","acq_date":"2026-08-05","acq_time":"247","satellite":"N21","instrument":"VIIRS","confidence":"n","version":"2.0NRT","bright_ti5":"289.65","frp":"10.45","daynight":"N","commune":"Dunkerque","code_insee":"59183","departement":"Nord","region":"Hauts-de-France"}},{"type":"Feature","geometry":{"type":"Point","coordinates":[4.88138,43.4361]},"properties":{"latitude":"43.4361","longitude":"4.88138","bright_ti4":"344.29","scan":"0.38","track":"0.36","acq_date":"2026-08-05","acq_time":"1234","satellite":"N21","instrument":"VIIRS","confidence":"n","version":"2.0NRT","bright_ti5":"313.86","frp":"12.45","daynight":"D","commune":"Fos-sur-Mer","code_insee":"13039","departement":"Bouches-du-Rhône","region":"Provence-Alpes-Côte d'Azur"}},{"type":"Feature","geometry":{"type":"Point","coordinates":[4.89072,43.43752]},"properties":{"latitude":"43.43752","longitude":"4.89072","bright_ti4":"341.46","scan":"0.38","track":"0.36","acq_date":"2026-08-05","acq_time":"1234","satellite":"N21","instrument":"VIIRS","confidence":"l","version":"2.0NRT","bright_ti5":"316.12","frp":"12.58","daynight":"D","commune":"Fos-sur-Mer","code_insee":"13039","departement":"Bouches-du-Rhône","region":"Provence-Alpes-Côte d'Azur"}},{"type":"Feature","geometry":{"type":"Point","coordinates":[4.8982,43.44546]},"properties":{"latitude":"43.44546","longitude":"4.8982","bright_ti4":"345.75","scan":"0.38","track":"0.36","acq_date":"2026-08-05","acq_time":"1234","satellite":"N21","instrument":"VIIRS","confidence":"n","version":"2.0NRT","bright_ti5":"315.5","frp":"6.43","daynight":"D","commune":"Fos-sur-Mer","code_insee":"13039","departement":"Bouches-du-Rhône","region":"Provence-Alpes-Côte d'Azur"}},{"type":"Feature","geometry":{"type":"Point","coordinates":[4.89726,43.44872]},"properties":{"latitude":"43.44872","longitude":"4.89726","bright_ti4":"339.22","scan":"0.38","track":"0.36","acq_date":"2026-08-05","acq_time":"1234","satellite":"N21","instrument":"VIIRS","confidence":"l","version":"2.0NRT","bright_ti5":"312.53","frp":"5.99","daynight":"D","commune":"Fos-sur-Mer","code_insee":"13039","departement":"Bouches-du-Rhône","region":"Provence-Alpes-Côte d'Azur"}},{"type":"Feature","geometry":{"type":"Point","coordinates":[3.3689,46.42999]},"properties":{"latitude":"46.42999","longitude":"3.3689","bright_ti4":"336.55","scan":"0.38","track":"0.36","acq_date":"2026-08-05","acq_time":"1234","satellite":"N21","instrument":"VIIRS","confidence":"n","version":"2.0NRT","bright_ti5":"304.59","frp":"6.5","daynight":"D","commune":"Bessay-sur-Allier","code_insee":"03025","departement":"Allier","region":"Auvergne-Rhône-Alpes"}},{"type":"Feature","geometry":{"type":"Point","coordinates":[3.37275,46.434]},"properties":{"latitude":"46.434","longitude":"3.37275","bright_ti4":"337.82","scan":"0.38","track":"0.36","acq_date":"2026-08-05","acq_time":"1234","satellite":"N21","instrument":"VIIRS","confidence":"n","version":"2.0NRT","bright_ti5":"304.6","frp":"5.72","daynight":"D","commune":"Bessay-sur-Allier","code_insee":"03025","departement":"Allier","region":"Auvergne-Rhône-Alpes"}},{"type":"Feature","geometry":{"type":"Point","coordinates":[-0.85813,47.25106]},"properties":{"latitude":"47.25106","longitude":"-0.85813","bright_ti4":"336.99","scan":"0.45","track":"0.39","acq_date":"2026-08-05","acq_time":"1234","satellite":"N21","instrument":"VIIRS","confidence":"n","version":"2.0NRT","bright_ti5":"302.85","frp":"5.18","daynight":"D","commune":"Beaupréau-en-Mauges","code_insee":"49023","departement":"Maine-et-Loire","region":"Pays de la Loire"}},{"type":"Feature","geometry":{"type":"Point","coordinates":[1.93201,47.78861]},"properties":{"latitude":"47.78861","longitude":"1.93201","bright_ti4":"338.2","scan":"0.39","track":"0.36","acq_date":"2026-08-05","acq_time":"1234","satellite":"N21","instrument":"VIIRS","confidence":"n","version":"2.0NRT","bright_ti5":"302.47","frp":"5.69","daynight":"D","commune":"Saint-Cyr-en-Val","code_insee":"45272","departement":"Loiret","region":"Centre-Val de Loire"}},{"type":"Feature","geometry":{"type":"Point","coordinates":[1.93083,47.79187]},"properties":{"latitude":"47.79187","longitude":"1.93083","bright_ti4":"338.12","scan":"0.39","track":"0.36","acq_date":"2026-08-05","acq_time":"1234","satellite":"N21","instrument":"VIIRS","confidence":"n","version":"2.0NRT","bright_ti5":"302.88","frp":"6.59","daynight":"D","commune":"Saint-Cyr-en-Val","code_insee":"45272","departement":"Loiret","region":"Centre-Val de Loire"}},{"type":"Feature","geometry":{"type":"Point","coordinates":[1.71743,48.21519]},"properties":{"latitude":"48.21519","longitude":"1.71743","bright_ti4":"342.39","scan":"0.39","track":"0.36","acq_date":"2026-08-05","acq_time":"1234","satellite":"N21","instrument":"VIIRS","confidence":"n","version":"2.0NRT","bright_ti5":"302.64","frp":"6.14","daynight":"D","commune":"Éole-en-Beauce","code_insee":"28406","departement":"Eure-et-Loir","region":"Centre-Val de Loire"}},{"type":"Feature","geometry":{"type":"Point","coordinates":[2.2832,51.03075]},"properties":{"latitude":"51.03075","longitude":"2.2832","bright_ti4":"322.51","scan":"0.54","track":"0.68","acq_date":"2026-08-06","acq_time":"48","satellite":"N21","instrument":"VIIRS","confidence":"n","version":"2.0NRT","bright_ti5":"286.15","frp":"10.18","daynight":"N","commune":"Grande-Synthe","code_insee":"59271","departement":"Nord","region":"Hauts-de-France"}},{"type":"Feature","geometry":{"type":"Point","coordinates":[2.27538,51.03077]},"properties":{"latitude":"51.03077","longitude":"2.27538","bright_ti4":"350.16","scan":"0.54","track":"0.68","acq_date":"2026-08-06","acq_time":"48","satellite":"N21","instrument":"VIIRS","confidence":"n","version":"2.0NRT","bright_ti5":"288.34","frp":"10.18","daynight":"N","commune":"Grande-Synthe","code_insee":"59271","departement":"Nord","region":"Hauts-de-France"}},{"type":"Feature","geometry":{"type":"Point","coordinates":[1.12278,49.3648]},"properties":{"latitude":"49.3648","longitude":"1.12278","bright_ti4":"327.89","scan":"0.54","track":"0.42","acq_date":"2026-08-06","acq_time":"228","satellite":"N21","instrument":"VIIRS","confidence":"n","version":"2.0NRT","bright_ti5":"288.8","frp":"6.62","daynight":"N","commune":"Saint-Étienne-du-Rouvray","code_insee":"76575","departement":"Seine-Maritime","region":"Normandie"}},{"type":"Feature","geometry":{"type":"Point","coordinates":[2.29591,51.04434]},"properties":{"latitude":"51.04434","longitude":"2.29591","bright_ti4":"332.01","scan":"0.54","track":"0.42","acq_date":"2026-08-06","acq_time":"228","satellite":"N21","instrument":"VIIRS","confidence":"n","version":"2.0NRT","bright_ti5":"276.79","frp":"9.06","daynight":"N","commune":"Grande-Synthe","code_insee":"59271","departement":"Nord","region":"Hauts-de-France"}},{"type":"Feature","geometry":{"type":"Point","coordinates":[4.88922,43.43294]},"properties":{"latitude":"43.43294","longitude":"4.88922","bright_ti4":"339.8","scan":"0.47","track":"0.4","acq_date":"2026-08-06","acq_time":"1214","satellite":"N21","instrument":"VIIRS","confidence":"l","version":"2.0NRT","bright_ti5":"313.16","frp":"12.84","daynight":"D","commune":"Fos-sur-Mer","code_insee":"13039","departement":"Bouches-du-Rhône","region":"Provence-Alpes-Côte d'Azur"}},{"type":"Feature","geometry":{"type":"Point","coordinates":[4.89666,43.44579]},"properties":{"latitude":"43.44579","longitude":"4.89666","bright_ti4":"347.48","scan":"0.47","track":"0.4","acq_date":"2026-08-06","acq_time":"1214","satellite":"N21","instrument":"VIIRS","confidence":"n","version":"2.0NRT","bright_ti5":"313.96","frp":"12.74","daynight":"D","commune":"Fos-sur-Mer","code_insee":"13039","departement":"Bouches-du-Rhône","region":"Provence-Alpes-Côte d'Azur"}},{"type":"Feature","geometry":{"type":"Point","coordinates":[3.46599,46.36903]},"properties":{"latitude":"46.36903","longitude":"3.46599","bright_ti4":"336.55","scan":"0.47","track":"0.4","acq_date":"2026-08-06","acq_time":"1217","satellite":"N21","instrument":"VIIRS","confidence":"n","version":"2.0NRT","bright_ti5":"307.43","frp":"5.39","daynight":"D","commune":"Treteau","code_insee":"03289","departement":"Allier","region":"Auvergne-Rhône-Alpes"}},{"type":"Feature","geometry":{"type":"Point","coordinates":[4.02256,46.41645]},"properties":{"latitude":"46.41645","longitude":"4.02256","bright_ti4":"349.44","scan":"0.45","track":"0.39","acq_date":"2026-08-06","acq_time":"1217","satellite":"N21","instrument":"VIIRS","confidence":"n","version":"2.0NRT","bright_ti5":"309.41","frp":"15.89","daynight":"D","commune":"Saint-Yan","code_insee":"71491","departement":"Saône-et-Loire","region":"Bourgogne-Franche-Comté"}},{"type":"Feature","geometry":{"type":"Point","coordinates":[4.01543,46.4188]},"properties":{"latitude":"46.4188","longitude":"4.01543","bright_ti4":"340.05","scan":"0.45","track":"0.39","acq_date":"2026-08-06","acq_time":"1217","satellite":"N21","instrument":"VIIRS","confidence":"l","version":"2.0NRT","bright_ti5":"310.08","frp":"11.97","daynight":"D","commune":"Saint-Yan","code_insee":"71491","departement":"Saône-et-Loire","region":"Bourgogne-Franche-Comté"}},{"type":"Feature","geometry":{"type":"Point","coordinates":[4.02116,46.41991]},"properties":{"latitude":"46.41991","longitude":"4.02116","bright_ti4":"346.76","scan":"0.45","track":"0.39","acq_date":"2026-08-06","acq_time":"1217","satellite":"N21","instrument":"VIIRS","confidence":"n","version":"2.0NRT","bright_ti5":"308.92","frp":"11.97","daynight":"D","commune":"Varenne-Saint-Germain","code_insee":"71557","departement":"Saône-et-Loire","region":"Bourgogne-Franche-Comté"}},{"type":"Feature","geometry":{"type":"Point","coordinates":[4.01402,46.42227]},"properties":{"latitude":"46.42227","longitude":"4.01402","bright_ti4":"349.6","scan":"0.45","track":"0.39","acq_date":"2026-08-06","acq_time":"1217","satellite":"N21","instrument":"VIIRS","confidence":"n","version":"2.0NRT","bright_ti5":"309.94","frp":"11.97","daynight":"D","commune":"Saint-Yan","code_insee":"71491","departement":"Saône-et-Loire","region":"Bourgogne-Franche-Comté"}},{"type":"Feature","geometry":{"type":"Point","coordinates":[6.63132,47.98453]},"properties":{"latitude":"47.98453","longitude":"6.63132","bright_ti4":"336.8","scan":"0.39","track":"0.36","acq_date":"2026-08-06","acq_time":"1217","satellite":"N21","instrument":"VIIRS","confidence":"n","version":"2.0NRT","bright_ti5":"301.54","frp":"5.48","daynight":"D","commune":"Dommartin-lès-Remiremont","code_insee":"88148","departement":"Vosges","region":"Grand Est"}},{"type":"Feature","geometry":{"type":"Point","coordinates":[6.63013,47.98778]},"properties":{"latitude":"47.98778","longitude":"6.63013","bright_ti4":"342.29","scan":"0.39","track":"0.36","acq_date":"2026-08-06","acq_time":"1217","satellite":"N21","instrument":"VIIRS","confidence":"n","version":"2.0NRT","bright_ti5":"304.53","frp":"5.22","daynight":"D","commune":"Dommartin-lès-Remiremont","code_insee":"88148","departement":"Vosges","region":"Grand Est"}},{"type":"Feature","geometry":{"type":"Point","coordinates":[7.53181,49.05614]},"properties":{"latitude":"49.05614","longitude":"7.53181","bright_ti4":"333.78","scan":"0.38","track":"0.36","acq_date":"2026-08-06","acq_time":"1217","satellite":"N21","instrument":"VIIRS","confidence":"n","version":"2.0NRT","bright_ti5":"304.46","frp":"5.34","daynight":"D","commune":"Haspelschiedt","code_insee":"57301","departement":"Moselle","region":"Grand Est"}},{"type":"Feature","geometry":{"type":"Point","coordinates":[5.00616,49.70824]},"properties":{"latitude":"49.70824","longitude":"5.00616","bright_ti4":"347.53","scan":"0.4","track":"0.37","acq_date":"2026-08-06","acq_time":"1217","satellite":"N21","instrument":"VIIRS","confidence":"n","version":"2.0NRT","bright_ti5":"300.71","frp":"13.91","daynight":"D","commune":"Daigny","code_insee":"08136","departement":"Ardennes","region":"Grand Est"}},{"type":"Feature","geometry":{"type":"Point","coordinates":[3.48078,50.4699]},"properties":{"latitude":"50.4699","longitude":"3.48078","bright_ti4":"338.04","scan":"0.42","track":"0.37","acq_date":"2026-08-06","acq_time":"1217","satellite":"N21","instrument":"VIIRS","confidence":"n","version":"2.0NRT","bright_ti5":"306.91","frp":"5.34","daynight":"D","commune":"Nivelle","code_insee":"59434","departement":"Nord","region":"Hauts-de-France"}},{"type":"Feature","geometry":{"type":"Point","coordinates":[2.29301,51.0351]},"properties":{"latitude":"51.0351","longitude":"2.29301","bright_ti4":"336.39","scan":"0.44","track":"0.38","acq_date":"2026-08-06","acq_time":"1217","satellite":"N21","instrument":"VIIRS","confidence":"l","version":"2.0NRT","bright_ti5":"307.49","frp":"6.47","daynight":"D","commune":"Grande-Synthe","code_insee":"59271","departement":"Nord","region":"Hauts-de-France"}},{"type":"Feature","geometry":{"type":"Point","coordinates":[2.29573,51.04301]},"properties":{"latitude":"51.04301","longitude":"2.29573","bright_ti4":"337.55","scan":"0.44","track":"0.38","acq_date":"2026-08-06","acq_time":"1217","satellite":"N21","instrument":"VIIRS","confidence":"l","version":"2.0NRT","bright_ti5":"310.64","frp":"7.93","daynight":"D","commune":"Grande-Synthe","code_insee":"59271","departement":"Nord","region":"Hauts-de-France"}},{"type":"Feature","geometry":{"type":"Point","coordinates":[2.31961,51.04763]},"properties":{"latitude":"51.04763","longitude":"2.31961","bright_ti4":"335.32","scan":"0.43","track":"0.38","acq_date":"2026-08-06","acq_time":"1217","satellite":"N21","instrument":"VIIRS","confidence":"n","version":"2.0NRT","bright_ti5":"304.78","frp":"7.87","daynight":"D","commune":"Dunkerque","code_insee":"59183","departement":"Nord","region":"Hauts-de-France"}}]}